{"type":"Topology","arcs":[[[7722,4846],[205,0],[0,62],[34,-10],[12,-86],[24,-15],[97,-24],[51,14],[139,-94],[70,31],[13,-24],[57,3],[16,-45],[-89,-45],[-58,-67],[-60,-54],[5,-16]],[[8238,4476],[-28,-7],[0,-95],[-42,-31],[-15,-27],[22,-45],[-11,-24],[-4,-84],[25,-30],[58,-35],[7,-21],[45,-37],[19,-37],[3,-44]],[[8317,3959],[-273,0],[-245,0]],[[7799,3959],[-1,291],[-36,56],[26,46]],[[7788,4352],[-4,62],[-19,51],[-6,151],[-29,96],[5,81],[-13,53]],[[9478,3349],[198,0],[167,0]],[[9843,3349],[9,-204],[64,-1]],[[9916,3144],[-19,-69]],[[9897,3075],[-43,-12]],[[9854,3063],[-25,-7],[-41,94],[-2,-87]],[[9786,3063],[-25,32],[-34,11],[-36,40],[28,53]],[[9719,3199],[13,16],[-21,7]],[[9711,3222],[-34,23],[-25,39]],[[9652,3284],[-11,43],[-25,14],[-100,-32],[-39,-43],[1,83]],[[7151,2829],[136,0],[161,0],[0,-313],[30,-29],[42,1],[8,-28],[45,-13],[63,-5],[23,-41],[19,23],[23,-27],[48,20],[59,-41],[21,22],[91,21],[38,-36],[35,-16]],[[7993,2367],[44,-14],[0,-86]],[[8037,2267],[0,-165],[21,-66],[29,-65],[1,-42],[-20,-61],[3,-79],[-23,-41],[9,-18]],[[8057,1730],[-21,-3],[-53,-33],[-78,-97],[-81,-59],[-68,-76],[-41,-97],[-8,-59],[23,-176],[-27,-21],[-37,34],[-40,1],[-90,59],[-32,119],[-12,73],[-29,27],[-8,30],[-34,46],[-40,137],[-72,103],[-89,22],[-37,-22],[-19,-80],[-41,-42],[-50,44],[-35,20],[-39,48],[-13,38],[-3,48],[-30,75],[-31,23],[-85,103],[-35,53]],[[6802,2068],[-9,35],[196,0],[156,0],[2,335],[0,178],[4,213]],[[8872,2584],[127,1]],[[8999,2585],[120,2]],[[9119,2587],[-23,-51],[46,-34],[31,-85],[63,-78],[17,-50],[25,-22],[10,-67],[20,-22],[8,-57],[23,-13]],[[9339,2108],[-25,-50],[-17,-83],[-10,-13],[-4,-67]],[[9283,1895],[-49,19],[-27,-43],[-262,24],[-14,46]],[[8931,1941],[-10,30],[6,58],[-9,48],[8,48],[16,20],[-29,97],[-41,342]],[[9897,3075],[-31,-45],[-26,-89],[-21,15],[9,45],[26,62]],[[9786,3063],[11,-85],[-14,-32],[12,-42],[27,-7],[13,-60]],[[9835,2837],[-262,-1],[-176,0],[-137,7]],[[9260,2843],[-197,2]],[[9063,2845],[53,23],[40,60],[37,24],[38,44]],[[9231,2996],[12,-40],[29,-13],[63,16],[62,37],[0,24],[50,95],[14,52],[35,-29],[29,69],[23,8],[35,43],[7,50],[51,-54],[11,30]],[[9711,3222],[8,-23]],[[8297,3455],[8,38],[21,9],[17,46],[-16,48],[8,28],[68,28],[16,34],[2,48],[-48,65]],[[8373,3799],[192,-3],[90,0]],[[8655,3796],[-4,-31],[31,-95]],[[8682,3670],[0,-190],[-1,-191],[-9,-40],[12,-56],[-52,-117],[0,-37]],[[8632,3039],[-3,-51],[-40,-14],[-1,-53],[-45,25],[-20,-39]],[[8523,2907],[-23,10],[-13,45],[-3,60],[-69,64],[-15,37],[26,85],[-54,12],[-7,54],[-63,76],[-15,71],[10,34]],[[8238,4476],[84,22],[74,-45]],[[8396,4453],[29,-37],[102,-32],[28,-18],[68,-16],[34,-40],[-9,-52],[27,-42]],[[8675,4216],[-39,-60],[21,-13],[51,71],[20,0],[-38,-80],[-29,-115],[3,-31],[-18,-60],[-1,-47],[13,-38],[-3,-47]],[[8373,3799],[-49,63],[8,57],[-15,40]],[[9283,1895],[19,-150],[29,-103],[37,-88],[4,-89],[16,-50],[34,-142],[-7,-168],[-19,-33],[-5,-74],[-45,5],[-27,-11],[-6,47],[-24,59],[-34,21],[-19,86],[-26,6],[-8,46],[-42,109],[-15,68],[-2,51],[20,60],[-16,90],[-34,30],[-51,102],[-38,29],[-22,-7],[-27,-40],[-48,-36],[-30,12],[-3,42],[-61,57],[-63,20],[-88,-19]],[[8682,1825],[12,61],[-19,55],[168,-1],[88,1]],[[9247,903],[36,40],[20,-23],[-56,-17]],[[8297,3455],[-31,38],[-139,-5],[-138,-2],[-122,2]],[[7867,3488],[-16,141],[-14,54],[-28,61],[-9,52]],[[7800,3796],[-18,46],[18,54],[-1,63]],[[8523,2907],[-3,-52],[-37,-26]],[[8483,2829],[1,-25],[-21,-56]],[[8463,2748],[-62,0],[30,49],[-9,31],[-217,1],[-225,0]],[[7980,2829],[0,80]],[[7980,2909],[1,342],[-19,15],[-31,56],[25,31],[-44,41]],[[7912,3394],[-34,52],[-11,42]],[[8396,4453],[58,39],[41,6],[118,98],[8,-78],[54,-30],[22,-44],[81,-3],[41,30],[110,0],[6,-32],[84,7],[4,-89],[-55,-3],[-16,-15],[-35,31],[-39,5],[-37,-26],[-36,4],[-26,-38],[-23,17],[-39,-24],[-42,-92]],[[8751,3678],[23,25],[23,55],[15,82],[-5,51],[-28,91],[3,67],[24,46],[2,57],[19,34],[67,22],[1,36],[25,49],[39,33],[52,-25],[80,-56],[12,-40],[-7,-112],[-24,-44],[-29,-16],[-7,-36],[26,-24],[27,53],[47,25],[30,-39],[11,-98],[10,-35],[-9,-60],[-35,-15],[-27,-73],[-31,-58]],[[9085,3673],[-134,-5]],[[8951,3668],[0,10],[-200,0]],[[5053,3716],[169,2],[145,-2],[103,0]],[[5470,3716],[0,-329],[0,-155],[104,-118],[125,-147],[118,-145],[184,-235]],[[6001,2587],[-1,-21],[49,-99],[-39,-53],[1,-61],[-18,-28],[4,-55],[20,-31],[-25,-20]],[[5992,2219],[-238,-30],[-15,77],[-17,41],[-68,79],[-26,-3],[-12,47],[-58,11],[-50,52],[-83,5],[-19,21],[1,88],[-26,20],[-77,148],[-21,22],[-8,45],[18,38],[-60,60],[-12,54],[35,23],[-77,59],[-6,43],[-70,99],[-12,73],[-2,76],[-51,69],[-4,29],[28,88],[6,73],[-15,90]],[[5861,4846],[233,0],[216,0],[248,0],[292,0],[197,0]],[[7047,4846],[1,-193],[0,-300]],[[7048,4353],[-1,-153]],[[7047,4200],[-219,0],[-233,1],[-239,0],[-1,-85]],[[6355,4116],[-27,40],[-24,-27],[-143,-14],[-12,48],[-29,12],[-3,35],[-28,43],[-23,61],[-30,-36],[-23,13],[3,76],[16,100],[-23,-1],[-39,36],[-38,63],[-38,26],[-1,45],[-32,49],[0,161]],[[8872,2584],[-257,2]],[[8615,2586],[-209,0]],[[8406,2586],[22,20],[-3,30],[16,63],[23,19],[-1,30]],[[8483,2829],[147,0],[19,21],[133,4],[171,-8],[110,-1]],[[9260,2843],[-35,-75],[-18,6],[-56,-27],[-19,-34],[-52,-35],[-27,0],[-51,-55],[-3,-38]],[[5053,3716],[-19,41],[-1,66],[-13,29],[31,116],[8,57],[18,199],[1,161],[41,19]],[[5119,4404],[43,-12],[29,-36],[4,-45],[51,-22],[45,26],[71,-10],[49,16],[38,-3],[24,16],[83,17],[14,11],[205,-1]],[[5775,4361],[45,-61],[-37,-111],[-23,-32],[-18,-55],[35,-38],[-13,-53],[0,-294]],[[5764,3717],[-173,-2],[-121,1]],[[8037,2267],[180,-1],[105,-1]],[[8322,2265],[13,-146],[-32,-49],[-18,-74],[-2,-47],[79,-8],[102,1],[-11,-45],[31,-88]],[[8484,1809],[-32,-26],[15,-23],[25,30],[26,0],[-30,-106],[28,-10],[5,-51],[-68,47],[-38,-38],[-64,-4],[-40,31],[-12,40],[-66,14],[-26,-9],[-84,39],[-66,-13]],[[9450,3760],[61,48],[29,36],[-22,47],[0,29],[52,18],[78,-5],[20,-17],[60,6],[52,40],[19,46],[-18,19],[12,45],[34,24],[68,82],[42,25],[148,-1]],[[10085,4202],[-5,-63],[9,-29],[-14,-64],[20,-82],[-3,-127]],[[10092,3837],[-22,-112]],[[10070,3725],[-6,-122],[-11,-50]],[[10053,3553],[55,-2],[81,15],[35,-10],[-107,-52],[-123,-29]],[[9994,3475],[36,80],[-79,58]],[[9951,3613],[-29,22],[-13,56],[-22,24],[-246,1],[-191,0],[0,44]],[[6355,4116],[1,-187],[-1,-212]],[[6355,3717],[-105,-1],[-191,0]],[[6059,3716],[-181,0],[-114,1]],[[5775,4361],[-12,67],[-1,214],[1,204]],[[5763,4846],[98,0]],[[8615,2586],[10,-16],[-22,-276],[-15,-202],[8,-252]],[[8596,1840],[-50,3],[-62,-34]],[[8322,2265],[9,37],[-14,48],[32,112],[31,31],[-1,32],[27,61]],[[7912,3394],[-274,0],[-172,0],[-221,0]],[[7245,3394],[0,162],[-198,-1]],[[7047,3555],[0,323]],[[7047,3878],[195,0],[186,0],[168,0],[55,-37],[9,15],[61,-2],[54,-31],[25,-27]],[[7245,3394],[1,-210],[0,-275]],[[7246,2909],[-95,1]],[[7151,2910],[-171,-1],[-126,0],[-197,1],[-104,0]],[[6553,2910],[-1,206],[1,258],[0,181]],[[6553,3555],[283,0],[211,0]],[[7047,4200],[0,-322]],[[6553,3555],[-198,0],[0,162]],[[9231,2996],[-32,24],[-33,73],[4,46]],[[9170,3139],[26,5],[12,57],[30,20],[22,56],[54,28],[30,42],[31,150]],[[9375,3497],[0,-148],[103,0]],[[34396,5484],[66,6],[-22,-37],[-44,31]],[[4091,5963],[28,26],[0,40],[45,1],[72,-89],[21,-59],[28,-38],[2,-63],[-90,-15],[-36,81],[-55,41],[14,44],[-29,31]],[[4046,6115],[50,38],[78,-15],[48,-55],[-5,-19],[-114,-25],[-14,-48],[-24,-9],[-19,133]],[[3990,6364],[35,-38],[42,-15],[37,-75],[-17,-50],[-51,-44],[-6,61],[-22,109],[-18,52]],[[3832,6304],[17,35],[67,-3],[75,-31],[10,-125],[22,-90],[-1,-71],[-90,93],[19,29],[-51,32],[-2,30],[-34,35],[-32,66]],[[2030,6196],[25,35],[52,12],[6,26],[128,106],[51,-12],[26,-37],[-66,-12],[9,-59],[-45,-96],[-111,-72],[-50,51],[-25,58]],[[779,6653],[104,26],[69,-10],[9,-62],[-77,-12],[-96,37],[-9,21]],[[743,5546],[51,23],[27,45],[-3,30],[38,12],[54,-31],[-64,-62],[-41,-5],[-45,-26],[-17,14]],[[709,7534],[270,124],[99,26],[79,-4],[-31,-59],[22,-22],[93,5],[91,-11],[35,39],[-114,119],[-106,18],[-34,74],[-129,74],[-123,49],[27,18],[10,69],[69,-2],[126,12],[100,60],[25,84],[110,81],[58,-5],[106,43],[56,38],[160,6],[61,23],[60,50],[173,-23],[48,-51],[132,15],[104,-20],[100,-68],[170,23],[110,-35],[117,-24],[65,5],[181,-35],[138,30],[87,-38],[138,-44],[0,-185],[0,-429],[1,-635],[0,-258],[100,-20],[28,25],[61,3],[-11,-43],[158,-137],[15,-53],[86,41],[23,70],[86,32],[44,-38],[7,-46],[47,-24],[23,-44],[41,-21],[45,-48],[82,-149],[50,-73],[-8,-29],[103,-75],[98,-47],[-3,-50],[13,-88],[-34,-55],[-29,-23],[-98,27],[-22,82],[-33,21],[-10,55],[-69,83],[52,20],[-48,78],[-60,31],[3,47],[-62,108],[-48,8],[-12,23],[-35,9],[-62,-8],[-85,-29],[-97,60],[-65,71],[-41,16],[-158,90],[-55,7],[-79,37],[-114,22],[-114,-18],[-118,54],[-89,11],[-61,-24],[-30,8],[-59,-72],[-44,19],[-116,1],[-78,-44],[-51,-56],[-39,-3],[-83,-38],[-22,53],[55,25],[-53,31],[44,72],[14,46],[-13,34],[100,53],[41,-26],[27,22],[-49,40],[-72,-8],[-54,-32],[-84,-87],[-37,-89],[-34,-37],[-49,-10],[-45,-40],[-18,-42],[48,-8],[42,-33],[-57,-42],[-37,-77],[-89,-29],[-23,-38],[-100,-51],[-18,-67],[-97,-37],[-29,-39],[-46,-5],[-20,-23],[6,-56],[-66,-13],[-43,-38],[-31,20],[-67,-53],[-73,-19],[-42,8],[-27,-47],[-128,-44],[-32,-35],[-46,0],[-60,-38],[-21,7],[28,63],[166,69],[67,74],[41,30],[64,19],[56,-5],[20,48],[55,43],[85,48],[65,71],[63,45],[20,148],[41,42],[-5,21],[-102,-41],[-62,40],[7,-61],[-36,-10],[-34,57],[-131,23],[-101,-59],[-5,71],[-24,42],[34,38],[-52,92],[-122,-40],[-66,6],[0,23],[-56,49],[-66,34],[37,31],[-7,59],[-57,12],[-11,57],[-46,19],[12,33],[45,6],[-4,47],[71,83],[35,74],[53,24],[74,-36],[26,3],[70,64],[115,6],[40,42],[-18,76],[-30,28],[47,36],[-58,25],[-80,-16],[-93,-47],[-55,30],[-111,-19],[-141,21],[-20,49],[-47,39],[47,31],[-103,15],[-65,39]],[[343,7197],[3,24],[84,-23],[60,20],[34,-36],[130,-29],[-15,-23],[-69,-12],[-72,17],[-62,38],[-53,-18],[-40,42]],[[0,5339],[58,12],[52,47],[16,-46],[-38,-20],[-88,7]],[[9843,3349],[37,13]],[[9880,3362],[-12,-49]],[[9868,3313],[23,-95],[21,-18],[4,-56]],[[7151,2829],[0,81]],[[7246,2909],[117,0],[171,1],[165,-1],[166,1],[115,-1]],[[7980,2829],[19,-182],[-6,-280]],[[10267,4203],[21,46],[20,1]],[[10308,4250],[11,-280],[-1,-31],[28,-51]],[[10346,3888],[-12,-31]],[[10334,3857],[-47,-28],[-115,5]],[[10172,3834],[8,137],[34,85],[-1,30],[46,34],[-5,40],[13,43]],[[1904,131],[22,39],[-6,37],[61,-38],[18,-26],[21,-68],[-62,-48],[-11,-27],[-29,21],[2,40],[-16,70]],[[1840,315],[45,3],[18,-21],[-7,-30],[-30,-4],[-4,31],[-22,21]],[[1688,422],[26,21],[25,-41],[2,-32],[-40,6],[-13,46]],[[1535,499],[20,26],[28,-16],[-4,-28],[-26,-9],[-18,27]],[[9835,2837],[15,-70],[25,-84],[-7,-60],[-60,-38],[-39,-64],[-19,17],[-41,-10],[-49,-44],[-32,-82],[-58,-1]],[[9570,2401],[-112,154],[-111,3],[-24,53],[-135,9],[-69,-33]],[[9085,3673],[61,-23],[37,-32],[46,20],[25,-4],[45,44],[76,35]],[[9375,3713],[0,-216]],[[9170,3139],[-30,54],[-39,-25],[-24,16],[-68,17],[-24,51],[-36,-3]],[[8949,3249],[2,202],[0,217]],[[8682,3670],[26,-15],[43,23]],[[8949,3249],[4,-36],[-40,-31],[-62,-65],[-11,-41],[-39,19],[-40,-41],[-45,-9],[-24,17],[-60,-23]],[[9570,2401],[-22,-13],[-36,-59],[-8,-40],[-78,-88],[-33,-21],[-54,-72]],[[7788,4352],[-120,0],[-170,0],[-257,1],[-193,0]],[[7047,4846],[182,0],[227,0],[266,0]],[[5119,4404],[-53,1],[0,76],[-33,154],[-25,44],[2,69],[59,-34],[104,-15],[24,9],[11,72],[-11,67],[100,-1],[288,0],[178,0]],[[5150,4795],[48,-3],[-12,-40],[-36,43]],[[10308,4250],[30,20],[52,74],[-4,48],[24,39],[5,43],[77,123],[32,-45],[53,29],[57,-47],[-2,-224],[39,-28],[-7,-38],[37,-25],[16,-48],[-34,-35],[-82,-34],[-31,-44],[-64,-23],[-24,-19],[-83,-29],[-53,-99]],[[10092,3837],[80,-3]],[[10334,3857],[16,-46],[-31,-37],[24,-23],[7,-41],[33,-53],[-40,-23],[-39,1]],[[10304,3635],[-25,85],[-42,-2]],[[10237,3718],[-167,7]],[[6553,2910],[-221,0],[-167,0],[-107,0]],[[6058,2910],[0,323],[1,225],[0,258]],[[10304,3635],[-73,-28]],[[10231,3607],[6,111]],[[6001,2587],[-11,178],[69,15],[-1,130]],[[6553,2910],[0,-330],[0,-352],[0,-233]],[[6553,1995],[-200,0],[-128,66],[-242,122],[9,36]],[[10085,4202],[182,1]],[[6802,2068],[-166,0],[0,-73],[-83,0]],[[9994,3475],[28,-25],[-12,-96],[-31,-63],[-47,-35],[-64,57]],[[9880,3362],[68,57],[-46,67],[5,66],[44,61]],[[10231,3607],[-106,-10],[-72,-44]],[[8682,1825],[-27,7],[-26,52],[-8,-52],[-25,8]],[[9375,3713],[75,47]]],"transform":{"scale":[0.010110369218269398,0.006196433376761814],"translate":[-175.301556,18.970399]},"objects":{"cb_2025_us_state_20m":{"type":"GeometryCollection","geometries":[{"arcs":[[0,1,2,3,4]],"type":"Polygon","properties":{"STATEFP":"27","STATENS":"00662849","GEOIDFQ":"0400000US27","GEOID":"27","STUSPS":"MN","NAME":"Minnesota","LSAD":"00","ALAND":206245435043,"AWATER":18936592419},"id":"27"},{"arcs":[[5,6,7,8,9,10,11,12,13]],"type":"Polygon","properties":{"STATEFP":"24","STATENS":"01714934","GEOIDFQ":"0400000US24","GEOID":"24","STUSPS":"MD","NAME":"Maryland","LSAD":"00","ALAND":25151298706,"AWATER":6979771758},"id":"24"},{"arcs":[[14,15,16,17,18]],"type":"Polygon","properties":{"STATEFP":"48","STATENS":"01779801","GEOIDFQ":"0400000US48","GEOID":"48","STUSPS":"TX","NAME":"Texas","LSAD":"00","ALAND":676660157338,"AWATER":19008164905},"id":"48"},{"arcs":[[19,20,21,22,23,24]],"type":"Polygon","properties":{"STATEFP":"13","STATENS":"01705317","GEOIDFQ":"0400000US13","GEOID":"13","STUSPS":"GA","NAME":"Georgia","LSAD":"00","ALAND":149487720450,"AWATER":4417264043},"id":"13"},{"arcs":[[[-9,25]],[[-11,26,27,28,29,30,-13,31]]],"type":"MultiPolygon","properties":{"STATEFP":"51","STATENS":"01779803","GEOIDFQ":"0400000US51","GEOID":"51","STUSPS":"VA","NAME":"Virginia","LSAD":"00","ALAND":102256455003,"AWATER":8529795937},"id":"51"},{"arcs":[[32,33,34,35,36,37]],"type":"Polygon","properties":{"STATEFP":"17","STATENS":"01779784","GEOIDFQ":"0400000US17","GEOID":"17","STUSPS":"IL","NAME":"Illinois","LSAD":"00","ALAND":143779367883,"AWATER":6215353468},"id":"17"},{"arcs":[[-2,38,39,40,-34,41]],"type":"Polygon","properties":{"STATEFP":"55","STATENS":"01779806","GEOIDFQ":"0400000US55","GEOID":"55","STUSPS":"WI","NAME":"Wisconsin","LSAD":"00","ALAND":140295112685,"AWATER":29340578971},"id":"55"},{"arcs":[[[-24,42,43]],[[44]]],"type":"MultiPolygon","properties":{"STATEFP":"12","STATENS":"00294478","GEOIDFQ":"0400000US12","GEOID":"12","STUSPS":"FL","NAME":"Florida","LSAD":"00","ALAND":138973813223,"AWATER":45960479273},"id":"12"},{"arcs":[[-3,-42,-33,45,46,47]],"type":"Polygon","properties":{"STATEFP":"19","STATENS":"01779785","GEOIDFQ":"0400000US19","GEOID":"19","STUSPS":"IA","NAME":"Iowa","LSAD":"00","ALAND":144660389024,"AWATER":1085298995},"id":"19"},{"arcs":[[-38,48,49,50,51,52,53,-46]],"type":"Polygon","properties":{"STATEFP":"29","STATENS":"01779791","GEOIDFQ":"0400000US29","GEOID":"29","STUSPS":"MO","NAME":"Missouri","LSAD":"00","ALAND":178052192662,"AWATER":2487934091},"id":"29"},{"arcs":[[[-40,54]],[[55,56,57]]],"type":"MultiPolygon","properties":{"STATEFP":"26","STATENS":"01779789","GEOIDFQ":"0400000US26","GEOID":"26","STUSPS":"MI","NAME":"Michigan","LSAD":"00","ALAND":146625947203,"AWATER":103860207077},"id":"26"},{"arcs":[[58,59,60,61]],"type":"Polygon","properties":{"STATEFP":"06","STATENS":"01779778","GEOIDFQ":"0400000US06","GEOID":"06","STUSPS":"CA","NAME":"California","LSAD":"00","ALAND":403676564152,"AWATER":20288505023},"id":"06"},{"arcs":[[62,63,64,65,66]],"type":"Polygon","properties":{"STATEFP":"30","STATENS":"00767982","GEOIDFQ":"0400000US30","GEOID":"30","STUSPS":"MT","NAME":"Montana","LSAD":"00","ALAND":376973522036,"AWATER":3866841435},"id":"30"},{"arcs":[[-20,67,68,69,-50,70,-29,71]],"type":"Polygon","properties":{"STATEFP":"47","STATENS":"01325873","GEOIDFQ":"0400000US47","GEOID":"47","STUSPS":"TN","NAME":"Tennessee","LSAD":"00","ALAND":106771660995,"AWATER":2344243062},"id":"47"},{"arcs":[[-59,72,73,74,75]],"type":"Polygon","properties":{"STATEFP":"41","STATENS":"01155107","GEOIDFQ":"0400000US41","GEOID":"41","STUSPS":"OR","NAME":"Oregon","LSAD":"00","ALAND":248630742196,"AWATER":6168664862},"id":"41"},{"arcs":[[-17,76,77,78]],"type":"Polygon","properties":{"STATEFP":"22","STATENS":"01629543","GEOIDFQ":"0400000US22","GEOID":"22","STUSPS":"LA","NAME":"Louisiana","LSAD":"00","ALAND":111927154861,"AWATER":23724485446},"id":"22"},{"arcs":[[79,80,81,82,83,84,85]],"type":"Polygon","properties":{"STATEFP":"36","STATENS":"01779796","GEOIDFQ":"0400000US36","GEOID":"36","STUSPS":"NY","NAME":"New York","LSAD":"00","ALAND":122049344560,"AWATER":19256566831},"id":"36"},{"arcs":[[-67,86,87,88,-75,89,90]],"type":"Polygon","properties":{"STATEFP":"16","STATENS":"01779783","GEOIDFQ":"0400000US16","GEOID":"16","STUSPS":"ID","NAME":"Idaho","LSAD":"00","ALAND":214050683201,"AWATER":2390817981},"id":"16"},{"arcs":[[-12,-32]],"type":"Polygon","properties":{"STATEFP":"11","STATENS":"01702382","GEOIDFQ":"0400000US11","GEOID":"11","STUSPS":"DC","NAME":"District of Columbia","LSAD":"00","ALAND":158318961,"AWATER":18706999},"id":"11"},{"arcs":[[-69,91,92,-78,93]],"type":"Polygon","properties":{"STATEFP":"28","STATENS":"01779790","GEOIDFQ":"0400000US28","GEOID":"28","STUSPS":"MS","NAME":"Mississippi","LSAD":"00","ALAND":121534611855,"AWATER":3914024462},"id":"28"},{"arcs":[[-47,-54,94,95,96,97]],"type":"Polygon","properties":{"STATEFP":"31","STATENS":"01779792","GEOIDFQ":"0400000US31","GEOID":"31","STUSPS":"NE","NAME":"Nebraska","LSAD":"00","ALAND":198950563271,"AWATER":1378346850},"id":"31"},{"arcs":[[-96,98,99,100,101,102]],"type":"Polygon","properties":{"STATEFP":"08","STATENS":"01779779","GEOIDFQ":"0400000US08","GEOID":"08","STUSPS":"CO","NAME":"Colorado","LSAD":"00","ALAND":268419398775,"AWATER":1185110804},"id":"08"},{"arcs":[[-66,103,-97,-103,104,-87]],"type":"Polygon","properties":{"STATEFP":"56","STATENS":"01779807","GEOIDFQ":"0400000US56","GEOID":"56","STUSPS":"WY","NAME":"Wyoming","LSAD":"00","ALAND":251458188895,"AWATER":1868027102},"id":"56"},{"arcs":[[-14,-31,105,106,107]],"type":"Polygon","properties":{"STATEFP":"54","STATENS":"01779805","GEOIDFQ":"0400000US54","GEOID":"54","STUSPS":"WV","NAME":"West Virginia","LSAD":"00","ALAND":62266655298,"AWATER":488773392},"id":"54"},{"arcs":[[[108]],[[109]],[[110]],[[111]],[[112]],[[113]],[[114]],[[115]],[[116]],[[117]],[[118]]],"type":"MultiPolygon","properties":{"STATEFP":"02","STATENS":"01785533","GEOIDFQ":"0400000US02","GEOID":"02","STUSPS":"AK","NAME":"Alaska","LSAD":"00","ALAND":1479893380150,"AWATER":244326118163},"id":"02"},{"arcs":[[-7,119,120,121]],"type":"Polygon","properties":{"STATEFP":"10","STATENS":"01779781","GEOIDFQ":"0400000US10","GEOID":"10","STUSPS":"DE","NAME":"Delaware","LSAD":"00","ALAND":5046707808,"AWATER":1399203452},"id":"10"},{"arcs":[[-15,122,-100,123,-52,124]],"type":"Polygon","properties":{"STATEFP":"40","STATENS":"01102857","GEOIDFQ":"0400000US40","GEOID":"40","STUSPS":"OK","NAME":"Oklahoma","LSAD":"00","ALAND":177664943367,"AWATER":3372936372},"id":"40"},{"arcs":[[125,126,127,128,129]],"type":"Polygon","properties":{"STATEFP":"33","STATENS":"01779794","GEOIDFQ":"0400000US33","GEOID":"33","STUSPS":"NH","NAME":"New Hampshire","LSAD":"00","ALAND":23190733491,"AWATER":1025349624},"id":"33"},{"arcs":[[[130]],[[131]],[[132]],[[133]]],"type":"MultiPolygon","properties":{"STATEFP":"15","STATENS":"01779782","GEOIDFQ":"0400000US15","GEOID":"15","STUSPS":"HI","NAME":"Hawaii","LSAD":"00","ALAND":16634436568,"AWATER":11777362694},"id":"15"},{"arcs":[[-21,-72,-28,134,135]],"type":"Polygon","properties":{"STATEFP":"37","STATENS":"01027616","GEOIDFQ":"0400000US37","GEOID":"37","STUSPS":"NC","NAME":"North Carolina","LSAD":"00","ALAND":125935547374,"AWATER":13453873497},"id":"37"},{"arcs":[[-16,-125,-51,-70,-94,-77]],"type":"Polygon","properties":{"STATEFP":"05","STATENS":"00068085","GEOIDFQ":"0400000US05","GEOID":"05","STUSPS":"AR","NAME":"Arkansas","LSAD":"00","ALAND":134658642291,"AWATER":3122591253},"id":"05"},{"arcs":[[-57,136,137,-107,138,139]],"type":"Polygon","properties":{"STATEFP":"39","STATENS":"01085497","GEOIDFQ":"0400000US39","GEOID":"39","STUSPS":"OH","NAME":"Ohio","LSAD":"00","ALAND":105824499476,"AWATER":10273857263},"id":"39"},{"arcs":[[-36,140,-58,-140,141]],"type":"Polygon","properties":{"STATEFP":"18","STATENS":"00448508","GEOIDFQ":"0400000US18","GEOID":"18","STUSPS":"IN","NAME":"Indiana","LSAD":"00","ALAND":92786782808,"AWATER":1543815569},"id":"18"},{"arcs":[[-22,-136,142]],"type":"Polygon","properties":{"STATEFP":"45","STATENS":"01779799","GEOIDFQ":"0400000US45","GEOID":"45","STUSPS":"SC","NAME":"South Carolina","LSAD":"00","ALAND":77865991519,"AWATER":5074452542},"id":"45"},{"arcs":[[-5,143,-64,144]],"type":"Polygon","properties":{"STATEFP":"38","STATENS":"01779797","GEOIDFQ":"0400000US38","GEOID":"38","STUSPS":"ND","NAME":"North Dakota","LSAD":"00","ALAND":178694402328,"AWATER":4414688315},"id":"38"},{"arcs":[[[-74,145,-90]],[[146]]],"type":"MultiPolygon","properties":{"STATEFP":"53","STATENS":"01779804","GEOIDFQ":"0400000US53","GEOID":"53","STUSPS":"WA","NAME":"Washington","LSAD":"00","ALAND":172121688057,"AWATER":12545987222},"id":"53"},{"arcs":[[-30,-71,-49,-37,-142,-139,-106]],"type":"Polygon","properties":{"STATEFP":"21","STATENS":"01779786","GEOIDFQ":"0400000US21","GEOID":"21","STUSPS":"KY","NAME":"Kentucky","LSAD":"00","ALAND":102267794436,"AWATER":2383097595},"id":"21"},{"arcs":[[-4,-48,-98,-104,-65,-144]],"type":"Polygon","properties":{"STATEFP":"46","STATENS":"01785534","GEOIDFQ":"0400000US46","GEOID":"46","STUSPS":"SD","NAME":"South Dakota","LSAD":"00","ALAND":196341986509,"AWATER":3387247814},"id":"46"},{"arcs":[[-127,147]],"type":"Polygon","properties":{"STATEFP":"23","STATENS":"01779787","GEOIDFQ":"0400000US23","GEOID":"23","STUSPS":"ME","NAME":"Maine","LSAD":"00","ALAND":79888899089,"AWATER":11744562992},"id":"23"},{"arcs":[[-82,148,-129,149,150,151]],"type":"Polygon","properties":{"STATEFP":"25","STATENS":"00606926","GEOIDFQ":"0400000US25","GEOID":"25","STUSPS":"MA","NAME":"Massachusetts","LSAD":"00","ALAND":20204475228,"AWATER":7130575380},"id":"25"},{"arcs":[[-88,-105,-102,152,153]],"type":"Polygon","properties":{"STATEFP":"49","STATENS":"01455989","GEOIDFQ":"0400000US49","GEOID":"49","STUSPS":"UT","NAME":"Utah","LSAD":"00","ALAND":213921693698,"AWATER":5963352640},"id":"49"},{"arcs":[[-151,154,155]],"type":"Polygon","properties":{"STATEFP":"44","STATENS":"01219835","GEOIDFQ":"0400000US44","GEOID":"44","STUSPS":"RI","NAME":"Rhode Island","LSAD":"00","ALAND":2677770297,"AWATER":1323680040},"id":"44"},{"arcs":[[-61,156,-153,157,158]],"type":"Polygon","properties":{"STATEFP":"04","STATENS":"01779777","GEOIDFQ":"0400000US04","GEOID":"04","STUSPS":"AZ","NAME":"Arizona","LSAD":"00","ALAND":294366238828,"AWATER":853868947},"id":"04"},{"arcs":[[-60,-76,-89,-154,-157]],"type":"Polygon","properties":{"STATEFP":"32","STATENS":"01779793","GEOIDFQ":"0400000US32","GEOID":"32","STUSPS":"NV","NAME":"Nevada","LSAD":"00","ALAND":284537074263,"AWATER":1839852286},"id":"32"},{"arcs":[[-81,159,-130,-149]],"type":"Polygon","properties":{"STATEFP":"50","STATENS":"01779802","GEOIDFQ":"0400000US50","GEOID":"50","STUSPS":"VT","NAME":"Vermont","LSAD":"00","ALAND":23872664356,"AWATER":1030573104},"id":"50"},{"arcs":[[-19,160,-158,-101,-123]],"type":"Polygon","properties":{"STATEFP":"35","STATENS":"00897535","GEOIDFQ":"0400000US35","GEOID":"35","STUSPS":"NM","NAME":"New Mexico","LSAD":"00","ALAND":314198529853,"AWATER":726526491},"id":"35"},{"arcs":[[-53,-124,-99,-95]],"type":"Polygon","properties":{"STATEFP":"20","STATENS":"00481813","GEOIDFQ":"0400000US20","GEOID":"20","STUSPS":"KS","NAME":"Kansas","LSAD":"00","ALAND":211754288230,"AWATER":1345197050},"id":"20"},{"arcs":[[-85,161,-121,162]],"type":"Polygon","properties":{"STATEFP":"34","STATENS":"01779795","GEOIDFQ":"0400000US34","GEOID":"34","STUSPS":"NJ","NAME":"New Jersey","LSAD":"00","ALAND":19049443028,"AWATER":3533161265},"id":"34"},{"arcs":[[-83,-152,-156,163]],"type":"Polygon","properties":{"STATEFP":"09","STATENS":"01779780","GEOIDFQ":"0400000US09","GEOID":"09","STUSPS":"CT","NAME":"Connecticut","LSAD":"00","ALAND":12542101087,"AWATER":1816013585},"id":"09"},{"arcs":[[-25,-44,164,-92,-68]],"type":"Polygon","properties":{"STATEFP":"01","STATENS":"01779775","GEOIDFQ":"0400000US01","GEOID":"01","STUSPS":"AL","NAME":"Alabama","LSAD":"00","ALAND":131186429591,"AWATER":4580729056},"id":"01"},{"arcs":[[-6,-108,-138,165,-86,-163,-120]],"type":"Polygon","properties":{"STATEFP":"42","STATENS":"01779798","GEOIDFQ":"0400000US42","GEOID":"42","STUSPS":"PA","NAME":"Pennsylvania","LSAD":"00","ALAND":115882017582,"AWATER":3397072484},"id":"42"}]}}}