{"type":"Topology","arcs":[[[726,872],[12,28],[-22,47],[1,28],[-19,29],[7,40],[49,38],[6,32],[66,30],[-15,42],[-42,24],[-8,25],[10,26],[33,29],[14,43],[40,16],[-30,50],[-31,9],[8,70],[12,36],[-11,14],[25,35],[-11,38],[-24,0],[-19,27],[46,75],[11,45],[-42,5],[-10,27]],[[782,1780],[45,-2],[-4,60]],[[823,1838],[51,-11],[12,23],[51,4],[37,19],[-21,28],[41,40],[14,53],[42,-11],[27,16],[-7,37],[37,0]],[[1107,2036],[32,8],[50,-1],[34,-35],[22,-39],[56,-34],[39,0]],[[1340,1935],[0,-468],[26,0]],[[1366,1467],[16,-62],[-30,-76],[-22,-74],[-20,-37],[12,-34],[42,-52],[29,-16],[47,-49],[23,-45],[7,-36],[33,-19],[14,-23],[33,-10],[11,-18],[36,-13],[69,-47],[15,-39],[6,-45],[-9,-48],[-30,-83],[-26,-24],[-18,-42],[3,-37],[21,-22],[-6,-29],[32,-44],[69,-20],[-1,-31],[-50,-38],[-41,-7],[-14,-49],[-20,-26],[1,-40],[-22,-24],[-42,-5],[-20,-13],[3,-31],[67,2],[11,-16],[-103,-31],[0,-6],[-98,-22],[-123,-35],[-118,-19],[-102,-21],[-59,-4],[-137,6],[-56,-2],[-103,-11],[6,13],[89,10],[28,39],[20,10],[67,-42],[52,2],[66,26],[47,0],[31,16],[33,48],[-40,45],[-57,40],[-33,40],[-11,42],[-44,14],[-64,49],[-22,116],[-26,24],[49,103],[2,54],[-17,38],[4,57],[-14,21],[-6,41],[-48,19],[-46,36],[-36,11]],[[2591,4014],[-8,-49],[15,-14],[31,13],[28,50],[-14,56],[1,42],[49,-6],[36,29],[14,-3],[-2,-59],[12,-21],[51,-10],[36,39],[3,38],[56,18],[5,-60],[31,-24],[21,26],[61,-22],[16,-47],[56,11]],[[3089,4021],[35,-36],[-24,-61],[7,-32],[41,-4],[78,-57],[4,-367]],[[3230,3464],[2,-165],[-67,2]],[[3165,3301],[-259,-2],[-213,-3],[-168,0]],[[2525,3296],[-2,139],[3,25],[-78,-1]],[[2448,3459],[-2,336],[153,-1],[-50,34],[-34,53],[9,26],[50,41],[-38,7],[0,37],[55,22]],[[3005,8195],[35,-90],[44,-31],[48,-12],[24,15],[46,-8],[18,28],[37,10],[9,41],[27,-12],[16,16],[33,-26],[16,37],[21,19],[12,101],[-37,13]],[[3354,8296],[279,0],[-2,-124],[15,-1],[66,-39],[-4,-30],[27,-61],[40,21]],[[3775,8062],[-83,-91],[7,-431]],[[3699,7540],[1,-27],[-96,2],[-52,-20],[-161,-147]],[[3391,7348],[-165,200],[-69,103]],[[3157,7651],[-10,57],[-28,26],[-163,4]],[[2956,7738],[1,125],[44,321],[4,11]],[[3829,4164],[43,15],[16,24],[33,17],[16,-16],[35,24],[58,-12],[19,15],[19,50],[-25,22]],[[4043,4303],[139,2],[-2,165],[134,1],[26,27]],[[4340,4498],[1,-27],[53,1],[1,-27],[268,-135],[79,0],[7,-165]],[[4749,4145],[-1,-175],[2,-157]],[[4750,3813],[-252,-3],[-286,0],[-119,-2],[-35,27],[-2,86],[-25,13],[-8,-45],[-32,-1]],[[3991,3888],[-55,53],[-7,41],[-16,18],[-32,5],[-21,67],[-18,27],[6,35],[-19,30]],[[1107,2036],[-21,16],[-5,52],[42,55],[13,-55],[37,19],[-5,58],[31,51],[32,13],[31,29],[41,3],[28,-28],[34,2],[39,43],[18,59],[-4,32],[-61,35],[-23,36],[32,16],[53,49],[-3,273],[80,1],[-4,221],[27,-1],[0,29]],[[1519,3044],[426,4],[23,-5],[80,0],[400,4]],[[2448,3047],[1,-147]],[[2449,2900],[-43,-13],[-87,-53],[-55,-11],[-42,11],[-15,-26],[8,-52],[-36,-21],[-20,-26],[-68,-19],[-3,-53],[-13,-52],[-24,-52],[-11,-47],[4,-26],[-68,-121],[-32,-7],[-61,-62],[-12,-20],[-32,-17],[-35,-45],[-21,-43],[-22,-9],[-21,-62],[-52,-32],[-43,-46],[-11,-30]],[[1634,1966],[-96,-1],[-29,-21],[-24,-2],[-57,-39],[-88,32]],[[587,8851],[73,27],[31,-4],[90,-41],[37,-34],[20,-33],[26,-81],[92,-79],[40,-41],[45,-17],[73,6],[48,24],[35,47],[146,50],[38,22],[14,21],[88,20],[59,-34],[57,-12],[37,-15]],[[1636,8677],[-13,-50],[29,-13],[-18,-29],[-9,-65],[10,-17],[-37,-23],[12,-40],[-10,-50],[-54,-2],[-6,-38],[-26,-21],[-15,-42],[11,-16],[-35,-36]],[[1475,8235],[-319,9],[-374,8],[-261,11]],[[521,8263],[33,270],[33,318]],[[264,5810],[46,466]],[[310,6276],[302,-9],[211,-10]],[[823,6257],[165,2]],[[988,6259],[3,-157],[2,-547]],[[993,5555],[-30,-25],[-31,-2],[-110,-59],[-34,-58],[-27,1],[-63,-26],[-40,-52],[-41,29],[-12,-30],[-46,10],[-54,-12],[-21,-31],[-13,-44]],[[471,5256],[-263,-9]],[[208,5247],[56,563]],[[3829,4164],[-31,-4],[-6,-22],[-47,11],[-18,18],[-44,-8],[-36,23],[-59,21],[-18,30],[-20,-8],[-23,42],[-33,39],[-38,13],[-14,-34],[-43,-13],[-15,-16],[-14,-60],[12,-44],[-55,36],[-82,-10],[-23,-33]],[[3222,4145],[-3,564]],[[3219,4709],[0,82],[60,6]],[[3279,4797],[60,0],[0,27],[27,0],[0,-27],[488,2]],[[3854,4799],[199,-1],[-3,-32],[-18,-18],[-2,-35],[-20,-19],[-7,-41],[37,-57],[-10,-85],[14,-104],[-9,-59],[8,-45]],[[3775,8062],[49,-1],[35,9],[65,37],[37,49],[239,188],[145,227],[30,1],[21,19],[40,84],[12,62],[14,4],[54,50]],[[4516,8791],[34,-209],[43,-239],[11,-67],[21,-122]],[[4625,8154],[-48,-46],[-51,-30],[-4,-84],[-15,-30],[-35,-35],[-38,-74],[-44,-9],[-18,-35],[-154,-160],[-55,0],[1,-37],[-55,10],[0,-85]],[[4109,7539],[-257,-1],[-153,2]],[[2591,4014],[12,26],[-12,31],[-45,56],[-2,29],[32,14],[-39,29],[-32,58],[-32,83],[-25,46],[13,58],[-18,77],[-1,40],[-13,28],[2,38]],[[2431,4627],[158,-8],[161,4],[-1,83],[470,3]],[[3222,4145],[-21,-14],[-54,-13],[-5,-33],[-22,-26],[-25,-6],[-6,-32]],[[4400,3141],[14,59],[69,94],[27,69],[117,4],[0,28],[131,1],[-3,70],[5,166],[27,14]],[[4787,3646],[238,3],[19,-55],[17,-6],[21,-39],[40,-26],[16,-38],[202,2]],[[5340,3487],[2,-99],[-21,-36],[4,-39],[-33,-25],[12,-34],[-30,-26],[-25,-62],[-29,-1],[6,-32],[-17,-33],[-3,-37],[14,-20],[0,-69],[-13,-22],[22,-35]],[[5229,2917],[-33,21],[-43,-37],[-48,-24],[-5,-58],[-10,-15],[-185,6],[-127,2],[-1,-166]],[[4777,2646],[-131,2],[-98,-4],[-290,0]],[[4258,2644],[29,27],[22,53],[-1,54],[33,112],[33,20],[15,40],[-15,51],[9,53],[-14,34],[31,53]],[[471,5256],[10,-79],[-36,9],[21,-51],[-33,7],[-14,-34],[24,-13],[15,-74],[39,-36],[-19,-29],[31,-24],[23,15],[16,-29],[37,-41],[40,16],[14,-23],[-23,-37],[-37,13],[-11,-16],[13,-60],[31,-36],[-6,-22],[-48,-22],[36,-26],[54,15],[9,-55],[-13,-41],[-28,-4],[0,-36],[40,-51],[68,15],[51,19],[76,41],[37,-34],[38,13],[33,0],[29,-30],[-65,8],[-25,-33],[37,-39],[2,-52],[32,-23]],[[969,4377],[0,-32],[-75,15],[-20,-10],[-49,-51],[-17,-39],[-30,-25],[-30,-4],[-58,-41],[-17,-44],[-6,-63],[42,-13],[40,-44],[36,-5],[63,-64]],[[848,3957],[-362,-5],[-171,-1],[-234,2]],[[81,3953],[27,266],[24,245],[32,321],[32,344],[12,118]],[[4258,2644],[-64,0]],[[4194,2644],[-329,2],[-228,-3]],[[3637,2643],[-53,-2],[2,22],[49,66],[-2,243],[-80,-1],[0,33],[26,46],[1,72],[14,42],[-2,72],[-26,68]],[[3566,3304],[306,2],[-2,159]],[[3870,3465],[33,6],[100,1],[28,-14],[2,-111],[13,-41],[147,0],[-2,-165],[209,0]],[[2525,3296],[-80,-1],[3,-248]],[[1519,3044],[-186,-4],[-1,82],[-19,11],[-53,-1],[-1,220]],[[1259,3352],[-1,20],[71,6],[-2,241],[159,1],[-2,231],[15,21],[65,-2]],[[1564,3870],[44,8],[34,-47],[44,-13],[9,-27],[22,-2],[17,-49],[51,3],[14,-28],[48,-33],[21,-36],[23,1],[46,-86],[47,-21],[19,-39],[24,-13],[-3,-30],[424,1]],[[969,4377],[13,28],[35,-6],[15,-37]],[[1032,4362],[132,0],[-1,-82],[320,2]],[[1483,4282],[0,-331],[80,0]],[[1563,3951],[1,-81]],[[1259,3352],[-142,-3],[-492,0]],[[625,3349],[-34,6],[-35,45],[5,78],[29,22],[39,-15],[39,37],[-10,39],[26,82],[21,-2],[23,78],[-8,31],[8,34],[-12,29],[9,51],[-15,45],[80,24],[58,24]],[[993,5555],[-2,-113],[12,0],[-1,-145],[189,0],[-7,-20]],[[1184,5277],[5,-40],[-24,0],[-30,-38],[27,-31],[-18,-26],[-27,-1],[-26,-29],[21,-21],[-10,-19],[-40,-1],[-45,-34],[-14,-29],[-1,-47],[19,-7],[10,-50],[-13,-30],[-48,-42],[-12,-29],[58,17],[23,-26],[1,-35],[-21,0],[-15,-40],[25,-11],[16,15],[28,-61],[-11,-31],[9,-23],[28,-8],[28,18],[14,-14],[-16,-35],[-32,16],[-62,-15],[24,-45],[21,-10],[56,15],[18,-42],[-38,-38],[-31,28],[-7,-34],[-23,-16],[5,-29],[-24,-37]],[[4749,4145],[163,2],[-6,109],[345,6],[84,3],[-2,68],[93,2]],[[5426,4335],[10,-46],[2,-67],[34,-14],[13,-39],[-25,-20],[-11,-60],[22,-5],[-50,-62],[4,-44],[106,-45],[17,-24],[53,-46],[-19,-7],[-34,-50],[-11,-23],[-66,-1],[12,-44],[-69,-25],[-58,-73],[-25,-21],[26,-86],[-17,-46]],[[4787,3646],[-27,0],[-10,167]],[[625,3349],[-12,-68],[-25,21],[-38,-28],[30,-20],[22,-34],[-1,-21],[-64,-11],[-19,-77],[-27,-23],[-33,-72],[23,-48],[11,-43],[25,-26],[59,15],[18,-44],[8,-72]],[[602,2798],[-289,-2],[-299,-1]],[[14,2795],[-14,372],[54,529],[12,104],[15,153]],[[3157,7651],[-53,2],[-19,-22],[-32,6],[-6,-48],[-23,-4],[-17,-46],[-2,-36],[-37,-30],[-40,-82],[-38,1],[-46,-29],[-24,-44],[-56,-5],[8,-38],[-16,-26],[0,-35],[-81,-64],[-4,-40],[-90,-32],[-53,-33],[-11,-20],[-37,8],[-1,-32],[-59,-14],[8,-47],[-20,-33],[-49,-17]],[[2359,6891],[-45,3],[-22,13],[-1,42],[-132,2],[15,31],[-6,25],[-30,31],[-11,45],[-34,11],[-27,53]],[[2066,7147],[61,-2],[1,305],[2,277]],[[2130,7727],[0,28]],[[2130,7755],[27,-3],[179,-1],[218,-7],[402,-6]],[[782,1780],[-25,21],[-53,-56],[-62,-1],[-418,1],[0,-56],[-160,0]],[[64,1689],[-27,609],[-16,353],[-7,144]],[[602,2798],[14,-70],[-19,-10],[11,-51],[15,-26],[-8,-27],[44,-36],[37,2],[-5,-45],[95,-57],[42,-7],[30,-45],[28,-22],[-20,-46],[6,-33],[-24,-10],[30,-38],[12,-69],[23,-46],[-23,-52],[-24,8],[-9,-53],[-54,6],[13,-31],[-3,-53],[-33,-2],[17,-39],[30,-11],[20,-37],[-27,-34],[3,-26]],[[4775,2069],[67,-1],[306,-13],[143,2]],[[5291,2057],[-4,-26],[-32,-25],[-4,-33],[25,-73],[-15,-44],[10,-70],[37,-17],[34,-68],[30,-24],[11,-62],[27,-42],[3,-40],[16,-35],[-5,-25],[-377,1],[-382,-8]],[[4665,1466],[3,136],[1,249],[-157,-10],[-194,1]],[[4318,1842],[26,28],[-1,19],[36,57],[8,33],[48,15],[50,-6],[28,-15],[61,-20],[34,-1],[60,-14],[1,78],[107,-1],[-1,54]],[[2449,2900],[-1,-229],[25,-48],[34,-83],[4,-31],[44,-41],[54,-3],[160,0]],[[2769,2465],[0,-165],[41,0],[20,-64],[-13,-39],[5,-25],[-54,-60],[3,-276]],[[2771,1836],[-33,-16],[-27,21],[-43,-4],[-10,34],[14,20],[-14,56],[13,20],[-167,1],[-555,-2],[-315,0]],[[726,872],[-24,-45],[-23,-23],[-36,-8],[12,-59],[-17,-46],[-28,-29],[0,-84],[-28,-36],[-3,-31],[9,-42],[-15,-35],[4,-48],[-5,-95],[-13,-39],[-25,-42],[-65,-16],[-29,-14],[-8,36],[15,48],[-34,-5],[-12,14],[-69,28],[-61,6],[-60,36],[-30,4],[-10,-35],[-49,-36],[-14,330],[-13,365],[-21,498],[-10,220]],[[656,537],[29,29],[14,-11],[-1,-48],[-42,30]],[[228,12],[43,3],[118,27],[130,17],[37,46],[67,-57],[-54,-11],[-45,12],[-97,-3],[-164,-38],[-35,4]],[[3005,8195],[-5,30],[-40,37],[-55,-8],[-50,-53],[-29,6],[-26,58],[-32,12],[-29,-11],[-51,-53],[-58,-9]],[[2630,8204],[6,239],[3,385],[1,212]],[[2640,9040],[167,1],[232,-3],[328,1],[12,0]],[[3379,9039],[9,-36],[28,-27],[41,-24],[6,-36],[-23,-4],[-33,40],[-46,-37],[17,-21],[-11,-24],[-31,-14],[-13,-70],[32,-50],[-27,-27],[6,-121],[-29,-35],[-1,-194],[52,-43],[-2,-20]],[[3991,3888],[-105,-4],[0,-41],[-20,0],[4,-378]],[[3566,3304],[-173,-2],[-3,164],[-160,-2]],[[3356,7046],[56,83],[67,-23],[54,30],[31,-26],[38,-16],[2,-70],[28,-15],[10,-40],[47,9],[6,-43],[18,-38],[38,8],[25,-15],[-13,-29]],[[3763,6861],[19,-40],[-18,-45],[25,-36],[7,-28],[-29,-7],[-30,-32],[-87,-53],[-14,-25],[1,-44]],[[3637,6551],[-39,1],[-8,32],[-38,-3],[-1,-34],[44,-32],[13,-49],[-8,-28],[-46,-12],[19,-40],[-45,4],[-8,-13],[19,-52],[29,-24],[-57,-50],[-14,-50],[-33,-10],[-10,43],[-28,-2],[-43,-108],[-23,-17],[-39,-66],[-26,-7],[-22,-29]],[[3273,6005],[1,211],[-162,1],[0,82],[-55,0]],[[3057,6299],[-55,29],[1,111],[41,55],[0,137],[-27,28],[0,56],[-55,0]],[[2962,6715],[0,69],[88,0],[14,17],[41,5],[62,21],[14,-8],[50,30],[62,70],[28,15],[14,26],[-11,40],[37,31],[-5,15]],[[3637,6551],[149,-8],[8,-22],[31,-32],[6,-85],[41,-1],[1,-27],[313,-2],[-2,-56]],[[4184,6318],[-2,-27],[-86,-82]],[[4096,6209],[-82,0],[-1,-83],[-27,0],[-2,-111],[-27,0],[0,-27],[-55,0],[-6,-166],[-216,4],[-4,-179],[-6,-14],[-75,1],[-3,-172]],[[3592,5462],[-323,-3],[-171,0]],[[3098,5459],[48,42],[-36,44],[-1,21],[-30,38],[26,43],[40,2],[-9,40],[13,33],[35,1],[18,35],[-15,28],[63,0],[56,44],[-15,41],[8,51],[32,16],[-17,32],[-41,35]],[[3057,6299],[0,-41],[-41,0],[-27,-13],[-41,-68],[-28,-27],[-109,-2],[0,-28],[-27,1],[-14,-41],[-27,1],[0,-28],[-54,2],[0,-35],[-13,-20],[-28,1],[0,-42],[-40,2],[-40,-13],[-1,-55],[-81,2],[0,-14],[-68,-55],[0,-35],[-68,-20],[-21,-41],[-69,1]],[[2260,5731],[-60,1]],[[2200,5732],[-1,55],[-34,7],[1,21],[-62,0],[0,29],[-55,1],[0,27],[-27,1],[-1,41],[-27,0],[-1,29],[-53,14],[0,56],[-27,1],[1,28],[-29,27],[-27,2],[0,28],[-47,2],[0,27],[-33,1],[7,66],[72,-10],[26,21],[2,30]],[[1885,6236],[27,3],[27,48],[35,-2],[21,45],[-12,31],[11,39],[28,0],[0,28],[55,-1],[-1,28],[81,-1],[0,55],[55,-1],[1,55],[27,0],[-1,83],[27,28],[0,55],[27,0],[0,27],[55,-1],[-1,28],[28,-1],[0,28]],[[2375,6810],[26,0],[83,53],[195,-5],[171,-124],[3,-18],[109,-1]],[[3637,2643],[3,-152],[-20,-14],[-59,0],[1,-171]],[[3562,2306],[-106,2],[-24,28],[-5,138],[-29,-9],[-45,-40],[-17,-29],[-40,-1],[-10,-25],[-44,-42],[-2,143],[-155,-3]],[[3085,2468],[-1,246],[80,1],[4,86],[-1,248],[-2,252]],[[3391,7348],[-30,-51],[-15,-49],[-1,-115],[-26,-54],[-32,-33],[69,0]],[[2375,6810],[-1,56],[-15,25]],[[1563,3951],[80,1],[-2,332],[296,2],[20,5],[163,2],[23,28],[19,60],[16,10],[-3,58],[62,52],[-10,44],[7,42],[18,40],[-6,42],[28,82]],[[2274,4751],[1,-126],[156,2]],[[2771,1836],[0,-363],[18,-11]],[[2789,1462],[-152,4],[-222,2],[-333,3],[-36,-1],[-115,-5],[-27,4],[-538,-2]],[[3763,6861],[26,20],[43,-3],[-1,28],[41,-2],[14,54],[27,-1],[0,41],[54,12],[1,-28],[54,0],[0,70],[28,14],[110,-6],[110,-23],[3,63]],[[4273,7100],[327,-24],[-1,-27]],[[4599,7049],[-3,-99],[-109,1],[0,-28],[-55,2],[0,-56],[81,-1],[-1,-83],[-27,0],[0,-28],[-28,1],[0,-28],[-26,0],[-1,-237],[-27,-19],[0,-21],[-55,1],[1,-28],[-54,1],[-27,-26],[-3,-83],[-81,0]],[[2260,5731],[2,-153],[88,-14],[0,-114],[29,1],[-1,-38],[27,0],[0,-28],[83,-27]],[[2488,5358],[7,1],[1,-406],[-224,2]],[[2272,4955],[-319,-4],[-15,-5],[-135,-2],[0,83],[-159,-1]],[[1644,5026],[-1,244]],[[1643,5270],[161,6],[11,166],[47,74],[129,-4],[0,125],[74,68],[47,6],[0,-27],[28,0],[42,48],[18,0]],[[2130,7755],[0,121],[5,230],[3,355]],[[2138,8461],[31,-32],[55,-37],[23,4],[98,-74],[102,-63],[70,-22],[38,-22],[75,-11]],[[4777,2646],[2,-226],[-5,-112],[3,-128],[-2,-111]],[[4318,1842],[-127,2]],[[4191,1844],[2,254],[1,546]],[[988,6259],[163,-10],[109,4],[0,110],[55,2],[0,55],[74,-5],[251,-10]],[[1640,6405],[82,0],[0,-28],[82,1],[1,-139],[80,-3]],[[1643,5270],[-318,3],[-141,4]],[[823,6257],[0,254],[-8,381],[0,116]],[[815,7008],[138,-1],[194,-9],[161,1]],[[1308,6999],[0,-82],[163,-8],[6,-333],[163,-6],[0,-165]],[[2138,8461],[-31,29],[-22,43],[-51,35],[-91,40],[-48,-10]],[[1895,8598],[-28,28],[99,82],[7,346]],[[1973,9054],[585,-14],[82,0]],[[4109,7539],[4,-169],[46,27],[33,-1],[-10,-46],[94,-211],[-3,-39]],[[3379,9039],[381,-3],[318,-2],[404,-7],[34,-236]],[[1483,4282],[-2,329],[81,0],[2,166],[0,166],[80,0],[0,83]],[[2272,4955],[2,-204]],[[5140,5018],[-1,-17],[48,-26],[-22,-35],[0,-33],[25,-34],[47,-39],[-32,-24],[12,-26]],[[5217,4784],[-234,-3],[-1,-28],[-187,0],[-13,27],[-27,0],[0,-27],[-94,0],[-160,-4]],[[4501,4749],[-1,221],[1,497]],[[4501,5467],[123,3],[441,-1]],[[5065,5469],[68,-414],[7,-37]],[[4952,6179],[16,-104],[90,-565],[7,-41]],[[4501,5467],[-95,-1]],[[4406,5466],[1,200],[5,213],[6,118],[4,207]],[[4422,6204],[455,-6],[75,-19]],[[2488,5358],[-1,42],[89,-6],[335,3],[10,-29],[80,-69],[25,11],[30,-7]],[[3056,5303],[-7,-31],[18,-36],[-12,-28],[4,-78],[18,-32],[21,-13],[19,-63],[32,-8],[18,-27],[-22,-39],[6,-37],[46,-42],[22,-7],[26,-48],[34,-17]],[[1308,6999],[0,165]],[[1308,7164],[213,-11],[443,-5],[26,-17],[16,35],[32,3],[28,-22]],[[4191,1844],[-230,0],[-292,-7],[-106,-1]],[[3563,1836],[0,110],[-5,333],[4,27]],[[4625,8154],[67,-372],[14,-79],[51,-306],[11,-84],[36,-221]],[[4804,7092],[-41,-14],[-109,0],[-1,-27],[-54,-2]],[[1308,7164],[-1,233],[4,161],[-1,184]],[[1310,7742],[164,-5]],[[1474,7737],[243,-7],[186,-3],[227,0]],[[4096,6209],[-27,-13],[-1,-28],[-28,-14],[164,0],[1,27],[26,0],[1,28],[190,-5]],[[4406,5466],[-186,-4],[-316,1],[1,-28],[-54,0]],[[3851,5435],[-1,27],[-258,0]],[[3085,2468],[-43,-2],[-273,-1]],[[4340,4498],[-1,192],[27,1],[-1,28],[109,2],[0,27],[27,1]],[[5217,4784],[25,-12],[3,-92],[36,-42],[8,-23],[-26,-25],[39,-69],[20,-54],[70,-70],[34,-62]],[[4804,7092],[20,-119],[75,-471],[53,-323]],[[1636,8677],[88,9],[40,-16],[73,-87],[58,15]],[[1474,7737],[-1,250],[2,248]],[[5229,2917],[13,-56],[-12,-30],[1,-41],[52,-67],[29,-57],[26,-21],[-1,-91],[26,-56],[-6,-46],[-41,-92],[9,-72],[-15,-11],[-11,-76],[-15,-38],[9,-27],[-2,-79]],[[3563,1836],[0,-127],[5,-231],[4,-17]],[[3572,1461],[-314,0],[-206,-2],[-68,4],[-195,-1]],[[4665,1466],[-16,0],[-393,-3],[-225,-3],[-221,-1],[-238,2]],[[3854,4799],[-3,636]],[[587,8851],[-61,30],[-28,28],[-34,76],[-37,63],[-5,23],[341,-4],[208,0],[293,-5],[91,1],[277,-2],[320,-6],[21,-1]],[[3056,5303],[-4,69],[22,20],[-9,35],[33,32]],[[421,7324],[47,445]],[[468,7769],[245,-11],[302,-9],[145,-1],[150,-6]],[[815,7008],[0,194],[-56,1],[1,56],[-344,11]],[[416,7270],[5,54]],[[468,7769],[27,269],[26,225]],[[310,6276],[41,400],[65,594]]],"transform":{"scale":[0.0006399119800035685,0.0005274372175063391],"translate":[-88.473227,30.223645]},"objects":{"01":{"type":"GeometryCollection","geometries":[{"arcs":[[0,1,2,3,4,5]],"type":"Polygon","properties":{"STATEFP":"01","COUNTYFP":"003","COUNTYNS":"00161527","GEOIDFQ":"0500000US01003","GEOID":"01003","NAME":"Baldwin","NAMELSAD":"Baldwin County","STUSPS":"AL","STATE_NAME":"Alabama","LSAD":"06","ALAND":4117933903,"AWATER":1132678359},"id":"01003"},{"arcs":[[6,7,8,9,10,11]],"type":"Polygon","properties":{"STATEFP":"01","COUNTYFP":"085","COUNTYNS":"00161568","GEOIDFQ":"0500000US01085","GEOID":"01085","NAME":"Lowndes","NAMELSAD":"Lowndes County","STUSPS":"AL","STATE_NAME":"Alabama","LSAD":"06","ALAND":1854651686,"AWATER":23271386},"id":"01085"},{"arcs":[[12,13,14,15,16,17,18]],"type":"Polygon","properties":{"STATEFP":"01","COUNTYFP":"095","COUNTYNS":"00161574","GEOIDFQ":"0500000US01095","GEOID":"01095","NAME":"Marshall","NAMELSAD":"Marshall County","STUSPS":"AL","STATE_NAME":"Alabama","LSAD":"06","ALAND":1465553966,"AWATER":148475491},"id":"01095"},{"arcs":[[19,20,21,22,23,24]],"type":"Polygon","properties":{"STATEFP":"01","COUNTYFP":"087","COUNTYNS":"00161569","GEOIDFQ":"0500000US01087","GEOID":"01087","NAME":"Macon","NAMELSAD":"Macon County","STUSPS":"AL","STATE_NAME":"Alabama","LSAD":"06","ALAND":1576435599,"AWATER":11765503},"id":"01087"},{"arcs":[[-4,25,26,27,28,29]],"type":"Polygon","properties":{"STATEFP":"01","COUNTYFP":"099","COUNTYNS":"00161576","GEOIDFQ":"0500000US01099","GEOID":"01099","NAME":"Monroe","NAMELSAD":"Monroe County","STUSPS":"AL","STATE_NAME":"Alabama","LSAD":"06","ALAND":2656469674,"AWATER":22609681},"id":"01099"},{"arcs":[[30,31,32,33]],"type":"Polygon","properties":{"STATEFP":"01","COUNTYFP":"033","COUNTYNS":"00161542","GEOIDFQ":"0500000US01033","GEOID":"01033","NAME":"Colbert","NAMELSAD":"Colbert County","STUSPS":"AL","STATE_NAME":"Alabama","LSAD":"06","ALAND":1535740660,"AWATER":79162005},"id":"01033"},{"arcs":[[34,35,36,37,38,39,40]],"type":"Polygon","properties":{"STATEFP":"01","COUNTYFP":"107","COUNTYNS":"00161580","GEOIDFQ":"0500000US01107","GEOID":"01107","NAME":"Pickens","NAMELSAD":"Pickens County","STUSPS":"AL","STATE_NAME":"Alabama","LSAD":"06","ALAND":2282781604,"AWATER":22621093},"id":"01107"},{"arcs":[[-20,41,42,43,44,45]],"type":"Polygon","properties":{"STATEFP":"01","COUNTYFP":"051","COUNTYNS":"00161551","GEOIDFQ":"0500000US01051","GEOID":"01051","NAME":"Elmore","NAMELSAD":"Elmore County","STUSPS":"AL","STATE_NAME":"Alabama","LSAD":"06","ALAND":1601959017,"AWATER":99767744},"id":"01051"},{"arcs":[[-15,46,47,48,49]],"type":"Polygon","properties":{"STATEFP":"01","COUNTYFP":"049","COUNTYNS":"00161550","GEOIDFQ":"0500000US01049","GEOID":"01049","NAME":"DeKalb","NAMELSAD":"DeKalb County","STUSPS":"AL","STATE_NAME":"Alabama","LSAD":"06","ALAND":2012620260,"AWATER":4107136},"id":"01049"},{"arcs":[[-7,50,51,-43,52]],"type":"Polygon","properties":{"STATEFP":"01","COUNTYFP":"001","COUNTYNS":"00161526","GEOIDFQ":"0500000US01001","GEOID":"01001","NAME":"Autauga","NAMELSAD":"Autauga County","STUSPS":"AL","STATE_NAME":"Alabama","LSAD":"06","ALAND":1539631460,"AWATER":25677536},"id":"01001"},{"arcs":[[53,54,55,56,57,58]],"type":"Polygon","properties":{"STATEFP":"01","COUNTYFP":"005","COUNTYNS":"00161528","GEOIDFQ":"0500000US01005","GEOID":"01005","NAME":"Barbour","NAMELSAD":"Barbour County","STUSPS":"AL","STATE_NAME":"Alabama","LSAD":"06","ALAND":2292160152,"AWATER":50523213},"id":"01005"},{"arcs":[[-40,59,60,61,62]],"type":"Polygon","properties":{"STATEFP":"01","COUNTYFP":"119","COUNTYNS":"00161585","GEOIDFQ":"0500000US01119","GEOID":"01119","NAME":"Sumter","NAMELSAD":"Sumter County","STUSPS":"AL","STATE_NAME":"Alabama","LSAD":"06","ALAND":2340898909,"AWATER":24634886},"id":"01119"},{"arcs":[[-59,63,64,65,66,67]],"type":"Polygon","properties":{"STATEFP":"01","COUNTYFP":"109","COUNTYNS":"00161581","GEOIDFQ":"0500000US01109","GEOID":"01109","NAME":"Pike","NAMELSAD":"Pike County","STUSPS":"AL","STATE_NAME":"Alabama","LSAD":"06","ALAND":1740645367,"AWATER":2339145},"id":"01109"},{"arcs":[[-11,68,-27,69,70,71]],"type":"Polygon","properties":{"STATEFP":"01","COUNTYFP":"131","COUNTYNS":"00161591","GEOIDFQ":"0500000US01131","GEOID":"01131","NAME":"Wilcox","NAMELSAD":"Wilcox County","STUSPS":"AL","STATE_NAME":"Alabama","LSAD":"06","ALAND":2299540559,"AWATER":50592191},"id":"01131"},{"arcs":[[-61,72,73,74,75,-71,76,77]],"type":"Polygon","properties":{"STATEFP":"01","COUNTYFP":"091","COUNTYNS":"00161572","GEOIDFQ":"0500000US01091","GEOID":"01091","NAME":"Marengo","NAMELSAD":"Marengo County","STUSPS":"AL","STATE_NAME":"Alabama","LSAD":"06","ALAND":2530155123,"AWATER":14951685},"id":"01091"},{"arcs":[[-39,78,79,-73,-60]],"type":"Polygon","properties":{"STATEFP":"01","COUNTYFP":"063","COUNTYNS":"00161557","GEOIDFQ":"0500000US01063","GEOID":"01063","NAME":"Greene","NAMELSAD":"Greene County","STUSPS":"AL","STATE_NAME":"Alabama","LSAD":"06","ALAND":1675782055,"AWATER":33416143},"id":"01063"},{"arcs":[[-23,80,81,-55,82]],"type":"Polygon","properties":{"STATEFP":"01","COUNTYFP":"113","COUNTYNS":"00161583","GEOIDFQ":"0500000US01113","GEOID":"01113","NAME":"Russell","NAMELSAD":"Russell County","STUSPS":"AL","STATE_NAME":"Alabama","LSAD":"06","ALAND":1660653959,"AWATER":15562947},"id":"01113"},{"arcs":[[-62,-78,83,84,85]],"type":"Polygon","properties":{"STATEFP":"01","COUNTYFP":"023","COUNTYNS":"00161537","GEOIDFQ":"0500000US01023","GEOID":"01023","NAME":"Choctaw","NAMELSAD":"Choctaw County","STUSPS":"AL","STATE_NAME":"Alabama","LSAD":"06","ALAND":2365900084,"AWATER":19114321},"id":"01023"},{"arcs":[[-18,86,87,88,89,90]],"type":"Polygon","properties":{"STATEFP":"01","COUNTYFP":"043","COUNTYNS":"00161547","GEOIDFQ":"0500000US01043","GEOID":"01043","NAME":"Cullman","NAMELSAD":"Cullman County","STUSPS":"AL","STATE_NAME":"Alabama","LSAD":"06","ALAND":1902990047,"AWATER":52505884},"id":"01043"},{"arcs":[[-2,91,92,-85,93]],"type":"Polygon","properties":{"STATEFP":"01","COUNTYFP":"129","COUNTYNS":"00161590","GEOIDFQ":"0500000US01129","GEOID":"01129","NAME":"Washington","NAMELSAD":"Washington County","STUSPS":"AL","STATE_NAME":"Alabama","LSAD":"06","ALAND":2797848585,"AWATER":21524393},"id":"01129"},{"arcs":[[94,95,96,97]],"type":"Polygon","properties":{"STATEFP":"01","COUNTYFP":"069","COUNTYNS":"00161560","GEOIDFQ":"0500000US01069","GEOID":"01069","NAME":"Houston","NAMELSAD":"Houston County","STUSPS":"AL","STATE_NAME":"Alabama","LSAD":"06","ALAND":1501746884,"AWATER":4790782},"id":"01069"},{"arcs":[[-29,98,99,100]],"type":"Polygon","properties":{"STATEFP":"01","COUNTYFP":"035","COUNTYNS":"00161543","GEOIDFQ":"0500000US01035","GEOID":"01035","NAME":"Conecuh","NAMELSAD":"Conecuh County","STUSPS":"AL","STATE_NAME":"Alabama","LSAD":"06","ALAND":2202213385,"AWATER":6426488},"id":"01035"},{"arcs":[[[-1,101,-92]],[[102]],[[103]]],"type":"MultiPolygon","properties":{"STATEFP":"01","COUNTYFP":"097","COUNTYNS":"00161575","GEOIDFQ":"0500000US01097","GEOID":"01097","NAME":"Mobile","NAMELSAD":"Mobile County","STUSPS":"AL","STATE_NAME":"Alabama","LSAD":"06","ALAND":3184085284,"AWATER":1073989994},"id":"01097"},{"arcs":[[-13,104,105,106,107]],"type":"Polygon","properties":{"STATEFP":"01","COUNTYFP":"089","COUNTYNS":"00161570","GEOIDFQ":"0500000US01089","GEOID":"01089","NAME":"Madison","NAMELSAD":"Madison County","STUSPS":"AL","STATE_NAME":"Alabama","LSAD":"06","ALAND":2076184339,"AWATER":28738297},"id":"01089"},{"arcs":[[-8,-53,-42,-25,108,-67,109]],"type":"Polygon","properties":{"STATEFP":"01","COUNTYFP":"101","COUNTYNS":"00161577","GEOIDFQ":"0500000US01101","GEOID":"01101","NAME":"Montgomery","NAMELSAD":"Montgomery County","STUSPS":"AL","STATE_NAME":"Alabama","LSAD":"06","ALAND":2034060018,"AWATER":37702559},"id":"01101"},{"arcs":[[110,111,112,113,114,115]],"type":"Polygon","properties":{"STATEFP":"01","COUNTYFP":"115","COUNTYNS":"00164997","GEOIDFQ":"0500000US01115","GEOID":"01115","NAME":"St. Clair","NAMELSAD":"St. Clair County","STUSPS":"AL","STATE_NAME":"Alabama","LSAD":"06","ALAND":1635862394,"AWATER":56329029},"id":"01115"},{"arcs":[[-113,116,117,118,119,120]],"type":"Polygon","properties":{"STATEFP":"01","COUNTYFP":"121","COUNTYNS":"00161586","GEOIDFQ":"0500000US01121","GEOID":"01121","NAME":"Talladega","NAMELSAD":"Talladega County","STUSPS":"AL","STATE_NAME":"Alabama","LSAD":"06","ALAND":1908348729,"AWATER":60872243},"id":"01121"},{"arcs":[[-115,121,122,123,124,125]],"type":"Polygon","properties":{"STATEFP":"01","COUNTYFP":"073","COUNTYNS":"00161562","GEOIDFQ":"0500000US01073","GEOID":"01073","NAME":"Jefferson","NAMELSAD":"Jefferson County","STUSPS":"AL","STATE_NAME":"Alabama","LSAD":"06","ALAND":2878944657,"AWATER":32589354},"id":"01073"},{"arcs":[[-9,-110,-66,126,127,128]],"type":"Polygon","properties":{"STATEFP":"01","COUNTYFP":"041","COUNTYNS":"00161546","GEOIDFQ":"0500000US01041","GEOID":"01041","NAME":"Crenshaw","NAMELSAD":"Crenshaw County","STUSPS":"AL","STATE_NAME":"Alabama","LSAD":"06","ALAND":1576952763,"AWATER":5388562},"id":"01041"},{"arcs":[[-17,129,-116,-126,130,-87]],"type":"Polygon","properties":{"STATEFP":"01","COUNTYFP":"009","COUNTYNS":"00161530","GEOIDFQ":"0500000US01009","GEOID":"01009","NAME":"Blount","NAMELSAD":"Blount County","STUSPS":"AL","STATE_NAME":"Alabama","LSAD":"06","ALAND":1670296790,"AWATER":14822589},"id":"01009"},{"arcs":[[-12,-72,-76,131,132,-51]],"type":"Polygon","properties":{"STATEFP":"01","COUNTYFP":"047","COUNTYNS":"00161549","GEOIDFQ":"0500000US01047","GEOID":"01047","NAME":"Dallas","NAMELSAD":"Dallas County","STUSPS":"AL","STATE_NAME":"Alabama","LSAD":"06","ALAND":2534926511,"AWATER":39117865},"id":"01047"},{"arcs":[[-3,-94,-84,-77,-70,-26]],"type":"Polygon","properties":{"STATEFP":"01","COUNTYFP":"025","COUNTYNS":"00161538","GEOIDFQ":"0500000US01025","GEOID":"01025","NAME":"Clarke","NAMELSAD":"Clarke County","STUSPS":"AL","STATE_NAME":"Alabama","LSAD":"06","ALAND":3207494085,"AWATER":36657889},"id":"01025"},{"arcs":[[-5,-30,-101,133,134]],"type":"Polygon","properties":{"STATEFP":"01","COUNTYFP":"053","COUNTYNS":"00161552","GEOIDFQ":"0500000US01053","GEOID":"01053","NAME":"Escambia","NAMELSAD":"Escambia County","STUSPS":"AL","STATE_NAME":"Alabama","LSAD":"06","ALAND":2448595162,"AWATER":20024888},"id":"01053"},{"arcs":[[-112,135,136,137,-117]],"type":"Polygon","properties":{"STATEFP":"01","COUNTYFP":"015","COUNTYNS":"00161533","GEOIDFQ":"0500000US01015","GEOID":"01015","NAME":"Calhoun","NAMELSAD":"Calhoun County","STUSPS":"AL","STATE_NAME":"Alabama","LSAD":"06","ALAND":1569256904,"AWATER":16525540},"id":"01015"},{"arcs":[[-123,138,139,140,141,142]],"type":"Polygon","properties":{"STATEFP":"01","COUNTYFP":"007","COUNTYNS":"00161529","GEOIDFQ":"0500000US01007","GEOID":"01007","NAME":"Bibb","NAMELSAD":"Bibb County","STUSPS":"AL","STATE_NAME":"Alabama","LSAD":"06","ALAND":1612188713,"AWATER":9572302},"id":"01007"},{"arcs":[[-19,-91,143,144,-105]],"type":"Polygon","properties":{"STATEFP":"01","COUNTYFP":"103","COUNTYNS":"00161578","GEOIDFQ":"0500000US01103","GEOID":"01103","NAME":"Morgan","NAMELSAD":"Morgan County","STUSPS":"AL","STATE_NAME":"Alabama","LSAD":"06","ALAND":1501355216,"AWATER":50176735},"id":"01103"},{"arcs":[[-58,145,-98,146,147,-64]],"type":"Polygon","properties":{"STATEFP":"01","COUNTYFP":"045","COUNTYNS":"00161548","GEOIDFQ":"0500000US01045","GEOID":"01045","NAME":"Dale","NAMELSAD":"Dale County","STUSPS":"AL","STATE_NAME":"Alabama","LSAD":"06","ALAND":1453276163,"AWATER":4051341},"id":"01045"},{"arcs":[[-38,148,149,-124,-143,150,-79]],"type":"Polygon","properties":{"STATEFP":"01","COUNTYFP":"125","COUNTYNS":"00161588","GEOIDFQ":"0500000US01125","GEOID":"01125","NAME":"Tuscaloosa","NAMELSAD":"Tuscaloosa County","STUSPS":"AL","STATE_NAME":"Alabama","LSAD":"06","ALAND":3421019929,"AWATER":78663574},"id":"01125"},{"arcs":[[-37,151,152,153,-149]],"type":"Polygon","properties":{"STATEFP":"01","COUNTYFP":"057","COUNTYNS":"00161554","GEOIDFQ":"0500000US01057","GEOID":"01057","NAME":"Fayette","NAMELSAD":"Fayette County","STUSPS":"AL","STATE_NAME":"Alabama","LSAD":"06","ALAND":1625693253,"AWATER":4330881},"id":"01057"},{"arcs":[[-106,-145,154,155,156]],"type":"Polygon","properties":{"STATEFP":"01","COUNTYFP":"083","COUNTYNS":"00161567","GEOIDFQ":"0500000US01083","GEOID":"01083","NAME":"Limestone","NAMELSAD":"Limestone County","STUSPS":"AL","STATE_NAME":"Alabama","LSAD":"06","ALAND":1459194296,"AWATER":113413202},"id":"01083"},{"arcs":[[-16,-50,157,-136,-111,-130]],"type":"Polygon","properties":{"STATEFP":"01","COUNTYFP":"055","COUNTYNS":"00161553","GEOIDFQ":"0500000US01055","GEOID":"01055","NAME":"Etowah","NAMELSAD":"Etowah County","STUSPS":"AL","STATE_NAME":"Alabama","LSAD":"06","ALAND":1386014339,"AWATER":34925394},"id":"01055"},{"arcs":[[-14,-108,158,-47]],"type":"Polygon","properties":{"STATEFP":"01","COUNTYFP":"071","COUNTYNS":"00161561","GEOIDFQ":"0500000US01071","GEOID":"01071","NAME":"Jackson","NAMELSAD":"Jackson County","STUSPS":"AL","STATE_NAME":"Alabama","LSAD":"06","ALAND":2792044613,"AWATER":126334711},"id":"01071"},{"arcs":[[-75,159,-141,160,-132]],"type":"Polygon","properties":{"STATEFP":"01","COUNTYFP":"105","COUNTYNS":"00161579","GEOIDFQ":"0500000US01105","GEOID":"01105","NAME":"Perry","NAMELSAD":"Perry County","STUSPS":"AL","STATE_NAME":"Alabama","LSAD":"06","ALAND":1863936201,"AWATER":10902207},"id":"01105"},{"arcs":[[161,162,163,164,165]],"type":"Polygon","properties":{"STATEFP":"01","COUNTYFP":"017","COUNTYNS":"00161534","GEOIDFQ":"0500000US01017","GEOID":"01017","NAME":"Chambers","NAMELSAD":"Chambers County","STUSPS":"AL","STATE_NAME":"Alabama","LSAD":"06","ALAND":1545081616,"AWATER":16975680},"id":"01017"},{"arcs":[[166,-165,167,168,169]],"type":"Polygon","properties":{"STATEFP":"01","COUNTYFP":"111","COUNTYNS":"00161582","GEOIDFQ":"0500000US01111","GEOID":"01111","NAME":"Randolph","NAMELSAD":"Randolph County","STUSPS":"AL","STATE_NAME":"Alabama","LSAD":"06","ALAND":1503618351,"AWATER":9283013},"id":"01111"},{"arcs":[[-44,-52,-133,-161,-140,170,171]],"type":"Polygon","properties":{"STATEFP":"01","COUNTYFP":"021","COUNTYNS":"00161536","GEOIDFQ":"0500000US01021","GEOID":"01021","NAME":"Chilton","NAMELSAD":"Chilton County","STUSPS":"AL","STATE_NAME":"Alabama","LSAD":"06","ALAND":1794443235,"AWATER":20587728},"id":"01021"},{"arcs":[[-88,-131,-125,-150,-154,172,173]],"type":"Polygon","properties":{"STATEFP":"01","COUNTYFP":"127","COUNTYNS":"00161589","GEOIDFQ":"0500000US01127","GEOID":"01127","NAME":"Walker","NAMELSAD":"Walker County","STUSPS":"AL","STATE_NAME":"Alabama","LSAD":"06","ALAND":2048837427,"AWATER":36603372},"id":"01127"},{"arcs":[[-24,-83,-54,-68,-109]],"type":"Polygon","properties":{"STATEFP":"01","COUNTYFP":"011","COUNTYNS":"00161531","GEOIDFQ":"0500000US01011","GEOID":"01011","NAME":"Bullock","NAMELSAD":"Bullock County","STUSPS":"AL","STATE_NAME":"Alabama","LSAD":"06","ALAND":1613084323,"AWATER":6029813},"id":"01011"},{"arcs":[[-65,-148,174,175,-127]],"type":"Polygon","properties":{"STATEFP":"01","COUNTYFP":"031","COUNTYNS":"00161541","GEOIDFQ":"0500000US01031","GEOID":"01031","NAME":"Coffee","NAMELSAD":"Coffee County","STUSPS":"AL","STATE_NAME":"Alabama","LSAD":"06","ALAND":1758772316,"AWATER":3700803},"id":"01031"},{"arcs":[[-74,-80,-151,-142,-160]],"type":"Polygon","properties":{"STATEFP":"01","COUNTYFP":"065","COUNTYNS":"00161558","GEOIDFQ":"0500000US01065","GEOID":"01065","NAME":"Hale","NAMELSAD":"Hale County","STUSPS":"AL","STATE_NAME":"Alabama","LSAD":"06","ALAND":1667929293,"AWATER":32401180},"id":"01065"},{"arcs":[[-49,176,177,-137,-158]],"type":"Polygon","properties":{"STATEFP":"01","COUNTYFP":"019","COUNTYNS":"00161535","GEOIDFQ":"0500000US01019","GEOID":"01019","NAME":"Cherokee","NAMELSAD":"Cherokee County","STUSPS":"AL","STATE_NAME":"Alabama","LSAD":"06","ALAND":1433861819,"AWATER":120069842},"id":"01019"},{"arcs":[[-89,-174,178,179,180]],"type":"Polygon","properties":{"STATEFP":"01","COUNTYFP":"133","COUNTYNS":"00161592","GEOIDFQ":"0500000US01133","GEOID":"01133","NAME":"Winston","NAMELSAD":"Winston County","STUSPS":"AL","STATE_NAME":"Alabama","LSAD":"06","ALAND":1587662524,"AWATER":48868810},"id":"01133"},{"arcs":[[-119,181,-169,182,183]],"type":"Polygon","properties":{"STATEFP":"01","COUNTYFP":"027","COUNTYNS":"00161539","GEOIDFQ":"0500000US01027","GEOID":"01027","NAME":"Clay","NAMELSAD":"Clay County","STUSPS":"AL","STATE_NAME":"Alabama","LSAD":"06","ALAND":1564255426,"AWATER":5281615},"id":"01027"},{"arcs":[[-10,-129,184,-99,-28,-69]],"type":"Polygon","properties":{"STATEFP":"01","COUNTYFP":"013","COUNTYNS":"00161532","GEOIDFQ":"0500000US01013","GEOID":"01013","NAME":"Butler","NAMELSAD":"Butler County","STUSPS":"AL","STATE_NAME":"Alabama","LSAD":"06","ALAND":2012002548,"AWATER":2701199},"id":"01013"},{"arcs":[[-22,185,-163,186,-81]],"type":"Polygon","properties":{"STATEFP":"01","COUNTYFP":"081","COUNTYNS":"00161566","GEOIDFQ":"0500000US01081","GEOID":"01081","NAME":"Lee","NAMELSAD":"Lee County","STUSPS":"AL","STATE_NAME":"Alabama","LSAD":"06","ALAND":1573566913,"AWATER":21476665},"id":"01081"},{"arcs":[[-118,-138,-178,187,-170,-182]],"type":"Polygon","properties":{"STATEFP":"01","COUNTYFP":"029","COUNTYNS":"00161540","GEOIDFQ":"0500000US01029","GEOID":"01029","NAME":"Cleburne","NAMELSAD":"Cleburne County","STUSPS":"AL","STATE_NAME":"Alabama","LSAD":"06","ALAND":1450725401,"AWATER":2293266},"id":"01029"},{"arcs":[[-32,188,-155,-144,-90,-181,189]],"type":"Polygon","properties":{"STATEFP":"01","COUNTYFP":"079","COUNTYNS":"00161565","GEOIDFQ":"0500000US01079","GEOID":"01079","NAME":"Lawrence","NAMELSAD":"Lawrence County","STUSPS":"AL","STATE_NAME":"Alabama","LSAD":"06","ALAND":1788864897,"AWATER":68681744},"id":"01079"},{"arcs":[[-57,190,-95,-146]],"type":"Polygon","properties":{"STATEFP":"01","COUNTYFP":"067","COUNTYNS":"00161559","GEOIDFQ":"0500000US01067","GEOID":"01067","NAME":"Henry","NAMELSAD":"Henry County","STUSPS":"AL","STATE_NAME":"Alabama","LSAD":"06","ALAND":1455383133,"AWATER":16530319},"id":"01067"},{"arcs":[[-100,-185,-128,-176,191,192,-134]],"type":"Polygon","properties":{"STATEFP":"01","COUNTYFP":"039","COUNTYNS":"00161545","GEOIDFQ":"0500000US01039","GEOID":"01039","NAME":"Covington","NAMELSAD":"Covington County","STUSPS":"AL","STATE_NAME":"Alabama","LSAD":"06","ALAND":2669171988,"AWATER":34188423},"id":"01039"},{"arcs":[[-97,193,-192,-175,-147]],"type":"Polygon","properties":{"STATEFP":"01","COUNTYFP":"061","COUNTYNS":"00161556","GEOIDFQ":"0500000US01061","GEOID":"01061","NAME":"Geneva","NAMELSAD":"Geneva County","STUSPS":"AL","STATE_NAME":"Alabama","LSAD":"06","ALAND":1487908412,"AWATER":11567410},"id":"01061"},{"arcs":[[-21,-46,194,-183,-168,-164,-186]],"type":"Polygon","properties":{"STATEFP":"01","COUNTYFP":"123","COUNTYNS":"00161587","GEOIDFQ":"0500000US01123","GEOID":"01123","NAME":"Tallapoosa","NAMELSAD":"Tallapoosa County","STUSPS":"AL","STATE_NAME":"Alabama","LSAD":"06","ALAND":1855828177,"AWATER":128760802},"id":"01123"},{"arcs":[[-31,195,-156,-189]],"type":"Polygon","properties":{"STATEFP":"01","COUNTYFP":"077","COUNTYNS":"00161564","GEOIDFQ":"0500000US01077","GEOID":"01077","NAME":"Lauderdale","NAMELSAD":"Lauderdale County","STUSPS":"AL","STATE_NAME":"Alabama","LSAD":"06","ALAND":1730239535,"AWATER":133515490},"id":"01077"},{"arcs":[[-45,-172,196,-120,-184,-195]],"type":"Polygon","properties":{"STATEFP":"01","COUNTYFP":"037","COUNTYNS":"00161544","GEOIDFQ":"0500000US01037","GEOID":"01037","NAME":"Coosa","NAMELSAD":"Coosa County","STUSPS":"AL","STATE_NAME":"Alabama","LSAD":"06","ALAND":1685846963,"AWATER":39991153},"id":"01037"},{"arcs":[[197,198,-179,-173,-153,199,200]],"type":"Polygon","properties":{"STATEFP":"01","COUNTYFP":"093","COUNTYNS":"00161573","GEOIDFQ":"0500000US01093","GEOID":"01093","NAME":"Marion","NAMELSAD":"Marion County","STUSPS":"AL","STATE_NAME":"Alabama","LSAD":"06","ALAND":1922657203,"AWATER":3183480},"id":"01093"},{"arcs":[[-114,-121,-197,-171,-139,-122]],"type":"Polygon","properties":{"STATEFP":"01","COUNTYFP":"117","COUNTYNS":"00161584","GEOIDFQ":"0500000US01117","GEOID":"01117","NAME":"Shelby","NAMELSAD":"Shelby County","STUSPS":"AL","STATE_NAME":"Alabama","LSAD":"06","ALAND":2034317787,"AWATER":62250055},"id":"01117"},{"arcs":[[-33,-190,-180,-199,201]],"type":"Polygon","properties":{"STATEFP":"01","COUNTYFP":"059","COUNTYNS":"00161555","GEOIDFQ":"0500000US01059","GEOID":"01059","NAME":"Franklin","NAMELSAD":"Franklin County","STUSPS":"AL","STATE_NAME":"Alabama","LSAD":"06","ALAND":1641945980,"AWATER":32539347},"id":"01059"},{"arcs":[[202,-200,-152,-36]],"type":"Polygon","properties":{"STATEFP":"01","COUNTYFP":"075","COUNTYNS":"00161563","GEOIDFQ":"0500000US01075","GEOID":"01075","NAME":"Lamar","NAMELSAD":"Lamar County","STUSPS":"AL","STATE_NAME":"Alabama","LSAD":"06","ALAND":1566381027,"AWATER":1600679},"id":"01075"}]}}}