{"type":"Topology","arcs":[[[106,1532],[20,30],[15,-9],[79,-11],[7,7],[34,1],[20,16],[28,0],[14,8],[-5,38],[24,28],[18,8],[29,24],[5,75],[-19,24],[15,23],[-1,18],[-24,-3],[-11,38],[-19,27]],[[335,1874],[163,0],[116,2],[0,286],[0,194],[351,0],[0,-96],[353,0],[349,0]],[[1667,2260],[2,-191],[0,-272],[0,-211],[0,-290]],[[1669,1296],[0,-96],[0,-419]],[[1669,781],[-180,55],[-290,89],[-238,72],[-326,99],[-282,84],[-353,104],[7,16],[-7,17],[13,14],[10,28],[-13,12],[6,23],[-11,26],[20,5],[31,23],[18,24],[4,16],[28,44]],[[4256,2358],[73,-138],[32,-101],[85,-135],[99,-158],[21,2],[1,20],[19,6],[20,19],[14,28],[-10,19],[23,15],[25,5],[6,26],[24,2],[25,32],[29,0],[17,-9],[28,12],[72,46],[47,-4],[16,13]],[[4922,2058],[0,-226],[1,-47],[-1,-271],[0,-208],[-3,0]],[[4919,1306],[-227,0],[-217,0],[0,-3],[-352,0],[0,-11],[-239,0],[-225,0],[0,6],[-435,0],[-281,0]],[[2943,1298],[0,195],[0,285],[2,97],[0,289],[12,-28],[46,-12],[42,-30],[20,3],[15,-28],[447,0],[117,1],[-2,191],[4,0],[0,96],[350,1],[260,0]],[[2566,6263],[204,0],[555,1],[259,0],[251,0],[152,-1],[163,0],[76,2],[356,1]],[[4582,6266],[0,-172],[0,-268],[0,-216],[0,-269],[0,-410],[0,-300],[0,-239],[0,-387],[0,-354],[0,-412]],[[4582,3239],[-16,32],[-35,7],[-33,-4],[-26,-31],[-33,9],[-22,30],[-50,9],[-32,15],[-7,14],[-24,8],[-16,17],[-25,-21],[-19,7],[12,29],[-41,9],[-13,15],[-35,-13],[-24,2],[-24,21],[-51,6],[-28,25],[-10,-1],[-16,23],[-64,-27],[-49,-3],[-20,16],[-31,-19],[-4,-27],[15,-11],[-20,-12],[-19,20],[-2,33],[9,11],[-10,15],[-37,-26],[-8,-12],[-28,10],[-19,-1],[-18,-12],[-28,10],[75,37],[-12,9],[-17,-8],[-22,17],[-30,2]],[[3675,3469],[2,31],[1,151],[0,183],[-233,2],[-22,-1],[-2,17],[3,77],[0,103],[-36,-6],[-216,1],[-24,-3],[-243,0],[-109,-1],[-2,193],[-120,1],[0,122],[-34,-23],[-31,5],[-47,-7],[-40,7],[-28,27],[-21,8],[2,18],[-25,11],[-22,-10],[-21,18],[-25,4],[-38,-7],[-56,11],[-14,8],[-104,23],[-72,10],[-10,27],[-17,18],[-121,65],[-71,30],[-13,20],[-18,10],[-49,3],[-55,24],[-76,-3]],[[1668,4636],[1,301],[8,44],[18,25],[-1,33],[-26,23],[10,23],[-3,17],[13,13],[-20,20],[-16,37],[-6,30],[7,16],[19,15],[8,25],[12,10],[38,-3],[25,-10],[37,3],[26,31],[-4,16],[9,21],[48,24],[20,-9],[47,30],[48,18],[18,21],[34,11],[28,-8],[56,15],[7,13],[26,-3],[21,11],[21,20],[22,-6],[38,13],[22,-4],[7,19],[28,9],[17,16],[29,-2],[-4,26],[29,10],[19,-15],[15,5],[20,22],[2,15],[22,13],[6,20],[-9,20],[-14,7],[-1,26],[25,19],[-40,60],[6,32],[23,13],[14,29],[-2,34],[-18,52],[29,70],[-8,50],[23,28],[8,36],[8,8],[17,53],[24,19],[4,29],[18,15],[-15,38],[5,15]],[[3675,3469],[0,-36],[-25,-21],[-27,-1],[-13,-16],[-53,-21],[3,-20],[-10,-16],[4,-32],[-9,-19],[5,-24],[-21,-3],[3,-23],[-17,-13],[-9,-42],[16,-8],[-17,-32],[-16,-18],[9,-9],[238,-1],[34,-43],[-17,-18],[25,-25],[-9,-34],[-24,-4],[-3,-42]],[[3742,2948],[-260,0],[-495,53],[4,-34],[-36,-30],[-1,-14],[-24,-12],[-29,-29],[11,-5],[-4,-22],[-45,-25],[-2,-12],[-171,42],[-356,87],[-449,1],[-216,0]],[[1669,2948],[0,351]],[[1669,3299],[1,177],[-2,92],[2,251],[0,358],[0,258],[0,170],[-2,31]],[[1667,2260],[0,288],[2,400]],[[3742,2948],[33,6],[29,-10],[8,-14],[-22,-24],[6,-30],[48,-18],[-8,-38],[27,-23],[-9,-21],[27,-23],[-14,-8],[5,-23],[-11,-21],[3,-30],[31,-10],[25,-21],[7,-37],[15,-6],[35,-33],[27,-33],[28,-5],[16,-17],[19,19],[-3,15],[33,29],[31,19],[128,-233]],[[2943,1298],[-357,0],[-231,-2],[-341,0],[-345,0]],[[4922,2058],[46,-3],[9,7],[-24,21],[5,10],[-21,14],[-24,62],[7,23],[10,72],[26,6],[6,16],[21,4],[36,-7],[11,6],[14,25],[31,8],[24,-5],[22,14],[28,-6],[21,8],[15,-9],[26,15],[27,3],[-1,15],[191,1],[0,122]],[[5428,2480],[36,0],[52,-10],[25,9],[9,-9]],[[5550,2470],[27,-6],[17,-25],[22,-5],[14,-25],[24,-27],[37,-14],[24,11],[7,28],[30,16],[6,12],[26,8],[27,45],[28,1],[27,9],[7,21],[29,2],[23,14],[28,-7],[44,36]],[[5997,2564],[0,-522],[0,-113],[183,-259],[17,-1],[83,-111],[35,-68],[1,-30],[7,-20],[-15,-37],[10,-20],[-17,-45],[0,-16],[126,-113]],[[6427,1209],[-128,-2],[-230,3],[-261,-1],[-199,1],[-326,-1],[-248,0],[-115,1]],[[4920,1210],[-1,96]],[[1669,3299],[-21,-20],[-21,-9],[-35,9],[-12,-6],[-23,8],[-49,4],[-71,1],[-16,-23],[-34,-30],[-18,-28],[-30,-4],[-43,-19],[-45,-2],[-21,14],[-9,19],[-30,-4],[-19,-8],[-23,8],[-49,-14],[-15,30],[-22,4],[-28,-6],[-38,0],[-38,10],[-48,-5],[-15,14],[-14,-7],[-43,34],[-32,11],[-19,-6],[-26,9]],[[762,3283],[-22,16],[-22,35],[-25,13],[-30,5],[-44,39],[-25,4],[-16,24],[-28,12],[-19,15],[-35,-5],[-15,13],[10,54],[-3,25],[-27,44],[-36,30],[14,15],[-16,12],[-14,48],[-26,54],[-48,26],[-41,33],[-20,30],[-18,46],[-50,34],[-7,21],[7,24],[1,42],[-6,15],[7,36],[-5,12],[-4,29],[11,18],[23,16],[3,17],[-48,30],[16,17],[39,5],[22,8],[10,37],[-3,42],[-9,10],[-8,58],[-11,39],[2,30],[-12,38],[-13,24],[-10,32],[-30,24],[-12,18],[-3,23],[-14,34],[2,15],[22,22],[-6,36],[-14,17],[18,8],[7,25],[-40,44],[7,42],[-26,26],[9,24],[-4,39],[2,24],[-15,17],[19,29],[-12,19],[49,27],[-42,31],[-14,33],[-32,49],[0,41],[20,15],[-22,21],[8,8],[-22,35],[21,22],[61,5],[59,37],[22,-12],[44,21],[72,-1],[10,-26],[34,14],[28,-15],[32,22],[51,-3],[13,-16],[34,-25],[24,-25],[-6,-19],[24,-17],[23,-5],[11,-22],[31,-14],[25,2],[43,13],[25,-4],[18,23],[5,24],[21,33],[-5,21],[22,7],[33,63],[27,17],[-2,88],[3,118],[0,99],[-2,30],[-5,213],[-2,170],[0,174],[152,-1],[329,0],[395,0],[423,1],[407,0]],[[4920,1210],[0,-192],[3,0],[0,-128],[-4,-64],[1,-193],[-2,-192]],[[4918,441],[-455,0],[0,-5],[-348,-1],[1,-226],[-23,-1],[-206,1],[0,-105]],[[3887,104],[-218,68],[-237,74],[-236,73],[-301,92],[-407,123],[-293,88],[-292,86],[-234,73]],[[4582,6266],[282,1],[34,-7],[219,0],[287,1],[24,-1]],[[5428,6260],[0,-242],[0,-301],[0,-276],[0,-416],[0,-240],[195,0],[0,-160],[-19,0],[0,-158],[1,-226],[-2,-188],[2,-53],[-1,-144],[-9,0],[2,-193],[-17,-97],[19,-95],[0,-165],[-1,-219],[-11,0],[0,-385],[-37,0],[0,-232]],[[5428,2480],[0,166],[0,302],[-284,0],[-321,0],[-241,0],[0,291]],[[6427,1209],[75,0]],[[6502,1209],[0,-373],[-1,-241],[0,-259],[-2,-173],[1,-163],[-258,2],[-235,0],[-387,0],[-192,-1],[-158,1],[-360,-1]],[[4910,1],[-1,151],[0,159],[9,0],[0,130]],[[4910,1],[-379,1],[-231,-2],[-84,0],[-329,104]],[[335,1874],[-62,9],[-33,-12],[-31,6],[-13,16],[-20,-13],[-15,5],[-4,21],[-16,30],[-22,14],[13,38],[20,35],[5,69],[-17,22],[17,11],[-3,16],[-52,20],[-9,16],[23,20],[11,18],[2,27],[-10,25],[-17,16],[40,22],[33,-6],[17,4],[18,19],[5,25],[35,48],[35,19],[2,16],[39,23],[-13,19],[-5,24],[21,22],[-11,14],[9,12],[-11,15],[17,8],[-16,16],[10,18],[31,12],[0,24],[-18,17],[9,19],[-3,18],[-24,52],[9,12],[-12,33],[18,3],[12,21],[-22,18],[14,19],[-26,16],[14,34],[25,6],[69,68],[-1,39],[4,24],[22,31],[29,2],[27,10],[21,17],[26,3],[43,37],[37,4],[27,14],[5,17],[67,52],[2,11],[38,4],[-8,45]],[[6503,2074],[0,-257],[0,-220],[-1,-144],[0,-244]],[[5997,2564],[18,12],[-1,29],[21,7],[23,19],[50,-1],[32,11],[7,33],[16,28],[340,0]],[[6503,2702],[0,-169],[0,-237],[0,-222]],[[5428,6260],[422,0],[280,1],[375,0],[0,-254],[0,-264],[-1,-385],[0,-198],[0,-339],[-1,-367],[1,-125],[0,-321],[0,-208],[0,-212],[0,-212],[-1,-244],[0,-184],[0,-246]]],"transform":{"scale":[0.0008867624903920077,0.0009050714855592788],"translate":[-114.813613,31.332177]},"objects":{"04":{"type":"GeometryCollection","geometries":[{"arcs":[[0,1,2,3,4]],"type":"Polygon","properties":{"STATEFP":"04","COUNTYFP":"027","COUNTYNS":"00023901","GEOIDFQ":"0500000US04027","GEOID":"04027","NAME":"Yuma","NAMELSAD":"Yuma County","STUSPS":"AZ","STATE_NAME":"Arizona","LSAD":"06","ALAND":14280726743,"AWATER":13242852},"id":"04027"},{"arcs":[[5,6,7,8]],"type":"Polygon","properties":{"STATEFP":"04","COUNTYFP":"021","COUNTYNS":"00025447","GEOIDFQ":"0500000US04021","GEOID":"04021","NAME":"Pinal","NAMELSAD":"Pinal County","STUSPS":"AZ","STATE_NAME":"Arizona","LSAD":"06","ALAND":13899645885,"AWATER":20747212},"id":"04021"},{"arcs":[[9,10,11,12,13]],"type":"Polygon","properties":{"STATEFP":"04","COUNTYFP":"005","COUNTYNS":"00025443","GEOIDFQ":"0500000US04005","GEOID":"04005","NAME":"Coconino","NAMELSAD":"Coconino County","STUSPS":"AZ","STATE_NAME":"Arizona","LSAD":"06","ALAND":48216164929,"AWATER":116604557},"id":"04005"},{"arcs":[[-13,14,15,16,17]],"type":"Polygon","properties":{"STATEFP":"04","COUNTYFP":"025","COUNTYNS":"00042809","GEOIDFQ":"0500000US04025","GEOID":"04025","NAME":"Yavapai","NAMELSAD":"Yavapai County","STUSPS":"AZ","STATE_NAME":"Arizona","LSAD":"06","ALAND":21038297504,"AWATER":11358280},"id":"04025"},{"arcs":[[-3,18,-16,19,-9,20]],"type":"Polygon","properties":{"STATEFP":"04","COUNTYFP":"013","COUNTYNS":"00037026","GEOIDFQ":"0500000US04013","GEOID":"04013","NAME":"Maricopa","NAMELSAD":"Maricopa County","STUSPS":"AZ","STATE_NAME":"Arizona","LSAD":"06","ALAND":23833123166,"AWATER":62055787},"id":"04013"},{"arcs":[[-7,21,22,23,24,25,26]],"type":"Polygon","properties":{"STATEFP":"04","COUNTYFP":"009","COUNTYNS":"00025444","GEOIDFQ":"0500000US04009","GEOID":"04009","NAME":"Graham","NAMELSAD":"Graham County","STUSPS":"AZ","STATE_NAME":"Arizona","LSAD":"06","ALAND":11970605966,"AWATER":47476264},"id":"04009"},{"arcs":[[-14,-18,27,28]],"type":"Polygon","properties":{"STATEFP":"04","COUNTYFP":"015","COUNTYNS":"00025445","GEOIDFQ":"0500000US04015","GEOID":"04015","NAME":"Mohave","NAMELSAD":"Mohave County","STUSPS":"AZ","STATE_NAME":"Arizona","LSAD":"06","ALAND":34530032722,"AWATER":333388241},"id":"04015"},{"arcs":[[-4,-21,-8,-27,29,30,31]],"type":"Polygon","properties":{"STATEFP":"04","COUNTYFP":"019","COUNTYNS":"00025446","GEOIDFQ":"0500000US04019","GEOID":"04019","NAME":"Pima","NAMELSAD":"Pima County","STUSPS":"AZ","STATE_NAME":"Arizona","LSAD":"06","ALAND":23798602443,"AWATER":5112015},"id":"04019"},{"arcs":[[-11,32,33,-23,34]],"type":"Polygon","properties":{"STATEFP":"04","COUNTYFP":"017","COUNTYNS":"00042808","GEOIDFQ":"0500000US04017","GEOID":"04017","NAME":"Navajo","NAMELSAD":"Navajo County","STUSPS":"AZ","STATE_NAME":"Arizona","LSAD":"06","ALAND":25769074624,"AWATER":24120915},"id":"04017"},{"arcs":[[-26,35,36,37,-30]],"type":"Polygon","properties":{"STATEFP":"04","COUNTYFP":"003","COUNTYNS":"00025442","GEOIDFQ":"0500000US04003","GEOID":"04003","NAME":"Cochise","NAMELSAD":"Cochise County","STUSPS":"AZ","STATE_NAME":"Arizona","LSAD":"06","ALAND":16083494828,"AWATER":17625865},"id":"04003"},{"arcs":[[-31,-38,38]],"type":"Polygon","properties":{"STATEFP":"04","COUNTYFP":"023","COUNTYNS":"00040472","GEOIDFQ":"0500000US04023","GEOID":"04023","NAME":"Santa Cruz","NAMELSAD":"Santa Cruz County","STUSPS":"AZ","STATE_NAME":"Arizona","LSAD":"06","ALAND":3201899629,"AWATER":3068237},"id":"04023"},{"arcs":[[-2,39,-28,-17,-19]],"type":"Polygon","properties":{"STATEFP":"04","COUNTYFP":"012","COUNTYNS":"00043540","GEOIDFQ":"0500000US04012","GEOID":"04012","NAME":"La Paz","NAMELSAD":"La Paz County","STUSPS":"AZ","STATE_NAME":"Arizona","LSAD":"06","ALAND":11646086548,"AWATER":36514346},"id":"04012"},{"arcs":[[-6,-20,-15,-12,-35,-22]],"type":"Polygon","properties":{"STATEFP":"04","COUNTYFP":"007","COUNTYNS":"00040471","GEOIDFQ":"0500000US04007","GEOID":"04007","NAME":"Gila","NAMELSAD":"Gila County","STUSPS":"AZ","STATE_NAME":"Arizona","LSAD":"06","ALAND":12322068653,"AWATER":96466819},"id":"04007"},{"arcs":[[40,-36,-25,41,42]],"type":"Polygon","properties":{"STATEFP":"04","COUNTYFP":"011","COUNTYNS":"00042807","GEOIDFQ":"0500000US04011","GEOID":"04011","NAME":"Greenlee","NAMELSAD":"Greenlee County","STUSPS":"AZ","STATE_NAME":"Arizona","LSAD":"06","ALAND":4772927116,"AWATER":11947401},"id":"04011"},{"arcs":[[-24,-34,43,-42]],"type":"Polygon","properties":{"STATEFP":"04","COUNTYFP":"001","COUNTYNS":"00025441","GEOIDFQ":"0500000US04001","GEOID":"04001","NAME":"Apache","NAMELSAD":"Apache County","STUSPS":"AZ","STATE_NAME":"Arizona","LSAD":"06","ALAND":29003488072,"AWATER":54140156},"id":"04001"}]}}}