{"type":"Topology","arcs":[[[4597,1959],[54,-63],[22,13],[24,36],[48,3],[12,-47],[-21,-29],[-18,13],[-26,-16],[12,-21],[58,12],[22,-4],[24,-32],[18,29],[45,9],[23,-14],[65,8],[27,-42],[23,48],[-33,33],[3,29],[-19,41],[-37,40],[11,52],[-5,22],[34,41],[27,11],[12,22],[33,15]],[[5035,2168],[233,-1]],[[5268,2167],[49,-49],[40,8],[25,-9],[8,-23],[-22,-44],[0,-37],[-15,-28],[-33,-7],[-56,10],[-43,-14],[14,-43],[25,-34],[-14,-35],[-42,9],[-27,72],[-43,-21],[-50,32],[-10,-34],[1,-53],[16,-20],[80,-21],[19,-23],[-36,-65],[-50,-49],[-1,-53],[31,-57],[62,-28],[20,-18],[-14,-47],[-35,-7],[-40,26],[-79,-13],[-37,22],[-21,-100],[45,-51],[40,4],[42,15],[19,-16],[24,-53],[-9,-16],[-78,-26],[-61,37],[-38,58],[-73,-12],[-27,-32],[1,-25],[24,-28],[43,-7],[65,-51],[12,-36],[-12,-36],[-49,-42],[-78,-1],[-12,-13]],[[4868,1083],[-16,-15],[-1,-71],[-114,3],[-31,29],[-5,59],[-149,0]],[[4552,1088],[5,422],[-155,5]],[[4402,1515],[13,376],[119,-2],[1,56],[62,-12],[0,26]],[[2160,872],[9,312],[8,319]],[[2177,1503],[25,-2],[23,24],[58,-36],[31,17],[24,-3],[16,22],[59,23],[13,37],[55,-18]],[[2481,1567],[446,-15]],[[2927,1552],[-3,-128],[-31,-60],[-38,-25],[-28,-62],[-43,-2],[-31,-21],[-33,-2],[-11,-55],[29,-28],[6,-21],[-7,-74],[-72,-7],[-16,-31],[21,-8],[-5,-79],[19,-16],[44,9],[-3,-57],[23,-27],[4,-29],[71,9],[28,-73],[21,20],[43,-9],[14,-55],[21,-15]],[[2950,706],[-43,8],[-10,-20],[-28,-4],[-32,18],[-21,-24],[-31,19],[-48,9],[-7,23],[-58,10],[-24,-24],[-25,-5],[-265,9]],[[2358,725],[-202,6],[4,141]],[[2470,4211],[66,8],[2,309],[4,253]],[[2542,4781],[534,-14],[-3,-170]],[[3073,4597],[-5,-180],[-32,-35],[2,-35],[-34,-22],[7,-45],[-5,-31],[34,-27],[-2,-69],[-23,-49],[-47,-3]],[[2968,4101],[-27,-2],[-42,-57],[-35,-12],[-23,18],[30,19],[-11,37],[-22,-8],[-48,-65],[-58,-10],[-148,2],[-315,7]],[[2269,4030],[22,28],[-14,40],[78,11],[2,27],[34,18],[44,54],[35,3]],[[202,1821],[91,-28],[-6,35],[47,-7],[-5,-88],[69,-26],[10,-41],[17,4],[30,-24],[2,-57],[30,15],[16,-23],[56,-18],[62,7],[33,-51],[84,9],[27,-13],[65,-3],[-1,-55],[119,-5]],[[948,1452],[3,0]],[[951,1452],[-16,-29],[4,-34],[20,-23],[-24,-60],[43,-54],[29,33],[21,-26],[-1,-28],[56,-12],[5,-25],[51,-16]],[[1139,1178],[-15,-14],[-34,15],[-45,-51],[-21,21],[-18,-31],[-25,-7],[-11,-43],[-21,-1],[-8,38],[-24,-5],[10,-31],[-27,-33],[-5,47],[-22,7],[-47,-26]],[[826,1064],[-41,5],[8,29],[-23,13],[-54,-17],[-41,-2],[-20,45],[-31,11],[-18,-25],[-21,3],[-3,-39],[-19,-20],[-34,7],[16,39],[-27,11],[-24,-46],[-11,28],[-23,6],[-16,-48],[-62,18],[-5,-34],[-48,7],[-59,86],[-34,2],[-22,30],[21,15],[9,38],[-54,6],[12,589]],[[4832,6327],[26,0],[21,-65],[45,-13],[17,-23],[29,0],[20,-58],[37,-40],[47,-12],[25,-67],[13,7],[-2,45],[15,19],[353,-3]],[[5478,6117],[89,-2],[-34,-51],[0,-27],[-26,-17],[-19,-27],[-26,-12],[-7,-48],[-19,-30],[2,-33],[-25,-40],[18,-37],[-14,-30]],[[5417,5763],[-29,-85],[-1,-84],[-230,8]],[[5157,5602],[-152,10],[-86,0]],[[4919,5612],[-229,1]],[[4690,5613],[13,456],[-5,64],[3,142],[25,-1],[2,27],[103,-2],[1,28]],[[3290,1368],[85,-4],[425,-3]],[[3800,1361],[0,-339],[-46,0],[13,-58],[-14,-26],[13,-27],[-22,-31],[28,-30],[-9,-50],[17,-34]],[[3780,766],[5,-21],[39,-16],[-12,-47],[-28,-27],[20,-40],[-6,-35],[-25,4],[-9,-34],[-30,-16],[-54,-42],[-44,-43],[-38,-57],[-28,-18],[11,-25],[-13,-41]],[[3568,308],[-64,52],[6,33],[-47,-8],[-21,26],[-11,41],[12,30],[-35,-2],[-54,25],[-22,28],[-11,-27],[-26,25],[-46,10],[13,32]],[[3262,573],[-41,31],[-4,61],[8,60],[23,15],[6,31],[37,80],[11,76],[16,37],[-17,47],[10,56],[-12,38],[5,25],[-11,36],[11,59],[-8,59],[9,35],[-15,49]],[[5035,2168],[10,23],[39,29],[1,30],[-16,32],[9,46],[18,-8],[13,52],[5,60],[-18,25],[3,55],[26,26],[-2,53]],[[5123,2591],[77,-1],[4,259],[-79,3],[4,340]],[[5129,3192],[180,-4],[489,-5]],[[5798,3183],[-6,-43],[25,-52],[48,-67],[-3,-34],[-36,-32],[-19,-16],[-17,-75],[22,-90],[-13,-42],[-39,-37],[-39,-3],[-37,-64],[13,-65],[-30,-18],[-21,19],[21,94],[-61,-20],[-42,14],[-28,-19],[1,-20],[46,-70],[-2,-44],[-40,-39],[-73,22],[-24,-13],[-10,-70],[1,-42],[-24,-10],[-36,10],[-27,26],[-9,28],[-33,1],[-8,-52],[29,-43],[39,-26],[48,9],[54,-8],[13,-41],[-41,-47],[-35,3],[-49,42],[-22,9],[-70,-58],[3,-30],[1,-3]],[[0,6797],[369,0],[409,-2],[303,0]],[[1081,6795],[-1,-203],[-28,-22],[25,-21],[6,-58],[47,-56],[25,-13]],[[1155,6422],[-78,1],[-1,-141],[-26,1]],[[1050,6283],[-81,2],[-19,-28],[-21,13],[-13,-35],[-20,-2],[-10,41],[-32,-13],[10,-31],[-455,13],[-4,-141],[-77,1],[-2,-84],[-231,5]],[[95,6024],[-16,116],[-33,269],[-46,388]],[[3594,4010],[11,576]],[[3605,4586],[148,-6],[225,-2],[3,152],[31,35],[47,2],[4,152]],[[4063,4919],[84,0],[220,-7]],[[4367,4912],[-3,-171],[153,-4],[188,-2]],[[4705,4735],[-2,-52],[-29,-8],[-82,-65],[-5,-47],[-15,-24],[21,-15],[-20,-56],[15,-17],[23,19],[1,-74],[28,-25],[18,-73],[-46,-35],[-18,-32],[-50,-49],[36,-5],[7,-31],[-32,-4],[18,-31],[-16,-57],[-22,1]],[[4535,4055],[-171,4],[-1,-129],[-41,-8],[-39,11],[-23,48],[-74,21],[-53,-30],[-31,6],[-38,-19],[-14,-18]],[[4050,3941],[-110,-12],[-36,12],[-31,29],[-34,-3],[-104,54],[-47,-9],[-30,15],[-20,-20],[-44,3]],[[982,2617],[277,-4],[380,-14]],[[1639,2599],[-3,-170],[-30,1],[-1,-77],[79,-21],[-19,-25],[16,-87],[-10,-30],[16,-31],[14,-86],[1,-39],[27,-24],[16,-63],[37,-38],[8,-56]],[[1790,1853],[-38,-11],[-82,10]],[[1670,1852],[-59,-5],[-4,-17],[-40,-3],[-50,28],[-80,13],[-45,32],[-45,4],[-27,23],[-20,0],[-51,23],[-106,4]],[[1143,1954],[4,340],[-151,5],[2,149],[-19,0],[3,169]],[[4542,3],[-597,4],[-278,1],[0,0]],[[3667,8],[-20,44],[-32,-2],[-18,82],[-18,-2],[-10,69],[24,25],[17,51],[-5,25],[-37,8]],[[3780,766],[319,-9],[297,-4],[150,-5]],[[4546,748],[-4,-228],[0,-517]],[[2481,1567],[0,42],[24,26],[-18,26],[-18,-1],[-14,63],[3,55],[-34,25],[-23,107],[80,-6],[10,335]],[[2491,2239],[98,-7],[201,-5]],[[2790,2227],[227,-7],[39,-3],[61,-37],[29,1],[68,-57],[16,-44],[51,-28]],[[3281,2052],[-194,-5],[-5,-164],[28,0],[18,-38],[32,-25],[30,-52],[6,-52],[23,-37],[38,-28],[22,-40],[-4,-55],[10,-18]],[[3285,1538],[-358,14]],[[4050,3941],[-2,-213],[158,-3],[-10,-482],[46,-28],[41,-49],[-3,-32],[-25,-31],[-7,-39],[41,-26],[2,-39],[-61,-71],[-1,-55]],[[4229,2873],[-39,2]],[[4190,2875],[-158,3],[-154,7],[-156,3]],[[3722,2888],[1,257],[-114,3],[1,43],[14,33],[8,101],[20,15],[10,394],[2,169],[-73,2]],[[3591,3905],[3,105]],[[1292,929],[340,-11]],[[1632,918],[-1,-56],[170,-6]],[[1801,856],[-31,-62],[-34,-119],[-26,-70],[9,-24],[-19,-27],[5,-22],[-14,-38],[-57,3],[-12,-469]],[[1622,28],[-44,0],[-412,1]],[[1166,29],[-29,26],[13,31],[-32,18],[5,39],[-37,32],[22,60],[-1,29],[22,16],[16,-21],[32,49],[33,-20],[24,27],[7,28],[34,4],[-12,36],[22,41],[22,72],[-23,19],[-2,28],[54,-11],[4,52],[-9,21],[30,12],[4,25],[-52,9],[-4,28],[11,42],[-31,73],[-35,57],[22,58],[16,20]],[[5123,2591],[-33,22],[-41,10],[3,25],[-36,29],[-24,40],[-20,66],[-29,29],[-15,-20],[-21,32],[-23,14],[-13,32],[-51,49],[6,43],[-40,4],[-1,63],[-124,3]],[[4661,3032],[1,57],[-51,2],[0,29],[-51,1],[1,113],[104,-3],[6,309],[-4,34],[15,29],[4,45],[-17,31],[5,32]],[[4674,3711],[106,0],[3,141],[79,-1],[1,38],[126,-3]],[[4989,3886],[-4,-177],[51,0],[-1,-86],[25,-1]],[[5060,3622],[-3,-257],[76,-1],[-4,-172]],[[1139,1178],[18,-6],[-4,-37],[-16,-23],[31,-16],[35,-78],[13,-56],[25,10],[51,-43]],[[1166,29],[-10,0],[-329,0],[0,490],[-1,545]],[[5515,6795],[299,0],[516,-1],[91,-2],[-7,-34],[25,-32],[11,-52],[-1,-44],[36,-19],[42,-6],[23,-37],[-3,-44],[-16,-21],[-6,-51],[26,-37],[-29,-60],[-45,-13],[-4,-24],[-35,-50],[-69,-51]],[[6369,6217],[-188,-1],[2,113],[-154,1],[-156,4],[-129,8],[-262,3]],[[5482,6345],[1,41],[78,-9],[5,251],[-32,3],[2,39],[-14,9],[13,95],[-20,21]],[[4868,1083],[22,-62],[48,-42],[-34,-76],[-33,-22],[-5,-36],[41,-10],[36,14],[17,22],[-10,68],[22,20],[42,-31],[16,-27],[3,-42],[-29,-37],[-53,-19],[-34,2],[-13,-28],[25,-28],[36,-19],[35,1],[41,25],[20,28],[8,68],[33,26],[19,-18],[0,-35],[-32,-50],[-31,-30],[-27,-46],[-31,-29],[1,-96],[23,-37],[-4,-23],[25,-44],[20,-8],[15,62],[28,26],[33,-24],[-9,-46],[-51,-57],[-21,-5],[23,-56],[6,-39],[-8,-65],[-20,-11],[-73,-1],[-14,20],[-34,1],[-26,-36],[0,-26],[41,-41],[33,-13],[37,-35],[-1,-49],[-53,-37],[-6,-16],[0,-14],[-142,2],[-246,2],[-35,-1]],[[4546,748],[6,340]],[[2177,1503],[-23,23],[-28,52],[-56,-30],[-18,31],[-39,24],[-55,0],[-47,30],[-22,57],[5,46],[-28,34],[-23,9],[-53,74]],[[1639,2599],[101,-3]],[[1740,2596],[76,-1],[-2,-114],[228,-5],[-2,-57],[158,-5],[8,-20],[71,2],[-5,-21],[18,-46],[-25,-41],[6,-50],[21,9],[199,-8]],[[3285,1538],[10,-34],[-21,-62],[17,-48],[-1,-26]],[[3262,573],[-43,-39],[-35,-8],[-59,-1],[-11,26],[-29,12],[-7,65],[-31,1],[-35,-21],[-12,70],[-50,28]],[[3073,4597],[329,-9]],[[3402,4588],[203,-2]],[[3591,3905],[-152,4],[-4,-169],[-272,8],[2,-35],[-46,-25],[10,-65],[-31,-9],[19,83],[-22,43],[-4,26],[-33,25],[-75,-2]],[[2983,3789],[-43,21],[-24,31],[-10,52],[49,51],[29,54],[4,53],[-20,50]],[[6773,4927],[1,-46],[-29,-4],[-43,23],[0,34],[-44,36],[-27,0],[-46,-25],[-14,-61],[8,-42],[35,-41],[19,-39],[6,-44],[-65,-36],[9,-30],[-18,-14],[-22,37],[10,13],[-17,37],[9,62],[-16,21],[-41,0],[-18,-20],[-13,-47],[-16,-11]],[[6441,4730],[-211,3]],[[6230,4733],[0,509]],[[6230,5242],[0,360],[-3,217]],[[6227,5819],[474,5],[326,3],[14,-23],[13,-57],[92,-62],[13,-42],[-7,-40],[-17,-17],[-27,0],[-55,57],[-41,10],[-34,-40],[-11,-39],[9,-20],[102,-46],[1,-31],[-45,-35],[-44,15],[-33,-10],[-26,-33],[-2,-61],[-55,-29],[-34,29],[-45,-12],[-17,16],[-47,-29],[-28,-34],[2,-63],[32,-57],[41,-27],[27,5],[15,25],[26,5],[11,-23],[-8,-44],[-48,-35],[-31,2],[-57,-39],[-10,-25],[23,-54],[42,-15],[5,-22]],[[4597,1959],[-24,36],[7,33],[-3,45],[-13,20]],[[4564,2093],[12,6],[-22,98],[-64,-7],[-24,22],[-20,81],[-2,62],[-17,18],[-52,-2],[-45,13],[-149,7],[9,484]],[[4229,2873],[119,-2],[1,170],[312,-9]],[[948,1452],[-15,30],[13,37],[-26,57],[-62,83],[-2,33],[-37,15],[-31,88],[7,90],[-2,50],[-27,56],[-2,49],[18,21],[-23,32],[11,44],[-16,17],[19,27],[-29,17],[13,43],[-10,67],[-209,3]],[[538,2311],[0,148],[-18,1],[3,168],[459,-11]],[[1143,1954],[-12,-507],[-180,5]],[[4535,4055],[25,-45],[-19,-28],[140,0],[-4,-87],[-3,-184]],[[202,1821],[10,485]],[[212,2306],[326,5]],[[245,3753],[13,492],[10,354],[-6,33],[7,14]],[[269,4646],[10,33],[-3,50],[16,22],[45,1],[48,-45],[17,-26],[-14,-56],[5,-19],[39,-20],[40,-34],[29,0],[24,21],[34,-5],[39,15],[31,28],[54,6],[17,26],[-13,43],[-26,26],[3,29],[20,15],[38,2],[39,-15],[21,3]],[[782,4746],[-4,-63],[-7,-384],[25,-1],[0,-28],[25,-1],[1,28],[25,0]],[[847,4297],[-3,-142],[-156,5],[-1,-85]],[[687,4075],[-53,-13],[-26,-28],[-40,1],[-7,-42],[-4,-173],[-36,-17],[-54,-13],[-44,5],[-35,-17],[-18,27],[-20,-25],[-25,-9],[-25,12],[-30,-37],[-25,7]],[[3281,2052],[149,6]],[[3430,2058],[146,2],[256,1]],[[3832,2061],[1,-169],[-33,0],[0,-361]],[[3800,1531],[0,-170]],[[1081,6795],[406,1],[387,-1],[32,0]],[[1906,6795],[-5,-33],[-1,-331],[-5,-369]],[[1895,6062],[-257,7]],[[1638,6069],[-103,2],[0,56],[-50,1],[1,59],[-39,1],[-12,29],[3,112],[-26,17],[8,20],[-37,19],[-2,30],[-226,7]],[[4919,5612],[-29,-23],[12,-28],[-10,-29],[-34,-40],[-22,-61],[-46,-29],[-6,-33],[-26,2],[-33,-51],[8,-19],[-38,-41],[-1,-29],[25,-62],[-5,-19],[25,-29],[-65,4],[-1,-221],[-152,2],[-154,6]],[[4063,4919],[5,346],[-24,-14],[-44,1]],[[4000,5252],[2,85],[-41,41],[-10,79],[31,66],[0,44]],[[3982,5567],[138,147],[62,-2]],[[4182,5712],[40,-3],[316,-6],[-2,-86],[154,-4]],[[4705,4735],[-5,11],[140,2],[2,-172],[305,-6]],[[5147,4570],[-4,-401]],[[5143,4169],[-4,-286],[-150,3]],[[5417,5763],[358,-4],[311,-2],[1,46],[12,14]],[[6099,5817],[128,2]],[[6230,5242],[-128,2],[-179,12],[-155,-5],[-367,2],[-250,5]],[[5151,5258],[6,344]],[[2790,2227],[7,175],[7,340]],[[2804,2742],[63,-2],[51,82],[266,-7],[2,85],[226,-4]],[[3412,2896],[55,-1]],[[3467,2895],[-3,-283],[-4,-228],[-29,1],[-1,-327]],[[2358,725],[-15,-700]],[[2343,25],[-359,2],[-362,1]],[[1801,856],[208,-8],[0,29],[151,-5]],[[5478,6117],[4,228]],[[6369,6217],[-20,-28],[-23,-4],[-22,-50],[6,-23],[-25,-34],[-34,-23],[-30,-7],[-10,-31],[-30,-22],[-18,-38],[-5,-39],[-21,-43],[-38,-58]],[[1638,6069],[-2,-85],[50,-1],[-7,-221],[-25,0],[0,-28],[-26,1],[-1,-57],[-26,2],[-2,-86],[-25,1],[-3,-112],[13,-1],[-4,-116]],[[1580,5366],[-254,10]],[[1326,5376],[-309,11],[0,-29]],[[1017,5358],[-75,3]],[[942,5361],[3,140],[13,0],[11,502],[81,280]],[[1895,6062],[231,-8],[77,3],[50,-5],[154,-2]],[[2407,6050],[-1,-85],[10,0],[-12,-503],[-4,0],[-3,-172]],[[2397,5290],[-280,6],[-26,2]],[[2091,5298],[-51,2],[-258,2],[-202,7],[0,57]],[[3005,6795],[257,-2],[288,2]],[[3550,6795],[-1,-122],[-11,-283],[2,-57]],[[3540,6333],[-4,-170],[-78,3],[-2,-81],[28,-1]],[[3484,6084],[-2,-143],[-155,3],[-3,-169],[-154,3]],[[3170,5778],[4,170]],[[3174,5948],[3,139],[-25,1],[0,28],[-61,62],[-14,24],[28,41],[-25,26],[0,57],[-25,-2],[-38,24],[-33,1],[28,40],[-3,24],[-36,22],[-35,-8],[20,50],[35,-12],[2,43],[-64,-16],[-14,34],[82,51],[6,218]],[[1740,2596],[2,113]],[[1742,2709],[217,-4],[192,-7],[251,-5],[0,116],[50,-1],[-3,112],[176,-4]],[[2625,2916],[79,-1],[-1,-57],[77,-2],[-1,-113],[25,-1]],[[226,2923],[9,431]],[[235,3354],[198,-5],[-1,-56],[406,-9],[0,-18],[152,-7],[-1,-28]],[[989,3231],[-6,-442],[-1,-172]],[[212,2306],[14,617]],[[5147,4570],[1,172]],[[5148,4742],[155,-2],[155,8],[154,0],[1,7],[151,-1],[0,-14],[156,0]],[[5920,4740],[-1,-171],[-5,-341],[5,-67]],[[5919,4161],[-193,2],[-173,5],[-256,2],[-154,-1]],[[847,4297],[1,34],[156,-4],[4,174],[154,-11],[5,216],[29,-60],[36,-29],[9,-22],[53,4],[12,12]],[[1306,4611],[30,3],[18,39],[20,12],[53,-43],[25,-1],[69,23],[31,34],[30,-1],[20,-24],[22,4],[57,59],[38,-22],[-6,-49],[18,-62],[25,-28],[-37,-19],[7,-20],[76,10],[56,14],[39,-23]],[[1897,4517],[30,-29]],[[1927,4488],[-2,-194],[-254,7],[-40,-28],[0,-41],[-39,-12],[0,-29],[-26,1],[-1,-28],[-191,5],[-1,-28],[-62,2],[-4,-171],[6,-53]],[[1313,3919],[-152,2],[-379,11],[1,54],[-98,3],[2,86]],[[3982,5567],[-13,26],[-52,3],[-60,58],[-39,52],[-32,-1],[-28,-37],[-30,4],[-6,37],[-25,7],[-36,-29],[-30,-5],[-28,26],[5,23],[35,27],[2,36],[-19,31],[5,37],[50,16],[2,18],[-26,34],[-51,18],[-19,33],[-24,67],[-18,2],[-40,-26],[-13,9],[-8,51]],[[3540,6333],[281,-8],[389,-7]],[[4210,6318],[-1,-86],[25,-1],[-8,-85],[-3,-319],[-39,0],[-2,-115]],[[1742,2709],[7,560],[12,0],[-1,113]],[[1760,3382],[0,56],[153,2]],[[1913,3440],[26,-3],[280,0]],[[2219,3437],[152,1],[0,-170],[-14,0],[-1,-93],[151,-4],[-3,-85],[99,-2],[-1,-54],[25,-1],[-2,-113]],[[3550,6795],[43,1],[193,-1],[451,2],[195,-1],[125,-3]],[[4557,6793],[-6,-315],[-161,4],[0,-170],[-180,6]],[[1906,6795],[240,-1],[391,0]],[[2537,6794],[-1,-65],[-25,20],[-18,31],[-5,-302],[-3,-430]],[[2485,6048],[-78,2]],[[6441,4730],[-41,-29],[-15,-71],[20,-22],[31,27],[1,37],[20,14],[25,-9],[44,-46],[4,-21],[-26,-51],[-19,-85],[-43,-12],[-26,5],[-13,-52],[21,-36],[50,-1],[33,-13],[26,-53],[-29,-52],[-30,-10],[23,-36],[47,-30],[3,-37],[-23,-30],[-35,-4],[-50,27],[-37,-19],[-14,-22],[-6,-53],[9,-17],[-9,-43],[-38,-55],[-64,11],[-18,18],[-46,-5],[-20,-69],[3,-14],[18,-37],[36,-34],[36,-20],[4,-77],[-21,-30],[-86,-44],[18,-21],[-20,-30],[-28,27],[-34,-31],[-66,-31]],[[6056,3544],[-1,150]],[[6055,3694],[1,192],[7,0],[4,283],[-148,-8]],[[5920,4740],[310,-7]],[[1670,1852],[-6,-256],[-15,1],[-5,-197],[-12,-482]],[[3722,2888],[-255,7]],[[3412,2896],[2,170],[-150,3],[3,84],[-142,3],[3,87],[-82,3],[2,28],[-76,3],[3,140],[-150,6],[4,169],[-127,4]],[[2702,3596],[-23,0],[2,113],[150,-3],[3,57],[148,-6],[1,32]],[[3402,4588],[6,339],[6,0],[5,339]],[[3419,5266],[198,-7],[383,-7]],[[2485,6048],[77,-1],[-1,-85],[232,-7],[381,-7]],[[3170,5778],[-1,-169],[-3,-195]],[[3166,5414],[-306,5],[-3,-141],[-256,8]],[[2601,5286],[-204,4]],[[989,3231],[73,0],[1,49],[13,42],[76,-3],[0,14],[52,0],[0,28],[51,-1],[0,28],[51,-1]],[[1306,3387],[303,-4],[151,-1]],[[2470,4211],[-61,13],[-24,-13],[-29,4],[-65,-20],[-4,-62],[-19,-19],[-36,-2],[-39,39],[19,23],[6,42],[-25,20],[-23,-22],[-19,4],[-22,38],[-5,37],[-18,41],[-42,56],[-22,18],[-47,4],[-22,13],[-46,63]],[[1897,4517],[5,278],[103,-3],[4,254],[77,-3],[5,255]],[[2601,5286],[-5,-338],[-52,1],[-2,-168]],[[2655,6793],[350,2]],[[2537,6794],[118,-1]],[[269,4646],[-27,201],[-33,276],[-29,234]],[[180,5357],[221,-5],[308,-12],[1,28],[232,-7]],[[1017,5358],[27,0],[-1,-28],[-26,0],[-1,-28],[-76,2],[-1,-55],[-25,1],[-2,-84],[-130,3],[-3,-169],[77,-3],[-1,-34],[-17,-8],[-8,-41],[17,-46],[-28,-28],[13,-56],[-50,-38]],[[4402,1515],[-153,17],[-449,-1]],[[3832,2061],[0,57],[300,1],[1,-56],[26,0],[-1,214],[37,-2],[62,-50],[13,-19],[50,-21],[36,11],[10,-16],[-33,-21],[-7,-35],[30,-20],[37,36],[51,-17],[22,-35],[45,-38],[22,6],[31,37]],[[5060,3622],[2,87],[76,1],[148,-10],[218,-2],[247,1],[304,-5]],[[6056,3544],[-44,-3],[-16,29],[29,51],[-10,32],[-37,17],[-20,-11],[-12,-43],[42,-84],[-20,-16],[-11,-37],[35,-73],[6,-32],[-39,-30],[-48,-1],[-22,16],[43,50],[2,29],[-41,58],[-28,-12],[-10,-24],[12,-55],[-9,-32],[-26,-2],[-12,-49],[57,-32],[22,-1],[62,19],[16,-41],[-9,-28],[-69,-76],[-44,2],[-11,28],[22,59],[-8,23],[-35,10],[0,-53],[-25,-49]],[[3166,5414],[-2,-141],[255,-7]],[[4557,6793],[62,-1]],[[4619,6792],[-1,-19],[39,-29],[27,0],[12,-43],[6,-57],[58,-1],[-2,-60],[27,-1],[24,-28],[-2,-85],[25,0],[0,-142]],[[1306,4611],[10,371],[10,394]],[[235,3354],[10,399]],[[1313,3919],[-7,-532]],[[2702,3596],[-24,-21],[-39,-6],[-67,31],[-201,7],[-150,-2],[-2,-168]],[[1913,3440],[0,170],[-26,1],[1,28],[25,26],[25,0],[0,29],[26,0],[0,28],[25,0],[0,28],[26,0],[0,29],[24,0],[1,29],[26,-1],[0,28],[31,-1],[0,28],[26,0],[0,28],[26,-1],[0,28],[26,-1],[0,32],[27,-1],[0,28],[25,-1],[1,29],[25,-1],[16,28]],[[5148,4742],[0,229],[3,287]],[[180,5357],[-43,341],[-42,326]],[[4619,6792],[403,1],[493,2]],[[3667,8],[-222,1],[-404,6],[-318,5],[-380,5]]],"transform":{"scale":[0.0006951874765050423,0.0005142429012799763],"translate":[-94.617919,33.004291]},"objects":{"05":{"type":"GeometryCollection","geometries":[{"arcs":[[0,1,2,3,4,5]],"type":"Polygon","properties":{"STATEFP":"05","COUNTYFP":"041","COUNTYNS":"00066850","GEOIDFQ":"0500000US05041","GEOID":"05041","NAME":"Desha","NAMELSAD":"Desha County","STUSPS":"AR","STATE_NAME":"Arkansas","LSAD":"06","ALAND":1919768425,"AWATER":185180908},"id":"05041"},{"arcs":[[6,7,8,9,10,11]],"type":"Polygon","properties":{"STATEFP":"05","COUNTYFP":"103","COUNTYNS":"00069170","GEOIDFQ":"0500000US05103","GEOID":"05103","NAME":"Ouachita","NAMELSAD":"Ouachita County","STUSPS":"AR","STATE_NAME":"Arkansas","LSAD":"06","ALAND":1897739676,"AWATER":18183261},"id":"05103"},{"arcs":[[12,13,14,15,16]],"type":"Polygon","properties":{"STATEFP":"05","COUNTYFP":"029","COUNTYNS":"00066846","GEOIDFQ":"0500000US05029","GEOID":"05029","NAME":"Conway","NAMELSAD":"Conway County","STUSPS":"AR","STATE_NAME":"Arkansas","LSAD":"06","ALAND":1429552829,"AWATER":37663258},"id":"05029"},{"arcs":[[17,18,19,20,21]],"type":"Polygon","properties":{"STATEFP":"05","COUNTYFP":"081","COUNTYNS":"00066874","GEOIDFQ":"0500000US05081","GEOID":"05081","NAME":"Little River","NAMELSAD":"Little River County","STUSPS":"AR","STATE_NAME":"Arkansas","LSAD":"06","ALAND":1375943076,"AWATER":83115228},"id":"05081"},{"arcs":[[22,23,24,25,26,27]],"type":"Polygon","properties":{"STATEFP":"05","COUNTYFP":"075","COUNTYNS":"00066865","GEOIDFQ":"0500000US05075","GEOID":"05075","NAME":"Lawrence","NAMELSAD":"Lawrence County","STUSPS":"AR","STATE_NAME":"Arkansas","LSAD":"06","ALAND":1521690360,"AWATER":12395693},"id":"05075"},{"arcs":[[28,29,30,31,32]],"type":"Polygon","properties":{"STATEFP":"05","COUNTYFP":"011","COUNTYNS":"00063757","GEOIDFQ":"0500000US05011","GEOID":"05011","NAME":"Bradley","NAMELSAD":"Bradley County","STUSPS":"AR","STATE_NAME":"Arkansas","LSAD":"06","ALAND":1681335017,"AWATER":9505606},"id":"05011"},{"arcs":[[-2,33,34,35,36]],"type":"Polygon","properties":{"STATEFP":"05","COUNTYFP":"107","COUNTYNS":"00069172","GEOIDFQ":"0500000US05107","GEOID":"05107","NAME":"Phillips","NAMELSAD":"Phillips County","STUSPS":"AR","STATE_NAME":"Arkansas","LSAD":"06","ALAND":1788024157,"AWATER":95966883},"id":"05107"},{"arcs":[[37,38,39,40,41]],"type":"Polygon","properties":{"STATEFP":"05","COUNTYFP":"007","COUNTYNS":"00069896","GEOIDFQ":"0500000US05007","GEOID":"05007","NAME":"Benton","NAMELSAD":"Benton County","STUSPS":"AR","STATE_NAME":"Arkansas","LSAD":"06","ALAND":2195637338,"AWATER":94852627},"id":"05007"},{"arcs":[[42,43,44,45,46,47,48]],"type":"Polygon","properties":{"STATEFP":"05","COUNTYFP":"145","COUNTYNS":"00069906","GEOIDFQ":"0500000US05145","GEOID":"05145","NAME":"White","NAMELSAD":"White County","STUSPS":"AR","STATE_NAME":"Arkansas","LSAD":"06","ALAND":2677959077,"AWATER":20840622},"id":"05145"},{"arcs":[[49,50,51,52,53]],"type":"Polygon","properties":{"STATEFP":"05","COUNTYFP":"109","COUNTYNS":"00069173","GEOIDFQ":"0500000US05109","GEOID":"05109","NAME":"Pike","NAMELSAD":"Pike County","STUSPS":"AR","STATE_NAME":"Arkansas","LSAD":"06","ALAND":1554864590,"AWATER":35281504},"id":"05109"},{"arcs":[[54,55,-31,56,57]],"type":"Polygon","properties":{"STATEFP":"05","COUNTYFP":"003","COUNTYNS":"00063756","GEOIDFQ":"0500000US05003","GEOID":"05003","NAME":"Ashley","NAMELSAD":"Ashley County","STUSPS":"AR","STATE_NAME":"Arkansas","LSAD":"06","ALAND":2397012343,"AWATER":38656004},"id":"05003"},{"arcs":[[-9,58,59,60,61,62]],"type":"Polygon","properties":{"STATEFP":"05","COUNTYFP":"039","COUNTYNS":"00066849","GEOIDFQ":"0500000US05039","GEOID":"05039","NAME":"Dallas","NAMELSAD":"Dallas County","STUSPS":"AR","STATE_NAME":"Arkansas","LSAD":"06","ALAND":1728358304,"AWATER":1731378},"id":"05039"},{"arcs":[[-49,63,64,65,66,67]],"type":"Polygon","properties":{"STATEFP":"05","COUNTYFP":"085","COUNTYNS":"00069164","GEOIDFQ":"0500000US05085","GEOID":"05085","NAME":"Lonoke","NAMELSAD":"Lonoke County","STUSPS":"AR","STATE_NAME":"Arkansas","LSAD":"06","ALAND":1998752691,"AWATER":82011970},"id":"05085"},{"arcs":[[68,69,70,71,72]],"type":"Polygon","properties":{"STATEFP":"05","COUNTYFP":"073","COUNTYNS":"00066864","GEOIDFQ":"0500000US05073","GEOID":"05073","NAME":"Lafayette","NAMELSAD":"Lafayette County","STUSPS":"AR","STATE_NAME":"Arkansas","LSAD":"06","ALAND":1371327390,"AWATER":43028603},"id":"05073"},{"arcs":[[-35,73,74,75,76,77]],"type":"Polygon","properties":{"STATEFP":"05","COUNTYFP":"095","COUNTYNS":"00069167","GEOIDFQ":"0500000US05095","GEOID":"05095","NAME":"Monroe","NAMELSAD":"Monroe County","STUSPS":"AR","STATE_NAME":"Arkansas","LSAD":"06","ALAND":1573316560,"AWATER":35707672},"id":"05095"},{"arcs":[[-21,78,-73,79]],"type":"Polygon","properties":{"STATEFP":"05","COUNTYFP":"091","COUNTYNS":"00069166","GEOIDFQ":"0500000US05091","GEOID":"05091","NAME":"Miller","NAMELSAD":"Miller County","STUSPS":"AR","STATE_NAME":"Arkansas","LSAD":"06","ALAND":1616257231,"AWATER":36848741},"id":"05091"},{"arcs":[[80,81,82]],"type":"Polygon","properties":{"STATEFP":"05","COUNTYFP":"021","COUNTYNS":"00063759","GEOIDFQ":"0500000US05021","GEOID":"05021","NAME":"Clay","NAMELSAD":"Clay County","STUSPS":"AR","STATE_NAME":"Arkansas","LSAD":"06","ALAND":1655581940,"AWATER":5497697},"id":"05021"},{"arcs":[[-4,83,-58,84]],"type":"Polygon","properties":{"STATEFP":"05","COUNTYFP":"017","COUNTYNS":"00069160","GEOIDFQ":"0500000US05017","GEOID":"05017","NAME":"Chicot","NAMELSAD":"Chicot County","STUSPS":"AR","STATE_NAME":"Arkansas","LSAD":"06","ALAND":1649764401,"AWATER":140413175},"id":"05017"},{"arcs":[[-8,85,-51,86,87,-59]],"type":"Polygon","properties":{"STATEFP":"05","COUNTYFP":"019","COUNTYNS":"00066845","GEOIDFQ":"0500000US05019","GEOID":"05019","NAME":"Clark","NAMELSAD":"Clark County","STUSPS":"AR","STATE_NAME":"Arkansas","LSAD":"06","ALAND":2242855175,"AWATER":43965580},"id":"05019"},{"arcs":[[-10,-63,88,-33,89]],"type":"Polygon","properties":{"STATEFP":"05","COUNTYFP":"013","COUNTYNS":"00063758","GEOIDFQ":"0500000US05013","GEOID":"05013","NAME":"Calhoun","NAMELSAD":"Calhoun County","STUSPS":"AR","STATE_NAME":"Arkansas","LSAD":"06","ALAND":1628067843,"AWATER":9887802},"id":"05013"},{"arcs":[[-15,90,91,-43,-68,92,93]],"type":"Polygon","properties":{"STATEFP":"05","COUNTYFP":"045","COUNTYNS":"00066852","GEOIDFQ":"0500000US05045","GEOID":"05045","NAME":"Faulkner","NAMELSAD":"Faulkner County","STUSPS":"AR","STATE_NAME":"Arkansas","LSAD":"06","ALAND":1676362422,"AWATER":43607253},"id":"05045"},{"arcs":[[94,95,96,97,98]],"type":"Polygon","properties":{"STATEFP":"05","COUNTYFP":"093","COUNTYNS":"00069899","GEOIDFQ":"0500000US05093","GEOID":"05093","NAME":"Mississippi","NAMELSAD":"Mississippi County","STUSPS":"AR","STATE_NAME":"Arkansas","LSAD":"06","ALAND":2336409874,"AWATER":72224609},"id":"05093"},{"arcs":[[-1,99,100,-65,101,-74,-34]],"type":"Polygon","properties":{"STATEFP":"05","COUNTYFP":"001","COUNTYNS":"00063755","GEOIDFQ":"0500000US05001","GEOID":"05001","NAME":"Arkansas","NAMELSAD":"Arkansas County","STUSPS":"AR","STATE_NAME":"Arkansas","LSAD":"06","ALAND":2569631427,"AWATER":120698186},"id":"05001"},{"arcs":[[-19,102,103,-54,104]],"type":"Polygon","properties":{"STATEFP":"05","COUNTYFP":"061","COUNTYNS":"00066872","GEOIDFQ":"0500000US05061","GEOID":"05061","NAME":"Howard","NAMELSAD":"Howard County","STUSPS":"AR","STATE_NAME":"Arkansas","LSAD":"06","ALAND":1521182023,"AWATER":21361761},"id":"05061"},{"arcs":[[-48,105,-75,-102,-64]],"type":"Polygon","properties":{"STATEFP":"05","COUNTYFP":"117","COUNTYNS":"00069176","GEOIDFQ":"0500000US05117","GEOID":"05117","NAME":"Prairie","NAMELSAD":"Prairie County","STUSPS":"AR","STATE_NAME":"Arkansas","LSAD":"06","ALAND":1677059905,"AWATER":72638195},"id":"05117"},{"arcs":[[-18,106,107,-103]],"type":"Polygon","properties":{"STATEFP":"05","COUNTYFP":"133","COUNTYNS":"00069182","GEOIDFQ":"0500000US05133","GEOID":"05133","NAME":"Sevier","NAMELSAD":"Sevier County","STUSPS":"AR","STATE_NAME":"Arkansas","LSAD":"06","ALAND":1459636823,"AWATER":45919661},"id":"05133"},{"arcs":[[108,109,110,111,112]],"type":"Polygon","properties":{"STATEFP":"05","COUNTYFP":"131","COUNTYNS":"00069181","GEOIDFQ":"0500000US05131","GEOID":"05131","NAME":"Sebastian","NAMELSAD":"Sebastian County","STUSPS":"AR","STATE_NAME":"Arkansas","LSAD":"06","ALAND":1375759908,"AWATER":34508909},"id":"05131"},{"arcs":[[-29,-89,-62,113,114,115,116]],"type":"Polygon","properties":{"STATEFP":"05","COUNTYFP":"025","COUNTYNS":"00063760","GEOIDFQ":"0500000US05025","GEOID":"05025","NAME":"Cleveland","NAMELSAD":"Cleveland County","STUSPS":"AR","STATE_NAME":"Arkansas","LSAD":"06","ALAND":1548580963,"AWATER":2561701},"id":"05025"},{"arcs":[[-39,117,118,119,120]],"type":"Polygon","properties":{"STATEFP":"05","COUNTYFP":"015","COUNTYNS":"00066975","GEOIDFQ":"0500000US05015","GEOID":"05015","NAME":"Carroll","NAMELSAD":"Carroll County","STUSPS":"AR","STATE_NAME":"Arkansas","LSAD":"06","ALAND":1631504874,"AWATER":22715757},"id":"05015"},{"arcs":[[-27,121,-45,122,123,124,125]],"type":"Polygon","properties":{"STATEFP":"05","COUNTYFP":"063","COUNTYNS":"00069163","GEOIDFQ":"0500000US05063","GEOID":"05063","NAME":"Independence","NAMELSAD":"Independence County","STUSPS":"AR","STATE_NAME":"Arkansas","LSAD":"06","ALAND":1978003732,"AWATER":20251226},"id":"05063"},{"arcs":[[-47,126,127,128,-76,-106]],"type":"Polygon","properties":{"STATEFP":"05","COUNTYFP":"147","COUNTYNS":"00069907","GEOIDFQ":"0500000US05147","GEOID":"05147","NAME":"Woodruff","NAMELSAD":"Woodruff County","STUSPS":"AR","STATE_NAME":"Arkansas","LSAD":"06","ALAND":1517662707,"AWATER":21064563},"id":"05147"},{"arcs":[[-25,129,130,-98,131,132]],"type":"Polygon","properties":{"STATEFP":"05","COUNTYFP":"031","COUNTYNS":"00066847","GEOIDFQ":"0500000US05031","GEOID":"05031","NAME":"Craighead","NAMELSAD":"Craighead County","STUSPS":"AR","STATE_NAME":"Arkansas","LSAD":"06","ALAND":1831554771,"AWATER":14306976},"id":"05031"},{"arcs":[[-61,133,134,135,136,-114]],"type":"Polygon","properties":{"STATEFP":"05","COUNTYFP":"053","COUNTYNS":"00066856","GEOIDFQ":"0500000US05053","GEOID":"05053","NAME":"Grant","NAMELSAD":"Grant County","STUSPS":"AR","STATE_NAME":"Arkansas","LSAD":"06","ALAND":1636581704,"AWATER":2896901},"id":"05053"},{"arcs":[[-12,137,138,-71,139]],"type":"Polygon","properties":{"STATEFP":"05","COUNTYFP":"027","COUNTYNS":"00063761","GEOIDFQ":"0500000US05027","GEOID":"05027","NAME":"Columbia","NAMELSAD":"Columbia County","STUSPS":"AR","STATE_NAME":"Arkansas","LSAD":"06","ALAND":1984098877,"AWATER":1985830},"id":"05027"},{"arcs":[[-24,140,-82,141,-130]],"type":"Polygon","properties":{"STATEFP":"05","COUNTYFP":"055","COUNTYNS":"00066857","GEOIDFQ":"0500000US05055","GEOID":"05055","NAME":"Greene","NAMELSAD":"Greene County","STUSPS":"AR","STATE_NAME":"Arkansas","LSAD":"06","ALAND":1495322286,"AWATER":5255220},"id":"05055"},{"arcs":[[-40,-121,142,143,144,145,146]],"type":"Polygon","properties":{"STATEFP":"05","COUNTYFP":"087","COUNTYNS":"00069165","GEOIDFQ":"0500000US05087","GEOID":"05087","NAME":"Madison","NAMELSAD":"Madison County","STUSPS":"AR","STATE_NAME":"Arkansas","LSAD":"06","ALAND":2160665369,"AWATER":7455733},"id":"05087"},{"arcs":[[-120,147,148,149,150,-143]],"type":"Polygon","properties":{"STATEFP":"05","COUNTYFP":"101","COUNTYNS":"00069900","GEOIDFQ":"0500000US05101","GEOID":"05101","NAME":"Newton","NAMELSAD":"Newton County","STUSPS":"AR","STATE_NAME":"Arkansas","LSAD":"06","ALAND":2126576326,"AWATER":5935910},"id":"05101"},{"arcs":[[151,152,153,154,155,156]],"type":"Polygon","properties":{"STATEFP":"05","COUNTYFP":"005","COUNTYNS":"00069895","GEOIDFQ":"0500000US05005","GEOID":"05005","NAME":"Baxter","NAMELSAD":"Baxter County","STUSPS":"AR","STATE_NAME":"Arkansas","LSAD":"06","ALAND":1434670072,"AWATER":84921211},"id":"05005"},{"arcs":[[-60,-88,157,158,159,-134]],"type":"Polygon","properties":{"STATEFP":"05","COUNTYFP":"059","COUNTYNS":"00066859","GEOIDFQ":"0500000US05059","GEOID":"05059","NAME":"Hot Spring","NAMELSAD":"Hot Spring County","STUSPS":"AR","STATE_NAME":"Arkansas","LSAD":"06","ALAND":1592697267,"AWATER":18725590},"id":"05059"},{"arcs":[[160,161,162,-104,-108,163]],"type":"Polygon","properties":{"STATEFP":"05","COUNTYFP":"113","COUNTYNS":"00069175","GEOIDFQ":"0500000US05113","GEOID":"05113","NAME":"Polk","NAMELSAD":"Polk County","STUSPS":"AR","STATE_NAME":"Arkansas","LSAD":"06","ALAND":2219200784,"AWATER":12520930},"id":"05113"},{"arcs":[[-128,164,165,166,167]],"type":"Polygon","properties":{"STATEFP":"05","COUNTYFP":"037","COUNTYNS":"00066848","GEOIDFQ":"0500000US05037","GEOID":"05037","NAME":"Cross","NAMELSAD":"Cross County","STUSPS":"AR","STATE_NAME":"Arkansas","LSAD":"06","ALAND":1596255184,"AWATER":15389371},"id":"05037"},{"arcs":[[-112,168,169,170,171,172]],"type":"Polygon","properties":{"STATEFP":"05","COUNTYFP":"083","COUNTYNS":"00082850","GEOIDFQ":"0500000US05083","GEOID":"05083","NAME":"Logan","NAMELSAD":"Logan County","STUSPS":"AR","STATE_NAME":"Arkansas","LSAD":"06","ALAND":1836599803,"AWATER":53969486},"id":"05083"},{"arcs":[[-125,173,-154,174,175]],"type":"Polygon","properties":{"STATEFP":"05","COUNTYFP":"065","COUNTYNS":"00066860","GEOIDFQ":"0500000US05065","GEOID":"05065","NAME":"Izard","NAMELSAD":"Izard County","STUSPS":"AR","STATE_NAME":"Arkansas","LSAD":"06","ALAND":1502713771,"AWATER":9576574},"id":"05065"},{"arcs":[[-159,176,177,178,179]],"type":"Polygon","properties":{"STATEFP":"05","COUNTYFP":"051","COUNTYNS":"00066855","GEOIDFQ":"0500000US05051","GEOID":"05051","NAME":"Garland","NAMELSAD":"Garland County","STUSPS":"AR","STATE_NAME":"Arkansas","LSAD":"06","ALAND":1755013661,"AWATER":147452174},"id":"05051"},{"arcs":[[180,181,-175,-153]],"type":"Polygon","properties":{"STATEFP":"05","COUNTYFP":"049","COUNTYNS":"00066854","GEOIDFQ":"0500000US05049","GEOID":"05049","NAME":"Fulton","NAMELSAD":"Fulton County","STUSPS":"AR","STATE_NAME":"Arkansas","LSAD":"06","ALAND":1600597358,"AWATER":6357861},"id":"05049"},{"arcs":[[-119,182,183,184,-148]],"type":"Polygon","properties":{"STATEFP":"05","COUNTYFP":"009","COUNTYNS":"00069897","GEOIDFQ":"0500000US05009","GEOID":"05009","NAME":"Boone","NAMELSAD":"Boone County","STUSPS":"AR","STATE_NAME":"Arkansas","LSAD":"06","ALAND":1527375321,"AWATER":31797985},"id":"05009"},{"arcs":[[185,186,187,-167,188,-96]],"type":"Polygon","properties":{"STATEFP":"05","COUNTYFP":"035","COUNTYNS":"00069162","GEOIDFQ":"0500000US05035","GEOID":"05035","NAME":"Crittenden","NAMELSAD":"Crittenden County","STUSPS":"AR","STATE_NAME":"Arkansas","LSAD":"06","ALAND":1584585354,"AWATER":82932241},"id":"05035"},{"arcs":[[-20,-105,-53,189,-69,-79]],"type":"Polygon","properties":{"STATEFP":"05","COUNTYFP":"057","COUNTYNS":"00066858","GEOIDFQ":"0500000US05057","GEOID":"05057","NAME":"Hempstead","NAMELSAD":"Hempstead County","STUSPS":"AR","STATE_NAME":"Arkansas","LSAD":"06","ALAND":1883439299,"AWATER":35737908},"id":"05057"},{"arcs":[[-67,190,-136,191,192,-93]],"type":"Polygon","properties":{"STATEFP":"05","COUNTYFP":"119","COUNTYNS":"00069177","GEOIDFQ":"0500000US05119","GEOID":"05119","NAME":"Pulaski","NAMELSAD":"Pulaski County","STUSPS":"AR","STATE_NAME":"Arkansas","LSAD":"06","ALAND":1964169563,"AWATER":126979468},"id":"05119"},{"arcs":[[-44,-92,193,194,-123]],"type":"Polygon","properties":{"STATEFP":"05","COUNTYFP":"023","COUNTYNS":"00066983","GEOIDFQ":"0500000US05023","GEOID":"05023","NAME":"Cleburne","NAMELSAD":"Cleburne County","STUSPS":"AR","STATE_NAME":"Arkansas","LSAD":"06","ALAND":1434747668,"AWATER":98885396},"id":"05023"},{"arcs":[[-149,-185,195,-156,196,197,198]],"type":"Polygon","properties":{"STATEFP":"05","COUNTYFP":"129","COUNTYNS":"00069180","GEOIDFQ":"0500000US05129","GEOID":"05129","NAME":"Searcy","NAMELSAD":"Searcy County","STUSPS":"AR","STATE_NAME":"Arkansas","LSAD":"06","ALAND":1724618502,"AWATER":6461827},"id":"05129"},{"arcs":[[-50,-163,199,200,-177,-158,-87]],"type":"Polygon","properties":{"STATEFP":"05","COUNTYFP":"097","COUNTYNS":"00069168","GEOIDFQ":"0500000US05097","GEOID":"05097","NAME":"Montgomery","NAMELSAD":"Montgomery County","STUSPS":"AR","STATE_NAME":"Arkansas","LSAD":"06","ALAND":2021363886,"AWATER":52979164},"id":"05097"},{"arcs":[[-13,201,-171,202,-150,-199,203]],"type":"Polygon","properties":{"STATEFP":"05","COUNTYFP":"115","COUNTYNS":"00069901","GEOIDFQ":"0500000US05115","GEOID":"05115","NAME":"Pope","NAMELSAD":"Pope County","STUSPS":"AR","STATE_NAME":"Arkansas","LSAD":"06","ALAND":2100355859,"AWATER":50772507},"id":"05115"},{"arcs":[[204,-157,-196,-184,205]],"type":"Polygon","properties":{"STATEFP":"05","COUNTYFP":"089","COUNTYNS":"00069898","GEOIDFQ":"0500000US05089","GEOID":"05089","NAME":"Marion","NAMELSAD":"Marion County","STUSPS":"AR","STATE_NAME":"Arkansas","LSAD":"06","ALAND":1545182805,"AWATER":112951239},"id":"05089"},{"arcs":[[206,207,-146,208,-110]],"type":"Polygon","properties":{"STATEFP":"05","COUNTYFP":"033","COUNTYNS":"00069161","GEOIDFQ":"0500000US05033","GEOID":"05033","NAME":"Crawford","NAMELSAD":"Crawford County","STUSPS":"AR","STATE_NAME":"Arkansas","LSAD":"06","ALAND":1541738664,"AWATER":26917847},"id":"05033"},{"arcs":[[-6,209,-116,210,-100]],"type":"Polygon","properties":{"STATEFP":"05","COUNTYFP":"079","COUNTYNS":"00066873","GEOIDFQ":"0500000US05079","GEOID":"05079","NAME":"Lincoln","NAMELSAD":"Lincoln County","STUSPS":"AR","STATE_NAME":"Arkansas","LSAD":"06","ALAND":1449008948,"AWATER":26693606},"id":"05079"},{"arcs":[[-36,-78,211,-187,212]],"type":"Polygon","properties":{"STATEFP":"05","COUNTYFP":"077","COUNTYNS":"00066866","GEOIDFQ":"0500000US05077","GEOID":"05077","NAME":"Lee","NAMELSAD":"Lee County","STUSPS":"AR","STATE_NAME":"Arkansas","LSAD":"06","ALAND":1553493433,"AWATER":57858191},"id":"05077"},{"arcs":[[-14,-204,-198,213,-194,-91]],"type":"Polygon","properties":{"STATEFP":"05","COUNTYFP":"141","COUNTYNS":"00069904","GEOIDFQ":"0500000US05141","GEOID":"05141","NAME":"Van Buren","NAMELSAD":"Van Buren County","STUSPS":"AR","STATE_NAME":"Arkansas","LSAD":"06","ALAND":1837779986,"AWATER":37206288},"id":"05141"},{"arcs":[[-28,-126,-176,-182,214,215]],"type":"Polygon","properties":{"STATEFP":"05","COUNTYFP":"135","COUNTYNS":"00069183","GEOIDFQ":"0500000US05135","GEOID":"05135","NAME":"Sharp","NAMELSAD":"Sharp County","STUSPS":"AR","STATE_NAME":"Arkansas","LSAD":"06","ALAND":1566002713,"AWATER":5220542},"id":"05135"},{"arcs":[[-144,-151,-203,-170,216]],"type":"Polygon","properties":{"STATEFP":"05","COUNTYFP":"071","COUNTYNS":"00066863","GEOIDFQ":"0500000US05071","GEOID":"05071","NAME":"Johnson","NAMELSAD":"Johnson County","STUSPS":"AR","STATE_NAME":"Arkansas","LSAD":"06","ALAND":1711955747,"AWATER":59529091},"id":"05071"},{"arcs":[[217,-113,-173,218,-200,-162]],"type":"Polygon","properties":{"STATEFP":"05","COUNTYFP":"127","COUNTYNS":"00069179","GEOIDFQ":"0500000US05127","GEOID":"05127","NAME":"Scott","NAMELSAD":"Scott County","STUSPS":"AR","STATE_NAME":"Arkansas","LSAD":"06","ALAND":2312470682,"AWATER":14373451},"id":"05127"},{"arcs":[[-111,-209,-145,-217,-169]],"type":"Polygon","properties":{"STATEFP":"05","COUNTYFP":"047","COUNTYNS":"00066853","GEOIDFQ":"0500000US05047","GEOID":"05047","NAME":"Franklin","NAMELSAD":"Franklin County","STUSPS":"AR","STATE_NAME":"Arkansas","LSAD":"06","ALAND":1577218103,"AWATER":28853849},"id":"05047"},{"arcs":[[-16,-94,-193,219,-179,220]],"type":"Polygon","properties":{"STATEFP":"05","COUNTYFP":"105","COUNTYNS":"00069171","GEOIDFQ":"0500000US05105","GEOID":"05105","NAME":"Perry","NAMELSAD":"Perry County","STUSPS":"AR","STATE_NAME":"Arkansas","LSAD":"06","ALAND":1427953389,"AWATER":24428560},"id":"05105"},{"arcs":[[-17,-221,-178,-201,-219,-172,-202]],"type":"Polygon","properties":{"STATEFP":"05","COUNTYFP":"149","COUNTYNS":"00069908","GEOIDFQ":"0500000US05149","GEOID":"05149","NAME":"Yell","NAMELSAD":"Yell County","STUSPS":"AR","STATE_NAME":"Arkansas","LSAD":"06","ALAND":2409688595,"AWATER":46994485},"id":"05149"},{"arcs":[[-97,-189,-166,221,-132]],"type":"Polygon","properties":{"STATEFP":"05","COUNTYFP":"111","COUNTYNS":"00069174","GEOIDFQ":"0500000US05111","GEOID":"05111","NAME":"Poinsett","NAMELSAD":"Poinsett County","STUSPS":"AR","STATE_NAME":"Arkansas","LSAD":"06","ALAND":1963975402,"AWATER":13892744},"id":"05111"},{"arcs":[[-124,-195,-214,-197,-155,-174]],"type":"Polygon","properties":{"STATEFP":"05","COUNTYFP":"137","COUNTYNS":"00069902","GEOIDFQ":"0500000US05137","GEOID":"05137","NAME":"Stone","NAMELSAD":"Stone County","STUSPS":"AR","STATE_NAME":"Arkansas","LSAD":"06","ALAND":1570673289,"AWATER":8145444},"id":"05137"},{"arcs":[[-135,-160,-180,-220,-192]],"type":"Polygon","properties":{"STATEFP":"05","COUNTYFP":"125","COUNTYNS":"00067102","GEOIDFQ":"0500000US05125","GEOID":"05125","NAME":"Saline","NAMELSAD":"Saline County","STUSPS":"AR","STATE_NAME":"Arkansas","LSAD":"06","ALAND":1873898599,"AWATER":17955554},"id":"05125"},{"arcs":[[-5,-85,-57,-30,-117,-210]],"type":"Polygon","properties":{"STATEFP":"05","COUNTYFP":"043","COUNTYNS":"00066851","GEOIDFQ":"0500000US05043","GEOID":"05043","NAME":"Drew","NAMELSAD":"Drew County","STUSPS":"AR","STATE_NAME":"Arkansas","LSAD":"06","ALAND":2146237579,"AWATER":18789748},"id":"05043"},{"arcs":[[-77,-129,-168,-188,-212]],"type":"Polygon","properties":{"STATEFP":"05","COUNTYFP":"123","COUNTYNS":"00083331","GEOIDFQ":"0500000US05123","GEOID":"05123","NAME":"St. Francis","NAMELSAD":"St. Francis County","STUSPS":"AR","STATE_NAME":"Arkansas","LSAD":"06","ALAND":1644082973,"AWATER":20017606},"id":"05123"},{"arcs":[[-41,-147,-208,222]],"type":"Polygon","properties":{"STATEFP":"05","COUNTYFP":"143","COUNTYNS":"00069905","GEOIDFQ":"0500000US05143","GEOID":"05143","NAME":"Washington","NAMELSAD":"Washington County","STUSPS":"AR","STATE_NAME":"Arkansas","LSAD":"06","ALAND":2438382545,"AWATER":27861950},"id":"05143"},{"arcs":[[-66,-101,-211,-115,-137,-191]],"type":"Polygon","properties":{"STATEFP":"05","COUNTYFP":"069","COUNTYNS":"00066862","GEOIDFQ":"0500000US05069","GEOID":"05069","NAME":"Jefferson","NAMELSAD":"Jefferson County","STUSPS":"AR","STATE_NAME":"Arkansas","LSAD":"06","ALAND":2259364692,"AWATER":113071690},"id":"05069"},{"arcs":[[-26,-133,-222,-165,-127,-46,-122]],"type":"Polygon","properties":{"STATEFP":"05","COUNTYFP":"067","COUNTYNS":"00066861","GEOIDFQ":"0500000US05067","GEOID":"05067","NAME":"Jackson","NAMELSAD":"Jackson County","STUSPS":"AR","STATE_NAME":"Arkansas","LSAD":"06","ALAND":1641044497,"AWATER":20284491},"id":"05067"},{"arcs":[[-23,-216,223,-83,-141]],"type":"Polygon","properties":{"STATEFP":"05","COUNTYFP":"121","COUNTYNS":"00069178","GEOIDFQ":"0500000US05121","GEOID":"05121","NAME":"Randolph","NAMELSAD":"Randolph County","STUSPS":"AR","STATE_NAME":"Arkansas","LSAD":"06","ALAND":1688445993,"AWATER":10370823},"id":"05121"},{"arcs":[[-11,-90,-32,-56,224,-138]],"type":"Polygon","properties":{"STATEFP":"05","COUNTYFP":"139","COUNTYNS":"00069903","GEOIDFQ":"0500000US05139","GEOID":"05139","NAME":"Union","NAMELSAD":"Union County","STUSPS":"AR","STATE_NAME":"Arkansas","LSAD":"06","ALAND":2691170084,"AWATER":42102269},"id":"05139"},{"arcs":[[-7,-140,-70,-190,-52,-86]],"type":"Polygon","properties":{"STATEFP":"05","COUNTYFP":"099","COUNTYNS":"00069169","GEOIDFQ":"0500000US05099","GEOID":"05099","NAME":"Nevada","NAMELSAD":"Nevada County","STUSPS":"AR","STATE_NAME":"Arkansas","LSAD":"06","ALAND":1600067807,"AWATER":7489489},"id":"05099"}]}}}