{"type":"Topology","arcs":[[[3322,10586],[38,-30],[44,-12],[25,35]],[[3429,10579],[65,9],[23,-13],[64,4],[16,-19],[65,37],[22,29],[282,-5],[286,-1]],[[4252,10620],[-17,-34],[30,-27],[3,-32],[-16,-33],[24,-36],[63,-37],[-16,-66],[21,-60],[3,-38],[-23,-30],[-45,-32],[-2,-74],[20,-40],[28,-19],[15,-58],[11,-84],[72,60],[38,-39],[43,0],[24,38],[29,-51],[36,-5],[15,-48]],[[4608,9875],[14,-26],[-37,-65],[48,-52],[-23,-35],[2,-26],[-32,-31],[19,-56],[-18,-35],[44,-47]],[[4625,9502],[-294,-1],[-50,58],[-22,-24],[-30,14],[-28,-42],[-8,-39],[-65,-75],[-3,-29],[-30,5]],[[4095,9369],[0,43],[-38,15],[-25,30],[-31,-17],[-27,67],[-48,19],[4,27],[-33,23],[-1,25],[-25,17],[-31,74],[-75,42],[-22,39],[-145,73],[-43,16],[-26,27],[-28,6],[-37,45],[-44,85],[-83,63],[-25,52],[-32,25],[-12,34]],[[3268,10199],[-44,87],[-29,73],[17,51],[-5,50],[6,50],[36,47],[30,12],[24,-12],[19,29]],[[9596,3030],[64,-68],[86,-79],[9,-14]],[[9755,2869],[16,-29],[118,-189],[64,-25],[4,-102],[86,-14],[88,-99],[-140,-265],[1,-62]],[[9992,2084],[0,-75],[-41,-33],[-59,-3],[-25,-141]],[[9867,1832],[-38,73],[-30,37],[-55,48],[-20,-13],[-29,10],[-17,50],[-84,125],[-42,20],[-39,49],[-48,41],[-79,31],[-18,27],[-87,74],[-41,49],[-87,116],[-38,26]],[[9115,2595],[34,32],[-7,45],[17,51],[31,36],[6,57],[44,58],[25,16],[38,47],[13,0],[0,93],[280,0]],[[5601,9681],[19,-69],[21,-3],[18,-31],[3,-31],[22,-24],[13,-68],[36,-60],[-24,-41],[15,-18],[1,-47],[42,-47],[26,-5],[12,-33],[31,-11],[15,-70],[65,4],[49,-36],[25,9],[63,-10],[-6,25],[23,17],[42,-27],[29,58],[19,-10],[27,23],[47,9],[36,25],[74,-23],[22,30],[34,21],[33,-12],[34,3],[77,38],[111,-3],[42,74],[-7,26],[24,47],[29,12],[16,42],[2,56],[72,90],[47,3],[-2,55],[29,9],[27,-35],[15,40],[8,55],[53,-16],[14,52],[31,35],[-16,27],[-27,-2],[11,60],[17,0],[35,-31],[24,45],[25,-25],[-5,-32],[33,-28],[11,72],[41,6],[2,31],[36,-1],[32,-25],[37,67],[28,22],[16,32],[-2,73],[12,11],[-12,61],[7,41],[-12,41],[28,31],[5,57],[37,48],[383,453]],[[7801,10843],[29,-32],[55,-28],[17,17],[33,-36],[18,3],[52,-86],[30,-19],[15,-55],[51,25],[28,2],[30,-55]],[[8159,10579],[17,-14],[6,-45],[-30,-30],[-14,-59],[29,-54],[-25,-55],[68,-60],[35,28],[44,-81],[29,-64],[-28,-39],[5,-80],[21,-33],[-8,-46],[26,-57],[21,-10],[38,12],[30,-10],[14,-34],[21,-15],[45,-4],[23,-33],[27,-6],[24,-39],[28,-22],[28,4],[16,-19],[-7,-32],[28,-44],[-8,-27],[23,-29],[4,-39],[70,-199],[-13,-38],[12,-53],[-41,-23],[0,-31],[23,-42],[-9,-39],[16,-69],[12,-12]],[[8759,9037],[-282,0],[1,-12],[-284,1],[-335,5],[-4,-182],[-150,1],[-208,7],[-105,0],[0,-187],[-234,4],[-155,-186]],[[7003,8488],[-135,-150],[-21,23],[-45,-22],[-51,-6],[-9,-31],[-298,-3],[0,-469],[-239,-275],[-276,-315]],[[5929,7240],[-31,34],[-1,27],[-28,26],[-6,35],[-68,22],[-37,-12],[-24,42],[-28,13],[-14,34],[-90,56],[-74,75],[-1,44],[-82,35],[-10,51],[-13,18],[-4,43],[19,16],[24,64],[16,12],[-76,93],[1,45]],[[5402,8013],[7,32],[-13,26],[29,43],[48,5],[48,25],[-1,343],[-9,0],[-395,466],[-62,75]],[[5054,9028],[381,456],[95,0],[-7,104],[78,93]],[[5601,9681],[94,111],[34,5],[99,56],[31,-11],[32,11],[24,25],[70,34],[71,24],[83,6],[40,-5],[56,8],[75,33]],[[6310,9978],[420,503],[160,1],[0,94],[52,0],[0,71],[45,0],[1,141],[398,467]],[[7386,11255],[22,-21],[8,-50],[28,-12]],[[7444,11172],[13,-27],[24,4],[39,-31],[26,48],[45,4],[62,-9],[22,-20],[24,-45],[40,-41],[5,-58],[24,-44],[18,-14],[-2,-58],[17,-38]],[[14326,1059],[25,-51],[14,-73],[31,5],[2,-34],[-19,-46],[23,-47],[-6,-146],[-37,-47],[-23,-15],[-31,-54],[7,-73],[-18,-16],[-36,0],[-26,-32],[-44,-1],[-9,-13],[-102,20],[-19,17],[-25,-57],[-407,-41],[-479,-50],[-194,-20],[-559,-63],[-369,-41]],[[12025,181],[0,231],[4,0],[0,748],[32,0],[-2,378],[-4,376]],[[12055,1914],[302,1],[288,2],[305,-1],[327,3],[258,-1],[186,4],[151,1],[0,7],[295,0]],[[14167,1930],[-24,-36],[-22,-8],[-42,10],[-51,-41],[21,-31],[14,-49],[-3,-52],[-14,-35],[-30,-40],[12,-30],[66,-39],[4,-31],[-21,-22],[21,-43],[-6,-134],[-26,-68],[-16,-73],[27,-28],[21,-58],[5,-41],[19,-9],[27,25],[16,-31],[40,-12],[42,24],[79,-19]],[[4252,10620],[1,-1]],[[4253,10619],[336,393],[31,20],[24,47],[48,7],[19,44],[51,6],[26,40],[38,-8],[72,9],[13,29],[52,3],[40,-39],[46,-2],[-6,321],[0,409]],[[5043,11898],[73,-104],[63,-75],[116,-152],[12,-23],[132,-173]],[[5439,11371],[161,-176],[224,-250]],[[5824,10945],[-348,-201],[-309,-179],[-65,-34],[-142,-88],[-13,-31],[25,-37],[-1,-39],[17,-9],[-380,-452]],[[4897,12823],[26,20],[51,-4],[51,26],[13,-22],[28,6],[41,37],[28,-4],[23,38],[50,13],[76,-10],[61,-28],[59,-51],[71,-32],[70,0],[38,18],[63,0],[36,21],[105,21],[53,29],[32,7],[54,-6],[26,23],[35,8],[18,41],[41,21],[2,25],[29,63],[79,8],[26,11],[7,35],[27,54],[-8,34],[17,22],[48,6],[7,-13]],[[6280,13240],[0,-414]],[[6280,12826],[-76,-30],[-57,-3],[-60,14],[-51,-33],[-27,2],[-14,-19],[-51,-12],[-119,-13],[-53,16],[-35,-43],[-83,-30],[-37,-44],[-18,6],[-40,-15],[-6,-28],[-50,-11],[-15,-83],[-39,-50],[-30,-7],[-37,-29],[-66,-22],[-20,-25],[-67,-22],[-70,-46],[-16,-36],[-31,-14],[-21,-42],[-28,17],[-35,-18],[-24,12],[-27,-18],[-34,16]],[[4943,12216],[-45,160]],[[4898,12376],[-1,447]],[[2036,12366],[12,23],[41,23],[28,-12],[65,12],[235,-236],[24,0],[32,-24],[49,-13],[26,-18],[66,-1],[16,17],[35,-26],[15,-32],[21,-8],[36,-39],[29,-61]],[[2766,11971],[18,-22],[4,-63],[-23,-85],[2,-28],[51,-34],[23,-41],[-36,-5],[-27,-37],[6,-92],[40,-60],[30,-25],[-17,-21],[-35,5],[-22,45],[-22,-4],[14,-59],[24,-15],[8,-49],[-9,-23],[-37,-10],[-65,32],[-18,34],[-29,11],[-28,39],[-33,12],[-26,36],[-53,19],[-35,-27],[-36,23],[-14,46],[-66,48],[-21,61],[-35,43],[-51,43],[-37,18],[-84,14],[-24,-7],[-36,-42],[-2,-25],[-42,13],[28,82],[46,153],[13,55],[3,55],[-23,49],[-10,92],[8,42],[-52,99]],[[2036,12366],[-52,39],[-36,-25],[-16,44],[9,80],[-51,120],[-26,31],[-10,44],[-107,94],[-70,34],[-26,42],[-55,42],[-48,49],[-14,53],[-27,14],[-32,68],[-27,42],[-16,43],[-32,54],[-74,79],[-31,11],[-28,57]],[[1267,13381],[25,-1],[28,23],[187,-3],[0,63],[140,4],[196,2],[-1,65],[80,-3],[1,30],[107,-2],[269,-2]],[[2299,13557],[37,-31],[52,-59],[35,-66],[37,-98],[26,-45],[66,-10],[29,-76]],[[2581,13172],[5,-40],[-15,-29],[7,-35],[-26,-50],[37,-84],[56,-23],[19,-43],[32,-15],[5,-51],[20,-62],[31,-26],[41,-14],[-25,-58],[26,-26],[20,-47],[25,-23],[-13,-25],[44,-41],[46,-95],[-14,-48],[41,-72],[16,-5],[2,-66],[20,-32],[-28,-53],[-2,-39],[-52,-4]],[[2899,12066],[13,-28]],[[2912,12038],[-66,-55],[-2,46],[-76,-50],[-2,-8]],[[2899,12066],[306,-2],[2,22],[-30,30],[0,21],[31,53],[-12,57],[7,40],[-24,27],[31,16],[-16,31],[12,49],[189,0],[4,21],[-17,67],[-28,68],[-36,54],[-13,48],[31,117],[2,49]],[[3338,12834],[67,8],[39,-51],[28,-9],[48,41],[15,25],[40,29],[45,-9],[30,18],[57,-2],[52,-23],[70,-1],[38,26],[37,0],[27,-23],[1,-85],[0,-373],[146,-1]],[[4078,12404],[-18,-37],[4,-162],[-19,-53],[-23,-3],[-45,-27],[-33,-47],[-10,-58],[-20,-45],[-11,-59],[-43,6],[-77,-57],[-45,12],[-23,22],[-27,-23]],[[3688,11873],[-18,-33],[-51,-12],[-53,17],[-53,31],[-66,-17],[-47,6],[-90,-56],[-23,-8],[-41,10],[-24,37],[-87,21],[-37,-8]],[[3098,11861],[-19,49],[-29,43],[-85,65],[-53,20]],[[5824,10945],[99,-241],[11,-51],[18,-18],[35,-98],[-13,-23],[26,-69],[72,-136],[18,-51],[30,-47],[-1,-45],[18,-30],[40,-37],[73,-36],[45,-53],[15,-32]],[[5054,9028],[-21,24],[-301,183],[-17,54],[-24,50],[-21,24],[-7,36],[-41,1],[-25,28],[28,74]],[[4905,14719],[43,49],[29,9],[58,-3],[55,15],[83,35],[53,-6],[35,28],[29,3],[27,38],[34,27],[18,41],[36,36],[37,11],[78,-6],[29,5],[31,-20],[10,-41],[20,-24],[1,-40],[42,-40],[521,-2],[205,0]],[[6379,14834],[-3,-276]],[[6376,14558],[-458,-1],[-468,-2],[-53,-18],[-66,-40],[-92,-101],[-92,-69],[-20,-61],[-42,-9],[-16,-27],[-52,-40],[-31,-37],[-29,-55],[-8,-55],[-24,-53],[-30,-29],[-19,-53],[-54,-15],[-38,11],[-49,55],[-19,-23],[-50,-31],[-50,-1],[-12,24],[-72,25]],[[4532,13953],[0,420],[29,56],[-11,32],[39,27],[29,-2],[29,41],[-9,30],[40,48],[30,1],[47,88],[30,0],[28,28],[77,6],[15,-9]],[[4095,9369],[-38,0],[-32,27],[-21,-38]],[[4004,9358],[-26,43],[-27,-23],[-43,25],[-49,-12],[-41,-55],[-21,2],[-24,-37],[-10,-36]],[[3763,9265],[-75,173],[-26,40],[-38,41],[-34,19],[-32,-14],[-30,-37],[-73,17],[-5,-22],[-57,-7],[-62,21],[-108,86],[-59,58],[-7,28],[-34,45],[-47,91],[-12,12]],[[3064,9816],[5,13],[-32,73],[-9,85],[109,6],[0,54],[130,1],[1,151]],[[7386,11255],[-19,35],[-48,38],[4,31],[-45,22],[-31,1],[-3,38],[-64,35],[-37,-25],[-41,22],[-42,71],[-46,-2],[-30,-25],[0,-38],[-17,-25],[-44,-29],[-26,-1],[-16,-27],[10,-29],[-24,-42],[-35,-4],[-79,-35],[-7,-21],[-79,-29],[-33,18],[-35,-22],[-34,13],[-45,-13],[-46,11],[-38,43],[-90,62],[-41,3],[-3,23],[-32,10],[-14,-35],[-55,-66],[-81,25],[-1,-39],[-25,-26],[-56,1],[-36,-59],[-31,-13],[-43,8],[-43,-19],[56,-127],[-28,-36],[-32,48],[-26,21],[-38,5],[-5,-24],[30,-43],[-18,-40]],[[5439,11371],[28,62],[36,26],[31,47],[21,-2],[15,40],[37,32],[3,36],[29,20],[-18,37],[9,52],[31,1],[11,34],[36,5],[20,59],[33,42],[0,27],[24,19],[9,47],[29,24],[17,59],[53,76],[47,99],[74,132],[19,16],[30,57],[25,21],[42,96],[60,48],[68,15],[29,26],[55,19],[14,19]],[[6356,12662],[196,-166],[68,57],[33,11],[19,29],[45,12],[25,21],[59,4],[20,-27],[8,-58],[-9,-29],[88,-83]],[[6908,12433],[-5,-71],[-13,-15],[55,-54],[-12,-19],[24,-40],[-28,-11],[-3,-52],[41,-49],[17,6],[14,-58],[45,-10],[21,-18],[89,-35],[-3,-26],[25,-43],[44,24],[39,-1],[25,-31],[44,-15],[54,-85],[11,-47],[-25,-118],[20,-47],[64,-44],[-2,-27],[56,-16],[39,-47],[-21,-28],[15,-90],[-19,-23],[23,-31],[-29,-54],[-32,-22],[-16,-48],[-21,-16]],[[8759,9037],[31,-33],[7,-51],[-35,-21],[30,-86],[19,-18],[6,-43],[57,-49],[-18,-60],[5,-38],[36,-15],[39,-60],[-15,-80],[24,-43],[24,-21],[2,-43],[30,-22],[53,13],[28,-31],[-3,-31],[-29,-21],[10,-31],[32,-18],[15,-44],[29,-9],[1,-37],[-31,-48],[-8,-58],[11,-52],[20,-47],[5,-53],[41,-42],[21,-41],[-2,-44],[-19,-23],[22,-101],[13,-33],[-3,-36],[13,-24],[13,-85],[31,-23],[13,-31],[-22,-49],[17,-31],[21,-6],[13,-37],[-10,-23],[11,-43],[-9,-34],[-24,-37],[-4,-158]],[[9270,6986],[-74,5],[-197,-2],[-240,0],[-127,4],[-177,-6],[-335,1],[-260,2],[-441,-1],[-365,-1]],[[7054,6988],[1,311],[2,61],[0,375],[10,0],[0,283],[79,-2],[0,283],[-78,2],[0,184],[-65,3]],[[3688,11873],[30,-30],[14,-45],[20,-19],[42,-8],[74,18],[55,40],[27,34],[-1,45],[29,29],[35,-20],[15,26],[33,3],[36,-12]],[[4097,11934],[4,-34],[-11,-75],[39,-57],[-30,-27],[-2,-61],[21,-34],[13,-79],[-33,-109],[12,-31],[28,5],[21,-30],[-29,-64]],[[4130,11338],[-323,-118],[-261,-92],[-75,62],[21,34],[-24,36],[-45,38],[-138,15],[-25,28],[-42,9],[4,26],[-52,65],[-5,30],[-38,18],[-21,36],[-71,-14]],[[3035,11511],[-33,28],[-47,-12],[-32,10],[4,24],[-32,26],[-4,66],[65,32],[8,25],[-10,39],[53,-14],[46,20],[55,72],[-10,34]],[[4304,16351],[47,-1],[-1,-77],[41,-15],[0,-79],[-8,-43],[-26,1],[0,-47],[-28,-31],[0,-61],[14,-1],[-1,-61],[-13,0],[-1,-62],[-14,-63],[28,0],[-2,-62],[46,-35],[28,0],[15,-63],[26,0],[21,-32],[2,-31],[46,-32],[49,-59],[4,-30],[27,0],[0,-31],[27,0],[4,-54],[26,-1],[0,-32],[28,1],[0,-31],[23,-31],[27,0],[0,-61],[56,-16],[31,-51]],[[4826,15160],[-4,-26],[-41,0],[1,-38],[-50,-11],[-12,-15],[0,-62],[-14,-14],[-37,15],[-81,0],[1,-29],[-54,-1],[-40,14],[-1,-46],[-13,-47],[-34,-24],[-12,-44],[7,-47],[-25,-29],[-20,-95],[-40,-32],[-10,-22],[-52,-17],[-46,4],[-21,-30],[-60,-3],[-48,-28],[-53,12],[-34,-32]],[[4033,14513],[-9,21],[-244,-4],[-159,0]],[[3621,14530],[20,80],[-7,28],[18,39],[-4,25]],[[3648,14702],[25,149],[1,81],[-8,40],[30,59],[-128,-2],[-42,-16],[-29,11],[-13,55],[12,49],[-1,45],[22,34],[-17,22],[7,31],[26,28],[-23,29],[34,15],[29,45],[-14,36],[-24,15],[-40,60],[-42,39],[-11,26],[12,37],[-33,0]],[[3421,15590],[-26,30],[10,37],[-2,45],[20,73],[233,-1],[116,2],[39,9],[39,40],[6,68],[31,62],[33,36],[81,-4],[15,31],[-1,62],[40,63],[19,6],[0,76],[13,15],[110,0],[29,17],[14,30],[41,0],[14,16],[9,48]],[[6376,14558],[3,-324],[1,-114],[2,-97]],[[6382,14023],[-205,0],[-13,-46],[-46,-32],[-81,0],[0,-16],[-127,-3],[-155,13],[-52,-135],[-22,-15],[-10,-33],[-28,-25],[-48,-10],[-16,-25],[-32,3],[-13,32],[-36,25],[-43,3],[-59,48],[-2,48],[-29,-17],[-27,39],[-68,16],[-87,-42],[-25,-22],[-17,-53],[-46,15],[-13,-13],[-51,22],[-5,-60],[-28,7],[-89,-44],[-49,-39],[-13,-38],[13,-30],[-7,-37],[-43,-39],[-22,-102],[-21,-60],[-25,-98],[-10,0]],[[4732,13260],[-8,-1],[-489,50]],[[4235,13309],[21,37],[1,373],[80,1],[-1,151]],[[4336,13871],[44,38],[17,29],[53,23],[46,30],[36,-38]],[[2581,13172],[235,75],[70,134],[27,79],[26,-6],[6,52],[-38,63],[9,17]],[[2916,13586],[33,-40],[31,-20],[39,22],[13,-14],[40,1],[20,-65],[22,-43],[14,-73],[36,-72],[2,-49],[31,-19],[-1,-28],[31,-44],[20,-3],[11,-44],[31,-53],[49,-208]],[[4304,16351],[-12,55],[9,37],[46,-7],[32,40],[24,4],[10,29],[-8,43],[26,40],[-40,72],[29,-1],[16,33],[-34,28],[-18,32],[-44,4],[-25,17],[-60,-1],[-15,36],[-3,76],[5,37],[-26,27],[0,29]],[[4216,16981],[246,0]],[[4462,16981],[386,2],[0,-408],[29,0],[0,-46],[54,0],[0,-30],[84,0],[-2,-31],[28,0],[-1,-31],[55,0],[27,16],[0,90],[27,1],[28,31],[0,31],[55,15],[-1,50],[33,1],[14,31],[55,-1],[0,-15],[108,-2],[14,-31],[28,-16],[67,-1],[0,-46],[40,-1],[28,-30],[27,-1],[0,-31],[28,1],[13,-63],[41,0],[0,-31],[26,-46],[28,-1],[13,-47],[42,-15],[0,-23],[55,-31],[96,-1],[41,-15],[0,-47],[53,0],[-1,-93],[13,0],[1,-62],[27,-1],[0,-31],[41,-65],[66,-62],[1,-312],[-4,-61],[-25,-32],[0,-32],[-27,1],[-1,-62]],[[6172,15397],[-433,2],[-28,-4],[-273,-1],[-9,-43],[-30,-20],[-57,67],[-43,25],[-59,-20],[-31,32],[-1,37],[-40,10],[-28,50],[-20,12],[-31,-35],[-28,-5],[-29,-40],[0,-80],[-9,-32],[-67,-90],[-33,-11]],[[4923,15251],[-97,-91]],[[850,20308],[135,3],[103,-4],[48,10],[154,2]],[[1290,20319],[-29,-39],[7,-59],[-31,-54],[1,-34],[-17,-23],[-39,4],[-31,-52],[-41,19],[-15,-23],[3,-42],[-47,-48],[-30,-16],[20,-57],[25,-15],[-23,-32],[15,-92],[23,-27],[-7,-73],[-33,-48],[14,-69],[-45,-48],[-11,-42],[54,-18],[0,-32],[-18,-32],[16,-30],[44,-8],[25,-125],[34,-42],[-15,-62],[-38,-26],[14,-28],[-33,-55]],[[1082,18991],[-157,-3],[-1,180],[-167,3],[-260,-2]],[[497,19169],[-23,100],[-1,78],[-28,46],[1,71],[-20,31],[-8,51],[-23,36],[-11,112],[-31,66],[-52,10],[-78,71],[25,56],[26,91],[16,90],[7,113],[-10,21],[8,70],[-10,32],[308,-5],[257,-1]],[[6280,13240],[156,157],[25,13],[8,46],[49,67],[2,43],[38,22],[-10,114],[-24,33]],[[6524,13735],[462,-472]],[[6986,13263],[8,-14],[-29,-79],[-14,-9],[-11,-46],[-3,-88],[35,-34],[15,-76],[23,-30],[32,-83],[6,-41],[-20,-22],[0,-49],[-20,-27],[11,-52],[-35,-29],[-21,18],[-31,-25],[22,-59],[-31,-17],[-15,-68]],[[6356,12662],[-49,48],[-27,-19],[0,135]],[[4435,6999],[336,-4],[346,-3],[420,-2],[485,-4],[53,0]],[[6075,6986],[29,1]],[[6104,6987],[0,-376],[156,0],[-1,-189],[26,-29],[26,1],[0,-32],[26,0],[0,-32],[27,0],[-1,-31],[26,-1],[6,-62],[164,-1],[-1,-189],[103,0],[0,-188],[207,-2],[-1,-188],[164,11],[-11,-198],[103,8],[0,-32],[26,0],[-1,-298],[1,-78]],[[7149,5081],[-26,-9],[-66,0],[-61,53],[-55,61],[-41,7],[-42,43],[-39,6],[-25,-10],[-40,4],[-94,61],[-30,8],[-34,56],[-51,18],[-21,-5],[-35,47],[-21,-12],[-48,8],[-55,50],[-77,33],[-38,37],[-52,-42],[-19,3],[-19,-38],[-18,-6],[-25,-58],[-5,-39],[-63,-20],[-29,18],[-84,-43],[-20,17],[-15,-23],[10,-43],[37,-49],[14,-71],[-14,-53],[-24,3],[-14,40],[-48,44],[-108,87],[-88,14],[-61,-21],[-24,-21],[-29,10],[-15,-24],[-24,12],[-46,-29],[-22,33]],[[5445,5238],[13,61],[15,125],[-1,91],[-23,86],[-42,20],[-34,39],[-51,15],[-30,-8],[-8,-32],[-37,39],[-102,62],[-59,88],[14,76],[22,54],[15,83],[-11,121],[-22,58],[-34,40],[-62,-2],[-27,26],[-49,1],[-141,189],[-39,103],[-22,19],[-33,64],[-33,17],[-29,-3],[-19,22],[-26,1],[-31,26],[-37,2],[-5,51],[-37,52],[-4,67],[-10,53],[-31,55]],[[1449,18557],[21,-19],[18,-42],[41,25],[72,-41],[43,-45],[24,-66],[25,-35],[53,-9],[14,12],[88,3],[34,-7],[19,-35],[59,-27],[26,-91],[58,20],[47,-3],[43,-42],[30,12],[25,67],[-13,16],[-25,76],[-27,-4],[-32,20],[-13,70],[19,25],[-5,25],[17,33],[-16,61],[39,-4],[16,20],[57,39],[60,-10],[27,21],[20,-16],[44,33],[6,28],[34,23],[41,12],[19,59],[81,36],[15,28],[0,43],[27,16],[53,-13],[13,22],[-5,49],[22,19],[26,-13],[23,-44],[46,-14],[37,-32],[-34,-23],[6,-29],[-22,-26],[2,-123],[-16,-28],[37,-38],[-1,-28]],[[2767,18563],[64,-35],[8,-103],[-13,-46],[-52,-23],[-29,5],[-38,-34],[20,-21],[-3,-104],[-15,-26],[-24,3],[-21,-40],[-42,-20],[-13,-45],[6,-30],[-14,-42],[18,-46],[-14,-33],[-23,-15],[-20,-69],[-23,-8],[-15,-33],[15,-35],[-4,-48],[-89,-103],[19,-30],[-23,-64],[-43,-13],[16,-52],[20,-32],[-13,-31],[39,-10],[15,-133],[-34,13],[-91,-74],[5,-20],[-27,-44],[-66,-13],[-1,-31],[-63,-48],[-17,-50],[-38,4],[-15,-39],[-25,-16],[-61,-7],[2,-46],[-31,-29],[-2,-24],[-59,-51],[-13,-34],[5,-97]],[[1945,16641],[21,-42],[47,-10],[43,-27],[20,-38],[-7,-38],[14,-61],[-20,-31],[-4,-58],[19,-32],[18,-65],[-17,-48],[29,-38],[5,-59],[-10,-27],[7,-46],[26,-43]],[[2136,15978],[-577,-2],[-308,-1],[1,54]],[[1252,16029],[0,516],[-1,212],[0,543],[1,312],[-19,86],[-4,107],[-24,54],[-15,8],[-42,120],[24,36],[39,13],[18,28],[56,-44],[14,-20],[44,-11],[9,35],[39,26],[-7,44],[23,18],[14,61],[31,26],[-2,38],[-18,10],[-5,49],[-32,8],[-27,31],[26,27],[24,62],[-4,96],[35,37]],[[3429,10579],[-18,22],[-3,47],[-39,14],[-39,-3],[-4,61],[-50,128],[-9,115],[-21,76],[-39,39],[-30,8],[-54,55],[-14,40],[26,18],[-90,52],[-32,11],[-5,13],[-2,51],[25,35],[28,3],[-7,58],[-35,40],[20,12],[-2,37]],[[4130,11338],[1,-588],[49,-38],[30,0],[12,-48],[17,-2],[14,-43]],[[3621,14530],[-18,-47],[-23,-30],[-17,-59],[29,-89],[-25,-41],[39,-80],[19,-82],[16,-17],[1,-39],[35,-24],[32,8],[14,-17],[-1,-38],[21,-29],[-2,-45],[43,-30],[-34,-18],[-30,-72],[14,-35],[-7,-30]],[[3727,13716],[-327,3],[-404,-3]],[[2996,13716],[-48,33],[-52,50],[-15,56],[15,39],[-6,28],[-35,2],[-67,98],[-9,70],[-16,46],[6,27],[32,24],[-35,99],[-24,39],[-84,-10],[-8,13],[-81,27],[-22,-20],[-22,8],[-38,64],[-30,21],[-67,61],[-24,58],[15,48],[33,52],[4,52]],[[2418,14701],[275,4],[193,-3],[405,4],[0,62],[185,-2],[0,-64],[172,0]],[[3064,9816],[-30,23],[-36,6],[1,32],[-33,31],[-9,48],[-40,19],[-15,31],[-3,50],[-17,63],[10,37],[15,153],[1,47],[-33,72],[-29,93],[-3,55],[-20,67],[-19,17],[-31,-18],[-33,62],[4,67],[-5,82],[23,19],[11,96],[-4,91],[-8,46]],[[2761,11105],[158,1]],[[2919,11106],[8,-63],[19,-36],[-8,-59],[22,-14],[-7,-55],[14,-22],[65,-3],[13,-33],[63,-4],[28,-45],[57,-27],[6,-29],[55,-57],[37,14],[12,-14],[19,-73]],[[1267,13381],[-67,74],[-25,11],[-12,32],[-61,49],[-18,58],[-29,21],[-44,69],[-25,10],[-2,80],[26,45],[30,94],[-4,78],[-14,33],[-25,107],[-23,36],[-3,49],[-48,68],[-9,92],[-17,70],[-23,43],[12,25],[-16,59],[-29,42],[9,125],[10,24],[-2,57],[20,91],[26,49],[26,93],[-15,66],[-17,35],[9,46],[-6,83],[-11,64],[-20,45],[-24,16],[-20,73],[-2,93],[-20,83],[-41,24],[-37,38],[-33,100],[-36,27],[-36,86],[-23,23],[-40,60]],[[558,16027],[394,2],[300,0]],[[2136,15978],[10,-15],[0,-56],[20,-20],[-11,-42],[-42,-18],[-1,-83],[-14,-51],[19,-26],[13,-76]],[[2130,15591],[-1,-107],[38,0],[-1,-85],[30,1],[3,-185],[8,-26],[-1,-66]],[[2206,15123],[-7,-109],[-67,3],[0,-30],[-128,5],[-55,-33],[0,-110],[-15,1],[-3,-97],[28,0],[-2,-62],[28,-32],[0,-59],[27,-31],[0,-94],[22,0],[1,-44],[13,-46],[-26,0],[-17,-62],[-31,-72],[-47,0],[0,-75],[-14,-1],[0,-61],[-9,-31],[1,-50],[41,-17],[13,-31],[0,-62],[41,-31],[0,-21],[59,1],[14,-31],[-1,-77],[23,-46],[19,0],[0,-54],[54,3],[26,-13],[-1,-32],[27,0],[52,-31],[27,-34]],[[2916,13586],[-39,79],[26,53],[93,-2]],[[3727,13716],[44,-21],[3,-37],[-17,-45],[19,-26],[46,-6],[29,21],[28,-26],[10,-119],[32,-2],[22,-59],[0,-26],[40,-17],[36,28],[12,36],[25,-9],[22,-39],[-14,-58]],[[4064,13311],[-5,-37],[-41,-62],[9,-32],[49,-66],[42,-4],[10,-73],[12,-19],[33,11],[27,-16],[4,-23],[-22,-43],[14,-43],[-28,-37],[8,-22],[-38,-10],[-11,-35],[21,-43],[52,-10],[7,-72],[-40,-26],[27,-65],[-15,-35],[2,-44],[-22,-27],[-32,-11],[-49,-63]],[[4897,12823],[-62,213],[-22,86],[-48,149],[-22,-25],[-11,14]],[[6382,14023],[2,-146],[140,-142]],[[4336,13871],[-42,-7],[-18,10],[-37,-10],[-62,-47],[-27,2],[-15,-40],[-26,-32],[-16,36],[-10,74],[13,28],[-28,19],[-15,96],[35,71],[-27,49],[10,33],[-26,85],[4,49],[-23,31],[22,21],[-33,67],[21,36],[-14,62],[11,9]],[[4923,15251],[-22,-173],[-47,-41],[11,-47],[22,-8],[18,-263]],[[2418,14701],[-4,111],[13,34],[1,94],[-6,30],[1,155],[-53,-3],[-164,1]],[[2130,15591],[65,2],[745,0],[184,1],[106,-4],[191,0]],[[9755,2869],[27,38],[-1,78],[64,-2],[0,102],[76,36],[0,97],[265,1],[0,-32],[217,-3],[1,-29],[150,-2],[278,3],[0,63],[304,-1],[151,-2],[456,0],[457,5],[511,1],[458,-3],[0,94],[179,3],[526,1],[570,0]],[[14444,3317],[-5,-47],[1,-76],[-89,-130],[-32,-13],[-18,-65],[33,-31],[-17,-37],[28,-36],[-15,-40],[-23,-6],[15,-65],[-12,-22],[31,-101],[3,-37],[-11,-36],[23,-32],[0,-48],[-40,-23],[-12,-35],[20,-30],[-21,-16],[13,-29],[-10,-23],[13,-28],[-27,-42],[7,-48],[16,-36],[-49,-44],[-3,-33],[-45,-37],[-45,-92],[-6,-49]],[[12055,1914],[-163,6],[-100,-2],[-364,-2],[-440,0],[-231,1],[-72,5],[-110,1],[-49,5],[-145,-2],[-1,37],[-187,90],[9,30],[-210,1]],[[4097,11934],[20,24],[-26,32],[36,51],[33,16],[17,50],[-7,41],[36,39],[35,89],[14,14],[59,-11],[27,-49],[32,2],[66,-10],[70,20],[39,31],[66,-17],[42,25],[30,-1],[38,18],[28,29],[63,19],[28,29],[25,-18],[30,19]],[[4943,12216],[82,-295],[18,-23]],[[4235,13309],[-54,3],[-117,-1]],[[9596,3030],[-15,17],[-13,46],[25,63],[25,0],[0,40],[46,-10],[71,256],[12,52],[47,273],[-19,348],[-1,228],[-10,0],[-1,568]],[[9763,4911],[52,0],[-2,591],[3,0],[0,547],[-4,212],[6,32],[0,210],[-7,0],[0,188],[26,0],[0,62],[-52,1],[1,62],[25,0],[0,188]],[[9811,7004],[385,-5],[364,0],[281,1],[929,-5],[325,2],[466,-1],[0,33],[127,1]],[[12688,7030],[213,-249],[333,-388],[271,-321],[429,-507],[224,-269],[5,-21],[-8,-71],[8,-30],[-2,-81],[-8,-46],[9,-42],[63,-65],[23,-89],[27,-59],[52,-65],[62,-49],[33,-105],[18,-93],[21,-24],[-18,-29],[45,-58],[35,-86],[4,-48],[-12,-106],[19,-24],[45,10],[24,-31],[36,-22],[21,-46],[32,-9],[56,-76],[38,-10],[33,-25],[28,-68],[28,-31],[10,-87],[-48,-8],[-3,-20],[-86,-103],[-6,-32],[-35,-28],[-48,-7],[-54,-73],[-34,-5],[-27,-34],[-35,-18],[-36,-5],[-29,-60]],[[3069,20335],[183,-2],[324,-7],[505,-10],[208,-4]],[[4289,20312],[0,-100],[-14,-2],[0,-373],[11,1],[0,-333],[1,-412],[3,-1],[0,-527]],[[4290,18565],[-394,0],[-590,-1],[-31,3],[-247,1],[-84,-4],[-177,-1]],[[1449,18557],[-13,37],[-26,35],[-4,29],[-25,22],[18,27],[-6,57],[-24,89],[-20,22],[-8,55],[12,27],[-43,35],[-228,-1]],[[1290,20319],[248,-3],[167,10],[124,10],[147,-12],[480,3],[237,7],[247,4],[129,-3]],[[1945,16641],[35,8],[24,27],[70,25],[83,-18],[53,77],[42,1],[70,28],[82,21],[86,-60],[57,-20],[58,38],[45,47],[20,-6],[45,30],[20,31],[27,-22],[45,1],[37,-23],[49,2],[146,-7],[43,10],[41,24],[90,-7],[11,19],[77,14],[45,33],[26,-4],[101,30],[87,-16],[71,4],[35,34],[38,13],[18,-11],[47,16],[52,-17],[52,-3],[21,27],[49,10],[57,-39],[55,7],[28,-15],[35,32],[98,-1]],[[7191,5080],[87,-1],[2,-57],[153,-3],[-1,-33],[50,1],[0,-93],[383,-6],[0,-47],[142,-2]],[[8007,4839],[86,-264],[114,-344],[152,-459],[7,-110],[-51,0],[-1,-155],[-175,0],[-220,-201],[-5,-62]],[[7914,3244],[-76,43],[-18,2],[-41,35],[-34,5],[-36,30],[-33,-7],[-30,10],[-86,82],[-40,15],[-30,64],[-39,111],[-21,85],[-34,12],[-51,39],[-48,62],[-29,-3],[-59,79],[-18,2],[-25,39],[-23,0]],[[7143,3949],[36,49],[-4,45],[21,51],[-3,30],[-1,596],[-1,360]],[[6997,1597],[22,-16],[49,31],[57,-42],[41,-20],[38,-54],[-6,-24],[-46,-12],[-110,39],[-42,54],[-3,44]],[[4462,16981],[7,112],[3,563],[0,276],[1,37],[-16,33],[-1,564]],[[4456,18566],[175,1],[476,-1],[379,1],[462,-1],[437,0]],[[6385,18566],[1,-667],[3,-327],[2,-474],[0,-510],[-2,-657],[-6,-502]],[[6383,15429],[-21,-30],[-190,-2]],[[4289,20312],[148,-2],[248,2],[220,-9],[206,1],[382,-1],[184,1],[235,-2],[201,4],[273,1],[0,-257],[2,-551],[-2,-255],[-1,-678]],[[4456,18566],[-166,-1]],[[9115,2595],[-52,36],[-43,10],[-14,-19],[7,-43],[-15,-6],[-27,26],[-24,-10],[-38,-51],[-15,11],[-30,-34],[-78,43],[-32,26],[-67,6],[-18,88],[42,47],[6,69],[-31,102],[-58,162],[-75,125],[-59,47],[-40,5],[-55,-11],[-78,6],[-63,-21],[-41,8],[-73,-26],[-30,-44],[-22,31],[-48,43],[-130,23]],[[8007,4839],[5,31],[33,0],[0,31],[445,1],[545,5],[213,4],[361,2],[154,-2]],[[8406,2027],[27,-11],[60,1],[49,-40],[15,-26],[26,11],[53,-42],[32,-4],[60,-37],[45,-77],[59,-84],[8,-53],[-29,-24],[-72,45],[-49,3],[-47,-6],[-35,16],[-32,53],[9,82],[-11,66],[-33,22],[-75,10],[-60,95]],[[8398,1070],[44,3],[16,-20],[27,-76],[89,-141],[26,-17],[20,-32],[121,-133],[28,-39],[-55,11],[-58,-53],[-11,31],[-22,11],[-33,42],[-41,27],[-9,56],[-19,16],[-15,42],[-17,12],[-13,76],[-35,58],[-19,82],[-24,7],[0,37]],[[6986,13263],[369,-381],[253,-262],[224,-236],[74,-75],[258,-273],[83,-85],[134,-145],[72,-74],[209,-223],[256,-274],[399,-428],[103,-115],[104,-109]],[[9524,10583],[-747,-4],[-239,-1],[-379,1]],[[5402,8013],[-98,92],[-6,-14],[48,-94],[16,-69],[1,-45],[-76,-11],[-16,32],[-98,99],[-6,30],[-35,34],[-36,-5],[-43,44],[-33,-65],[-17,-13],[-28,34],[-17,0],[-10,-44],[-70,3],[0,113],[-221,262],[-32,59],[-22,11],[-1,29],[-19,32],[-32,-10],[-66,1],[24,52],[-26,49],[-23,12],[16,117],[-70,100],[-61,0],[-10,35],[-42,1],[-35,28],[-23,57],[48,26],[-13,34],[-22,18],[-8,34],[-36,-13],[-133,168],[-35,19],[-30,59],[-2,44]],[[7054,6988],[-283,-2],[-196,0],[-471,1]],[[6075,6986],[-10,65],[-34,10],[-20,48],[22,67],[-47,61],[-57,3]],[[12025,181],[-411,-49],[-344,-42],[-462,-56],[-257,-34],[-14,69],[1,65],[-7,59],[-34,89],[-47,45],[-44,-7],[-28,-41],[-17,77],[-4,54],[8,55],[-2,63],[-10,48],[-29,41],[-1,45],[24,13],[19,55],[-3,63],[-41,243],[-20,45],[-25,105],[-42,121],[-90,155],[-60,114],[-88,139],[-60,68],[-70,49]],[[9270,6986],[123,-5],[-2,25],[420,-2]],[[7191,5080],[-42,1]],[[2761,11105],[-18,156],[42,21],[11,38],[21,-8],[78,10],[32,-44],[1,-53],[40,-76],[-8,-26],[-41,-17]],[[558,16027],[-48,50],[-35,17],[0,73],[-43,80],[-43,27],[-69,31],[-39,65],[-108,91],[-108,124],[0,33],[23,82],[-21,60],[-4,69],[-12,39],[-42,63],[-9,45],[34,100],[-3,33],[84,239],[58,135],[59,120],[29,73],[38,77],[63,152],[31,107],[28,136],[9,81],[-20,46],[-29,20],[-20,34],[1,149],[22,4],[53,182],[50,312],[13,139],[-3,54]],[[9524,10583],[174,-193],[46,-46],[144,-160],[118,-126],[180,-200],[304,-335],[239,-265],[421,-472],[321,-362],[163,-186],[404,-459],[295,-340],[68,-77],[138,-161],[149,-171]],[[6383,15429],[0,-394],[-4,-201]],[[4435,6999],[-60,61],[-39,74],[-36,19],[-34,48],[-12,54],[4,28],[-19,48],[-6,45],[-22,59],[-15,19],[-91,39],[-22,48],[-5,39],[-38,45],[-20,72],[-17,17],[-43,68],[-37,37],[-25,39],[-116,83],[-25,3],[-31,33],[-23,58],[-33,24],[-36,40],[9,75],[-18,29],[6,55],[-20,46],[2,49],[-23,59],[6,12],[-30,68],[11,34],[-8,30],[28,11],[-11,74],[-55,26],[18,79],[49,55],[59,-72],[25,12],[42,61],[27,72],[14,64],[5,111],[25,116],[-32,100]],[[7143,3949],[-87,47],[-39,41],[-77,12],[-32,-11],[-48,1],[-54,-44],[-29,1],[-93,48],[-46,-3],[-41,-19],[-36,-2],[-13,21],[-59,40],[-39,-1],[-77,54],[-44,7],[-72,-7],[-43,20],[-48,8],[-25,-8],[-83,2],[-83,-5],[-75,-12],[-9,-8],[-95,-8],[-28,-11],[-66,-5],[-13,71],[-23,31],[-22,59],[-101,73],[-60,-6],[-24,20],[-8,29],[7,62],[22,62],[35,150],[-20,56],[-17,16],[-13,62],[18,57],[19,106],[-10,51],[-33,30],[-11,44],[-32,1],[10,74],[19,83]],[[6487,3274],[15,38],[90,-13],[56,-39],[86,12],[36,-27],[31,-6],[38,-51],[46,1],[25,-15],[26,7],[36,71],[47,12],[47,-30],[-25,-76],[-19,-22],[-43,-12],[-106,-8],[-75,-53],[-51,5],[-57,-10],[-42,2],[-18,18],[-25,-2],[-36,28],[-20,60],[15,51],[-58,56],[-19,3]],[[6024,3151],[41,17],[37,-13],[41,8],[45,39],[30,-14],[60,10],[27,29],[17,-4],[-10,-49],[6,-28],[30,-30],[32,-14],[35,3],[8,-83],[-39,-2],[-56,-36],[-15,-22],[-59,-11],[-45,-29],[-83,69],[-63,128],[-39,32]],[[5733,3219],[51,45],[35,-7],[41,46],[23,-57],[22,5],[35,-42],[-14,-23],[-26,4],[-33,-12],[-75,37],[-26,-15],[-33,19]]],"transform":{"scale":[0.0006904528048370851,0.00046587914249188693],"translate":[-124.408601,32.534435]},"objects":{"06":{"type":"GeometryCollection","geometries":[{"arcs":[[0,1,2,3,4,5,6]],"type":"Polygon","properties":{"STATEFP":"06","COUNTYFP":"085","COUNTYNS":"00277307","GEOIDFQ":"0500000US06085","GEOID":"06085","NAME":"Santa Clara","NAMELSAD":"Santa Clara County","STUSPS":"CA","STATE_NAME":"California","LSAD":"06","ALAND":3343891498,"AWATER":33597067},"id":"06085"},{"arcs":[[7,8,9,10,11]],"type":"Polygon","properties":{"STATEFP":"06","COUNTYFP":"059","COUNTYNS":"00277294","GEOIDFQ":"0500000US06059","GEOID":"06059","NAME":"Orange","NAMELSAD":"Orange County","STUSPS":"CA","STATE_NAME":"California","LSAD":"06","ALAND":2054504217,"AWATER":405282838},"id":"06059"},{"arcs":[[12,13,14,15,16,17,18,19]],"type":"Polygon","properties":{"STATEFP":"06","COUNTYFP":"019","COUNTYNS":"00277274","GEOIDFQ":"0500000US06019","GEOID":"06019","NAME":"Fresno","NAMELSAD":"Fresno County","STUSPS":"CA","STATE_NAME":"California","LSAD":"06","ALAND":15432656111,"AWATER":136636505},"id":"06019"},{"arcs":[[-13,20,21,22,23]],"type":"Polygon","properties":{"STATEFP":"06","COUNTYFP":"039","COUNTYNS":"00277284","GEOIDFQ":"0500000US06039","GEOID":"06039","NAME":"Madera","NAMELSAD":"Madera County","STUSPS":"CA","STATE_NAME":"California","LSAD":"06","ALAND":5534050365,"AWATER":42266781},"id":"06039"},{"arcs":[[24,25,26,27]],"type":"Polygon","properties":{"STATEFP":"06","COUNTYFP":"025","COUNTYNS":"00277277","GEOIDFQ":"0500000US06025","GEOID":"06025","NAME":"Imperial","NAMELSAD":"Imperial County","STUSPS":"CA","STATE_NAME":"California","LSAD":"06","ALAND":10814374223,"AWATER":790135128},"id":"06025"},{"arcs":[[-3,28,29,30,31,32]],"type":"Polygon","properties":{"STATEFP":"06","COUNTYFP":"099","COUNTYNS":"00277314","GEOIDFQ":"0500000US06099","GEOID":"06099","NAME":"Stanislaus","NAMELSAD":"Stanislaus County","STUSPS":"CA","STATE_NAME":"California","LSAD":"06","ALAND":3875010973,"AWATER":46378776},"id":"06099"},{"arcs":[[33,34,35,36,37]],"type":"Polygon","properties":{"STATEFP":"06","COUNTYFP":"005","COUNTYNS":"01675841","GEOIDFQ":"0500000US06005","GEOID":"06005","NAME":"Amador","NAMELSAD":"Amador County","STUSPS":"CA","STATE_NAME":"California","LSAD":"06","ALAND":1539967079,"AWATER":29437117},"id":"06005"},{"arcs":[[38,39]],"type":"Polygon","properties":{"STATEFP":"06","COUNTYFP":"041","COUNTYNS":"00277285","GEOIDFQ":"0500000US06041","GEOID":"06041","NAME":"Marin","NAMELSAD":"Marin County","STUSPS":"CA","STATE_NAME":"California","LSAD":"06","ALAND":1347160151,"AWATER":797807338},"id":"06041"},{"arcs":[[-39,40,41,42,43,44,45]],"type":"Polygon","properties":{"STATEFP":"06","COUNTYFP":"097","COUNTYNS":"01657246","GEOIDFQ":"0500000US06097","GEOID":"06097","NAME":"Sonoma","NAMELSAD":"Sonoma County","STUSPS":"CA","STATE_NAME":"California","LSAD":"06","ALAND":4080103624,"AWATER":497291855},"id":"06097"},{"arcs":[[-45,46,47,48,49,50]],"type":"Polygon","properties":{"STATEFP":"06","COUNTYFP":"095","COUNTYNS":"00277312","GEOIDFQ":"0500000US06095","GEOID":"06095","NAME":"Solano","NAMELSAD":"Solano County","STUSPS":"CA","STATE_NAME":"California","LSAD":"06","ALAND":2128290837,"AWATER":218611505},"id":"06095"},{"arcs":[[-4,-33,51,-21,-20,52]],"type":"Polygon","properties":{"STATEFP":"06","COUNTYFP":"047","COUNTYNS":"00277288","GEOIDFQ":"0500000US06047","GEOID":"06047","NAME":"Merced","NAMELSAD":"Merced County","STUSPS":"CA","STATE_NAME":"California","LSAD":"06","ALAND":5019448521,"AWATER":105236254},"id":"06047"},{"arcs":[[53,54,55,56]],"type":"Polygon","properties":{"STATEFP":"06","COUNTYFP":"057","COUNTYNS":"01682927","GEOIDFQ":"0500000US06057","GEOID":"06057","NAME":"Nevada","NAMELSAD":"Nevada County","STUSPS":"CA","STATE_NAME":"California","LSAD":"06","ALAND":2480587306,"AWATER":41531993},"id":"06057"},{"arcs":[[-6,57,58,59,60]],"type":"Polygon","properties":{"STATEFP":"06","COUNTYFP":"087","COUNTYNS":"00277308","GEOIDFQ":"0500000US06087","GEOID":"06087","NAME":"Santa Cruz","NAMELSAD":"Santa Cruz County","STUSPS":"CA","STATE_NAME":"California","LSAD":"06","ALAND":1152818085,"AWATER":419720203},"id":"06087"},{"arcs":[[-23,61,-32,62,63,64]],"type":"Polygon","properties":{"STATEFP":"06","COUNTYFP":"109","COUNTYNS":"00277319","GEOIDFQ":"0500000US06109","GEOID":"06109","NAME":"Tuolumne","NAMELSAD":"Tuolumne County","STUSPS":"CA","STATE_NAME":"California","LSAD":"06","ALAND":5752135141,"AWATER":138666931},"id":"06109"},{"arcs":[[-16,65,66,67]],"type":"Polygon","properties":{"STATEFP":"06","COUNTYFP":"107","COUNTYNS":"00277318","GEOIDFQ":"0500000US06107","GEOID":"06107","NAME":"Tulare","NAMELSAD":"Tulare County","STUSPS":"CA","STATE_NAME":"California","LSAD":"06","ALAND":12493843648,"AWATER":37260863},"id":"06107"},{"arcs":[[-50,68,69,70,71]],"type":"Polygon","properties":{"STATEFP":"06","COUNTYFP":"013","COUNTYNS":"01675903","GEOIDFQ":"0500000US06013","GEOID":"06013","NAME":"Contra Costa","NAMELSAD":"Contra Costa County","STUSPS":"CA","STATE_NAME":"California","LSAD":"06","ALAND":1856765315,"AWATER":225325593},"id":"06013"},{"arcs":[[72,73,74,75,76,77]],"type":"Polygon","properties":{"STATEFP":"06","COUNTYFP":"007","COUNTYNS":"01675842","GEOIDFQ":"0500000US06007","GEOID":"06007","NAME":"Butte","NAMELSAD":"Butte County","STUSPS":"CA","STATE_NAME":"California","LSAD":"06","ALAND":4238545144,"AWATER":105204062},"id":"06007"},{"arcs":[[-56,78,79,80,81,82]],"type":"Polygon","properties":{"STATEFP":"06","COUNTYFP":"061","COUNTYNS":"00277295","GEOIDFQ":"0500000US06061","GEOID":"06061","NAME":"Placer","NAMELSAD":"Placer County","STUSPS":"CA","STATE_NAME":"California","LSAD":"06","ALAND":3645152546,"AWATER":245620304},"id":"06061"},{"arcs":[[-44,83,84,-47]],"type":"Polygon","properties":{"STATEFP":"06","COUNTYFP":"055","COUNTYNS":"00277292","GEOIDFQ":"0500000US06055","GEOID":"06055","NAME":"Napa","NAMELSAD":"Napa County","STUSPS":"CA","STATE_NAME":"California","LSAD":"06","ALAND":1947608460,"AWATER":104442635},"id":"06055"},{"arcs":[[-73,85,86,87,88,89]],"type":"Polygon","properties":{"STATEFP":"06","COUNTYFP":"063","COUNTYNS":"00277296","GEOIDFQ":"0500000US06063","GEOID":"06063","NAME":"Plumas","NAMELSAD":"Plumas County","STUSPS":"CA","STATE_NAME":"California","LSAD":"06","ALAND":6612400768,"AWATER":156387638},"id":"06063"},{"arcs":[[90,91,92,93]],"type":"Polygon","properties":{"STATEFP":"06","COUNTYFP":"015","COUNTYNS":"01682074","GEOIDFQ":"0500000US06015","GEOID":"06015","NAME":"Del Norte","NAMELSAD":"Del Norte County","STUSPS":"CA","STATE_NAME":"California","LSAD":"06","ALAND":2606049837,"AWATER":578810830},"id":"06015"},{"arcs":[[-35,94,95,96,-64,97]],"type":"Polygon","properties":{"STATEFP":"06","COUNTYFP":"003","COUNTYNS":"01675840","GEOIDFQ":"0500000US06003","GEOID":"06003","NAME":"Alpine","NAMELSAD":"Alpine County","STUSPS":"CA","STATE_NAME":"California","LSAD":"06","ALAND":1912292608,"AWATER":12557304},"id":"06003"},{"arcs":[[98,99,100,101,102]],"type":"Polygon","properties":{"STATEFP":"06","COUNTYFP":"079","COUNTYNS":"00277304","GEOIDFQ":"0500000US06079","GEOID":"06079","NAME":"San Luis Obispo","NAMELSAD":"San Luis Obispo County","STUSPS":"CA","STATE_NAME":"California","LSAD":"06","ALAND":8549140854,"AWATER":815650229},"id":"06079"},{"arcs":[[103,104,105,106,107]],"type":"Polygon","properties":{"STATEFP":"06","COUNTYFP":"105","COUNTYNS":"00277317","GEOIDFQ":"0500000US06105","GEOID":"06105","NAME":"Trinity","NAMELSAD":"Trinity County","STUSPS":"CA","STATE_NAME":"California","LSAD":"06","ALAND":8234265082,"AWATER":73407950},"id":"06105"},{"arcs":[[-2,108,-71,109,-29]],"type":"Polygon","properties":{"STATEFP":"06","COUNTYFP":"001","COUNTYNS":"01675839","GEOIDFQ":"0500000US06001","GEOID":"06001","NAME":"Alameda","NAMELSAD":"Alameda County","STUSPS":"CA","STATE_NAME":"California","LSAD":"06","ALAND":1910010500,"AWATER":216909648},"id":"06001"},{"arcs":[[-76,110,111,112,113]],"type":"Polygon","properties":{"STATEFP":"06","COUNTYFP":"011","COUNTYNS":"01675902","GEOIDFQ":"0500000US06011","GEOID":"06011","NAME":"Colusa","NAMELSAD":"Colusa County","STUSPS":"CA","STATE_NAME":"California","LSAD":"06","ALAND":2980140645,"AWATER":14769737},"id":"06011"},{"arcs":[[-7,-61,114,115,116]],"type":"Polygon","properties":{"STATEFP":"06","COUNTYFP":"081","COUNTYNS":"00277305","GEOIDFQ":"0500000US06081","GEOID":"06081","NAME":"San Mateo","NAMELSAD":"San Mateo County","STUSPS":"CA","STATE_NAME":"California","LSAD":"06","ALAND":1161875517,"AWATER":757208773},"id":"06081"},{"arcs":[[-42,117,118,-107,119,120,121]],"type":"Polygon","properties":{"STATEFP":"06","COUNTYFP":"045","COUNTYNS":"00277287","GEOIDFQ":"0500000US06045","GEOID":"06045","NAME":"Mendocino","NAMELSAD":"Mendocino County","STUSPS":"CA","STATE_NAME":"California","LSAD":"06","ALAND":9082587768,"AWATER":961785099},"id":"06045"},{"arcs":[[-48,-85,122,-112,123,124]],"type":"Polygon","properties":{"STATEFP":"06","COUNTYFP":"113","COUNTYNS":"00277321","GEOIDFQ":"0500000US06113","GEOID":"06113","NAME":"Yolo","NAMELSAD":"Yolo County","STUSPS":"CA","STATE_NAME":"California","LSAD":"06","ALAND":2623627930,"AWATER":22888380},"id":"06113"},{"arcs":[[-34,125,-80,126,-95]],"type":"Polygon","properties":{"STATEFP":"06","COUNTYFP":"017","COUNTYNS":"00277273","GEOIDFQ":"0500000US06017","GEOID":"06017","NAME":"El Dorado","NAMELSAD":"El Dorado County","STUSPS":"CA","STATE_NAME":"California","LSAD":"06","ALAND":4423289514,"AWATER":203362530},"id":"06017"},{"arcs":[[-57,-83,127,-74,-90,128]],"type":"Polygon","properties":{"STATEFP":"06","COUNTYFP":"115","COUNTYNS":"00277322","GEOIDFQ":"0500000US06115","GEOID":"06115","NAME":"Yuba","NAMELSAD":"Yuba County","STUSPS":"CA","STATE_NAME":"California","LSAD":"06","ALAND":1636887865,"AWATER":31084093},"id":"06115"},{"arcs":[[-77,-114,129,-121,130]],"type":"Polygon","properties":{"STATEFP":"06","COUNTYFP":"021","COUNTYNS":"00277275","GEOIDFQ":"0500000US06021","GEOID":"06021","NAME":"Glenn","NAMELSAD":"Glenn County","STUSPS":"CA","STATE_NAME":"California","LSAD":"06","ALAND":3403088114,"AWATER":33796765},"id":"06021"},{"arcs":[[-9,131,132,-27,133]],"type":"Polygon","properties":{"STATEFP":"06","COUNTYFP":"065","COUNTYNS":"00277297","GEOIDFQ":"0500000US06065","GEOID":"06065","NAME":"Riverside","NAMELSAD":"Riverside County","STUSPS":"CA","STATE_NAME":"California","LSAD":"06","ALAND":18671278673,"AWATER":242554037},"id":"06065"},{"arcs":[[-30,-110,-70,134,-37,135]],"type":"Polygon","properties":{"STATEFP":"06","COUNTYFP":"077","COUNTYNS":"00277303","GEOIDFQ":"0500000US06077","GEOID":"06077","NAME":"San Joaquin","NAMELSAD":"San Joaquin County","STUSPS":"CA","STATE_NAME":"California","LSAD":"06","ALAND":3606041616,"AWATER":88864241},"id":"06077"},{"arcs":[[-75,-128,-82,136,-124,-111]],"type":"Polygon","properties":{"STATEFP":"06","COUNTYFP":"101","COUNTYNS":"00277315","GEOIDFQ":"0500000US06101","GEOID":"06101","NAME":"Sutter","NAMELSAD":"Sutter County","STUSPS":"CA","STATE_NAME":"California","LSAD":"06","ALAND":1560975500,"AWATER":14811541},"id":"06101"},{"arcs":[[-8,137,138,139,140,-132]],"type":"Polygon","properties":{"STATEFP":"06","COUNTYFP":"071","COUNTYNS":"00277300","GEOIDFQ":"0500000US06071","GEOID":"06071","NAME":"San Bernardino","NAMELSAD":"San Bernardino County","STUSPS":"CA","STATE_NAME":"California","LSAD":"06","ALAND":51976967449,"AWATER":96404497},"id":"06071"},{"arcs":[[-31,-136,-36,-98,-63]],"type":"Polygon","properties":{"STATEFP":"06","COUNTYFP":"009","COUNTYNS":"01675885","GEOIDFQ":"0500000US06009","GEOID":"06009","NAME":"Calaveras","NAMELSAD":"Calaveras County","STUSPS":"CA","STATE_NAME":"California","LSAD":"06","ALAND":2641829627,"AWATER":43797225},"id":"06009"},{"arcs":[[141,142,143,-104,144,-92,145]],"type":"Polygon","properties":{"STATEFP":"06","COUNTYFP":"093","COUNTYNS":"00277311","GEOIDFQ":"0500000US06093","GEOID":"06093","NAME":"Siskiyou","NAMELSAD":"Siskiyou County","STUSPS":"CA","STATE_NAME":"California","LSAD":"06","ALAND":16261931190,"AWATER":179151860},"id":"06093"},{"arcs":[[-78,-131,-120,-106,146,-86]],"type":"Polygon","properties":{"STATEFP":"06","COUNTYFP":"103","COUNTYNS":"01692767","GEOIDFQ":"0500000US06103","GEOID":"06103","NAME":"Tehama","NAMELSAD":"Tehama County","STUSPS":"CA","STATE_NAME":"California","LSAD":"06","ALAND":7638229381,"AWATER":33767224},"id":"06103"},{"arcs":[[-43,-122,-130,-113,-123,-84]],"type":"Polygon","properties":{"STATEFP":"06","COUNTYFP":"033","COUNTYNS":"00277281","GEOIDFQ":"0500000US06033","GEOID":"06033","NAME":"Lake","NAMELSAD":"Lake County","STUSPS":"CA","STATE_NAME":"California","LSAD":"06","ALAND":3250699790,"AWATER":189048038},"id":"06033"},{"arcs":[[-22,-52,-62]],"type":"Polygon","properties":{"STATEFP":"06","COUNTYFP":"043","COUNTYNS":"00277286","GEOIDFQ":"0500000US06043","GEOID":"06043","NAME":"Mariposa","NAMELSAD":"Mariposa County","STUSPS":"CA","STATE_NAME":"California","LSAD":"06","ALAND":3752476985,"AWATER":36220865},"id":"06043"},{"arcs":[[-38,-135,-69,-49,-125,-137,-81,-126]],"type":"Polygon","properties":{"STATEFP":"06","COUNTYFP":"067","COUNTYNS":"00277298","GEOIDFQ":"0500000US06067","GEOID":"06067","NAME":"Sacramento","NAMELSAD":"Sacramento County","STUSPS":"CA","STATE_NAME":"California","LSAD":"06","ALAND":2500322926,"AWATER":75063510},"id":"06067"},{"arcs":[[[147,148,149,150]],[[151]]],"type":"MultiPolygon","properties":{"STATEFP":"06","COUNTYFP":"111","COUNTYNS":"00277320","GEOIDFQ":"0500000US06111","GEOID":"06111","NAME":"Ventura","NAMELSAD":"Ventura County","STUSPS":"CA","STATE_NAME":"California","LSAD":"06","ALAND":4767597085,"AWATER":947364124},"id":"06111"},{"arcs":[[-88,152,153,154,155]],"type":"Polygon","properties":{"STATEFP":"06","COUNTYFP":"035","COUNTYNS":"01693324","GEOIDFQ":"0500000US06035","GEOID":"06035","NAME":"Lassen","NAMELSAD":"Lassen County","STUSPS":"CA","STATE_NAME":"California","LSAD":"06","ALAND":11762090639,"AWATER":462950977},"id":"06035"},{"arcs":[[156,-154,157,-143]],"type":"Polygon","properties":{"STATEFP":"06","COUNTYFP":"049","COUNTYNS":"00277289","GEOIDFQ":"0500000US06049","GEOID":"06049","NAME":"Modoc","NAMELSAD":"Modoc County","STUSPS":"CA","STATE_NAME":"California","LSAD":"06","ALAND":10225876984,"AWATER":660504011},"id":"06049"},{"arcs":[[[-12,158,-149,159,-138]],[[160]],[[161]]],"type":"MultiPolygon","properties":{"STATEFP":"06","COUNTYFP":"037","COUNTYNS":"00277283","GEOIDFQ":"0500000US06037","GEOID":"06037","NAME":"Los Angeles","NAMELSAD":"Los Angeles County","STUSPS":"CA","STATE_NAME":"California","LSAD":"06","ALAND":10516101987,"AWATER":1784889482},"id":"06037"},{"arcs":[[-14,-24,-65,-97,162,163]],"type":"Polygon","properties":{"STATEFP":"06","COUNTYFP":"051","COUNTYNS":"00277290","GEOIDFQ":"0500000US06051","GEOID":"06051","NAME":"Mono","NAMELSAD":"Mono County","STUSPS":"CA","STATE_NAME":"California","LSAD":"06","ALAND":7896625260,"AWATER":214695142},"id":"06051"},{"arcs":[[-5,-53,-19,164,-58]],"type":"Polygon","properties":{"STATEFP":"06","COUNTYFP":"069","COUNTYNS":"00277299","GEOIDFQ":"0500000US06069","GEOID":"06069","NAME":"San Benito","NAMELSAD":"San Benito County","STUSPS":"CA","STATE_NAME":"California","LSAD":"06","ALAND":3596591079,"AWATER":4719300},"id":"06069"},{"arcs":[[-17,-68,165,-100,166]],"type":"Polygon","properties":{"STATEFP":"06","COUNTYFP":"031","COUNTYNS":"00277280","GEOIDFQ":"0500000US06031","GEOID":"06031","NAME":"Kings","NAMELSAD":"Kings County","STUSPS":"CA","STATE_NAME":"California","LSAD":"06","ALAND":3602601926,"AWATER":3164290},"id":"06031"},{"arcs":[[-10,-134,-26,167]],"type":"Polygon","properties":{"STATEFP":"06","COUNTYFP":"073","COUNTYNS":"00277301","GEOIDFQ":"0500000US06073","GEOID":"06073","NAME":"San Diego","NAMELSAD":"San Diego County","STUSPS":"CA","STATE_NAME":"California","LSAD":"06","ALAND":10906140199,"AWATER":815875507},"id":"06073"},{"arcs":[[-67,168,-139,-160,-148,169,-101,-166]],"type":"Polygon","properties":{"STATEFP":"06","COUNTYFP":"029","COUNTYNS":"02054176","GEOIDFQ":"0500000US06029","GEOID":"06029","NAME":"Kern","NAMELSAD":"Kern County","STUSPS":"CA","STATE_NAME":"California","LSAD":"06","ALAND":21068706344,"AWATER":78331375},"id":"06029"},{"arcs":[[-116,170]],"type":"Polygon","properties":{"STATEFP":"06","COUNTYFP":"075","COUNTYNS":"00277302","GEOIDFQ":"0500000US06075","GEOID":"06075","NAME":"San Francisco","NAMELSAD":"San Francisco County","STUSPS":"CA","STATE_NAME":"California","LSAD":"06","ALAND":120913550,"AWATER":479701988},"id":"06075"},{"arcs":[[-93,-145,-108,-119,171]],"type":"Polygon","properties":{"STATEFP":"06","COUNTYFP":"023","COUNTYNS":"01681908","GEOIDFQ":"0500000US06023","GEOID":"06023","NAME":"Humboldt","NAMELSAD":"Humboldt County","STUSPS":"CA","STATE_NAME":"California","LSAD":"06","ALAND":9241141620,"AWATER":1254149638},"id":"06023"},{"arcs":[[-87,-147,-105,-144,-158,-153]],"type":"Polygon","properties":{"STATEFP":"06","COUNTYFP":"089","COUNTYNS":"01682610","GEOIDFQ":"0500000US06089","GEOID":"06089","NAME":"Shasta","NAMELSAD":"Shasta County","STUSPS":"CA","STATE_NAME":"California","LSAD":"06","ALAND":9778891282,"AWATER":185818274},"id":"06089"},{"arcs":[[-15,-164,172,-140,-169,-66]],"type":"Polygon","properties":{"STATEFP":"06","COUNTYFP":"027","COUNTYNS":"01804637","GEOIDFQ":"0500000US06027","GEOID":"06027","NAME":"Inyo","NAMELSAD":"Inyo County","STUSPS":"CA","STATE_NAME":"California","LSAD":"06","ALAND":26410783051,"AWATER":77280938},"id":"06027"},{"arcs":[[-54,-129,-89,-156,173]],"type":"Polygon","properties":{"STATEFP":"06","COUNTYFP":"091","COUNTYNS":"00277310","GEOIDFQ":"0500000US06091","GEOID":"06091","NAME":"Sierra","NAMELSAD":"Sierra County","STUSPS":"CA","STATE_NAME":"California","LSAD":"06","ALAND":2468694580,"AWATER":23299110},"id":"06091"},{"arcs":[[-18,-167,-99,174,-59,-165]],"type":"Polygon","properties":{"STATEFP":"06","COUNTYFP":"053","COUNTYNS":"00277291","GEOIDFQ":"0500000US06053","GEOID":"06053","NAME":"Monterey","NAMELSAD":"Monterey County","STUSPS":"CA","STATE_NAME":"California","LSAD":"06","ALAND":8499610242,"AWATER":1267806310},"id":"06053"},{"arcs":[[[-102,-170,-151,175]],[[176]],[[177]],[[178]]],"type":"MultiPolygon","properties":{"STATEFP":"06","COUNTYFP":"083","COUNTYNS":"00277306","GEOIDFQ":"0500000US06083","GEOID":"06083","NAME":"Santa Barbara","NAMELSAD":"Santa Barbara County","STUSPS":"CA","STATE_NAME":"California","LSAD":"06","ALAND":7080874941,"AWATER":2729198795},"id":"06083"}]}}}