{"type":"Topology","arcs":[[[3597,3829],[348,-1]],[[3945,3828],[-2,-234],[0,-415]],[[3943,3179],[-333,1]],[[3610,3180],[-265,-1]],[[3345,3179],[17,51],[21,24],[4,30],[20,16],[-3,27],[23,32],[19,16],[-2,14],[27,70],[11,48],[9,20],[-6,33],[2,32],[43,41],[-1,30],[-10,24],[16,22],[17,0],[18,38],[4,49],[23,33]],[[15,733],[113,218],[225,0],[0,2],[231,-2],[222,5],[48,6],[123,1]],[[977,963],[-1,-14],[-26,-24],[-17,-44],[1,-26],[-6,-41],[-9,-11],[-3,-43],[5,-57],[-18,-41],[-22,2],[-25,-49],[0,-35],[-31,-14],[-11,-15],[-19,5],[-17,-11],[-11,-22],[-13,-84],[-16,-25],[-22,-53],[-18,-10],[-14,-23],[4,-16],[-4,-46],[6,-25],[-18,-37],[-5,-40],[-15,-52],[-1,-18],[-34,-51],[-7,-33]],[[610,10],[-332,0],[-265,0],[0,265],[0,294],[2,164]],[[1398,3311],[0,-447],[0,-371]],[[1398,2493],[-312,0],[-313,0],[-162,0]],[[611,2493],[0,239],[181,99],[33,20],[48,88],[-8,17],[23,26],[14,25],[60,58],[4,11],[28,-1],[68,17],[15,14],[51,-23],[33,-30],[39,35],[8,19],[21,9],[8,20],[38,62],[63,58],[22,2],[13,25],[25,28]],[[5746,5589],[310,0],[228,0]],[[6284,5589],[0,-77],[0,-383]],[[6284,5129],[-310,-1],[-240,-1]],[[5734,5127],[0,259],[0,137],[13,1],[-1,65]],[[2926,1893],[184,0],[200,-8],[218,-3],[68,1]],[[3596,1883],[1,-194],[-2,-21],[1,-295]],[[3596,1373],[-12,2],[-3,41],[-20,6],[-18,-7],[-16,12],[-4,31],[-19,29],[4,21],[-19,19],[-23,-17],[-18,-40],[-1,-15],[-21,-11],[-10,-19],[-21,-63],[-10,-13],[-29,59],[-27,-21],[-27,-13],[-32,-38],[-24,10],[-30,-2]],[[3216,1344],[-27,41],[-7,23],[-20,24],[-24,-5],[-16,21],[-23,64],[6,7],[-27,80],[-26,37],[-6,40],[-21,71],[-13,4],[-32,60],[-21,28],[-22,16],[-11,38]],[[3593,4347],[34,10],[-1,89],[17,0],[14,29],[18,0]],[[3675,4475],[322,0],[405,0]],[[4402,4475],[399,1]],[[4801,4476],[-1,-389]],[[4800,4087],[-238,1],[-379,-3],[-101,0],[-137,3],[-201,0]],[[3744,4088],[4,21],[21,5],[0,16],[25,6],[42,0],[42,-5],[1,43],[-26,0],[0,38],[128,-2],[1,76],[17,12],[0,26],[-28,11],[-43,1],[-11,11],[-11,-28],[-24,1],[0,-76],[-54,-5],[0,-65],[-68,0],[0,22],[-16,0],[0,-22],[-17,0],[0,-21],[-21,0],[-12,16],[-18,-6],[-83,0]],[[3593,4163],[0,184]],[[3744,4088],[17,-54],[-26,-11],[0,-27],[13,-38],[-5,-43],[-25,0],[0,22],[-16,21],[-21,0],[-17,22],[-29,0],[-26,-22],[0,-29],[-17,-3],[0,-3],[0,-2],[0,-6],[0,-5]],[[3592,3910],[-24,13],[-24,-8],[-2,16],[30,6],[21,43],[0,183]],[[1817,4354],[176,0],[105,2],[84,-3],[0,9]],[[2182,4362],[172,1]],[[2354,4363],[6,-64],[-4,-24],[18,-55],[10,-44],[11,-19],[3,-29],[18,-21],[27,-5],[9,-25],[24,-18],[7,-25],[25,-9],[4,-27],[37,-38],[30,-3],[7,-57],[-22,-11],[-13,-47],[6,-20],[-4,-45],[-20,20],[-11,-1],[-8,-36],[9,-11],[-5,-71],[26,-47],[-5,-28],[23,-26],[-4,-26]],[[2558,3551],[-17,0],[-12,-20],[-36,-20],[-22,13],[-31,-3],[-12,-8],[-17,10],[-9,23],[-17,7],[-24,-28]],[[2361,3525],[-282,1],[-208,5],[-126,0]],[[1745,3531],[0,385],[0,438],[72,0]],[[611,2493],[0,-250],[-199,0],[-412,0]],[[0,2243],[0,0],[0,327],[5,231],[3,373],[0,358]],[[8,3532],[158,-1],[417,0],[223,0],[365,0],[290,0]],[[1461,3531],[0,-26],[-32,-39],[9,-23],[39,-22],[30,-24],[-14,-29]],[[1493,3368],[-32,0],[1,-21],[-19,-17],[-22,-3],[-23,-16]],[[977,963],[197,1],[7,-1],[234,0]],[[1415,963],[0,-323]],[[1415,640],[0,-256],[0,-373]],[[1415,11],[-207,0],[-258,0],[-223,-1],[-117,0]],[[2926,1893],[-20,13],[-21,29],[-22,19],[-27,66],[-20,25],[-23,17],[-2,18],[-33,43],[-11,1],[-13,39]],[[2734,2163],[65,85],[27,3],[4,64],[16,19],[-6,18],[12,50],[-7,21],[-26,13],[3,36],[-12,38],[-17,16],[-22,5]],[[2771,2531],[240,1],[153,2],[30,2],[151,1]],[[3345,2537],[83,-1],[-3,-74],[133,1],[38,6],[96,-3]],[[3692,2466],[1,-194]],[[3693,2272],[1,-389],[-98,0]],[[3596,1373],[16,-17],[-3,-14],[19,-20],[329,29],[265,-124]],[[4222,1227],[-19,-25],[-75,-78],[1,-11],[-84,-195],[0,-52],[-64,-66],[-7,-29],[-19,-23],[-33,1],[-9,-16],[-4,-52],[-14,-23],[-24,-22],[-6,-19],[-80,-13],[-41,-19],[-43,15],[-35,-29],[-22,-1],[-37,-51],[-49,-39],[-21,-28],[-15,7],[-20,-12]],[[3502,447],[-11,31],[3,23],[-5,48],[2,40],[9,16],[24,15],[-20,63],[-21,7],[-1,29],[5,63],[-11,30],[-1,26],[-30,40],[22,14],[-7,40],[-31,3],[-54,50],[-12,-2],[-35,-23],[-20,1],[-19,-30],[-45,-10],[-11,-31],[-28,-19]],[[3205,871],[-8,11],[-4,43],[11,58],[8,19],[-3,41],[3,21],[21,24],[-3,41]],[[3230,1129],[7,42],[-5,24],[18,13],[0,36],[6,34],[-20,40],[-24,3],[4,23]],[[5665,1896],[235,2],[200,0],[190,1]],[[6290,1899],[0,-10],[0,-322],[3,-457],[0,-140]],[[6293,970],[-339,-1],[-294,0]],[[5660,969],[0,267],[6,0],[0,260],[-1,400]],[[1745,3531],[-284,0]],[[8,3532],[0,195],[0,242]],[[8,3969],[139,0],[0,-15],[306,0],[0,64],[302,1],[0,2],[251,-1],[0,194],[135,0],[84,7],[134,-3],[101,1],[0,133],[101,-4],[0,132],[2,129],[251,1]],[[1814,4610],[0,-131],[4,0],[-1,-125]],[[3502,447],[-1,-443]],[[3501,4],[-58,0],[-204,1],[-243,0]],[[2996,5],[-38,45],[-9,23],[1,34],[26,56],[-7,15],[0,34],[16,32],[1,36],[-14,56],[6,67],[13,17],[3,24],[-12,18],[-17,61],[9,19]],[[2974,542],[221,309],[10,20]],[[3675,4475],[0,65],[-15,0],[-2,-22],[-17,-5],[9,-27],[-17,-11],[-40,0]],[[3593,4475],[-2,0],[0,389]],[[3591,4864],[-1,130],[99,0],[1,96],[1,335],[0,366],[0,168]],[[3691,5959],[240,4],[187,1],[371,0],[272,1],[158,-1]],[[4919,5964],[1,-249],[-1,-196],[-6,0],[-1,-266]],[[4912,5253],[-102,-2],[-199,3],[-206,0],[1,-129],[-1,-128],[-3,-2],[1,-252],[-1,-268]],[[4222,1227],[260,-123]],[[4482,1104],[3,-135],[276,0],[310,0]],[[5071,969],[295,-1]],[[5366,968],[1,-389],[-7,0],[-4,-305],[0,-262]],[[5356,12],[-345,-2],[-236,-2],[-245,-2],[-297,-4],[-256,1],[-18,-2],[-319,0],[-139,3]],[[3591,4864],[-141,-1],[-69,2],[-77,-2],[-14,-5],[-153,5],[-82,-1]],[[3055,4862],[-20,10],[-12,45],[-12,21],[0,19],[-24,16],[-35,36],[-21,40],[0,18],[-22,34],[9,40],[-6,41],[-38,16]],[[2874,5198],[2,30],[-17,22],[-33,-9],[3,30],[-5,46],[-10,9],[-8,50],[-10,4],[-6,50],[-21,59],[0,19],[-15,22],[-2,26],[-28,41],[-7,40],[-14,15],[-11,38],[-27,24],[-18,44],[-17,10],[-9,48],[-10,4],[-33,44],[1,31],[-10,52],[4,11]],[[2573,5958],[116,-1],[302,0],[401,2],[299,0]],[[15,733],[1,68],[0,201],[1,320]],[[17,1322],[197,0],[4,21],[173,0],[223,-2],[107,1],[16,-27],[14,-55],[11,-27],[32,17],[33,8],[22,25],[20,-22],[22,16],[9,-10],[23,17],[37,2],[16,-36],[19,4],[11,-19],[15,2],[26,-32],[5,-25],[23,-15]],[[1075,1165],[-4,-43],[-9,-12],[2,-24],[-30,-7],[-27,-23],[-14,7],[-15,-16],[0,-25],[11,-45],[-12,-14]],[[1075,1165],[18,-2],[17,32],[-6,24],[22,20],[17,32],[3,31],[23,23],[16,33]],[[1185,1358],[38,-19],[7,14],[22,2],[23,26],[-3,65],[65,1]],[[1337,1447],[5,-14],[28,-18],[-3,-35],[14,-28],[-12,-18],[-2,-21],[16,-27],[1,-45],[23,-3],[20,-22],[9,-41],[-9,-24],[-12,3],[0,-191]],[[2874,5198],[-40,-31],[-4,-49],[6,-22],[-8,-27],[-36,-34],[-15,-43],[-21,25],[-22,-4],[-23,10],[-16,-17],[-28,-15],[-12,11],[-32,-29],[-25,11],[-31,-25],[-38,3],[-23,49],[-30,-16],[-1,-29],[-33,13],[-15,27],[-15,0],[-18,-17],[-30,10],[-18,-9],[-41,97],[-34,-41],[-4,-26],[-22,15],[-26,8],[-24,-4],[-13,70],[-23,28]],[[2159,5137],[-5,39],[4,34],[-15,56],[-20,36],[-9,32],[7,21],[-10,37],[22,48],[-5,47],[16,21],[-1,50],[7,24],[-6,27],[29,40],[1,32],[-25,25],[5,38],[-18,21],[-13,31],[-11,-18],[-21,-8],[-48,53],[-17,-16],[-10,31],[-33,14],[-19,45],[-1,37],[18,14],[-6,18]],[[1975,5966],[362,-1],[119,-4],[117,-3]],[[1337,1447],[-14,16],[-6,24],[22,20],[15,-11],[11,16],[-2,27],[17,28],[4,36],[-15,14],[-19,0],[-9,26],[3,20],[-10,46],[3,9]],[[1337,1718],[509,0]],[[1846,1718],[0,-164],[1,-120]],[[1847,1434],[-32,-10],[-23,15],[-44,-24],[-25,-7],[1,-164],[-2,-106],[-5,-122],[19,-1],[-4,-299],[0,-76]],[[1732,640],[-317,0]],[[2811,4026],[18,45],[19,12],[-8,70],[5,19],[28,-2],[29,-15],[21,27],[31,-13],[26,17],[21,48],[15,1],[5,19]],[[3021,4254],[28,-2],[24,-10],[15,-27],[19,-13],[43,-43],[3,-20],[23,-14],[46,-13],[39,-2],[23,-14]],[[3284,4096],[-1,-267]],[[3283,3829],[-170,3],[-120,-5],[-97,0]],[[2896,3827],[3,23],[17,4],[29,35],[-6,33],[-9,11],[-22,-4],[-29,16],[-14,34],[-41,-7],[-14,16],[1,38]],[[5287,3043],[101,2],[276,1],[25,-2],[153,4],[159,6],[288,3]],[[6289,3057],[1,-520],[0,-123]],[[6290,2414],[-252,0],[-165,-2],[-137,-1],[-325,3],[-132,-4]],[[5279,2410],[0,115],[7,1],[1,517]],[[3597,3829],[-5,0],[0,81]],[[4800,4087],[0,-258]],[[4800,3829],[-7,0]],[[4793,3829],[-237,0],[-397,-4],[-214,3]],[[17,1322],[-2,139],[1,266]],[[16,1727],[164,1],[287,-2],[192,0],[322,0]],[[981,1726],[13,-11],[0,-43],[54,-1],[-2,-86],[-6,-48],[15,-27],[31,2],[11,-25],[37,-5],[12,-38],[30,-15],[14,-35],[-5,-36]],[[2354,4363],[35,-1],[0,-16],[91,0],[4,8],[34,-7],[18,-20],[28,-55],[46,-37],[16,7],[42,-55],[3,-29],[15,-40],[5,-53],[19,-19],[11,-34],[26,-8],[64,22]],[[2896,3827],[13,-19],[-2,-21],[-24,-18],[-16,1],[6,-32],[-30,-32],[-19,-38],[-25,1],[-5,-27],[-20,-4],[13,-35],[-23,-9],[-37,-40],[1,-24],[-35,-10],[-36,29],[-35,2]],[[2622,3551],[-64,0]],[[3593,4475],[0,-34],[-14,-10],[-10,-14],[-7,-2],[4,-4],[10,0],[-4,-21],[-13,-11],[-25,11],[-26,-44]],[[3508,4346],[-172,0],[-52,-1]],[[3284,4345],[0,32],[-19,-9],[-19,15],[-14,-10],[-198,1]],[[3034,4374],[-16,14],[10,76],[-6,33],[25,2],[21,33],[-11,29],[14,25],[0,57],[8,8],[-9,40],[-28,19],[-9,58],[11,59],[11,35]],[[3566,4414],[6,4],[6,9],[10,9],[5,-25],[-24,1],[-3,2]],[[2622,3551],[-12,-16],[8,-43],[-12,-29],[-14,3],[-13,-19],[-3,-44],[6,-28],[-2,-32],[11,-25],[-13,-20],[5,-24],[5,-84],[-33,-49],[29,-1],[8,-24],[-20,-28],[0,-18]],[[2572,3070],[-346,3]],[[2226,3073],[-8,44],[5,22],[15,5],[5,21],[-4,48],[10,14],[27,-6],[12,14],[13,47],[4,43],[-7,23],[13,18],[-1,26],[-18,18],[1,20],[16,22],[11,-7],[41,23],[-6,21],[6,36]],[[8,4805],[0,330],[2,325],[0,243],[-1,260],[149,-1],[344,0],[224,0],[183,3],[115,0],[262,0],[276,1]],[[1562,5966],[2,-213],[1,-386],[-51,0],[0,-86],[-51,0],[-1,-151],[-2,-158],[-10,0],[3,-165]],[[1453,4807],[-50,-6],[-142,7],[-99,-3],[-264,-1],[-142,0],[-283,1],[-465,0]],[[2182,4362],[0,112],[-9,3],[0,263],[3,1],[1,241],[-19,0],[1,155]],[[3034,4374],[-10,-42],[-11,-19],[8,-59]],[[2734,2163],[-29,17],[-29,-51],[-11,-2],[-143,1]],[[2522,2128],[2,24],[-19,4],[-34,55],[-6,24],[-23,3],[-10,23],[-5,56],[8,28],[-15,40],[-4,30],[-18,14],[5,18],[-33,11],[-12,13],[-9,50],[-10,17],[7,16],[16,2],[7,22],[-1,60],[4,50],[-7,14],[6,23],[16,-2],[25,24],[5,21],[33,43],[6,21],[-5,22],[-17,-6],[-28,24],[-23,-18],[-17,26],[-19,-19],[-20,-8],[-35,40],[-22,34],[0,31],[-21,19],[-39,-3],[-4,10]],[[2206,2984],[5,9],[-3,60],[18,20]],[[2572,3070],[8,-26],[-8,-33],[19,-32],[22,4],[33,-17],[4,-18],[-8,-28],[7,-22],[36,-13],[7,15],[27,2],[30,-42],[22,-9],[-9,-21],[13,-13],[21,-1],[13,-17],[-14,-31],[6,-25],[26,-44],[-6,-21],[-23,-31],[1,-27],[-7,-55],[-21,-34]],[[2206,2984],[-11,-4],[-24,35],[-15,38],[-49,4],[-27,-2],[-10,-30],[-45,-71],[-23,-1],[-18,14],[-12,33],[-16,-22],[-25,-3],[-52,54],[-21,3],[-12,17],[13,31],[-29,40],[-15,8],[-27,35],[-187,0],[-10,10],[-9,42],[-21,18],[-31,11],[-24,55],[4,53],[-17,16]],[[3693,2272],[200,0],[274,1],[321,3]],[[4488,2276],[1,0]],[[4489,2276],[-1,-388],[-3,-1],[0,-170]],[[4485,1717],[-1,-64],[-1,-418],[-1,-131]],[[6293,970],[0,-380],[0,-368],[0,-221],[-281,2],[-308,1],[-102,7],[-157,-2],[-13,2],[-76,1]],[[5366,968],[200,2],[94,-1]],[[1814,4610],[-1,199],[-360,-2]],[[1562,5966],[285,1],[128,-1]],[[4793,3829],[0,-286],[-1,-366],[-5,0],[0,-194],[1,-195],[-128,1],[-173,2]],[[4487,2791],[2,127],[2,259],[-266,1],[-282,1]],[[3284,4345],[0,-249]],[[5734,5127],[-103,-1]],[[5631,5126],[-272,-2],[-262,-2],[-81,1]],[[5016,5123],[-1,130],[-103,0]],[[4919,5964],[172,1],[68,0],[273,1],[122,-1],[190,0]],[[5744,5965],[2,-376]],[[1732,640],[0,-45],[231,2],[143,4],[0,12]],[[2106,613],[30,-1]],[[2136,612],[0,-261],[72,-50],[7,-81],[90,-186],[12,-32]],[[2317,2],[-246,-2],[-107,0],[-7,11],[-286,0],[-201,0],[-55,0]],[[8,3969],[0,319],[0,517]],[[6286,3841],[0,-9],[0,-216],[2,-431],[1,-128]],[[5287,3043],[0,134],[7,0],[1,388],[0,263]],[[5295,3828],[108,3],[207,0]],[[5610,3831],[208,2],[17,2],[153,1],[298,5]],[[1398,2493],[0,-329],[1,-216],[-121,0]],[[1278,1948],[-1,45],[-215,1],[-230,-2],[8,-27],[17,1],[0,-44],[16,0],[0,-43],[67,0],[25,-11],[0,-21],[16,0],[25,-22],[0,-67],[-8,-32],[-17,0]],[[16,1727],[0,17],[-16,165],[0,334]],[[1847,1434],[11,19],[18,8],[19,-31],[23,19],[21,2],[16,-10],[0,-17],[29,-45],[42,-8],[25,-42],[15,-8],[17,11],[13,-19],[26,-2],[0,-57]],[[2122,1254],[-2,-255],[-14,0],[0,-386]],[[5279,2410],[0,-130],[-70,-2],[-228,0],[0,-11]],[[4981,2267],[-97,2],[0,7],[-95,-1],[-138,1],[-80,1],[-82,-1]],[[4488,2276],[1,237],[1,19],[-3,259]],[[4800,3829],[211,-1],[176,1],[108,-1]],[[4981,2267],[-2,-259],[5,0],[0,-115]],[[4984,1893],[-8,0],[1,-137],[-99,-2],[0,-86],[-164,-2],[-30,2],[-9,15],[-20,8],[-29,-6],[-11,14],[-19,-15],[-54,33],[-25,-8],[-32,8]],[[5016,5123],[1,-128],[-6,0],[-1,-166],[0,-353],[-209,0]],[[5665,1896],[-232,-1],[-358,-1]],[[5075,1894],[-91,-1]],[[6290,2414],[0,-240],[0,-275]],[[6284,5129],[0,-135],[0,-299],[0,-216],[0,-228],[2,-410]],[[5610,3831],[3,392],[-3,255],[9,0],[-1,172],[1,347],[12,0],[0,129]],[[2996,5],[-258,-1],[-175,-1],[-246,-1]],[[2136,612],[170,-3],[0,-4],[123,3],[279,0]],[[2708,608],[1,-66],[49,-1],[216,1]],[[5075,1894],[2,-454],[-2,-205],[-3,0],[-1,-266]],[[2122,1254],[95,-1],[1,-129],[392,0],[99,1]],[[2709,1125],[0,-151],[-1,-366]],[[3593,4347],[-17,-22],[-25,4],[-8,17],[-35,0]],[[3692,2466],[3,90],[-1,128],[-118,4],[5,104],[34,-1],[1,239],[-6,150]],[[5744,5965],[29,1],[296,-1],[215,0],[0,-376]],[[2709,1125],[140,1],[238,4],[143,-1]],[[3345,2537],[0,439],[-1,203]],[[3344,3179],[1,0]],[[1846,1718],[1,414],[116,0],[559,-4]],[[3344,3179],[-60,0],[-1,480],[0,170]],[[1337,1718],[6,16],[-17,81],[1,27],[-10,32],[-18,13],[-21,61]]],"transform":{"scale":[0.001115283171778167,0.0006722001005530418],"translate":[-109.060062,36.992426]},"objects":{"08":{"type":"GeometryCollection","geometries":[{"arcs":[[0,1,2,3,4]],"type":"Polygon","properties":{"STATEFP":"08","COUNTYFP":"035","COUNTYNS":"00198133","GEOIDFQ":"0500000US08035","GEOID":"08035","NAME":"Douglas","NAMELSAD":"Douglas County","STUSPS":"CO","STATE_NAME":"Colorado","LSAD":"06","ALAND":2177889327,"AWATER":6795841},"id":"08035"},{"arcs":[[5,6,7]],"type":"Polygon","properties":{"STATEFP":"08","COUNTYFP":"083","COUNTYNS":"00198157","GEOIDFQ":"0500000US08083","GEOID":"08083","NAME":"Montezuma","NAMELSAD":"Montezuma County","STUSPS":"CO","STATE_NAME":"Colorado","LSAD":"06","ALAND":5255989973,"AWATER":27208195},"id":"08083"},{"arcs":[[8,9,10]],"type":"Polygon","properties":{"STATEFP":"08","COUNTYFP":"029","COUNTYNS":"00198130","GEOIDFQ":"0500000US08029","GEOID":"08029","NAME":"Delta","NAMELSAD":"Delta County","STUSPS":"CO","STATE_NAME":"Colorado","LSAD":"06","ALAND":2958093553,"AWATER":16784209},"id":"08029"},{"arcs":[[11,12,13,14]],"type":"Polygon","properties":{"STATEFP":"08","COUNTYFP":"095","COUNTYNS":"00198163","GEOIDFQ":"0500000US08095","GEOID":"08095","NAME":"Phillips","NAMELSAD":"Phillips County","STUSPS":"CO","STATE_NAME":"Colorado","LSAD":"06","ALAND":1781724974,"AWATER":301808},"id":"08095"},{"arcs":[[15,16,17,18]],"type":"Polygon","properties":{"STATEFP":"08","COUNTYFP":"027","COUNTYNS":"00198129","GEOIDFQ":"0500000US08027","GEOID":"08027","NAME":"Custer","NAMELSAD":"Custer County","STUSPS":"CO","STATE_NAME":"Colorado","LSAD":"06","ALAND":1913031986,"AWATER":3364150},"id":"08027"},{"arcs":[[19,20,21,22,23,24,25]],"type":"Polygon","properties":{"STATEFP":"08","COUNTYFP":"001","COUNTYNS":"00198116","GEOIDFQ":"0500000US08001","GEOID":"08001","NAME":"Adams","NAMELSAD":"Adams County","STUSPS":"CO","STATE_NAME":"Colorado","LSAD":"06","ALAND":3021997387,"AWATER":43544989},"id":"08001"},{"arcs":[[-25,26,27]],"type":"Polygon","properties":{"STATEFP":"08","COUNTYFP":"031","COUNTYNS":"00198131","GEOIDFQ":"0500000US08031","GEOID":"08031","NAME":"Denver","NAMELSAD":"Denver County","STUSPS":"CO","STATE_NAME":"Colorado","LSAD":"06","ALAND":396460153,"AWATER":4275563},"id":"08031"},{"arcs":[[28,29,30,31,32,33]],"type":"Polygon","properties":{"STATEFP":"08","COUNTYFP":"037","COUNTYNS":"00198134","GEOIDFQ":"0500000US08037","GEOID":"08037","NAME":"Eagle","NAMELSAD":"Eagle County","STUSPS":"CO","STATE_NAME":"Colorado","LSAD":"06","ALAND":4362757338,"AWATER":18967533},"id":"08037"},{"arcs":[[-11,34,35,36,37,38]],"type":"Polygon","properties":{"STATEFP":"08","COUNTYFP":"077","COUNTYNS":"00198154","GEOIDFQ":"0500000US08077","GEOID":"08077","NAME":"Mesa","NAMELSAD":"Mesa County","STUSPS":"CO","STATE_NAME":"Colorado","LSAD":"06","ALAND":8621348059,"AWATER":31991713},"id":"08077"},{"arcs":[[-7,39,40,41,42]],"type":"Polygon","properties":{"STATEFP":"08","COUNTYFP":"067","COUNTYNS":"00198148","GEOIDFQ":"0500000US08067","GEOID":"08067","NAME":"La Plata","NAMELSAD":"La Plata County","STUSPS":"CO","STATE_NAME":"Colorado","LSAD":"06","ALAND":4376255271,"AWATER":25642579},"id":"08067"},{"arcs":[[-16,43,44,45,46,47,48]],"type":"Polygon","properties":{"STATEFP":"08","COUNTYFP":"043","COUNTYNS":"00198137","GEOIDFQ":"0500000US08043","GEOID":"08043","NAME":"Fremont","NAMELSAD":"Fremont County","STUSPS":"CO","STATE_NAME":"Colorado","LSAD":"06","ALAND":3972614690,"AWATER":2234517},"id":"08043"},{"arcs":[[-18,49,50,51,52,53]],"type":"Polygon","properties":{"STATEFP":"08","COUNTYFP":"055","COUNTYNS":"00198143","GEOIDFQ":"0500000US08055","GEOID":"08055","NAME":"Huerfano","NAMELSAD":"Huerfano County","STUSPS":"CO","STATE_NAME":"Colorado","LSAD":"06","ALAND":4120756314,"AWATER":5792101},"id":"08055"},{"arcs":[[54,55,56,57]],"type":"Polygon","properties":{"STATEFP":"08","COUNTYFP":"099","COUNTYNS":"00198165","GEOIDFQ":"0500000US08099","GEOID":"08099","NAME":"Prowers","NAMELSAD":"Prowers County","STUSPS":"CO","STATE_NAME":"Colorado","LSAD":"06","ALAND":4243454843,"AWATER":15319854},"id":"08099"},{"arcs":[[-34,58,-37,59,60,61]],"type":"Polygon","properties":{"STATEFP":"08","COUNTYFP":"045","COUNTYNS":"00198138","GEOIDFQ":"0500000US08045","GEOID":"08045","NAME":"Garfield","NAMELSAD":"Garfield County","STUSPS":"CO","STATE_NAME":"Colorado","LSAD":"06","ALAND":7633796653,"AWATER":21707241},"id":"08045"},{"arcs":[[-52,62,63,64,65]],"type":"Polygon","properties":{"STATEFP":"08","COUNTYFP":"023","COUNTYNS":"00198127","GEOIDFQ":"0500000US08023","GEOID":"08023","NAME":"Costilla","NAMELSAD":"Costilla County","STUSPS":"CO","STATE_NAME":"Colorado","LSAD":"06","ALAND":3179452305,"AWATER":8828906},"id":"08023"},{"arcs":[[-21,66,67,68,69,70,71]],"type":"Polygon","properties":{"STATEFP":"08","COUNTYFP":"123","COUNTYNS":"00198177","GEOIDFQ":"0500000US08123","GEOID":"08123","NAME":"Weld","NAMELSAD":"Weld County","STUSPS":"CO","STATE_NAME":"Colorado","LSAD":"06","ALAND":10321005621,"AWATER":82316993},"id":"08123"},{"arcs":[[-51,72,73,74,75,76,-63]],"type":"Polygon","properties":{"STATEFP":"08","COUNTYFP":"071","COUNTYNS":"00198151","GEOIDFQ":"0500000US08071","GEOID":"08071","NAME":"Las Animas","NAMELSAD":"Las Animas County","STUSPS":"CO","STATE_NAME":"Colorado","LSAD":"06","ALAND":12361852635,"AWATER":6929970},"id":"08071"},{"arcs":[[-69,77,78,79,80]],"type":"Polygon","properties":{"STATEFP":"08","COUNTYFP":"069","COUNTYNS":"00198150","GEOIDFQ":"0500000US08069","GEOID":"08069","NAME":"Larimer","NAMELSAD":"Larimer County","STUSPS":"CO","STATE_NAME":"Colorado","LSAD":"06","ALAND":6722949455,"AWATER":99049183},"id":"08069"},{"arcs":[[-6,81,82,83]],"type":"Polygon","properties":{"STATEFP":"08","COUNTYFP":"033","COUNTYNS":"00198132","GEOIDFQ":"0500000US08033","GEOID":"08033","NAME":"Dolores","NAMELSAD":"Dolores County","STUSPS":"CO","STATE_NAME":"Colorado","LSAD":"06","ALAND":2763958502,"AWATER":2716141},"id":"08033"},{"arcs":[[-40,-84,84,85,86]],"type":"Polygon","properties":{"STATEFP":"08","COUNTYFP":"111","COUNTYNS":"00198171","GEOIDFQ":"0500000US08111","GEOID":"08111","NAME":"San Juan","NAMELSAD":"San Juan County","STUSPS":"CO","STATE_NAME":"Colorado","LSAD":"06","ALAND":1003660670,"AWATER":2035929},"id":"08111"},{"arcs":[[-80,87,88,89]],"type":"Polygon","properties":{"STATEFP":"08","COUNTYFP":"057","COUNTYNS":"00198144","GEOIDFQ":"0500000US08057","GEOID":"08057","NAME":"Jackson","NAMELSAD":"Jackson County","STUSPS":"CO","STATE_NAME":"Colorado","LSAD":"06","ALAND":4179530230,"AWATER":18750017},"id":"08057"},{"arcs":[[-41,-87,90,91,92,93,94]],"type":"Polygon","properties":{"STATEFP":"08","COUNTYFP":"053","COUNTYNS":"00198142","GEOIDFQ":"0500000US08053","GEOID":"08053","NAME":"Hinsdale","NAMELSAD":"Hinsdale County","STUSPS":"CO","STATE_NAME":"Colorado","LSAD":"06","ALAND":2893614474,"AWATER":15324685},"id":"08053"},{"arcs":[[95,96,97,98,99]],"type":"Polygon","properties":{"STATEFP":"08","COUNTYFP":"019","COUNTYNS":"00198125","GEOIDFQ":"0500000US08019","GEOID":"08019","NAME":"Clear Creek","NAMELSAD":"Clear Creek County","STUSPS":"CO","STATE_NAME":"Colorado","LSAD":"06","ALAND":1023234147,"AWATER":3274806},"id":"08019"},{"arcs":[[100,101,102,103]],"type":"Polygon","properties":{"STATEFP":"08","COUNTYFP":"017","COUNTYNS":"00198124","GEOIDFQ":"0500000US08017","GEOID":"08017","NAME":"Cheyenne","NAMELSAD":"Cheyenne County","STUSPS":"CO","STATE_NAME":"Colorado","LSAD":"06","ALAND":4605713958,"AWATER":8166129},"id":"08017"},{"arcs":[[-1,104,-27,-24,105,106,107]],"type":"Polygon","properties":{"STATEFP":"08","COUNTYFP":"005","COUNTYNS":"00198118","GEOIDFQ":"0500000US08005","GEOID":"08005","NAME":"Arapahoe","NAMELSAD":"Arapahoe County","STUSPS":"CO","STATE_NAME":"Colorado","LSAD":"06","ALAND":2066516726,"AWATER":19791984},"id":"08005"},{"arcs":[[-83,108,109,110,-85]],"type":"Polygon","properties":{"STATEFP":"08","COUNTYFP":"113","COUNTYNS":"00198172","GEOIDFQ":"0500000US08113","GEOID":"08113","NAME":"San Miguel","NAMELSAD":"San Miguel County","STUSPS":"CO","STATE_NAME":"Colorado","LSAD":"06","ALAND":3332602593,"AWATER":5207582},"id":"08113"},{"arcs":[[-31,111,-100,112,113]],"type":"Polygon","properties":{"STATEFP":"08","COUNTYFP":"117","COUNTYNS":"00198174","GEOIDFQ":"0500000US08117","GEOID":"08117","NAME":"Summit","NAMELSAD":"Summit County","STUSPS":"CO","STATE_NAME":"Colorado","LSAD":"06","ALAND":1575563230,"AWATER":28310936},"id":"08117"},{"arcs":[[[-68,114,115,116,117,-78]],[[118]]],"type":"MultiPolygon","properties":{"STATEFP":"08","COUNTYFP":"013","COUNTYNS":"00198122","GEOIDFQ":"0500000US08013","GEOID":"08013","NAME":"Boulder","NAMELSAD":"Boulder County","STUSPS":"CO","STATE_NAME":"Colorado","LSAD":"06","ALAND":1881409373,"AWATER":36403508},"id":"08013"},{"arcs":[[-32,-114,119,120,121]],"type":"Polygon","properties":{"STATEFP":"08","COUNTYFP":"065","COUNTYNS":"00198149","GEOIDFQ":"0500000US08065","GEOID":"08065","NAME":"Lake","NAMELSAD":"Lake County","STUSPS":"CO","STATE_NAME":"Colorado","LSAD":"06","ALAND":976215871,"AWATER":18111565},"id":"08065"},{"arcs":[[122,123,124]],"type":"Polygon","properties":{"STATEFP":"08","COUNTYFP":"081","COUNTYNS":"00198156","GEOIDFQ":"0500000US08081","GEOID":"08081","NAME":"Moffat","NAMELSAD":"Moffat County","STUSPS":"CO","STATE_NAME":"Colorado","LSAD":"06","ALAND":12284943815,"AWATER":19803411},"id":"08081"},{"arcs":[[-30,125,-88,-79,-118,126,-96,-112]],"type":"Polygon","properties":{"STATEFP":"08","COUNTYFP":"049","COUNTYNS":"00198140","GEOIDFQ":"0500000US08049","GEOID":"08049","NAME":"Grand","NAMELSAD":"Grand County","STUSPS":"CO","STATE_NAME":"Colorado","LSAD":"06","ALAND":4782625749,"AWATER":59537083},"id":"08049"},{"arcs":[[-45,127,128,129,-121,130]],"type":"Polygon","properties":{"STATEFP":"08","COUNTYFP":"015","COUNTYNS":"00198123","GEOIDFQ":"0500000US08015","GEOID":"08015","NAME":"Chaffee","NAMELSAD":"Chaffee County","STUSPS":"CO","STATE_NAME":"Colorado","LSAD":"06","ALAND":2624715688,"AWATER":3999975},"id":"08015"},{"arcs":[[-33,-122,-130,131,-38,-59]],"type":"Polygon","properties":{"STATEFP":"08","COUNTYFP":"097","COUNTYNS":"00198164","GEOIDFQ":"0500000US08097","GEOID":"08097","NAME":"Pitkin","NAMELSAD":"Pitkin County","STUSPS":"CO","STATE_NAME":"Colorado","LSAD":"06","ALAND":2514104902,"AWATER":6472577},"id":"08097"},{"arcs":[[-17,-49,132,133,134,135,-73,-50]],"type":"Polygon","properties":{"STATEFP":"08","COUNTYFP":"101","COUNTYNS":"00198166","GEOIDFQ":"0500000US08101","GEOID":"08101","NAME":"Pueblo","NAMELSAD":"Pueblo County","STUSPS":"CO","STATE_NAME":"Colorado","LSAD":"06","ALAND":6181140047,"AWATER":29044037},"id":"08101"},{"arcs":[[-57,136,-76,137]],"type":"Polygon","properties":{"STATEFP":"08","COUNTYFP":"009","COUNTYNS":"00198120","GEOIDFQ":"0500000US08009","GEOID":"08009","NAME":"Baca","NAMELSAD":"Baca County","STUSPS":"CO","STATE_NAME":"Colorado","LSAD":"06","ALAND":6617400569,"AWATER":6142192},"id":"08009"},{"arcs":[[-29,-62,138,-124,139,-89,-126]],"type":"Polygon","properties":{"STATEFP":"08","COUNTYFP":"107","COUNTYNS":"00198169","GEOIDFQ":"0500000US08107","GEOID":"08107","NAME":"Routt","NAMELSAD":"Routt County","STUSPS":"CO","STATE_NAME":"Colorado","LSAD":"06","ALAND":6117602806,"AWATER":15831744},"id":"08107"},{"arcs":[[-2,-108,140,141]],"type":"Polygon","properties":{"STATEFP":"08","COUNTYFP":"039","COUNTYNS":"00198136","GEOIDFQ":"0500000US08039","GEOID":"08039","NAME":"Elbert","NAMELSAD":"Elbert County","STUSPS":"CO","STATE_NAME":"Colorado","LSAD":"06","ALAND":4791700166,"AWATER":442147},"id":"08039"},{"arcs":[[-97,-127,-117,142]],"type":"Polygon","properties":{"STATEFP":"08","COUNTYFP":"047","COUNTYNS":"00198139","GEOIDFQ":"0500000US08047","GEOID":"08047","NAME":"Gilpin","NAMELSAD":"Gilpin County","STUSPS":"CO","STATE_NAME":"Colorado","LSAD":"06","ALAND":388556762,"AWATER":942056},"id":"08047"},{"arcs":[[-15,143,144,145,-71,146,147]],"type":"Polygon","properties":{"STATEFP":"08","COUNTYFP":"075","COUNTYNS":"00198153","GEOIDFQ":"0500000US08075","GEOID":"08075","NAME":"Logan","NAMELSAD":"Logan County","STUSPS":"CO","STATE_NAME":"Colorado","LSAD":"06","ALAND":4761949509,"AWATER":16363553},"id":"08075"},{"arcs":[[-42,-95,148,149,150,151]],"type":"Polygon","properties":{"STATEFP":"08","COUNTYFP":"007","COUNTYNS":"00198119","GEOIDFQ":"0500000US08007","GEOID":"08007","NAME":"Archuleta","NAMELSAD":"Archuleta County","STUSPS":"CO","STATE_NAME":"Colorado","LSAD":"06","ALAND":3496713581,"AWATER":13738831},"id":"08007"},{"arcs":[[152,-125,-139,-61]],"type":"Polygon","properties":{"STATEFP":"08","COUNTYFP":"103","COUNTYNS":"00198167","GEOIDFQ":"0500000US08103","GEOID":"08103","NAME":"Rio Blanco","NAMELSAD":"Rio Blanco County","STUSPS":"CO","STATE_NAME":"Colorado","LSAD":"06","ALAND":8342275014,"AWATER":4868111},"id":"08103"},{"arcs":[[153,-101,154,155,156]],"type":"Polygon","properties":{"STATEFP":"08","COUNTYFP":"063","COUNTYNS":"00198147","GEOIDFQ":"0500000US08063","GEOID":"08063","NAME":"Kit Carson","NAMELSAD":"Kit Carson County","STUSPS":"CO","STATE_NAME":"Colorado","LSAD":"06","ALAND":5596501952,"AWATER":2251929},"id":"08063"},{"arcs":[[-10,157,158,-110,159,-35]],"type":"Polygon","properties":{"STATEFP":"08","COUNTYFP":"085","COUNTYNS":"00198158","GEOIDFQ":"0500000US08085","GEOID":"08085","NAME":"Montrose","NAMELSAD":"Montrose County","STUSPS":"CO","STATE_NAME":"Colorado","LSAD":"06","ALAND":5804023563,"AWATER":4923260},"id":"08085"},{"arcs":[[-94,160,161,-149]],"type":"Polygon","properties":{"STATEFP":"08","COUNTYFP":"079","COUNTYNS":"00198155","GEOIDFQ":"0500000US08079","GEOID":"08079","NAME":"Mineral","NAMELSAD":"Mineral County","STUSPS":"CO","STATE_NAME":"Colorado","LSAD":"06","ALAND":2268209075,"AWATER":5222161},"id":"08079"},{"arcs":[[-104,162,163,-134,164,-141,-107,165,-155]],"type":"Polygon","properties":{"STATEFP":"08","COUNTYFP":"073","COUNTYNS":"00198152","GEOIDFQ":"0500000US08073","GEOID":"08073","NAME":"Lincoln","NAMELSAD":"Lincoln County","STUSPS":"CO","STATE_NAME":"Colorado","LSAD":"06","ALAND":6676289549,"AWATER":22780358},"id":"08073"},{"arcs":[[-135,-164,166,167]],"type":"Polygon","properties":{"STATEFP":"08","COUNTYFP":"025","COUNTYNS":"00198128","GEOIDFQ":"0500000US08025","GEOID":"08025","NAME":"Crowley","NAMELSAD":"Crowley County","STUSPS":"CO","STATE_NAME":"Colorado","LSAD":"06","ALAND":2039427880,"AWATER":33422980},"id":"08025"},{"arcs":[[-22,-72,-146,168]],"type":"Polygon","properties":{"STATEFP":"08","COUNTYFP":"087","COUNTYNS":"00198159","GEOIDFQ":"0500000US08087","GEOID":"08087","NAME":"Morgan","NAMELSAD":"Morgan County","STUSPS":"CO","STATE_NAME":"Colorado","LSAD":"06","ALAND":3316461692,"AWATER":34642895},"id":"08087"},{"arcs":[[-55,169,170,-167,-163,-103,171]],"type":"Polygon","properties":{"STATEFP":"08","COUNTYFP":"061","COUNTYNS":"00198146","GEOIDFQ":"0500000US08061","GEOID":"08061","NAME":"Kiowa","NAMELSAD":"Kiowa County","STUSPS":"CO","STATE_NAME":"Colorado","LSAD":"06","ALAND":4578603586,"AWATER":47032918},"id":"08061"},{"arcs":[[-14,172,-157,173,-144]],"type":"Polygon","properties":{"STATEFP":"08","COUNTYFP":"125","COUNTYNS":"00198178","GEOIDFQ":"0500000US08125","GEOID":"08125","NAME":"Yuma","NAMELSAD":"Yuma County","STUSPS":"CO","STATE_NAME":"Colorado","LSAD":"06","ALAND":6123764031,"AWATER":11134195},"id":"08125"},{"arcs":[[-65,174,-151,175,176]],"type":"Polygon","properties":{"STATEFP":"08","COUNTYFP":"021","COUNTYNS":"00198126","GEOIDFQ":"0500000US08021","GEOID":"08021","NAME":"Conejos","NAMELSAD":"Conejos County","STUSPS":"CO","STATE_NAME":"Colorado","LSAD":"06","ALAND":3334418691,"AWATER":9235012},"id":"08021"},{"arcs":[[-74,-136,-168,-171,177]],"type":"Polygon","properties":{"STATEFP":"08","COUNTYFP":"089","COUNTYNS":"00198160","GEOIDFQ":"0500000US08089","GEOID":"08089","NAME":"Otero","NAMELSAD":"Otero County","STUSPS":"CO","STATE_NAME":"Colorado","LSAD":"06","ALAND":3268424304,"AWATER":20092556},"id":"08089"},{"arcs":[[-150,-162,178,179,-176]],"type":"Polygon","properties":{"STATEFP":"08","COUNTYFP":"105","COUNTYNS":"00198168","GEOIDFQ":"0500000US08105","GEOID":"08105","NAME":"Rio Grande","NAMELSAD":"Rio Grande County","STUSPS":"CO","STATE_NAME":"Colorado","LSAD":"06","ALAND":2361956077,"AWATER":984295},"id":"08105"},{"arcs":[[-20,180,-115,-67],[-119]],"type":"Polygon","properties":{"STATEFP":"08","COUNTYFP":"014","COUNTYNS":"01945881","GEOIDFQ":"0500000US08014","GEOID":"08014","NAME":"Broomfield","NAMELSAD":"Broomfield County","STUSPS":"CO","STATE_NAME":"Colorado","LSAD":"06","ALAND":85384996,"AWATER":1502572},"id":"08014"},{"arcs":[[-3,-142,-165,-133,-48,181]],"type":"Polygon","properties":{"STATEFP":"08","COUNTYFP":"041","COUNTYNS":"00198135","GEOIDFQ":"0500000US08041","GEOID":"08041","NAME":"El Paso","NAMELSAD":"El Paso County","STUSPS":"CO","STATE_NAME":"Colorado","LSAD":"06","ALAND":5507412948,"AWATER":7044326},"id":"08041"},{"arcs":[[-12,-148,182]],"type":"Polygon","properties":{"STATEFP":"08","COUNTYFP":"115","COUNTYNS":"00198173","GEOIDFQ":"0500000US08115","GEOID":"08115","NAME":"Sedgwick","NAMELSAD":"Sedgwick County","STUSPS":"CO","STATE_NAME":"Colorado","LSAD":"06","ALAND":1419419024,"AWATER":3530746},"id":"08115"},{"arcs":[[-23,-169,-145,-174,-156,-166,-106]],"type":"Polygon","properties":{"STATEFP":"08","COUNTYFP":"121","COUNTYNS":"00198176","GEOIDFQ":"0500000US08121","GEOID":"08121","NAME":"Washington","NAMELSAD":"Washington County","STUSPS":"CO","STATE_NAME":"Colorado","LSAD":"06","ALAND":6521806796,"AWATER":15207397},"id":"08121"},{"arcs":[[-53,-66,-177,-180,183]],"type":"Polygon","properties":{"STATEFP":"08","COUNTYFP":"003","COUNTYNS":"00198117","GEOIDFQ":"0500000US08003","GEOID":"08003","NAME":"Alamosa","NAMELSAD":"Alamosa County","STUSPS":"CO","STATE_NAME":"Colorado","LSAD":"06","ALAND":1871643029,"AWATER":1670455},"id":"08003"},{"arcs":[[-4,-182,-47,184,185]],"type":"Polygon","properties":{"STATEFP":"08","COUNTYFP":"119","COUNTYNS":"00198175","GEOIDFQ":"0500000US08119","GEOID":"08119","NAME":"Teller","NAMELSAD":"Teller County","STUSPS":"CO","STATE_NAME":"Colorado","LSAD":"06","ALAND":1442988182,"AWATER":4960197},"id":"08119"},{"arcs":[[-19,-54,-184,-179,-161,-93,186,-128,-44]],"type":"Polygon","properties":{"STATEFP":"08","COUNTYFP":"109","COUNTYNS":"00198170","GEOIDFQ":"0500000US08109","GEOID":"08109","NAME":"Saguache","NAMELSAD":"Saguache County","STUSPS":"CO","STATE_NAME":"Colorado","LSAD":"06","ALAND":8206547698,"AWATER":4454510},"id":"08109"},{"arcs":[[-5,-186,187,-98,-143,-116,-181,-26,-28,-105]],"type":"Polygon","properties":{"STATEFP":"08","COUNTYFP":"059","COUNTYNS":"00198145","GEOIDFQ":"0500000US08059","GEOID":"08059","NAME":"Jefferson","NAMELSAD":"Jefferson County","STUSPS":"CO","STATE_NAME":"Colorado","LSAD":"06","ALAND":1979849267,"AWATER":24965560},"id":"08059"},{"arcs":[[-9,-39,-132,-129,-187,-92,188,-158]],"type":"Polygon","properties":{"STATEFP":"08","COUNTYFP":"051","COUNTYNS":"00198141","GEOIDFQ":"0500000US08051","GEOID":"08051","NAME":"Gunnison","NAMELSAD":"Gunnison County","STUSPS":"CO","STATE_NAME":"Colorado","LSAD":"06","ALAND":8389334149,"AWATER":53070998},"id":"08051"},{"arcs":[[-86,-111,-159,-189,-91]],"type":"Polygon","properties":{"STATEFP":"08","COUNTYFP":"091","COUNTYNS":"00198161","GEOIDFQ":"0500000US08091","GEOID":"08091","NAME":"Ouray","NAMELSAD":"Ouray County","STUSPS":"CO","STATE_NAME":"Colorado","LSAD":"06","ALAND":1400332624,"AWATER":3986292},"id":"08091"},{"arcs":[[-58,-138,-75,-178,-170]],"type":"Polygon","properties":{"STATEFP":"08","COUNTYFP":"011","COUNTYNS":"00198121","GEOIDFQ":"0500000US08011","GEOID":"08011","NAME":"Bent","NAMELSAD":"Bent County","STUSPS":"CO","STATE_NAME":"Colorado","LSAD":"06","ALAND":3918255143,"AWATER":73141519},"id":"08011"},{"arcs":[[-46,-131,-120,-113,-99,-188,-185]],"type":"Polygon","properties":{"STATEFP":"08","COUNTYFP":"093","COUNTYNS":"00198162","GEOIDFQ":"0500000US08093","GEOID":"08093","NAME":"Park","NAMELSAD":"Park County","STUSPS":"CO","STATE_NAME":"Colorado","LSAD":"06","ALAND":5681165600,"AWATER":43519329},"id":"08093"}]}}}