{"type":"Topology","arcs":[[[1961,1150],[77,13],[10,22],[39,-24],[16,23],[30,-7],[44,15],[5,25],[-15,48],[48,20],[38,35],[49,68],[-8,41],[85,0],[13,42],[52,7]],[[2444,1478],[69,-15],[-17,-64],[5,-98],[261,-54],[104,14],[1,-22],[32,-222],[109,-18]],[[3008,999],[-7,-172],[-35,5],[-36,-26],[17,-36],[-8,-42],[13,-45],[-48,-43],[-27,31],[-68,-16],[-38,19],[-26,-31],[-26,16],[-49,-44],[-60,23],[-70,-9],[-27,-29],[-35,0],[-67,45],[-40,-18],[-1,-50],[-50,26],[-20,-3]],[[2300,600],[-12,51],[-28,59],[-12,96],[9,67],[-44,-15],[-29,196],[-167,-19],[-56,115]],[[997,514],[4,52],[24,14],[11,41],[32,7],[-13,130],[12,77],[19,-3],[6,78],[62,18],[107,-18],[47,-23],[63,106],[-11,85]],[[1360,1078],[7,40],[33,7],[13,-32],[28,36],[76,11]],[[1517,1140],[14,-185],[15,5],[-9,-91],[-11,-29],[144,28],[5,-36],[28,-14],[32,-50],[-4,-109],[35,-14],[15,-31],[43,-50],[29,-50]],[[1853,514],[-12,-12],[-42,38],[-72,7],[-106,-27],[-46,7],[-34,-8],[-39,20],[-39,-6],[-147,-42],[-24,5],[-13,49],[-4,49],[-34,-30],[-2,-35],[-48,-21],[-16,-28],[-47,-28],[-19,-35],[-54,12],[-61,-45],[-30,-36]],[[964,348],[-23,27],[21,41],[-1,49],[36,49]],[[285,730],[22,310],[14,179],[5,91]],[[326,1310],[212,32],[6,-47],[29,-24],[28,-187],[17,-88],[18,2]],[[636,998],[-12,-41],[51,-71],[31,8],[16,-33],[28,11],[15,-27],[27,6],[52,-44],[3,-28]],[[847,779],[-30,-38],[-42,-4],[-149,-92],[32,-48],[-100,-44],[70,-102],[-23,-53],[62,-96],[0,-39]],[[667,263],[-80,-36],[-23,-17],[-58,-22],[-48,-59],[-56,9],[-21,-27],[-28,1],[-79,-43],[-50,-46],[-19,29],[-48,-27],[-20,3],[-30,-28],[6,44],[-113,172],[381,217],[-106,159],[10,138]],[[2300,600],[-20,-32],[-87,-10],[-25,10],[-14,-27],[-68,-13],[-19,31],[-43,-8],[-40,10],[-25,-20],[-28,4],[-38,-28],[-40,-3]],[[1517,1140],[-1,27],[33,6],[24,21],[4,41],[133,24],[-4,-14],[195,27],[60,-122]],[[997,514],[-34,27],[-55,-22],[-18,23],[-28,-1],[-49,59],[44,74],[30,76],[-40,29]],[[636,998],[103,13],[-23,176],[22,3],[-13,116],[186,15],[114,67],[109,11],[156,20]],[[1290,1419],[23,-142],[-86,-10],[8,-71],[-20,-98],[97,13],[25,-28],[23,-5]],[[1290,1419],[-16,102],[-26,23],[-1,41],[-36,-5],[19,66],[-26,26],[20,80],[39,3],[81,272]],[[1344,2027],[78,-2],[-5,-75],[77,10],[24,53],[87,12],[190,-13],[70,9],[503,-7]],[[2368,2014],[-15,-60],[-32,-82],[28,1],[-1,-237],[83,-1],[13,-157]],[[964,348],[8,-34],[-43,-9],[-65,24],[-47,-2],[-93,-77],[-38,19],[-19,-6]],[[326,1310],[11,178],[33,466],[4,96],[85,2],[590,-21],[295,-4]],[[2368,2014],[108,-1],[112,-6],[409,-7],[2,-30],[2,-141],[13,-406],[4,-134],[-4,-114],[-6,-176]]],"transform":{"scale":[0.0006430685884691806,0.000517412280701753],"translate":[-73.727775,40.988857]},"objects":{"09":{"type":"GeometryCollection","geometries":[{"arcs":[[0,1,2,3]],"type":"Polygon","properties":{"STATEFP":"09","COUNTYFP":"180","COUNTYNS":"02830253","GEOIDFQ":"0500000US09180","GEOID":"09180","NAME":"Southeastern Connecticut","NAMELSAD":"Southeastern Connecticut Planning Region","STUSPS":"CT","STATE_NAME":"Connecticut","LSAD":"PL","ALAND":1549173136,"AWATER":216452635},"id":"09180"},{"arcs":[[4,5,6,7,8]],"type":"Polygon","properties":{"STATEFP":"09","COUNTYFP":"170","COUNTYNS":"02830252","GEOIDFQ":"0500000US09170","GEOID":"09170","NAME":"South Central Connecticut","NAMELSAD":"South Central Connecticut Planning Region","STUSPS":"CT","STATE_NAME":"Connecticut","LSAD":"PL","ALAND":951177346,"AWATER":653525530},"id":"09170"},{"arcs":[[9,10,11,12,13]],"type":"Polygon","properties":{"STATEFP":"09","COUNTYFP":"190","COUNTYNS":"02830254","GEOIDFQ":"0500000US09190","GEOID":"09190","NAME":"Western Connecticut","NAMELSAD":"Western Connecticut Planning Region","STUSPS":"CT","STATE_NAME":"Connecticut","LSAD":"PL","ALAND":1378255713,"AWATER":300132108},"id":"09190"},{"arcs":[[-4,14,-7,15]],"type":"Polygon","properties":{"STATEFP":"09","COUNTYFP":"130","COUNTYNS":"02830246","GEOIDFQ":"0500000US09130","GEOID":"09130","NAME":"Lower Connecticut River Valley","NAMELSAD":"Lower Connecticut River Valley Planning Region","STUSPS":"CT","STATE_NAME":"Connecticut","LSAD":"PL","ALAND":1098469096,"AWATER":241074260},"id":"09130"},{"arcs":[[-5,16,-12,17,18]],"type":"Polygon","properties":{"STATEFP":"09","COUNTYFP":"140","COUNTYNS":"02830249","GEOIDFQ":"0500000US09140","GEOID":"09140","NAME":"Naugatuck Valley","NAMELSAD":"Naugatuck Valley Planning Region","STUSPS":"CT","STATE_NAME":"Connecticut","LSAD":"PL","ALAND":1069106369,"AWATER":22747873},"id":"09140"},{"arcs":[[-1,-16,-6,-19,19,20,21]],"type":"Polygon","properties":{"STATEFP":"09","COUNTYFP":"110","COUNTYNS":"02830244","GEOIDFQ":"0500000US09110","GEOID":"09110","NAME":"Capitol","NAMELSAD":"Capitol Planning Region","STUSPS":"CT","STATE_NAME":"Connecticut","LSAD":"PL","ALAND":2660835165,"AWATER":48773550},"id":"09110"},{"arcs":[[-9,22,-13,-17]],"type":"Polygon","properties":{"STATEFP":"09","COUNTYFP":"120","COUNTYNS":"02830245","GEOIDFQ":"0500000US09120","GEOID":"09120","NAME":"Greater Bridgeport","NAMELSAD":"Greater Bridgeport Planning Region","STUSPS":"CT","STATE_NAME":"Connecticut","LSAD":"PL","ALAND":363096070,"AWATER":253735932},"id":"09120"},{"arcs":[[-11,23,-20,-18]],"type":"Polygon","properties":{"STATEFP":"09","COUNTYFP":"160","COUNTYNS":"02830251","GEOIDFQ":"0500000US09160","GEOID":"09160","NAME":"Northwest Hills","NAMELSAD":"Northwest Hills Planning Region","STUSPS":"CT","STATE_NAME":"Connecticut","LSAD":"PL","ALAND":2037392871,"AWATER":55597912},"id":"09160"},{"arcs":[[-2,-22,24]],"type":"Polygon","properties":{"STATEFP":"09","COUNTYFP":"150","COUNTYNS":"02830250","GEOIDFQ":"0500000US09150","GEOID":"09150","NAME":"Northeastern Connecticut","NAMELSAD":"Northeastern Connecticut Planning Region","STUSPS":"CT","STATE_NAME":"Connecticut","LSAD":"PL","ALAND":1434595321,"AWATER":23973785},"id":"09150"}]}}}