{"type":"Topology","arcs":[[[383,1715],[5,-34],[-24,22],[19,12]],[[48,1231],[-11,117],[-24,251],[-13,158],[0,93],[25,0],[34,51],[44,39],[43,27],[100,37],[78,13],[3,1],[22,1],[68,0],[67,-8],[76,-19],[50,-19],[-75,-30],[-36,-46],[-32,-50],[-89,-93],[-41,-8],[-47,-51],[5,-27],[82,-51],[-16,-66],[-34,-55],[6,-27],[29,-32],[56,-32],[38,-56],[6,-18]],[[462,1331],[-40,-22],[-36,-2],[-28,-52],[-76,-5],[-58,-28],[-101,12],[-75,-3]],[[1236,0],[-488,1],[-147,1],[-219,4],[-223,7],[-13,146],[-10,109],[-26,283]],[[110,551],[280,8],[58,30],[19,29],[35,25],[4,15],[35,12],[78,4],[32,18],[-3,31],[67,14],[13,-14],[69,-3]],[[797,720],[-9,-18],[22,-30],[68,-52],[52,-48],[69,-54],[53,-25],[42,-11],[62,9],[25,-24],[4,-49],[23,-113],[27,-254],[1,-51]],[[55,1157],[-7,74]],[[462,1331],[30,-28],[92,-48],[7,-33],[43,-39],[4,-56],[16,-31],[-27,-74],[23,-79],[-6,-30],[12,-30],[92,-55],[38,-47],[11,-61]],[[110,551],[-42,456],[-13,150]]],"transform":{"scale":[0.0005984781553398009,0.0006871020672908863],"translate":[-75.788658,38.451263]},"objects":{"10":{"type":"GeometryCollection","geometries":[{"arcs":[[[0]],[[1,2]]],"type":"MultiPolygon","properties":{"STATEFP":"10","COUNTYFP":"003","COUNTYNS":"00217270","GEOIDFQ":"0500000US10003","GEOID":"10003","NAME":"New Castle","NAMELSAD":"New Castle County","STUSPS":"DE","STATE_NAME":"Delaware","LSAD":"06","ALAND":1104210699,"AWATER":175313041},"id":"10003"},{"arcs":[[3,4,5]],"type":"Polygon","properties":{"STATEFP":"10","COUNTYFP":"005","COUNTYNS":"00217269","GEOIDFQ":"0500000US10005","GEOID":"10005","NAME":"Sussex","NAMELSAD":"Sussex County","STUSPS":"DE","STATE_NAME":"Delaware","LSAD":"06","ALAND":2424606008,"AWATER":674113494},"id":"10005"},{"arcs":[[6,-3,7,-5,8]],"type":"Polygon","properties":{"STATEFP":"10","COUNTYFP":"001","COUNTYNS":"00217271","GEOIDFQ":"0500000US10001","GEOID":"10001","NAME":"Kent","NAMELSAD":"Kent County","STUSPS":"DE","STATE_NAME":"Delaware","LSAD":"06","ALAND":1517891101,"AWATER":549776917},"id":"10001"}]}}}