{"type":"Topology","arcs":[[[131,214],[105,-90],[-145,-124],[-1,50],[-6,9],[15,13],[-40,60],[-30,8],[-29,35],[88,75],[43,-36]]],"transform":{"scale":[0.0008913728813559256,0.000813859999999977],"translate":[-77.119759,38.791645]},"objects":{"11":{"type":"GeometryCollection","geometries":[{"arcs":[[0]],"type":"Polygon","properties":{"STATEFP":"11","COUNTYFP":"001","COUNTYNS":"01702382","GEOIDFQ":"0500000US11001","GEOID":"11001","NAME":"District of Columbia","NAMELSAD":"District of Columbia","STUSPS":"DC","STATE_NAME":"District of Columbia","LSAD":"00","ALAND":158318961,"AWATER":18706999},"id":"11001"}]}}}