{"type":"Topology","arcs":[[[8332,10826],[160,9],[349,4]],[[8841,10839],[7,-27],[-15,-37],[-36,-21],[-13,-46],[-48,-44],[-29,-35],[-55,-12],[-22,-56],[-55,-84],[-56,10],[-15,-46],[-62,-23],[-46,-5]],[[8396,10413],[-68,17],[-18,-10],[-20,26],[-42,10],[-30,-8]],[[8218,10448],[-6,34],[-58,32],[-11,31],[7,38],[57,28],[1,58],[27,40],[32,25],[50,16],[19,17],[6,35],[-10,24]],[[7794,7025],[228,1]],[[8022,7026],[4,-301]],[[8026,6725],[-46,29],[-21,-11],[24,-42],[-28,-42],[-5,-40],[-42,-17],[2,-36],[59,-39],[74,-22],[0,-22],[35,-24],[29,-45],[17,-74],[-15,-11],[-16,-40],[-25,-7],[-2,-56],[-11,-12],[8,-52],[-23,-45],[-51,4],[-28,-13],[-36,12],[-12,-26],[-8,-58],[30,-71],[-51,-25],[2,24],[-16,56],[12,58],[0,44],[-14,46],[-23,29],[-15,41],[-32,48],[-61,60],[-29,62],[-9,61],[14,93],[19,59],[5,108],[31,-26],[-14,-19],[21,-60],[19,79],[11,80],[-1,33],[13,109],[-31,99],[8,1]],[[8983,6005],[504,0],[286,1]],[[9773,6006],[-1,-592]],[[9772,5414],[-475,-1],[0,-7],[-317,3]],[[8980,5409],[3,596]],[[9223,12166],[23,-11],[15,-44],[45,-10],[23,-16],[51,7],[38,-33],[23,8],[47,-26],[33,-37],[41,7],[35,-18],[34,3],[45,-31],[29,-9],[15,14],[36,-9],[21,-21],[48,24],[67,4],[22,-22],[51,-10],[29,-18],[-5,-57],[-20,-134],[-3,-60],[12,-86],[-31,-8]],[[9947,11573],[-40,22],[-31,59],[-24,7],[-15,-22],[4,-34],[-35,-28],[-20,39],[-35,-12],[-24,53],[-52,40],[-28,-12],[-42,-37],[-50,16],[-38,4],[-21,-23],[-5,-48],[-41,1],[-2,-32],[-26,-29],[-22,4],[-23,-41],[-35,-33],[-290,-312],[-61,-63]],[[8991,11092],[-1,172]],[[8990,11264],[22,44],[-8,23],[6,72],[32,79],[4,73],[-6,21],[21,77],[-10,59],[-24,24],[-3,30],[-33,65],[-2,41],[23,58],[-14,43],[13,50],[41,16],[-19,39],[30,16],[50,-24],[19,43],[-4,33],[41,21],[19,-22],[36,0],[-1,21]],[[8841,10839],[150,0]],[[8991,10839],[2,-289],[-1,-107],[4,-370],[-5,-55]],[[8991,10018],[-10,-1]],[[8981,10017],[-4,57],[-30,26],[-5,29],[-47,13],[-24,43],[0,36],[-15,24],[-65,2],[-27,21],[-70,-5],[-17,13],[-41,-16],[-57,18],[-48,49],[-84,7],[-22,15],[-16,59],[-13,5]],[[6140,11150],[566,1],[-1,-85],[164,0]],[[6869,11066],[1,-114],[-6,-378],[0,-229],[28,0],[1,-127],[54,1]],[[6947,10219],[-1,-86],[-42,-67],[-8,-94],[-36,-57],[-41,16],[-18,-11]],[[6801,9920],[-62,13],[-57,26],[-15,47],[-80,30],[-28,29],[-10,35],[-37,43],[12,17],[-8,52],[-51,45],[-31,85],[-25,16],[-44,52],[-76,38],[-30,33],[-68,37],[-64,12],[-27,28],[-129,71],[-55,59],[-38,16],[-13,25]],[[5865,10729],[-1,19],[48,106],[17,69],[39,9],[17,63],[2,41],[29,14],[25,30],[70,25],[29,45]],[[8568,8549],[224,0],[352,0]],[[9144,8549],[1,-158],[-2,-457],[1,-120],[-6,-456]],[[9138,7358],[0,-70],[-49,-3],[-12,22],[-48,8],[-49,-19]],[[8980,7296],[2,320]],[[8982,7616],[1,83],[-22,20],[-39,-16],[-28,40],[-34,5],[-12,37],[-20,11],[-35,-11],[-39,20],[-19,-7],[-22,41],[-62,84],[-22,46],[18,14]],[[8647,7983],[23,65],[-1,31],[69,77],[27,3],[9,48],[21,13],[-19,61],[-36,25],[-43,42],[-17,40],[-50,39],[-6,26],[-56,96]],[[8982,7616],[-320,0],[0,-84],[-321,-2],[-349,0]],[[7992,7530],[3,183],[25,18],[-6,73],[4,74],[-28,29],[-11,51],[37,39],[-32,37]],[[7984,8034],[413,1],[1,-56],[249,4]],[[4703,11143],[138,1],[401,6],[210,0],[11,-57],[266,-1]],[[5729,11092],[0,-345]],[[5729,10747],[-79,-9],[-52,-35],[-35,1],[8,34],[-32,14],[-15,-26],[-55,2],[-16,30],[-24,5],[-17,-22],[3,-47],[-43,-21],[-59,-39],[-29,-47],[-22,-8],[6,-41],[22,-36],[-74,26],[-67,-6]],[[5149,10522],[-36,-8],[-15,52],[-38,-29],[-37,4],[-17,31],[-31,12]],[[4975,10584],[-75,36],[-31,58],[-32,10],[-40,68],[10,15],[-33,34],[-6,48],[7,63],[-22,68],[-17,8],[-21,58],[-34,9],[-4,60],[26,24]],[[188,11105],[0,7],[106,31],[-12,16],[-69,-2],[-3,33],[20,13],[44,5],[22,25],[-1,40],[21,26],[15,50],[42,7],[52,40],[0,31],[-70,21],[-34,44],[7,30],[-22,23],[-3,38],[18,42],[27,25],[31,85],[9,49],[-5,45],[-16,40],[-72,48],[-37,13],[-11,19],[-34,10],[-15,23],[-33,20],[-7,37],[-25,45],[-48,51],[-30,16],[-43,53],[-12,35],[21,37],[23,76],[30,77],[-16,64],[554,2],[27,-4],[120,5]],[[759,12496],[-67,-56],[-36,-17],[-45,-57],[-43,-13],[-4,-72],[-22,-13],[-25,-63],[17,-19],[16,-51],[-20,-27],[-7,-39],[9,-25],[-13,-59],[6,-15],[59,-21],[11,-55],[-3,-44],[18,-105],[31,-28],[43,-80],[82,-31],[61,-81],[-49,-164],[-15,-13],[-116,-69],[3,-52],[84,-14],[42,24],[83,9],[207,54],[87,11],[0,-31]],[[1153,11280],[-209,-44],[-172,-39],[-82,-12],[-104,-10],[-47,23],[-23,-13],[-182,-49],[-146,-31]],[[10700,7877],[37,0],[-5,343],[378,2]],[[11110,8222],[37,-67],[101,-153],[49,-83],[68,-96],[22,-105],[57,-138],[-6,-19],[-56,-27],[-41,-54],[-21,-77],[-6,-57],[-1,-82],[5,-85],[15,-110],[36,-163],[14,-49],[52,-140],[61,-142],[74,-155]],[[11570,6420],[-13,-11],[-58,0],[-29,-63],[-374,1],[-205,-1]],[[10891,6346],[-2,310],[1,198],[11,0],[2,313],[-2,196]],[[10901,7363],[-43,87],[7,36],[-22,40],[11,34],[-4,34],[31,4],[3,26],[-20,54],[-83,51],[11,52],[-37,73],[-55,23]],[[9144,8549],[180,2],[296,-2],[-1,170],[33,0],[-3,162],[-2,281]],[[9647,9162],[12,-62],[24,-31],[15,-51],[79,-4],[14,-31],[32,-13],[45,-104],[4,-51],[21,-8],[48,2],[-2,-31],[45,-66],[47,-23],[49,-76],[29,-16],[-22,-57],[25,-18],[-2,-92],[-21,-38]],[[10089,8392],[-26,-52],[-39,-34],[-19,-38],[7,-57]],[[10012,8211],[-373,1],[2,-26],[-21,-12],[2,-337],[15,-15],[-15,-29],[0,-431]],[[9622,7362],[-215,-1],[0,30],[-108,0],[1,-31],[-162,-2]],[[8974,4309],[481,-1],[314,0]],[[9769,4308],[-1,-116],[4,-380]],[[9772,3812],[2,-176],[-156,-3],[3,-200],[-259,-3],[-1,28],[-43,0]],[[9318,3458],[-37,93],[-53,63],[-18,35],[-69,45],[-1,28],[-21,18],[-69,21],[9,19],[2,73],[-53,-17],[-31,44],[-18,-25],[1,-43],[19,-38],[-47,-8],[-33,3],[9,38],[-18,32],[-17,53],[-3,54],[-12,53],[-26,47],[9,19],[-63,73],[12,46],[26,3],[52,-15],[22,-34],[21,-69],[27,14],[-15,26],[10,69],[30,78],[11,53]],[[8710,3985],[15,0],[43,-153],[31,-70],[31,-19],[27,2],[71,-46],[42,29],[48,-34],[-49,-52],[-57,-1],[-46,22],[-35,37],[-39,23],[-22,42],[-30,152],[-25,31],[-5,37]],[[8648,4142],[10,39],[35,-53],[-7,-27],[17,-35],[-13,-13],[-42,89]],[[8632,4346],[80,-14],[35,-22]],[[8747,4310],[-48,1],[-31,-16],[-16,-68],[-20,119]],[[6140,11150],[15,29],[30,1],[-2,32],[-23,56],[7,25],[74,15],[11,43],[47,53],[-10,107],[-15,35],[18,29],[35,0],[0,29],[53,0],[1,29],[54,-1],[0,29],[26,0],[0,28],[27,0],[0,109],[-12,25]],[[6476,11823],[409,-27],[27,-2],[51,-4]],[[6963,11790],[54,-11],[31,-82],[-10,-10],[38,-122],[-8,-87],[29,-10],[14,-95],[60,-17],[14,-48]],[[7185,11308],[-34,-19],[-10,-52],[-23,-8],[5,-63],[-37,-38],[2,-16],[-25,-45]],[[7063,11067],[-194,-1]],[[10451,5999],[192,-2],[241,1]],[[10884,5998],[153,1],[2,-163],[156,0]],[[11195,5836],[4,-513],[-1,-170]],[[11198,5153],[1,-164],[-335,-315]],[[10864,4674],[17,264],[6,116],[-15,19],[-28,2],[-31,47],[-38,31]],[[10775,5153],[-8,22],[-41,1],[-34,63],[-12,39],[4,44],[-50,24],[-2,34],[-26,28],[20,37],[-56,49],[-73,6],[-27,40],[-19,13],[5,41],[-25,39],[-23,11],[-21,45],[-37,13],[9,49],[-16,39],[33,43],[21,4],[29,31],[4,30],[24,20],[-7,31],[4,50]],[[7794,7025],[-8,29],[25,38],[20,0],[22,40],[26,105],[14,82],[25,40],[-3,15],[26,42],[-9,22],[20,56],[40,36]],[[8980,7296],[1,-105],[-82,1],[1,-170]],[[8900,7022],[-519,0],[-142,2],[-217,2]],[[7561,9771],[130,0],[1,-14],[134,2],[26,-14],[1,-30],[161,5]],[[8014,9720],[0,-57],[159,4],[1,-111],[97,-4],[0,14],[145,-1]],[[8416,9565],[2,-329],[3,-192],[-212,-2],[-1,-329]],[[8208,8713],[-67,-33],[-26,4],[-31,-40],[-124,48],[-36,-6],[-70,-56],[-6,-19]],[[7848,8611],[-8,15],[17,51],[-16,55],[-32,28],[-52,7],[1,57],[22,28],[-11,17],[6,41],[-15,31],[-33,-15],[-38,14],[-29,-5],[-75,20],[-36,-4],[-86,12],[-8,-32],[-28,-35],[-57,-18],[-19,45],[1,50],[-30,59],[-1,29],[15,59],[-32,33],[-46,13],[-41,25],[-25,-6]],[[7192,9185],[44,68],[32,-13],[82,52],[6,58],[47,28],[32,67],[5,44],[46,49],[4,89],[20,10],[-12,36],[43,30],[20,68]],[[10700,7877],[-32,45],[10,9],[-16,53],[-16,11],[7,37],[-27,29],[-12,42],[-33,39],[13,46],[-23,76],[-28,6],[-33,24],[-28,-28],[-24,-44],[-64,-10],[-58,35],[-19,55],[-153,4],[-34,24],[-41,62]],[[9647,9162],[-23,45],[-19,3],[-21,44]],[[9584,9254],[262,73],[108,32],[27,39]],[[9981,9398],[22,2],[5,-268],[335,5],[95,4],[-6,226],[-3,55],[11,11],[76,20]],[[10516,9453],[89,-231],[129,-309],[35,-72],[56,-78],[51,-114],[147,-264],[87,-163]],[[10700,7877],[-178,-1],[-370,-4],[-1,56],[-211,2],[0,141],[29,4],[29,39],[13,55],[1,42]],[[4459,11940],[2,0],[522,-29],[104,-7],[151,-6],[158,-9]],[[5396,11889],[-33,-20],[5,-63],[-40,-49],[-13,-39],[-16,2],[-57,-48],[-21,-81],[-20,-42],[11,-51],[-42,-38],[-48,-3],[-108,-21],[-15,-20],[-60,-14],[-39,-42],[-26,8],[-31,-15],[-33,-39]],[[4810,11314],[-55,-1],[1,57],[-55,0],[0,84],[-107,-2],[-2,114],[-54,0],[0,28],[-108,0],[-1,141],[-79,1]],[[4350,11736],[39,26],[6,32],[23,46],[25,23],[27,51],[-11,26]],[[8991,10018],[33,0],[35,40],[49,15],[60,0],[25,65],[23,25],[76,12],[65,51],[15,20],[372,7]],[[9744,10253],[24,-72],[66,-84],[3,-266]],[[9837,9831],[5,-244],[48,-82],[8,-58],[15,-54],[40,-11],[28,16]],[[9584,9254],[9,28],[23,9],[-12,55],[-118,-1],[0,114],[-53,-2],[-3,113],[-107,-2],[0,67],[-29,-12],[-114,3],[-52,-24],[-65,-4],[-35,-14],[-48,-46]],[[8980,9538],[0,338],[10,131],[-9,10]],[[8900,7022],[80,0],[-1,-127],[4,-486],[0,-404]],[[8983,6005],[-532,0],[-273,-1]],[[8178,6004],[64,116],[32,26],[29,9],[-3,44],[58,22],[11,34],[26,33],[14,36],[30,25],[-15,71],[-2,43],[-20,34],[-29,-3],[-46,21],[2,53],[-48,-33],[4,-48],[11,-11],[-12,-51],[32,-38],[-6,-40],[-63,10],[-41,25],[-26,42],[34,18],[-2,129],[-33,55],[-78,30],[-75,69]],[[6947,10219],[579,5],[62,-2]],[[7588,10222],[-23,-29],[24,-28],[-24,-16],[-20,-40],[15,-41],[-7,-47],[-24,-43],[1,-115],[-24,-24],[-1,-34],[23,-39],[33,5]],[[7192,9185],[-11,41],[27,24],[-25,15],[-12,36],[-39,67],[3,22],[-25,50],[-37,25],[-63,0],[-27,28],[-18,41],[-37,13],[-42,47],[-36,7],[-26,44],[-19,86],[13,82],[-17,107]],[[2882,11924],[8,27],[22,15],[-10,62],[17,65],[112,-2],[0,-27],[27,-1],[-1,-56],[188,-5],[-2,54],[27,48],[6,66]],[[3276,12170],[189,-2],[-1,-84],[81,-1],[-1,-163],[-3,-148],[0,-111]],[[3541,11661],[-83,0],[1,-93],[-3,-160],[-589,7],[-49,-59],[-38,-8],[-22,19],[-30,-14],[-40,4],[-27,-35],[-18,-6]],[[2643,11316],[-1,30],[19,48],[47,28],[59,-11],[24,11],[16,36],[21,8],[18,40],[-33,78],[16,8],[-4,47],[-13,6],[-12,52],[-23,1],[2,53],[-11,44],[74,53],[-3,21],[21,44],[22,11]],[[7984,8034],[-26,15],[-39,49],[28,39],[9,80],[-34,21],[-41,49],[18,28],[-10,25],[10,37],[61,27],[1,39],[-20,27],[-39,83],[-54,58]],[[8208,8713],[24,-10],[36,4],[41,18],[50,-30],[38,-44],[83,-20],[86,-64],[2,-18]],[[7851,8240],[25,5],[29,-25],[-21,-32],[-33,52]],[[11873,1578],[5,41],[21,36],[42,13],[-40,-98],[-28,8]],[[10884,2441],[0,337]],[[10884,2778],[311,-1],[0,-43],[620,0],[-1,27],[286,9]],[[12100,2770],[-6,-150],[4,-101],[-3,-63],[-17,-84],[-22,-54],[-17,-84],[4,-52],[-39,29],[8,45],[29,26],[-39,44],[-48,-1],[-47,-35],[-19,-27],[7,-29],[-36,-76],[-7,-39],[-23,-37],[-20,3],[-17,-33],[10,-63],[-19,-69],[-27,-15],[-13,-55],[-1,-62],[23,-58],[-3,-80],[24,-17],[4,-29],[-26,-31],[-26,-49],[-45,-16],[-9,-34],[-5,-34],[-30,-22],[0,-45]],[[11649,1373],[-21,0],[-13,-34],[-36,15],[-44,-26],[-43,-8],[12,-35]],[[11504,1285],[-16,-16],[-34,44],[-17,-15],[-84,-8],[-3,-19],[-31,-21],[-10,25],[-48,-24],[-21,4],[-19,-31],[-28,-4],[-47,-44],[-19,15],[-52,-2],[-72,9],[-17,11],[-27,-16],[-11,23],[-39,8]],[[10909,1224],[-1,128],[-6,0],[0,235],[-18,0],[0,502],[0,352]],[[9622,7362],[0,-170],[161,0],[53,-113],[0,-112],[110,0],[0,-113],[176,0],[0,-29],[-30,-3],[2,-59],[-48,-19],[-55,22],[-25,39],[-22,-8],[-2,-26],[29,-15],[33,-62],[53,3],[17,-49],[43,-28],[21,-28],[-9,-31],[54,-23],[-10,-39],[29,-81],[58,-24],[23,3],[52,-39],[58,-112],[0,-36],[21,-19],[-6,-31],[26,-15],[14,-95],[21,-20],[-18,-31]],[[10451,5999],[-353,7],[-325,0]],[[8980,9538],[1,-56],[-74,-7],[-71,-29],[-37,4],[-40,-9],[-27,15],[-2,82],[-6,26],[-308,1]],[[8014,9720],[-1,222],[-3,291]],[[8010,10233],[39,7],[8,31],[59,24],[0,49],[27,15],[0,35],[34,30],[22,-6],[19,30]],[[8010,10233],[-56,8],[-69,50],[-27,39],[-1,26],[-25,7],[-3,49],[-31,24],[-16,-5]],[[7782,10431],[20,37],[41,25],[3,43],[-54,0],[-1,310],[0,369]],[[7791,11215],[4,-21],[51,-4],[22,-13],[17,21],[30,-14],[58,42],[-9,20],[40,33],[7,41],[20,29],[-22,66],[-58,64],[-32,62],[1,51],[-19,53],[32,29],[0,19],[27,26]],[[7960,11719],[170,-11],[200,-15]],[[8330,11693],[2,-274],[2,-359],[-2,-234]],[[6963,11790],[0,0],[278,-20],[417,-29],[302,-22]],[[7791,11215],[-80,7],[-20,34],[-51,20],[-6,37],[-28,-11],[-35,16],[-39,45],[-84,17],[-43,16],[-67,-9],[-4,23],[-70,-10],[-20,-22],[-32,-8],[-27,-62]],[[9947,11573],[-1,-17],[38,-50],[31,-9],[8,-93],[-7,-23],[31,-53],[-7,-31],[2,-94],[26,-151]],[[10068,11052],[-91,-1],[5,-284],[-169,-4],[-1,31],[-46,-4],[-21,16],[-69,15],[-43,-23],[-48,-1]],[[9585,10797],[-19,41],[2,57],[18,36],[-444,-8],[-151,1]],[[8991,10924],[0,168]],[[10775,5153],[-34,9],[-333,-2],[1,-170],[-160,-2],[1,-171],[-122,0],[-354,2]],[[9774,4819],[0,1]],[[9774,4820],[-2,594]],[[7588,10222],[3,0],[24,0],[19,8],[11,51],[16,24],[-7,38]],[[7654,10343],[27,47],[51,3],[37,40],[13,-2]],[[3616,10416],[-5,146],[3,389]],[[3614,10951],[292,0],[149,-2]],[[4055,10949],[-29,-35],[-10,-35],[11,-35],[-26,-68],[19,-46],[4,-84],[34,-39],[96,-42],[6,-20],[33,-7],[7,-31]],[[4200,10507],[10,-35],[-47,-67],[-9,-33],[21,-50],[14,-89],[21,-20],[-2,-24],[-31,-54],[-46,10],[-16,-31],[-50,16],[-156,-127],[-18,-32]],[[3891,9971],[-95,-22],[-67,-3],[-54,-29],[-21,20],[-36,74],[-36,128],[-13,94],[10,58],[18,-18],[-16,-38],[0,-44],[24,-89],[11,-62],[41,-76],[4,-24],[75,15],[16,66],[-2,96],[7,56],[-17,30],[-5,35],[-46,49],[-33,80],[-40,49]],[[7654,10343],[-24,26],[-28,9],[-30,102],[-32,2],[-20,67],[-26,28],[-39,6],[-16,41],[-45,44],[-41,21],[-8,32],[-25,2],[-118,52],[-32,-21],[-51,8],[-23,22],[3,40],[-22,33],[9,32],[-26,29],[-2,33],[16,52],[-16,8],[5,56]],[[2643,11316],[-5,-233]],[[2638,11083],[-151,67],[-159,59],[-121,41],[-81,22],[-134,23]],[[1992,11295],[7,230],[2,486],[4,249],[1,227]],[[2006,12487],[324,0],[245,-2]],[[2575,12485],[-4,-363],[0,-196],[311,-2]],[[4975,10584],[-352,0],[-394,5],[-29,-82]],[[4055,10949],[-5,14],[60,42],[8,43],[27,21],[-7,18],[18,32],[-7,27],[21,48],[-9,20],[18,56],[38,39],[-20,24],[-9,43],[29,27],[45,61],[-21,13],[15,62],[1,39],[27,55],[18,20],[-6,30],[35,5],[-1,27],[20,21]],[[4810,11314],[-53,-39],[-9,-35],[-48,-39],[23,-21],[-20,-37]],[[10901,7363],[-502,1],[-456,-2],[-321,0]],[[11649,1373],[-3,-30],[-22,-5],[-11,-46],[6,-25],[24,-13],[48,27],[31,3],[29,63],[4,44],[-20,26],[61,47],[42,54],[22,45],[22,-22],[-11,-30],[-28,-28],[-16,-51],[-46,-88],[-30,-44],[-14,-40],[-28,-35],[4,-46],[-18,-7],[-13,-38],[-36,-42],[-39,-8],[-31,-55],[-29,-11],[-52,-61],[6,-17],[-43,-51],[-25,-11],[-32,-51],[-28,-33],[-46,-14],[-4,24],[50,4],[22,25],[19,76],[45,1],[31,63],[16,11],[86,107],[-15,28],[-30,19],[-1,54],[30,48],[-36,52],[-36,-7]],[[10909,1224],[-29,-5],[-39,-23],[-1,-44],[-25,3],[-44,-13],[-46,-1],[-44,-19],[-38,10],[-44,-2],[-54,-23],[-45,57],[-47,22],[-2,50],[-21,49],[-27,27],[8,93],[24,106],[19,31],[30,-4],[-2,78],[-44,16],[5,33],[-16,58],[-16,32],[-2,36],[-33,22],[-34,49],[11,54],[-10,28],[-39,39],[-15,46],[2,27],[-48,15],[-3,47],[-27,31],[0,64],[-65,45],[-40,35],[-8,25],[-35,14],[1,51],[-54,17],[-15,19],[-74,19]],[[9923,2438],[338,1],[623,2]],[[10479,315],[77,18],[42,41],[23,10],[17,-18],[51,20],[49,38],[41,8],[-87,-67],[-50,-31],[-17,20],[-53,-24],[-25,-45],[-41,-6],[-27,36]],[[9373,8],[29,52],[44,20],[22,-11],[50,51],[-11,21],[-59,30],[18,41],[85,46],[47,42],[141,72],[37,46],[74,-8],[28,70],[88,41],[6,-19],[-29,-43],[10,-28],[50,21],[24,29],[54,-27],[11,-19],[-2,-52],[40,-68],[35,-9],[18,-73],[19,-18],[-80,-38],[-78,-29],[-18,42],[-65,21],[-57,-11],[-39,13],[-7,-56],[-78,-31],[-8,-11],[-65,-34],[-64,-22],[-34,-3],[-32,-29],[-81,-3],[-110,-24],[-13,8]],[[8991,10839],[0,85]],[[9585,10797],[-1,-75],[-14,-38],[1,-66],[29,-42],[75,-50],[23,-21],[16,-35],[-13,-71],[15,-78],[28,-68]],[[9772,3812],[157,1],[24,3],[289,3],[0,-183],[6,-328],[625,12]],[[10873,3320],[1,-167],[11,-338],[-1,-37]],[[9923,2438],[10,15],[-47,38],[-48,19],[-18,30],[-62,18],[-52,51],[-28,-3],[-32,29],[-53,-56],[9,-20],[-13,-31],[-19,5],[-46,107],[-18,3],[-4,42],[-38,50],[17,25],[-7,42],[-21,28],[-18,52],[-46,113],[-11,118],[-9,40],[-10,123],[-20,112],[-21,70]],[[10873,3320],[-2,144]],[[10871,3464],[549,2],[391,-1],[1,41],[149,-53],[156,0],[52,-14]],[[12169,3439],[-9,-120],[-11,-34],[-25,-205],[-3,-78],[-7,-10],[-14,-222]],[[10891,6346],[-21,0],[3,-171],[10,0],[1,-177]],[[11195,5836],[248,0],[329,-4]],[[11772,5832],[16,-61],[33,-99],[1,-15],[47,-139],[45,-103],[54,-152]],[[11968,5263],[-137,2],[-1,-112],[-315,1],[-317,-1]],[[9837,9831],[321,6],[37,48],[31,0],[31,31],[25,-14],[55,23]],[[10337,9925],[80,-224],[99,-248]],[[8330,11693],[66,-4],[328,-26],[-31,-23],[-10,-37],[16,-39],[47,-62],[-10,-48],[6,-31],[-10,-39],[10,-45],[54,-82],[105,18],[17,-14],[72,3]],[[9769,4308],[171,-2],[0,29],[40,0],[0,-29],[566,-1],[222,2],[96,367]],[[10864,4674],[0,-677],[9,-509],[-2,-24]],[[1992,11295],[-75,9],[-100,-2],[-23,9],[-169,19],[-182,-6],[-98,-12]],[[1345,11312],[6,445],[3,17],[5,300],[5,231],[3,187]],[[1367,12492],[157,-4],[201,1],[70,-4],[211,2]],[[4350,11736],[-130,0],[-249,3],[-6,-84],[-342,5]],[[3623,11660],[-82,1]],[[3276,12170],[6,46],[33,86],[45,65],[25,19],[2,57],[53,49]],[[3440,12492],[15,1],[394,7],[388,0],[-2,-53],[34,-15],[-1,-56],[79,-106],[-8,-21],[20,-62],[-17,-35],[31,-83],[6,-48],[30,-6],[50,-75]],[[5149,10522],[-5,-37],[34,10],[22,-11],[37,2],[72,-35],[5,-36],[-18,-48],[-58,-11],[-68,19],[-29,19],[-17,31],[-30,-9],[-35,-28],[-30,12],[-41,-12],[-51,-36],[-57,-30],[-80,-63],[-79,-37],[-96,-69],[-101,-59],[-21,-4],[-71,-43],[-33,3],[26,58],[24,31],[-71,4],[-20,-43],[-31,-31],[-28,-11],[-21,-36],[-59,-22],[-94,18],[-79,-6],[-155,-41]],[[4765,10148],[20,-8],[29,15],[32,1],[34,42],[33,-11],[-66,-34],[-57,-18],[-25,13]],[[4085,9839],[45,-33],[68,-25],[20,13],[53,11],[53,27],[37,43],[35,7],[68,47],[14,-2],[81,23],[13,37],[28,9],[19,-15],[-54,-35],[-88,-33],[-50,-24],[-116,-74],[-142,-52],[-81,66],[-3,10]],[[3883,9941],[33,7],[74,-6],[67,17],[33,-7],[22,-19],[-26,-81],[-39,-6],[-33,8],[-74,61],[-57,26]],[[8974,4309],[14,42],[3,44],[-9,36],[6,62],[-15,29],[-42,16],[-17,51],[16,25],[31,0],[23,23],[-20,29],[-86,17],[6,-24],[-41,-52],[-21,2],[-32,32],[-11,-39],[44,-131],[14,-126],[-44,-36],[-46,1]],[[8632,4346],[-17,52],[-69,119],[-27,33],[-53,100]],[[8466,4650],[193,-2],[0,170],[319,-2]],[[8978,4816],[104,-1],[15,7],[341,-2],[336,0]],[[9774,4819],[-5,-511]],[[8980,5409],[-1,-253]],[[8979,5156],[-317,2],[2,344],[-313,0],[-27,4],[-289,3]],[[8035,5509],[-29,44],[-47,42],[-28,103],[-27,50],[27,19],[1,-48],[27,-4],[25,45],[54,11],[15,52],[32,37],[1,27],[55,28],[19,31],[4,43],[14,15]],[[10068,11052],[39,-175],[50,-252],[26,-122],[32,-105],[18,-22],[18,-84],[9,-105],[11,-57],[66,-205]],[[5865,10729],[-53,33],[-62,-4],[-21,-11]],[[5729,11092],[2,311],[53,56],[1,114],[100,1],[-36,119],[-10,49],[0,121]],[[5839,11863],[424,-26],[213,-14]],[[8466,4650],[-41,75],[-14,38],[-58,108],[-51,156],[-36,77],[-36,92],[-37,63],[-31,17],[-8,56],[-34,58],[-54,65],[-31,54]],[[8979,5156],[-1,-340]],[[11570,6420],[50,-120],[51,-111],[32,-109],[33,-133],[21,-39],[15,-76]],[[10864,4674],[431,-2],[280,0],[95,1],[391,-3],[0,28],[100,-1]],[[12161,4697],[54,-216],[24,-121],[-10,-58],[7,-100],[-6,-133],[1,-84],[-9,-111],[-14,-70],[-18,-148],[-14,-187],[-7,-30]],[[2575,12485],[228,1],[232,3],[405,3]],[[3623,11660],[-6,-281],[-3,-428]],[[3616,10416],[-51,44],[-56,18],[-42,3],[-44,27],[-46,62],[-27,15],[-67,75],[-35,23],[-133,70],[-47,38],[-75,74],[-165,115],[-112,64],[-78,39]],[[11968,5263],[62,-136],[6,-57],[38,-119],[28,-57],[36,-104],[23,-93]],[[759,12496],[36,1],[343,-3],[229,-2]],[[1345,11312],[-192,-32]],[[5396,11889],[320,-18],[123,-8]]],"transform":{"scale":[0.000621257945910614,0.0005165102400000001],"translate":[-87.634938,24.544506]},"objects":{"12":{"type":"GeometryCollection","geometries":[{"arcs":[[0,1,2,3]],"type":"Polygon","properties":{"STATEFP":"12","COUNTYFP":"125","COUNTYNS":"00306913","GEOIDFQ":"0500000US12125","GEOID":"12125","NAME":"Union","NAMELSAD":"Union County","STUSPS":"FL","STATE_NAME":"Florida","LSAD":"06","ALAND":631672854,"AWATER":15181112},"id":"12125"},{"arcs":[[4,5,6]],"type":"Polygon","properties":{"STATEFP":"12","COUNTYFP":"103","COUNTYNS":"00295745","GEOIDFQ":"0500000US12103","GEOID":"12103","NAME":"Pinellas","NAMELSAD":"Pinellas County","STUSPS":"FL","STATE_NAME":"Florida","LSAD":"06","ALAND":709120286,"AWATER":1535953337},"id":"12103"},{"arcs":[[7,8,9,10]],"type":"Polygon","properties":{"STATEFP":"12","COUNTYFP":"049","COUNTYNS":"00295746","GEOIDFQ":"0500000US12049","GEOID":"12049","NAME":"Hardee","NAMELSAD":"Hardee County","STUSPS":"FL","STATE_NAME":"Florida","LSAD":"06","ALAND":1651297015,"AWATER":1472455},"id":"12049"},{"arcs":[[11,12,13,14]],"type":"Polygon","properties":{"STATEFP":"12","COUNTYFP":"089","COUNTYNS":"00295730","GEOIDFQ":"0500000US12089","GEOID":"12089","NAME":"Nassau","NAMELSAD":"Nassau County","STUSPS":"FL","STATE_NAME":"Florida","LSAD":"06","ALAND":1680075548,"AWATER":200050173},"id":"12089"},{"arcs":[[-2,15,16,17,18]],"type":"Polygon","properties":{"STATEFP":"12","COUNTYFP":"007","COUNTYNS":"00303634","GEOIDFQ":"0500000US12007","GEOID":"12007","NAME":"Bradford","NAMELSAD":"Bradford County","STUSPS":"FL","STATE_NAME":"Florida","LSAD":"06","ALAND":761368538,"AWATER":16898784},"id":"12007"},{"arcs":[[19,20,21,22,23]],"type":"Polygon","properties":{"STATEFP":"12","COUNTYFP":"123","COUNTYNS":"00295728","GEOIDFQ":"0500000US12123","GEOID":"12123","NAME":"Taylor","NAMELSAD":"Taylor County","STUSPS":"FL","STATE_NAME":"Florida","LSAD":"06","ALAND":2702230205,"AWATER":1213570858},"id":"12123"},{"arcs":[[24,25,26,27,28,29]],"type":"Polygon","properties":{"STATEFP":"12","COUNTYFP":"119","COUNTYNS":"00295740","GEOIDFQ":"0500000US12119","GEOID":"12119","NAME":"Sumter","NAMELSAD":"Sumter County","STUSPS":"FL","STATE_NAME":"Florida","LSAD":"06","ALAND":1442975452,"AWATER":58773802},"id":"12119"},{"arcs":[[-29,30,31,32]],"type":"Polygon","properties":{"STATEFP":"12","COUNTYFP":"053","COUNTYNS":"00295751","GEOIDFQ":"0500000US12053","GEOID":"12053","NAME":"Hernando","NAMELSAD":"Hernando County","STUSPS":"FL","STATE_NAME":"Florida","LSAD":"06","ALAND":1225019717,"AWATER":627876236},"id":"12053"},{"arcs":[[33,34,35,36,37]],"type":"Polygon","properties":{"STATEFP":"12","COUNTYFP":"129","COUNTYNS":"00306912","GEOIDFQ":"0500000US12129","GEOID":"12129","NAME":"Wakulla","NAMELSAD":"Wakulla County","STUSPS":"FL","STATE_NAME":"Florida","LSAD":"06","ALAND":1570620420,"AWATER":804106505},"id":"12129"},{"arcs":[[38,39,40]],"type":"Polygon","properties":{"STATEFP":"12","COUNTYFP":"033","COUNTYNS":"00295737","GEOIDFQ":"0500000US12033","GEOID":"12033","NAME":"Escambia","NAMELSAD":"Escambia County","STUSPS":"FL","STATE_NAME":"Florida","LSAD":"06","ALAND":1701617702,"AWATER":1213958859},"id":"12033"},{"arcs":[[41,42,43,44,45]],"type":"Polygon","properties":{"STATEFP":"12","COUNTYFP":"009","COUNTYNS":"00295749","GEOIDFQ":"0500000US12009","GEOID":"12009","NAME":"Brevard","NAMELSAD":"Brevard County","STUSPS":"FL","STATE_NAME":"Florida","LSAD":"06","ALAND":2628767922,"AWATER":1403935646},"id":"12009"},{"arcs":[[-26,46,47,48,49,50]],"type":"Polygon","properties":{"STATEFP":"12","COUNTYFP":"069","COUNTYNS":"00308551","GEOIDFQ":"0500000US12069","GEOID":"12069","NAME":"Lake","NAMELSAD":"Lake County","STUSPS":"FL","STATE_NAME":"Florida","LSAD":"06","ALAND":2470875328,"AWATER":525122712},"id":"12069"},{"arcs":[[[51,52,53,54]],[[55]],[[56]],[[57,58]]],"type":"MultiPolygon","properties":{"STATEFP":"12","COUNTYFP":"071","COUNTYNS":"00295758","GEOIDFQ":"0500000US12071","GEOID":"12071","NAME":"Lee","NAMELSAD":"Lee County","STUSPS":"FL","STATE_NAME":"Florida","LSAD":"06","ALAND":2023252433,"AWATER":1900134174},"id":"12071"},{"arcs":[[-20,59,60,61,62,63]],"type":"Polygon","properties":{"STATEFP":"12","COUNTYFP":"079","COUNTYNS":"00295731","GEOIDFQ":"0500000US12079","GEOID":"12079","NAME":"Madison","NAMELSAD":"Madison County","STUSPS":"FL","STATE_NAME":"Florida","LSAD":"06","ALAND":1804001481,"AWATER":49634046},"id":"12079"},{"arcs":[[64,65,66,67,68,69]],"type":"Polygon","properties":{"STATEFP":"12","COUNTYFP":"093","COUNTYNS":"00295760","GEOIDFQ":"0500000US12093","GEOID":"12093","NAME":"Okeechobee","NAMELSAD":"Okeechobee County","STUSPS":"FL","STATE_NAME":"Florida","LSAD":"06","ALAND":1992482228,"AWATER":317885012},"id":"12093"},{"arcs":[[-5,70,-31,-28,71,72]],"type":"Polygon","properties":{"STATEFP":"12","COUNTYFP":"101","COUNTYNS":"00295739","GEOIDFQ":"0500000US12101","GEOID":"12101","NAME":"Pasco","NAMELSAD":"Pasco County","STUSPS":"FL","STATE_NAME":"Florida","LSAD":"06","ALAND":1933704713,"AWATER":694071972},"id":"12101"},{"arcs":[[73,74,75,76,77,78]],"type":"Polygon","properties":{"STATEFP":"12","COUNTYFP":"075","COUNTYNS":"00295724","GEOIDFQ":"0500000US12075","GEOID":"12075","NAME":"Levy","NAMELSAD":"Levy County","STUSPS":"FL","STATE_NAME":"Florida","LSAD":"06","ALAND":2896278563,"AWATER":1224276906},"id":"12075"},{"arcs":[[-42,79,-48,80,81,82,83]],"type":"Polygon","properties":{"STATEFP":"12","COUNTYFP":"127","COUNTYNS":"00306921","GEOIDFQ":"0500000US12127","GEOID":"12127","NAME":"Volusia","NAMELSAD":"Volusia County","STUSPS":"FL","STATE_NAME":"Florida","LSAD":"06","ALAND":2852150750,"AWATER":857845286},"id":"12127"},{"arcs":[[-49,-80,84]],"type":"Polygon","properties":{"STATEFP":"12","COUNTYFP":"117","COUNTYNS":"00303665","GEOIDFQ":"0500000US12117","GEOID":"12117","NAME":"Seminole","NAMELSAD":"Seminole County","STUSPS":"FL","STATE_NAME":"Florida","LSAD":"06","ALAND":801317781,"AWATER":93106303},"id":"12117"},{"arcs":[[85,86,87,88]],"type":"Polygon","properties":{"STATEFP":"12","COUNTYFP":"039","COUNTYNS":"00306918","GEOIDFQ":"0500000US12039","GEOID":"12039","NAME":"Gadsden","NAMELSAD":"Gadsden County","STUSPS":"FL","STATE_NAME":"Florida","LSAD":"06","ALAND":1337405279,"AWATER":31475262},"id":"12039"},{"arcs":[[-18,89,90,91,-82,92,93]],"type":"Polygon","properties":{"STATEFP":"12","COUNTYFP":"107","COUNTYNS":"00306910","GEOIDFQ":"0500000US12107","GEOID":"12107","NAME":"Putnam","NAMELSAD":"Putnam County","STUSPS":"FL","STATE_NAME":"Florida","LSAD":"06","ALAND":1886536359,"AWATER":255178990},"id":"12107"},{"arcs":[[-6,-73,94,95,96]],"type":"Polygon","properties":{"STATEFP":"12","COUNTYFP":"057","COUNTYNS":"00295757","GEOIDFQ":"0500000US12057","GEOID":"12057","NAME":"Hillsborough","NAMELSAD":"Hillsborough County","STUSPS":"FL","STATE_NAME":"Florida","LSAD":"06","ALAND":2648363710,"AWATER":790678464},"id":"12057"},{"arcs":[[-22,97,98,-79,99]],"type":"Polygon","properties":{"STATEFP":"12","COUNTYFP":"029","COUNTYNS":"00295725","GEOIDFQ":"0500000US12029","GEOID":"12029","NAME":"Dixie","NAMELSAD":"Dixie County","STUSPS":"FL","STATE_NAME":"Florida","LSAD":"06","ALAND":1826030989,"AWATER":876346090},"id":"12029"},{"arcs":[[100,101,102,103]],"type":"Polygon","properties":{"STATEFP":"12","COUNTYFP":"133","COUNTYNS":"00295762","GEOIDFQ":"0500000US12133","GEOID":"12133","NAME":"Washington","NAMELSAD":"Washington County","STUSPS":"FL","STATE_NAME":"Florida","LSAD":"06","ALAND":1514306503,"AWATER":81007653},"id":"12133"},{"arcs":[[[-30,-33,104,-77,105]],[[106]]],"type":"MultiPolygon","properties":{"STATEFP":"12","COUNTYFP":"017","COUNTYNS":"00295752","GEOIDFQ":"0500000US12017","GEOID":"12017","NAME":"Citrus","NAMELSAD":"Citrus County","STUSPS":"FL","STATE_NAME":"Florida","LSAD":"06","ALAND":1507454468,"AWATER":980854442},"id":"12017"},{"arcs":[[[107]],[[108,109,110,111,112,113]]],"type":"MultiPolygon","properties":{"STATEFP":"12","COUNTYFP":"086","COUNTYNS":"00295755","GEOIDFQ":"0500000US12086","GEOID":"12086","NAME":"Miami-Dade","NAMELSAD":"Miami-Dade County","STUSPS":"FL","STATE_NAME":"Florida","LSAD":"06","ALAND":4920945684,"AWATER":1267367219},"id":"12086"},{"arcs":[[-8,-95,-72,-27,-51,114,115]],"type":"Polygon","properties":{"STATEFP":"12","COUNTYFP":"105","COUNTYNS":"00295747","GEOIDFQ":"0500000US12105","GEOID":"12105","NAME":"Polk","NAMELSAD":"Polk County","STUSPS":"FL","STATE_NAME":"Florida","LSAD":"06","ALAND":4658004648,"AWATER":548938965},"id":"12105"},{"arcs":[[-3,-19,-94,116,-75,117,118]],"type":"Polygon","properties":{"STATEFP":"12","COUNTYFP":"001","COUNTYNS":"00308548","GEOIDFQ":"0500000US12001","GEOID":"12001","NAME":"Alachua","NAMELSAD":"Alachua County","STUSPS":"FL","STATE_NAME":"Florida","LSAD":"06","ALAND":2267969501,"AWATER":241216231},"id":"12001"},{"arcs":[[-4,-119,119,120,121,122,123]],"type":"Polygon","properties":{"STATEFP":"12","COUNTYFP":"023","COUNTYNS":"00306909","GEOIDFQ":"0500000US12023","GEOID":"12023","NAME":"Columbia","NAMELSAD":"Columbia County","STUSPS":"FL","STATE_NAME":"Florida","LSAD":"06","ALAND":2065197098,"AWATER":10207202},"id":"12023"},{"arcs":[[-62,124,-122,125]],"type":"Polygon","properties":{"STATEFP":"12","COUNTYFP":"047","COUNTYNS":"00295736","GEOIDFQ":"0500000US12047","GEOID":"12047","NAME":"Hamilton","NAMELSAD":"Hamilton County","STUSPS":"FL","STATE_NAME":"Florida","LSAD":"06","ALAND":1332018547,"AWATER":12330813},"id":"12047"},{"arcs":[[-25,-106,-76,-117,-93,-81,-47]],"type":"Polygon","properties":{"STATEFP":"12","COUNTYFP":"083","COUNTYNS":"00306922","GEOIDFQ":"0500000US12083","GEOID":"12083","NAME":"Marion","NAMELSAD":"Marion County","STUSPS":"FL","STATE_NAME":"Florida","LSAD":"06","ALAND":4114048470,"AWATER":192244413},"id":"12083"},{"arcs":[[-13,126,127,128,129]],"type":"Polygon","properties":{"STATEFP":"12","COUNTYFP":"031","COUNTYNS":"00293656","GEOIDFQ":"0500000US12031","GEOID":"12031","NAME":"Duval","NAMELSAD":"Duval County","STUSPS":"FL","STATE_NAME":"Florida","LSAD":"06","ALAND":1975350160,"AWATER":403459052},"id":"12031"},{"arcs":[[-9,-116,-70,130,131,132]],"type":"Polygon","properties":{"STATEFP":"12","COUNTYFP":"055","COUNTYNS":"00295756","GEOIDFQ":"0500000US12055","GEOID":"12055","NAME":"Highlands","NAMELSAD":"Highlands County","STUSPS":"FL","STATE_NAME":"Florida","LSAD":"06","ALAND":2635753187,"AWATER":230641250},"id":"12055"},{"arcs":[[-74,-99,133,134,-120,-118]],"type":"Polygon","properties":{"STATEFP":"12","COUNTYFP":"041","COUNTYNS":"00303633","GEOIDFQ":"0500000US12041","GEOID":"12041","NAME":"Gilchrist","NAMELSAD":"Gilchrist County","STUSPS":"FL","STATE_NAME":"Florida","LSAD":"06","ALAND":905705570,"AWATER":14362143},"id":"12041"},{"arcs":[[135,136,137,138,139]],"type":"Polygon","properties":{"STATEFP":"12","COUNTYFP":"045","COUNTYNS":"00306917","GEOIDFQ":"0500000US12045","GEOID":"12045","NAME":"Gulf","NAMELSAD":"Gulf County","STUSPS":"FL","STATE_NAME":"Florida","LSAD":"06","ALAND":1433472639,"AWATER":624401027},"id":"12045"},{"arcs":[[-63,-126,-121,-135,140]],"type":"Polygon","properties":{"STATEFP":"12","COUNTYFP":"121","COUNTYNS":"00295729","GEOIDFQ":"0500000US12121","GEOID":"12121","NAME":"Suwannee","NAMELSAD":"Suwannee County","STUSPS":"FL","STATE_NAME":"Florida","LSAD":"06","ALAND":1783430097,"AWATER":9505389},"id":"12121"},{"arcs":[[-104,141,142,143,144,145]],"type":"Polygon","properties":{"STATEFP":"12","COUNTYFP":"131","COUNTYNS":"00295727","GEOIDFQ":"0500000US12131","GEOID":"12131","NAME":"Walton","NAMELSAD":"Walton County","STUSPS":"FL","STATE_NAME":"Florida","LSAD":"06","ALAND":2689380835,"AWATER":961074384},"id":"12131"},{"arcs":[[-38,146,-138,147,-88,148]],"type":"Polygon","properties":{"STATEFP":"12","COUNTYFP":"077","COUNTYNS":"00308549","GEOIDFQ":"0500000US12077","GEOID":"12077","NAME":"Liberty","NAMELSAD":"Liberty County","STUSPS":"FL","STATE_NAME":"Florida","LSAD":"06","ALAND":2164099092,"AWATER":19582444},"id":"12077"},{"arcs":[[-46,149,-50,-85]],"type":"Polygon","properties":{"STATEFP":"12","COUNTYFP":"095","COUNTYNS":"00295750","GEOIDFQ":"0500000US12095","GEOID":"12095","NAME":"Orange","NAMELSAD":"Orange County","STUSPS":"FL","STATE_NAME":"Florida","LSAD":"06","ALAND":2338896297,"AWATER":259989516},"id":"12095"},{"arcs":[[[-112,150]],[[-114,151,152]],[[153]],[[154]]],"type":"MultiPolygon","properties":{"STATEFP":"12","COUNTYFP":"087","COUNTYNS":"00295759","GEOIDFQ":"0500000US12087","GEOID":"12087","NAME":"Monroe","NAMELSAD":"Monroe County","STUSPS":"FL","STATE_NAME":"Florida","LSAD":"06","ALAND":2546069559,"AWATER":11153839965},"id":"12087"},{"arcs":[[-17,155,-129,156,-90]],"type":"Polygon","properties":{"STATEFP":"12","COUNTYFP":"019","COUNTYNS":"00295726","GEOIDFQ":"0500000US12019","GEOID":"12019","NAME":"Clay","NAMELSAD":"Clay County","STUSPS":"FL","STATE_NAME":"Florida","LSAD":"06","ALAND":1565901871,"AWATER":100868789},"id":"12019"},{"arcs":[[-54,157,158,-109,-153,159]],"type":"Polygon","properties":{"STATEFP":"12","COUNTYFP":"021","COUNTYNS":"00295754","GEOIDFQ":"0500000US12021","GEOID":"12021","NAME":"Collier","NAMELSAD":"Collier County","STUSPS":"FL","STATE_NAME":"Florida","LSAD":"06","ALAND":5172241142,"AWATER":1574780822},"id":"12021"},{"arcs":[[-110,-159,160,161,162]],"type":"Polygon","properties":{"STATEFP":"12","COUNTYFP":"011","COUNTYNS":"00295753","GEOIDFQ":"0500000US12011","GEOID":"12011","NAME":"Broward","NAMELSAD":"Broward County","STUSPS":"FL","STATE_NAME":"Florida","LSAD":"06","ALAND":3115709877,"AWATER":273103315},"id":"12011"},{"arcs":[[-45,163,-65,-115,-150]],"type":"Polygon","properties":{"STATEFP":"12","COUNTYFP":"097","COUNTYNS":"00295748","GEOIDFQ":"0500000US12097","GEOID":"12097","NAME":"Osceola","NAMELSAD":"Osceola County","STUSPS":"FL","STATE_NAME":"Florida","LSAD":"06","ALAND":3438091966,"AWATER":462372096},"id":"12097"},{"arcs":[[-67,164,165,166]],"type":"Polygon","properties":{"STATEFP":"12","COUNTYFP":"111","COUNTYNS":"00308372","GEOIDFQ":"0500000US12111","GEOID":"12111","NAME":"St. Lucie","NAMELSAD":"St. Lucie County","STUSPS":"FL","STATE_NAME":"Florida","LSAD":"06","ALAND":1481146386,"AWATER":300765585},"id":"12111"},{"arcs":[[-83,-92,167,168]],"type":"Polygon","properties":{"STATEFP":"12","COUNTYFP":"035","COUNTYNS":"00308547","GEOIDFQ":"0500000US12035","GEOID":"12035","NAME":"Flagler","NAMELSAD":"Flagler County","STUSPS":"FL","STATE_NAME":"Florida","LSAD":"06","ALAND":1259229663,"AWATER":219207668},"id":"12035"},{"arcs":[[-1,-124,169,-14,-130,-156,-16]],"type":"Polygon","properties":{"STATEFP":"12","COUNTYFP":"003","COUNTYNS":"00306920","GEOIDFQ":"0500000US12003","GEOID":"12003","NAME":"Baker","NAMELSAD":"Baker County","STUSPS":"FL","STATE_NAME":"Florida","LSAD":"06","ALAND":1515738966,"AWATER":9686120},"id":"12003"},{"arcs":[[-21,-64,-141,-134,-98]],"type":"Polygon","properties":{"STATEFP":"12","COUNTYFP":"067","COUNTYNS":"00295732","GEOIDFQ":"0500000US12067","GEOID":"12067","NAME":"Lafayette","NAMELSAD":"Lafayette County","STUSPS":"FL","STATE_NAME":"Florida","LSAD":"06","ALAND":1407256298,"AWATER":11817999},"id":"12067"},{"arcs":[[-53,170,171,-161,-158]],"type":"Polygon","properties":{"STATEFP":"12","COUNTYFP":"051","COUNTYNS":"00307626","GEOIDFQ":"0500000US12051","GEOID":"12051","NAME":"Hendry","NAMELSAD":"Hendry County","STUSPS":"FL","STATE_NAME":"Florida","LSAD":"06","ALAND":2993907668,"AWATER":86567285},"id":"12051"},{"arcs":[[-144,172,173,174]],"type":"Polygon","properties":{"STATEFP":"12","COUNTYFP":"091","COUNTYNS":"00306915","GEOIDFQ":"0500000US12091","GEOID":"12091","NAME":"Okaloosa","NAMELSAD":"Okaloosa County","STUSPS":"FL","STATE_NAME":"Florida","LSAD":"06","ALAND":2408255079,"AWATER":820654799},"id":"12091"},{"arcs":[[-89,175,176,-102,177,178]],"type":"Polygon","properties":{"STATEFP":"12","COUNTYFP":"063","COUNTYNS":"00295734","GEOIDFQ":"0500000US12063","GEOID":"12063","NAME":"Jackson","NAMELSAD":"Jackson County","STUSPS":"FL","STATE_NAME":"Florida","LSAD":"06","ALAND":2378425867,"AWATER":93882992},"id":"12063"},{"arcs":[[[-37,179,-139,-147]],[[180]],[[181]],[[182]]],"type":"MultiPolygon","properties":{"STATEFP":"12","COUNTYFP":"037","COUNTYNS":"00306911","GEOIDFQ":"0500000US12037","GEOID":"12037","NAME":"Franklin","NAMELSAD":"Franklin County","STUSPS":"FL","STATE_NAME":"Florida","LSAD":"06","ALAND":1411549413,"AWATER":2270390075},"id":"12037"},{"arcs":[[-52,183,-58,184,185,186,-132,187]],"type":"Polygon","properties":{"STATEFP":"12","COUNTYFP":"015","COUNTYNS":"00295742","GEOIDFQ":"0500000US12015","GEOID":"12015","NAME":"Charlotte","NAMELSAD":"Charlotte County","STUSPS":"FL","STATE_NAME":"Florida","LSAD":"06","ALAND":1764168951,"AWATER":689160340},"id":"12015"},{"arcs":[[-11,188,189,190,-96]],"type":"Polygon","properties":{"STATEFP":"12","COUNTYFP":"081","COUNTYNS":"00295744","GEOIDFQ":"0500000US12081","GEOID":"12081","NAME":"Manatee","NAMELSAD":"Manatee County","STUSPS":"FL","STATE_NAME":"Florida","LSAD":"06","ALAND":1923760990,"AWATER":573067469},"id":"12081"},{"arcs":[[-91,-157,-128,191,-168]],"type":"Polygon","properties":{"STATEFP":"12","COUNTYFP":"109","COUNTYNS":"00308371","GEOIDFQ":"0500000US12109","GEOID":"12109","NAME":"St. Johns","NAMELSAD":"St. Johns County","STUSPS":"FL","STATE_NAME":"Florida","LSAD":"06","ALAND":1555710836,"AWATER":572055450},"id":"12109"},{"arcs":[[-24,192,-35,193,194,-60]],"type":"Polygon","properties":{"STATEFP":"12","COUNTYFP":"065","COUNTYNS":"00295733","GEOIDFQ":"0500000US12065","GEOID":"12065","NAME":"Jefferson","NAMELSAD":"Jefferson County","STUSPS":"FL","STATE_NAME":"Florida","LSAD":"06","ALAND":1549018610,"AWATER":193063920},"id":"12065"},{"arcs":[[-186,195,-190,196]],"type":"Polygon","properties":{"STATEFP":"12","COUNTYFP":"115","COUNTYNS":"00295741","GEOIDFQ":"0500000US12115","GEOID":"12115","NAME":"Sarasota","NAMELSAD":"Sarasota County","STUSPS":"FL","STATE_NAME":"Florida","LSAD":"06","ALAND":1440162470,"AWATER":1086505503},"id":"12115"},{"arcs":[[-10,-133,-187,-197,-189]],"type":"Polygon","properties":{"STATEFP":"12","COUNTYFP":"027","COUNTYNS":"00294452","GEOIDFQ":"0500000US12027","GEOID":"12027","NAME":"DeSoto","NAMELSAD":"DeSoto County","STUSPS":"FL","STATE_NAME":"Florida","LSAD":"06","ALAND":1649031792,"AWATER":6243548},"id":"12027"},{"arcs":[[-44,197,-165,-66,-164]],"type":"Polygon","properties":{"STATEFP":"12","COUNTYFP":"061","COUNTYNS":"00307624","GEOIDFQ":"0500000US12061","GEOID":"12061","NAME":"Indian River","NAMELSAD":"Indian River County","STUSPS":"FL","STATE_NAME":"Florida","LSAD":"06","ALAND":1301610499,"AWATER":295444062},"id":"12061"},{"arcs":[[-162,-172,198,199]],"type":"Polygon","properties":{"STATEFP":"12","COUNTYFP":"099","COUNTYNS":"00295761","GEOIDFQ":"0500000US12099","GEOID":"12099","NAME":"Palm Beach","NAMELSAD":"Palm Beach County","STUSPS":"FL","STATE_NAME":"Florida","LSAD":"06","ALAND":5087565654,"AWATER":1084895350},"id":"12099"},{"arcs":[[-69,-171,-188,-131]],"type":"Polygon","properties":{"STATEFP":"12","COUNTYFP":"043","COUNTYNS":"00295743","GEOIDFQ":"0500000US12043","GEOID":"12043","NAME":"Glades","NAMELSAD":"Glades County","STUSPS":"FL","STATE_NAME":"Florida","LSAD":"06","ALAND":2089658772,"AWATER":467294511},"id":"12043"},{"arcs":[[-101,-146,200,-178]],"type":"Polygon","properties":{"STATEFP":"12","COUNTYFP":"059","COUNTYNS":"00295735","GEOIDFQ":"0500000US12059","GEOID":"12059","NAME":"Holmes","NAMELSAD":"Holmes County","STUSPS":"FL","STATE_NAME":"Florida","LSAD":"06","ALAND":1240237030,"AWATER":26389419},"id":"12059"},{"arcs":[[-103,-177,201,-136,202,-142]],"type":"Polygon","properties":{"STATEFP":"12","COUNTYFP":"005","COUNTYNS":"00295738","GEOIDFQ":"0500000US12005","GEOID":"12005","NAME":"Bay","NAMELSAD":"Bay County","STUSPS":"FL","STATE_NAME":"Florida","LSAD":"06","ALAND":1964817460,"AWATER":1833971800},"id":"12005"},{"arcs":[[-68,-167,203,-199]],"type":"Polygon","properties":{"STATEFP":"12","COUNTYFP":"085","COUNTYNS":"00308550","GEOIDFQ":"0500000US12085","GEOID":"12085","NAME":"Martin","NAMELSAD":"Martin County","STUSPS":"FL","STATE_NAME":"Florida","LSAD":"06","ALAND":1408625668,"AWATER":541957184},"id":"12085"},{"arcs":[[-137,-202,-176,-148]],"type":"Polygon","properties":{"STATEFP":"12","COUNTYFP":"013","COUNTYNS":"00306919","GEOIDFQ":"0500000US12013","GEOID":"12013","NAME":"Calhoun","NAMELSAD":"Calhoun County","STUSPS":"FL","STATE_NAME":"Florida","LSAD":"06","ALAND":1469394599,"AWATER":18070425},"id":"12013"},{"arcs":[[-40,204,-174,205]],"type":"Polygon","properties":{"STATEFP":"12","COUNTYFP":"113","COUNTYNS":"00306914","GEOIDFQ":"0500000US12113","GEOID":"12113","NAME":"Santa Rosa","NAMELSAD":"Santa Rosa County","STUSPS":"FL","STATE_NAME":"Florida","LSAD":"06","ALAND":2622108169,"AWATER":543293108},"id":"12113"},{"arcs":[[-34,-149,-87,206,-194]],"type":"Polygon","properties":{"STATEFP":"12","COUNTYFP":"073","COUNTYNS":"00306916","GEOIDFQ":"0500000US12073","GEOID":"12073","NAME":"Leon","NAMELSAD":"Leon County","STUSPS":"FL","STATE_NAME":"Florida","LSAD":"06","ALAND":1731219899,"AWATER":86414547},"id":"12073"}]}}}