{"type":"Topology","arcs":[[[3287,9262],[26,13],[24,33]],[[3337,9308],[80,10],[30,-15],[44,-82],[22,-66],[62,-37],[58,-16],[91,47],[34,-32],[31,13],[60,-44]],[[3849,9086],[24,-61]],[[3873,9025],[-46,-25],[-159,-399]],[[3668,8601],[-135,17],[-26,-13],[-54,-66],[-37,-18],[-16,-28]],[[3400,8493],[-88,149]],[[3312,8642],[7,21],[51,32],[27,36],[-37,70],[-14,68],[15,21],[-35,78],[31,42],[1,64],[28,46],[-39,82],[-60,60]],[[3400,8493],[-13,-26],[-33,-8],[-23,-33],[-23,-69],[30,-37],[4,-60],[49,-51]],[[3391,8209],[-337,-351]],[[3054,7858],[-86,-60],[-332,146]],[[2636,7944],[6,27],[30,25],[47,-5],[41,8],[32,70],[36,23],[-7,58],[46,25],[-44,76],[-7,38]],[[2816,8289],[-33,47],[-14,55],[22,46],[-15,28]],[[2776,8465],[11,26],[73,42],[-1,38],[76,-1],[75,59],[0,17]],[[3010,8646],[302,-4]],[[5422,3351],[40,-21],[43,7],[18,-37],[84,-15],[55,17],[54,-21],[18,-22],[41,-18]],[[5775,3241],[58,-27],[43,7],[56,-28],[42,-9],[2,-46],[101,-77]],[[6077,3061],[-66,-12],[0,-45],[-33,0],[-1,-28],[30,-28],[-75,1],[1,-630]],[[5933,2319],[-38,0],[-110,99],[-12,25]],[[5773,2443],[-25,52],[-132,81],[-54,56],[-69,35],[-30,3],[-51,46],[-60,39],[-40,63],[-43,1]],[[5269,2819],[1,53],[-51,0],[0,27],[52,0],[0,186],[152,-1],[-1,267]],[[4171,6247],[258,238]],[[4429,6485],[50,-44],[55,8],[20,-19],[65,-8],[50,16],[35,-6]],[[4704,6432],[18,-25],[29,-7],[-2,-79],[23,-55],[25,-19],[7,-94],[20,-11],[-1,-72],[45,-34]],[[4868,6036],[13,-32]],[[4881,6004],[-51,0],[-35,-35],[-47,-23],[-11,-18],[-38,-11],[-58,-121],[-65,-46],[-41,-19],[-33,4],[-67,-60],[-73,0]],[[4362,5675],[-33,-32],[-50,-32],[-30,63],[13,98],[20,12],[2,39],[-167,52],[-115,26],[-19,-3]],[[3983,5898],[37,106],[-2,44],[49,14],[-9,21],[88,33],[14,20],[42,21],[3,59],[-34,31]],[[4429,6485],[47,44],[-1,63],[-48,125],[41,48],[-20,35],[87,79],[-22,39],[-54,35]],[[4459,6953],[11,27],[68,56]],[[4538,7036],[100,-209],[36,20],[33,-6],[61,33],[16,-17],[105,-75],[75,15],[34,-39]],[[4998,6758],[-43,-26],[-11,-44],[-18,-15],[-2,-42],[-29,-22],[-19,-38],[-27,9],[-35,-8],[-47,22],[-16,-40],[-72,-74],[25,-48]],[[5340,6841],[29,0],[54,32],[10,-9]],[[5433,6864],[-28,-26],[15,-63],[34,-33],[-34,-49],[-7,-40],[89,-41],[-30,-28],[6,-50],[27,-31],[-3,-22],[35,-34],[50,-71],[-9,-23],[30,-51],[49,-55]],[[5657,6247],[-101,-89]],[[5556,6158],[-52,0]],[[5504,6158],[-41,13],[-75,47],[-80,-7],[-64,41],[-14,36],[-16,86],[-53,71],[-111,332]],[[5050,6777],[45,9],[8,37],[90,31],[37,-15],[32,12],[23,31],[55,-41]],[[1653,2242],[175,-5],[76,-8],[38,23],[0,19],[35,14],[0,-38],[31,0]],[[2008,2247],[373,-1],[1,9],[119,0]],[[2501,2255],[-29,-49],[-35,-17],[-27,-34],[-10,-37],[4,-36],[-47,-4],[-15,-31],[-39,-3],[-53,-27],[-39,-5],[-51,-39],[0,-55],[-32,-40],[-12,-41],[-47,-22],[-20,-22],[4,-34],[-77,-47],[-20,-29],[-79,-89],[5,-71],[-8,-23]],[[1874,1500],[-59,2]],[[1815,1502],[10,368],[-179,7]],[[1646,1877],[0,111],[6,41],[1,213]],[[3337,9308],[-16,53],[8,63],[45,34],[7,32],[47,6],[-5,53],[94,17],[-5,96]],[[3512,9662],[114,2],[274,5],[364,11],[18,-19],[-37,-49],[15,-68],[-76,-39],[-22,3],[-63,-81],[-63,-5],[-22,-69],[-28,-20],[7,-28],[-37,-6],[-59,-65],[8,-47],[-11,-29],[-39,-30],[-6,-42]],[[1701,6555],[26,35],[148,45],[84,21]],[[1959,6656],[33,-1],[10,-54],[40,-64],[39,-37],[9,-27],[-35,-56],[26,-74],[-13,-14],[13,-39],[-2,-48]],[[2079,6242],[7,-68],[-15,-6],[-26,-47],[-20,-5],[-22,-74],[-111,2]],[[1892,6044],[-34,74],[5,21],[-23,50],[-81,64],[-18,0],[-10,43],[-45,62],[-15,66],[1,74],[29,57]],[[6534,3741],[267,77],[323,107]],[[7124,3925],[9,-40],[27,-28],[-3,-21],[19,-173],[23,-41]],[[7199,3622],[12,-34],[22,-17],[3,-36],[27,-31],[53,-40],[25,-34],[0,-45],[36,-17],[1,-49],[41,-49],[-5,-35],[52,-1],[42,20],[34,-9],[51,-57],[14,-53],[23,-20],[-31,-38],[-7,-28],[-26,-10],[-2,-54],[28,-23],[-20,-32],[24,-38],[8,-41]],[[7604,2851],[-65,15],[-10,-15]],[[7529,2851],[-35,35],[-72,24],[-16,21],[4,42],[-16,21],[-57,-10],[-37,92],[-31,-18],[-25,44],[-22,4],[-8,58],[-37,91],[-5,51],[-33,-12],[-63,24],[-13,46],[-54,-20],[-105,-7],[-46,42],[-44,87],[-4,23],[-54,55],[-37,11],[-34,51],[-45,2]],[[6640,3608],[-38,32],[-27,1],[-41,100]],[[3574,5184],[182,111]],[[3756,5295],[280,-604],[28,-51]],[[4064,4640],[-464,-275]],[[3600,4365],[10,72],[-45,26],[-33,59],[-1,51],[-16,44],[22,28],[-21,56],[7,26],[-34,70],[-31,-5],[-28,15]],[[3430,4807],[-15,19],[-4,40],[27,97],[24,-2],[130,131],[23,48],[-41,44]],[[896,4690],[296,-1],[-1,-50],[365,1]],[[1556,4640],[0,-43],[46,1],[-20,-40],[-1,-28],[-25,-26]],[[1556,4504],[-52,-30],[-31,-82],[-22,-28],[-28,-64],[-35,-15],[-107,1],[-46,-8],[-92,-65],[-36,-11],[-25,8]],[[1082,4210],[-25,5],[12,67],[27,21],[-14,42],[-37,17],[-2,73],[-10,51],[-37,68],[-77,76],[-23,60]],[[5775,3241],[51,474],[21,41],[-2,41],[-50,103],[3,37],[-30,78],[-6,72]],[[5762,4087],[354,-84]],[[6116,4003],[78,-411],[155,-65],[218,-5]],[[6567,3522],[-83,-59],[-24,-10]],[[6460,3453],[-52,-55],[-14,-32],[-22,-10],[-23,-44],[12,-60],[-18,-48],[-34,-18],[-17,-74],[-39,-33],[-19,-56],[-40,-9],[19,-31]],[[6213,2983],[-23,-11],[-42,33],[-13,45],[-24,-13],[-34,24]],[[3983,5898],[-28,6],[-69,-48],[-53,7],[-76,30],[-39,1]],[[3718,5894],[-17,0],[-183,-28]],[[3518,5866],[14,462],[7,85]],[[3539,6413],[244,60],[190,42]],[[3973,6515],[8,-40],[30,-16],[-9,-27],[64,-81],[9,-24],[38,4],[48,-51],[10,-33]],[[7529,2851],[-9,-14],[30,-37],[43,-22],[16,15],[35,-5],[-7,-26],[2,-89],[9,-20],[-54,-127],[-38,-18],[-16,39]],[[7540,2547],[3,37],[-45,44],[-9,23],[-68,41],[-69,2],[-21,18],[-44,-25],[-26,15],[-70,-24],[-37,18],[-28,-22],[-36,39],[-21,43],[4,28],[-45,11]],[[7028,2795],[-13,1],[-243,137],[-3,42],[-29,32],[-46,17],[-83,93],[-50,43],[-2,25],[36,104],[4,37],[-13,41],[-49,15],[-25,-6],[-52,77]],[[6567,3522],[73,86]],[[1358,9652],[59,0],[264,1]],[[1681,9653],[-2,-273],[7,-4]],[[1686,9376],[62,-64],[-47,-70],[-54,-28],[3,-50],[-30,-52],[5,-217],[-1,-87]],[[1624,8808],[-47,1],[-39,15],[-16,59],[-52,10],[-60,-32],[-143,0],[-1,15],[-75,0],[-9,39]],[[1182,8915],[-23,65],[28,33],[-40,53],[17,20],[57,-24],[12,21],[32,-16],[15,35],[-3,65],[-36,50],[39,29],[-12,44],[24,37],[9,45],[31,17],[11,27],[-40,91],[13,51],[30,48],[12,46]],[[1482,7758],[134,-3]],[[1616,7755],[411,-9]],[[2027,7746],[-1,-39],[29,-42],[2,-48],[42,-47],[-12,-54],[-59,-66],[-31,-18],[-19,-31],[7,-60],[-29,-56],[6,-58],[-24,3],[-66,-68],[-36,-24],[-13,-23],[-68,-57]],[[1755,7058],[-76,127],[-174,4]],[[1505,7189],[2,294],[-28,0],[3,275]],[[5556,6158],[19,0],[52,-31],[27,-43],[48,-19]],[[5702,6065],[31,-30],[29,-53],[-58,-156],[-25,-89],[-17,-99],[32,-261],[-32,-102],[-43,-110]],[[5619,5165],[-24,0],[-53,-41],[-81,-2],[-17,-28],[35,-52],[-61,-31]],[[5418,5011],[-67,32],[-49,49],[-33,45]],[[5269,5137],[-8,23],[14,72],[12,104],[-49,62],[-15,127],[-75,53],[-35,34],[0,22],[-50,49],[-7,35],[-27,53]],[[5029,5771],[145,-4],[5,50],[-19,48],[195,164],[67,51]],[[5422,6080],[82,78]],[[4459,6953],[-21,-7],[-71,53],[-119,-35],[-276,132]],[[3972,7096],[-1,45],[-23,30],[-6,32],[38,72]],[[3980,7275],[60,118],[-59,79],[15,58],[-5,64],[19,-4]],[[4010,7590],[36,31],[26,-27],[49,20],[48,49],[66,26],[38,-42],[24,13],[71,-35],[18,22],[38,14],[24,-4],[44,25]],[[4492,7682],[56,-32],[2,-26],[104,-31],[29,-35],[68,2],[77,-28]],[[4828,7532],[-26,-45],[-89,-18],[-13,-25],[-35,-15],[-26,-53],[-38,-40],[-17,-42],[-34,-16],[-33,-80],[-26,-18],[-18,-45],[46,-60],[19,-39]],[[5673,1805],[31,-15],[70,7],[73,-31],[62,46],[2,51],[40,17],[12,20],[74,12],[39,-7],[58,10],[30,24],[-8,45],[-50,74],[-17,58]],[[6089,2116],[18,-16],[184,-42],[133,18],[76,19],[62,-32],[56,-38]],[[6618,2025],[-1,-58],[-25,-43],[-50,-219],[17,-14]],[[6559,1691],[-38,-37],[-22,-2],[-30,-31],[-37,-81],[-121,-1],[-21,-19],[-7,-57],[-14,-26]],[[6269,1437],[-213,58],[-35,-136],[-86,0]],[[5935,1359],[-55,79],[-76,76],[-1,179],[-41,-3],[-29,26],[-59,22],[-1,67]],[[4998,6758],[52,19]],[[5422,6080],[-111,59],[-108,51],[-54,-14],[-43,-29],[-49,-11],[-56,-57],[-42,-3],[-53,-35],[-38,-5]],[[5461,4160],[-51,-127],[-4,-156],[-38,-267],[-34,-253]],[[5334,3357],[-19,-42],[-66,26],[-18,-5]],[[5231,3336],[-7,48],[-31,17],[-55,51],[-7,67],[-20,29],[9,26],[-8,68],[-18,17],[-4,40],[21,36],[-21,39],[-11,56],[12,22],[-18,30],[4,25],[-26,26],[21,50],[-20,16],[-12,43]],[[5040,4042],[11,29],[410,89]],[[5702,6065],[160,61],[69,-44],[15,-54],[37,-35],[25,-6],[49,26],[57,-22],[26,4],[56,-14],[45,24],[30,30],[57,17],[41,-5],[44,-23]],[[6413,6024],[75,-71],[30,-11],[38,16],[19,-38],[-20,-41],[9,-39],[32,-36],[68,-54],[79,-28],[28,-21],[48,5],[37,-47],[23,-14],[29,-42],[35,-1]],[[6943,5602],[-386,-284]],[[6557,5318],[-17,29],[-138,64],[-168,-63],[-213,-14],[-73,-69],[-41,-134],[5,-14]],[[5912,5117],[-51,1],[-46,-18],[-114,43],[-55,3],[-27,19]],[[1686,9376],[324,-1],[167,-79],[28,-20],[107,-186],[-1,-112],[39,-15],[61,-39],[-5,-43]],[[2406,8881],[-46,-44],[-53,1],[-1,-61],[-55,1],[-33,27],[-33,4],[-33,-43]],[[2152,8766],[-44,0],[0,-30],[-165,3],[0,28],[-60,-27],[-258,-3]],[[1625,8737],[-1,71]],[[2261,6857],[62,-1],[0,-34],[36,0],[1,33],[68,-1]],[[2428,6854],[8,-28],[93,-149],[28,12],[48,-26],[50,-38],[12,-22]],[[2667,6603],[2,-33],[21,-18],[85,-29],[54,-3],[44,-87]],[[2873,6433],[-34,-5],[0,-34],[-33,-13],[-18,-24],[0,-47],[-18,-35],[-40,0],[-44,-53],[-16,-4],[-19,-48],[-33,-1],[-1,-33],[-50,-7]],[[2567,6129],[-54,11],[-28,20],[0,47],[-165,0],[-6,35],[-177,0]],[[2137,6242],[1,175],[52,-1],[33,-18],[16,18],[1,101],[17,0],[3,101],[-17,34],[49,0],[0,69],[34,34],[-33,18],[1,50],[-33,34]],[[2501,2255],[6,5],[239,2]],[[2746,2262],[-3,-227]],[[2743,2035],[-7,-537]],[[2736,1498],[-193,1]],[[2543,1499],[-444,2]],[[2099,1501],[-225,-1]],[[3869,578],[-29,3]],[[3840,581],[-6,30],[-39,26],[-21,27],[-74,23],[-25,45],[-25,18],[2,27],[-25,53],[40,16],[2,44],[19,40],[36,22],[18,28],[33,-7],[43,25],[20,-2],[21,35],[-42,66],[-47,-2],[-68,40],[2,74],[14,21],[-80,173]],[[3638,1403],[309,-9]],[[3947,1394],[166,-4]],[[4113,1390],[29,0],[2,-157],[234,-6],[11,-65],[27,-31],[-8,-103],[10,-5]],[[4418,1023],[-117,-2],[0,-36],[-26,0],[-2,-58],[-35,0],[-20,-70],[6,-24],[-6,-280]],[[4218,553],[-295,21]],[[3923,574],[-20,16],[-34,-12]],[[5933,2319],[35,20],[37,-1],[46,-29],[15,-22],[-1,-101],[24,-70]],[[5673,1805],[-51,3],[-7,23],[-55,39],[-26,37],[-2,25],[-28,12],[-11,41],[1,113],[-22,0],[0,83],[-25,26]],[[5447,2207],[27,27],[96,0],[75,78],[1,53],[53,-1],[0,27],[23,25],[30,0],[21,27]],[[4881,6004],[26,-63],[-15,-32],[4,-38],[31,-7],[22,-40],[80,-53]],[[5269,5137],[-67,-5],[-84,-46],[-81,-21],[-40,18],[-53,-26],[-36,-6],[-62,-25],[-8,49],[-49,35],[-247,-105]],[[4542,5005],[-24,32],[11,57],[-41,88],[-83,25],[-31,56],[-5,57],[-21,21],[-1,30],[-22,25]],[[4325,5396],[11,59],[31,22],[-4,37],[-28,50],[22,22],[17,48],[-12,41]],[[7199,3622],[335,295],[87,-23]],[[7621,3894],[37,-52],[9,-34],[-18,-33],[24,-36],[-10,-38],[8,-40],[41,-8],[5,-23],[86,-33],[58,38],[35,-47],[51,-20],[49,-59],[30,-8],[54,-44],[40,25],[20,-36],[-11,-50],[-26,-38],[-33,-26],[-67,-38],[-20,49],[-27,-10],[-60,-54],[26,-33],[66,-16],[-71,-63],[-36,-42],[-84,39],[-40,2],[11,-41],[-29,-60],[68,-38],[-59,-82],[-103,-101],[-41,7]],[[1182,8915],[-35,-39],[-199,1],[0,13]],[[948,8890],[-1,204],[-201,0],[41,99]],[[787,9193],[22,108],[120,0],[0,92],[49,0],[16,16],[0,62],[44,83],[0,66],[31,1],[-1,31]],[[1068,9652],[5,0],[285,0]],[[1701,6555],[-20,18],[-393,0]],[[1288,6573],[40,5],[22,18],[-31,49],[12,34],[29,25]],[[1360,6704],[23,47],[60,43],[32,14],[21,27],[42,23],[81,23],[8,52],[35,10],[1,26],[79,61],[13,28]],[[2027,7746],[1,74],[97,32],[1,78],[15,31],[40,20],[119,-1]],[[2300,7980],[0,-159],[51,-27],[26,5],[40,-26],[23,-35],[57,-30],[79,-10]],[[2576,7698],[-34,-31],[-43,-13],[-25,6],[-29,-20],[-10,-47],[-21,-20],[-35,27],[-61,-11],[-25,-25],[5,-39],[-29,-21]],[[2269,7504],[-43,5],[-60,23],[-17,-6],[-4,-668]],[[2145,6858],[-185,2],[-1,-204]],[[5433,6864],[24,34],[89,22],[51,42],[46,3],[45,-30],[52,10],[46,-7]],[[5786,6938],[32,-51],[6,-65],[35,-35],[30,-9],[43,-39],[31,12],[36,-29],[36,-11],[45,-28],[31,-40]],[[6111,6643],[-72,-60],[-186,-162],[-196,-174]],[[3430,4807],[-130,26],[-47,32]],[[3253,4865],[-60,3],[-44,43],[-63,23],[-30,23],[-69,108],[-8,21],[-52,45],[0,60]],[[2927,5191],[310,218]],[[3237,5409],[17,-19],[8,-56],[60,-44],[4,-17],[103,0],[32,-46],[25,24],[71,-75],[17,8]],[[3972,7096],[-19,-58],[-196,-75]],[[3757,6963],[-33,37],[-34,15],[-22,94],[-39,70],[-42,33]],[[3587,7212],[-46,17],[-72,48],[-21,39],[8,30],[-50,-1],[-32,11],[-28,41]],[[3346,7397],[187,124]],[[3533,7521],[50,-72],[28,2],[130,-29],[42,-38],[42,-26],[9,-23],[57,-16],[2,-28],[87,-16]],[[6943,5602],[53,-41],[32,-40],[-19,-142],[34,-35],[12,-92],[39,-8],[-6,-44],[20,-4],[40,-33],[-15,-111],[32,-39],[11,-38],[-20,-33],[-6,-61],[33,-46],[11,-59],[-40,-44],[49,-69]],[[7203,4663],[-255,-180],[-16,-41]],[[6932,4442],[-53,49],[-27,-7],[-37,13],[-39,35],[-62,31],[-23,-2],[-34,41],[-41,22],[-1,19],[-67,44],[-51,62],[-53,35],[-13,-9]],[[6431,4775],[-44,36],[-2,31],[172,476]],[[2521,9651],[213,0],[117,0]],[[2851,9651],[-16,-35],[32,-31],[21,-60],[84,-25],[16,-33],[40,1],[23,30],[25,-36],[-8,-76],[31,-34],[-8,-33],[26,-20],[1,-53]],[[3118,9246],[-78,-30],[-8,-27],[9,-47],[-10,-28],[-43,-16]],[[2988,9098],[-63,8],[-121,2],[-32,-23],[-21,-79],[-50,-15],[-21,-60],[-31,2],[-26,21],[-49,0],[-45,24],[-56,-34]],[[2473,8944],[92,166],[18,0],[0,153],[-53,-11],[-27,23],[-12,79],[8,19],[49,34],[11,35],[-45,61],[-26,7],[-39,38],[-1,45],[73,58]],[[5231,3336],[-37,-4],[-38,-44],[-27,4],[-19,-23],[-54,-16]],[[5056,3253],[-40,32],[-44,47],[-57,103],[-35,2],[-65,32],[-25,47],[-61,33],[-26,-1],[-30,29],[-29,11],[-25,37],[0,27],[-45,52]],[[4574,3704],[96,99],[-22,28]],[[4648,3831],[45,-4],[233,240]],[[4926,4067],[40,-28],[74,3]],[[2667,6603],[193,261],[14,48],[14,147]],[[2888,7059],[268,-204],[40,-2],[74,-59],[18,-42]],[[3288,6752],[-11,-31],[16,-23],[-7,-94]],[[3286,6604],[-11,-32],[1,-57],[-29,11],[-55,-16],[-59,-59],[-85,-34],[-20,-84],[-38,-54],[-14,-4]],[[2976,6275],[-103,158]],[[2006,3701],[1,68]],[[2007,3769],[257,-6],[52,-7],[113,-4],[3,149]],[[2432,3901],[81,-4],[11,-80],[74,4],[18,-15],[42,2],[37,-29]],[[2695,3779],[-6,-35],[17,-38],[22,-14],[18,-61],[36,-21],[-17,-41],[17,-19],[-5,-36],[32,-28]],[[2809,3486],[18,-32],[-2,-27],[46,-114],[10,-51],[-6,-28]],[[2875,3234],[-23,4],[-128,4],[-559,5],[0,-89]],[[2165,3158],[-35,27],[-42,64],[-83,72],[-21,33]],[[1984,3354],[4,156],[15,-1],[3,192]],[[5422,3351],[-44,-5],[-44,11]],[[5461,4160],[24,-33],[27,-3],[39,-48],[3,-44],[128,3],[80,52]],[[6534,3741],[0,47],[-44,62],[5,30],[-21,37],[-44,7],[-87,71],[-44,-1],[-59,-16],[-28,4]],[[6212,3982],[21,37],[33,148],[33,121],[-36,22],[0,19],[-39,37],[-20,36],[-5,58],[10,32],[-101,53]],[[6108,4545],[6,35],[44,107]],[[6158,4687],[273,88]],[[6932,4442],[20,-16],[16,-74],[-19,-20],[9,-63],[43,-101],[30,-21],[4,-29],[40,-19],[20,-41],[9,-55],[21,-40],[-1,-38]],[[3010,8646],[-1,56],[-35,38],[0,136],[-19,44],[8,66],[25,112]],[[3118,9246],[64,17],[52,-21],[53,20]],[[5340,6841],[-160,305],[-34,86],[34,59],[-7,40],[-48,-31],[-68,259]],[[5057,7559],[20,-20],[39,15],[79,-54]],[[5195,7500],[37,-31],[51,-8],[34,-57],[109,-91],[36,1],[68,-50],[38,-18],[80,-73],[1,-30],[88,-67],[14,-45],[8,-64],[27,-29]],[[7109,731],[-54,11],[-23,24],[-71,-4],[-51,-26],[-22,22],[-39,10],[-16,-16],[-30,11],[-48,33],[-36,-4],[-38,20],[-43,-8],[-35,40],[-50,28],[-24,-9],[-40,36],[-55,-7],[-24,17],[-48,11],[-16,47],[-24,12]],[[6322,979],[22,170],[-39,13],[27,61],[0,36],[-29,35],[14,32],[3,94],[-51,17]],[[6559,1691],[4,-32],[72,-12],[61,-55],[36,6],[61,-32],[71,17],[41,26],[10,-18],[-12,-63],[17,-24],[26,7],[23,-42],[57,-18],[11,-42],[51,5],[23,-42]],[[7111,1372],[-30,-37],[-51,-30],[25,-39],[16,10],[68,-30],[11,37],[29,-34],[-1,-113],[-42,-141],[-31,-54],[-23,-84],[1,-58],[26,-68]],[[4325,5396],[-37,27],[-36,45],[-28,54],[-25,3],[-55,-44],[-17,-24],[-28,16],[-107,-52],[-152,-68]],[[3840,5353],[-69,268],[-29,121],[-24,152]],[[6322,979],[1,-22],[-39,-1],[-20,24],[-43,-23],[4,-35],[-20,-46],[-53,26],[-32,-18],[20,-42],[-43,-17],[-14,-54],[14,-46],[-24,-63],[2,-43],[36,-71],[3,-32],[25,-26],[11,-63],[-23,-83],[7,-23],[-5,-79],[-33,-84],[-7,-79],[9,-24],[-24,-48],[-76,-3],[-17,16],[-112,-20],[-58,88],[-11,49],[11,41],[-6,34],[11,51],[-50,67],[-17,43],[10,39],[34,25]],[[5793,437],[111,450],[-49,14],[-414,9],[9,455],[125,0],[360,-6]],[[3600,4365],[26,-70],[-26,-35]],[[3600,4260],[-8,-27],[-36,28],[-95,-138],[-62,-99]],[[3399,4024],[-397,5]],[[3002,4029],[2,139],[-16,0],[0,51],[33,0],[1,119],[-17,0],[-1,61]],[[3004,4399],[51,-46],[33,1],[0,103],[34,19],[49,-1],[2,59],[43,-25],[5,22],[2,215],[16,34],[1,49],[13,35]],[[3253,4864],[0,1]],[[4838,8194],[34,-27],[18,-51],[2,-82],[20,-76],[22,-52],[72,-43],[28,-54],[32,-36],[-10,-22],[32,-26],[34,-53],[19,-15],[3,-36],[51,-121]],[[5057,7559],[-96,-6],[-29,8],[-61,-27],[-43,-2]],[[4492,7682],[-26,46],[-35,24],[-36,43],[3,34],[-77,83],[-46,36],[19,42],[-6,25],[30,44]],[[4318,8059],[101,21],[32,-6],[33,-41],[37,15],[74,61],[157,48],[86,37]],[[3346,7397],[-51,24],[-77,-37],[-66,-9],[-7,24],[-59,47]],[[3086,7446],[-25,51],[-31,25],[-9,33],[-39,30],[-12,24],[84,249]],[[3054,7858],[12,-31],[32,-26],[2,-27],[67,-48],[30,7],[23,-25],[49,-8],[60,2],[35,-14],[37,2],[24,-24],[28,12],[36,-19],[45,-137]],[[3534,7522],[-1,-1]],[[6111,6643],[27,-26],[19,-25],[27,-70],[101,-50],[23,-51],[-30,-19],[12,-39],[-19,-28],[7,-35],[-24,-34],[36,-40],[8,-24],[64,-40],[21,-1],[39,-61],[4,-37],[-13,-39]],[[4064,4640],[150,-336]],[[4214,4304],[-59,62],[-225,-231],[36,-37],[-107,-108]],[[3859,3990],[-36,34],[-223,236]],[[1556,4640],[1,212],[-16,31],[17,15],[1,253],[-13,32]],[[1546,5183],[221,1],[109,68],[0,9]],[[1876,5261],[53,-11],[-22,-30],[37,-19],[17,-49],[25,-9],[16,27],[32,-8],[22,-38],[18,-61],[38,-23],[33,12],[17,-40],[40,-15],[23,13],[28,-29]],[[2253,4981],[-61,-55],[-27,-1],[-1,-87],[-44,1],[-17,-87],[-34,-42],[-24,-15],[-1,-101],[-61,0]],[[1983,4594],[-81,0],[0,-29],[-22,-13],[-105,-4],[8,-25],[-57,-10],[-17,25],[-28,-11],[-27,10]],[[1654,4537],[-20,0],[-51,-33],[-27,0]],[[3947,1394],[26,75],[-29,18],[-13,41],[-27,13],[-4,42],[31,63],[-2,39],[-49,51],[4,51],[-7,60],[-20,15],[-32,-6],[-37,24],[-36,55],[-44,33],[-7,28],[8,71]],[[3709,2067],[33,53],[26,2],[49,51],[3,133],[52,0],[0,23]],[[3872,2329],[330,-7]],[[4202,2322],[-9,-23],[21,-42],[-3,-44]],[[4211,2213],[6,-45],[37,-26],[8,-38],[38,-44],[24,-2],[28,-43],[-2,-44],[44,-61],[-30,-89],[7,-101]],[[4371,1720],[15,-77],[-217,1],[-4,-177],[-52,-1],[0,-76]],[[5912,5117],[107,-312],[139,-118]],[[6108,4545],[-85,45],[-117,-83],[-56,-97],[-11,-84],[-111,-167],[14,-11],[20,-61]],[[5461,4160],[-4,23],[25,46],[4,51],[21,61],[-27,23],[-38,11],[-92,65],[-43,21],[-84,1],[-25,14],[-95,-1],[-50,16]],[[5053,4491],[18,12],[58,6],[66,23],[-43,50],[-8,48],[141,96],[76,45],[-39,31],[-16,51],[49,51],[31,18],[1,22],[31,67]],[[5056,3253],[-41,5],[-41,-48],[-82,-45],[-26,-41],[-22,9],[-34,-16],[9,-32],[-52,-42],[-36,-4]],[[4731,3039],[-4,-17],[-48,-48],[-41,-10],[-92,15],[-18,-10],[-40,22],[-30,-26]],[[4458,2965],[-17,-13],[-38,8],[-19,25],[-23,-3],[-62,42],[-68,2],[-16,32],[-67,47]],[[4148,3105],[0,39],[-26,17],[-22,53]],[[4100,3214],[322,332],[128,135],[-23,23],[36,38],[11,-38]],[[3840,581],[-434,29],[-226,14]],[[3180,624],[3,175],[5,0],[-3,159],[8,457]],[[3193,1415],[277,-8],[-1,93]],[[3469,1500],[36,-46],[20,-11],[72,0],[19,-33],[22,-7]],[[3923,574],[-54,4]],[[3973,6515],[-7,48],[16,74],[-21,2],[-41,42],[-27,44],[-35,34],[-18,41],[-22,75],[-61,88]],[[6618,2025],[42,40],[15,39],[-11,14],[22,54],[46,-1],[70,110]],[[6802,2281],[20,-13],[13,-44],[31,-22],[15,-32],[55,-31],[51,-60],[17,-1],[39,-39],[28,-1],[81,-61],[28,-30],[34,51],[24,3],[85,-20],[36,-34],[25,2]],[[7384,1949],[7,-46],[14,-12],[-20,-45],[-13,-55],[-22,-2],[-48,-42],[-59,-102],[-74,-57],[9,-28],[5,-71],[-33,-117],[-39,0]],[[1288,6573],[-10,-35],[-35,-6],[-51,-42],[-24,-54],[-37,-19],[-66,44],[-8,-34],[-49,-33]],[[1008,6394],[-476,6]],[[532,6400],[-18,114],[-58,355]],[[456,6869],[83,-2],[257,100],[42,-18],[109,48],[3,204],[19,-1]],[[969,7200],[114,-26],[119,-39]],[[1202,7135],[-2,-273],[-5,-159],[165,1]],[[2145,6858],[116,-1]],[[2137,6242],[-58,0]],[[4371,1720],[129,0]],[[4500,1720],[2,-352],[-2,-304]],[[4500,1064],[-61,-21],[-21,-20]],[[3004,4399],[-43,22],[-8,21],[-81,32],[-160,4]],[[2712,4478],[16,32]],[[2728,4510],[9,17]],[[2737,4527],[404,339],[112,-2]],[[2743,2035],[411,-5],[0,-28],[77,-1],[0,27],[103,-2]],[[3334,2026],[241,-7]],[[3575,2019],[-4,-52],[15,-47],[-12,-107],[6,-47],[-57,-74],[-1,-47],[-21,-7],[-2,-71],[-18,-20],[-12,-47]],[[3193,1415],[-457,8],[0,75]],[[456,6869],[-82,518]],[[374,7387],[296,-5],[0,15],[278,-4]],[[948,7393],[23,0],[-2,-193]],[[1653,2242],[-259,5],[-3,39],[-27,76],[-22,20]],[[1342,2382],[20,27],[-19,70],[2,150]],[[1345,2629],[276,1],[12,49],[46,-12],[61,-35],[0,34],[68,-34]],[[1808,2632],[165,1]],[[1973,2633],[5,-37],[-17,-41],[9,-22],[-5,-53],[53,-114],[20,-76],[-30,-43]],[[2851,9651],[319,1],[222,-2],[-1,11],[121,1]],[[2428,6854],[77,-31],[40,-25],[101,224],[56,55]],[[2702,7077],[71,69]],[[2773,7146],[115,-87]],[[3518,5866],[-161,-28],[-300,-56]],[[3057,5782],[3,35],[-15,19],[1,47]],[[3046,5883],[25,23],[-32,40],[21,77],[-31,52],[8,42],[-26,54],[4,22],[-39,28],[0,54]],[[3286,6604],[140,-109],[113,-82]],[[2099,1501],[1,-258],[-8,-553]],[[2092,690],[-160,6],[-111,8],[-554,31]],[[1267,735],[-13,47],[6,29],[55,65],[40,8],[19,39],[21,-1],[6,47],[25,24],[6,105],[19,0],[5,325],[37,18],[1,40]],[[1494,1481],[145,-2],[2,24],[174,-1]],[[2269,7504],[30,-81],[47,-35],[53,-63],[73,-38],[37,-35],[40,-61],[26,-17],[38,-46],[30,-10],[31,-31],[28,-10]],[[3391,8209],[47,-48],[54,-42],[51,8],[73,0],[16,9],[132,-132]],[[3764,8004],[39,-54],[26,-16],[12,-99],[-29,-55],[-14,-48],[1,-39],[38,-17]],[[3837,7676],[-237,-110],[-66,-44]],[[2737,4527],[-71,66],[-44,68],[-2,47],[10,48],[-67,70],[-40,2],[-29,23],[-49,-16],[-49,26]],[[2396,4861],[91,232],[43,-1],[0,101]],[[2530,5193],[397,-2]],[[1876,5261],[-8,63],[-28,33],[16,42],[-14,47]],[[1842,5446],[37,5],[27,43],[326,-5],[0,17],[49,-18]],[[2281,5488],[252,-3],[-1,-119]],[[2532,5366],[-2,-173]],[[2396,4861],[-45,89],[-98,31]],[[4458,2965],[-4,-225]],[[4454,2740],[-304,11],[-2,-55],[-152,5],[1,53],[-102,2],[0,158],[-24,27],[-51,1],[-2,-27],[-142,2]],[[3676,2917],[-9,76],[-23,27],[-21,58],[8,26]],[[3631,3104],[462,-6],[55,7]],[[3668,8601],[103,-47]],[[3771,8554],[26,-67],[5,-52],[-9,-33],[-15,-132],[93,-127],[-27,-84]],[[3844,8059],[-34,-38],[-46,-17]],[[3873,9025],[58,-37],[19,-31],[66,-36],[40,-54],[38,-1],[24,-15],[43,8],[3,-34],[42,-37],[5,-23],[52,-32],[12,-22]],[[4275,8711],[-128,-124],[-334,-15],[-42,-18]],[[787,9193],[-26,16],[-72,0],[0,165],[-107,0],[-1,272]],[[581,9646],[487,6]],[[5053,4491],[-46,23],[10,184],[-215,101],[15,55],[-131,60],[-162,-15]],[[4524,4899],[19,69],[-1,37]],[[1008,6394],[130,-418]],[[1138,5976],[-174,-76],[-6,-13],[-74,-22],[-34,14],[-17,-31],[-203,-71]],[[630,5777],[-98,623]],[[374,7387],[-21,131],[-40,243]],[[313,7761],[280,-4],[1,45],[81,-6],[90,-1],[0,-29],[60,0],[1,28],[128,-1]],[[954,7793],[0,-28],[212,-1]],[[1166,7764],[-10,-22],[-86,-251],[-121,3],[-1,-101]],[[1202,7135],[38,-12],[80,7],[118,19],[67,3],[0,37]],[[5374,470],[-212,16]],[[5162,486],[2,137],[-6,36],[12,36],[-46,46],[-114,21],[-33,20],[-30,-10],[-97,7],[-66,36],[-16,51],[-32,24],[5,48],[-27,55],[-214,71]],[[4500,1720],[214,1],[170,-3],[128,2]],[[5012,1720],[136,-345],[71,-37],[52,-78],[50,0],[-2,-272],[-6,-28],[102,2],[1,-216],[11,-55],[-4,-162],[21,1],[0,-65]],[[5444,465],[-70,5]],[[2776,8465],[-208,96],[-23,18],[-89,99],[-40,39],[4,132]],[[2420,8849],[53,95]],[[1654,4537],[-2,-83],[-33,0],[-2,-547]],[[1617,3907],[-246,-4],[-206,0]],[[1165,3903],[37,56],[21,7],[-57,51],[-19,27],[-116,49],[-5,49],[56,68]],[[1546,5183],[-115,48],[-137,2],[-24,8]],[[1270,5241],[1,184],[-6,0],[4,481]],[[1269,5906],[17,-1],[0,68],[598,-5]],[[1884,5968],[16,-44],[-6,-33]],[[1894,5891],[-32,-76],[8,-45],[-14,-52],[13,-32],[-27,-33],[7,-18],[-24,-108],[17,-19],[0,-62]],[[3180,624],[-450,29],[-131,8]],[[2599,661],[6,352],[13,44],[-13,20],[8,76],[-55,82],[-19,67],[4,197]],[[896,4690],[-42,77],[29,26],[-9,25],[-40,47],[-3,102],[-27,12],[-14,29],[35,27],[-51,43],[-27,36],[0,37],[23,38],[-51,29],[0,19]],[[719,5237],[551,-4],[0,8]],[[2567,6129],[23,-26],[-57,-69],[-2,-104]],[[2531,5930],[0,-50],[-172,1],[-41,20]],[[2318,5901],[-214,2],[1,22],[-35,16],[-99,2],[-41,-17],[-36,-35]],[[1884,5968],[-11,50],[19,26]],[[3872,2329],[-74,24],[-7,49],[-18,42],[-41,47],[-86,5],[1,28],[-52,2],[1,49]],[[3596,2575],[15,53],[2,160],[51,-1],[13,27],[-18,70],[17,33]],[[4454,2740],[-26,-25],[-1,-53],[-26,1],[-50,-52],[-3,-95],[-42,-108],[-20,-16],[-26,-58],[-58,-12]],[[5447,2207],[-110,0],[0,54],[-21,-1],[-2,54],[-175,1]],[[5139,2315],[2,185],[-55,1],[2,238]],[[5088,2739],[181,0],[0,80]],[[3859,3990],[-47,-47],[142,-148],[-58,-60],[35,-35],[-56,-57]],[[3875,3643],[-21,-6],[-20,44],[-61,0],[-66,-15],[-296,3]],[[3411,3669],[4,354],[-16,1]],[[3587,7212],[-299,-460]],[[2773,7146],[137,129],[176,171]],[[4648,3831],[-4,4],[-177,-106],[-253,575]],[[4064,4640],[317,186],[143,73]],[[5053,4491],[25,-45],[-24,-46],[-27,-19],[-39,1],[-28,-60],[8,-30],[-9,-40],[-17,-14],[-36,-103],[-5,-40],[25,-28]],[[3046,5883],[-40,35],[-53,11],[-281,1]],[[2672,5930],[-141,0]],[[2006,3701],[-164,2],[-1,34],[-32,17],[1,33],[-32,0],[0,36],[-60,1],[-2,38],[-34,46],[-49,0]],[[1633,3908],[-16,-1]],[[1983,4594],[3,-91],[16,-53],[44,-16],[-1,-86],[28,-18],[-1,-45]],[[2072,4285],[4,-243],[-40,0],[6,-27],[-1,-110],[-32,1],[-1,-79],[16,-41],[-17,-17]],[[1494,1481],[-327,7]],[[1167,1488],[8,383],[400,-10],[18,17],[53,-1]],[[4275,8711],[31,-12],[26,-60],[31,-17]],[[4363,8622],[-73,-162],[-22,-149],[21,5],[-19,-142],[-13,-11]],[[4257,8163],[-101,-73],[-38,18],[-94,-5],[-62,18],[-19,23],[-80,-59],[-19,-26]],[[4464,8592],[83,13],[30,-8],[42,10],[62,-55],[50,-165],[2,-31],[69,-54],[13,-62],[23,-46]],[[4318,8059],[-65,80],[4,24]],[[4363,8622],[89,-45],[12,15]],[[1973,2633],[261,1]],[[2234,2634],[435,3],[24,52],[18,4]],[[2711,2693],[43,-1],[-5,-52],[-3,-378]],[[3756,5295],[84,58]],[[5088,2739],[-358,-2],[1,302]],[[5793,437],[-349,28]],[[5012,1720],[-33,83],[-17,-1],[3,115],[61,20],[58,-27],[1,186]],[[5085,2096],[1,219],[53,0]],[[2711,2693],[10,26],[-16,47],[-6,51],[38,93],[28,32],[-8,29],[-28,18],[3,24],[45,12],[21,52],[48,28]],[[2846,3105],[47,-3],[55,-20],[41,0],[1,-36],[34,3],[56,-37]],[[3080,3012],[9,-89],[1,-287],[133,-2],[30,-33],[53,-23],[-2,-49],[38,-8]],[[3342,2521],[-3,-173],[-25,0],[-2,-106],[26,0],[-4,-216]],[[817,2926],[-24,38]],[[793,2964],[115,-3],[0,-16],[80,-1],[1,17],[116,-2]],[[1105,2959],[-2,-135],[17,0],[0,-69],[32,-16],[-20,-35],[0,-77],[213,2]],[[1342,2382],[-210,2],[-29,-20],[-119,-14],[0,68],[-28,-3]],[[956,2415],[7,50],[-28,62],[1,100],[-28,23],[-32,63],[-57,73],[-1,45],[13,33],[-14,62]],[[6212,3982],[-96,21]],[[4211,2213],[311,-6],[1,-30],[194,1],[46,-81],[322,-1]],[[2695,3779],[26,63],[45,38],[36,59],[115,68],[5,24],[80,-2]],[[3411,3669],[-2,-189]],[[3409,3480],[-448,6],[-152,0]],[[2318,5901],[0,-312],[-35,-16],[-2,-85]],[[313,7761],[-13,92],[-56,336]],[[244,8189],[128,0],[8,36],[33,73],[49,65],[93,42],[99,54],[12,29],[60,14],[30,75],[26,89],[39,75],[29,76]],[[850,8817],[66,0]],[[916,8817],[8,-26],[1,-67],[-45,-2],[0,-163],[-36,0],[27,-47],[8,-36],[-29,-18],[36,-29],[94,0],[44,-18]],[[1024,8411],[1,-95],[-31,0],[-1,-279],[-35,1],[-4,-245]],[[1269,5906],[1,68],[-132,2]],[[156,8685],[-23,135]],[[133,8820],[266,1],[451,-4]],[[244,8189],[-14,88],[-74,408]],[[2816,8289],[-514,2]],[[2302,8291],[0,96]],[[2302,8387],[2,180],[-108,1],[-44,168],[0,30]],[[2406,8881],[14,-32]],[[719,5237],[-8,40],[-74,455],[-7,45]],[[2193,9653],[328,-2]],[[1681,9653],[512,0]],[[1482,7758],[0,6],[-316,0]],[[1024,8411],[29,-17],[60,-1],[11,31],[87,-5],[101,3],[176,-3],[1,34],[137,0]],[[1626,8453],[0,-387],[-7,-51],[-3,-260]],[[918,3405],[22,39],[-2,109],[18,50],[-28,95],[28,24],[63,79],[75,28],[-12,48],[71,2],[12,24]],[[1633,3908],[15,-16],[-7,-410],[-16,-1],[-3,-225]],[[1622,3256],[-429,8]],[[1193,3264],[-49,37],[-34,1],[-31,35],[34,32],[-151,2],[-44,34]],[[2875,3234],[-20,-59],[11,-41],[-20,-29]],[[2234,2634],[3,144],[-16,0],[17,14],[3,108],[11,1],[1,86],[43,0],[-2,77],[-24,46],[-35,33],[-70,15]],[[1267,735],[-2,0],[-54,82],[-31,6],[-6,51],[-33,89],[18,38],[-21,68],[8,21],[-84,115],[2,60],[-37,16],[3,57],[5,28],[-17,38],[-4,44],[-29,46]],[[985,1494],[182,-6]],[[2672,5930],[0,-162],[-5,-370],[-17,-34],[-118,2]],[[3596,2575],[-179,9],[-75,-4],[0,-59]],[[3080,3012],[91,2],[233,0],[1,104]],[[3405,3118],[121,-2],[105,-12]],[[3057,5782],[71,-109],[47,-34],[44,-83],[-14,-18],[12,-82],[24,-18],[-4,-29]],[[2599,661],[-339,20],[-168,9]],[[2737,4527],[-85,1],[-1,-18]],[[2651,4510],[-32,-16],[-67,0],[-19,-17],[-128,-219],[-77,0],[-20,-11],[-1,-49]],[[2307,4198],[-118,1],[1,53],[-68,-1],[1,63],[-33,0],[-18,-29]],[[2712,4478],[-61,32]],[[2651,4510],[77,0]],[[1808,2632],[19,52],[-7,37],[8,37],[-20,64],[-24,43],[-16,58],[12,21],[-68,3],[6,308]],[[1718,3255],[250,-1],[14,14],[2,86]],[[1718,3255],[-96,1]],[[133,8820],[-12,73]],[[121,8893],[74,95],[1,62],[49,68],[19,57],[0,152],[29,90],[101,176],[18,50]],[[412,9643],[169,3]],[[948,8890],[-17,0],[0,-73],[-15,0]],[[2432,3901],[-66,3],[2,133],[-63,2],[2,159]],[[793,2964],[14,25],[0,76],[-15,22],[3,40],[19,37],[-7,35],[32,1],[27,68],[33,29],[-13,37],[35,28],[-3,43]],[[1193,3264],[-6,-307],[-82,2]],[[985,1494],[-12,68],[-32,27],[-38,75],[-40,18],[-12,77],[18,48],[-29,81],[5,36],[36,28],[3,28],[3,87],[-11,30],[17,42],[12,83],[16,13],[-9,78],[44,102]],[[3409,3480],[-4,-362]],[[2302,8387],[-315,-1],[-240,2],[0,64],[-121,1]],[[1626,8453],[-1,284]],[[3837,7676],[64,-28],[47,-39],[62,-19]],[[121,8893],[-46,263],[-37,230],[-38,260],[224,-4],[188,1]],[[2302,8291],[-2,-311]],[[4100,3214],[-23,54],[-53,48],[-20,6],[-48,65],[-9,111],[-10,39],[0,56],[-29,8],[-33,42]],[[3709,2067],[-45,-50],[-89,2]],[[2636,7944],[-39,-41],[-43,-108],[-13,-64],[35,-33]],[[7028,2795],[-127,-256],[-96,-53],[-70,-26]],[[6735,2460],[-15,19],[-42,13],[-8,54],[-61,59],[-59,41],[-22,4],[-38,53],[-30,-7],[-42,56],[-31,26],[-16,46],[-50,24],[-48,78],[-31,23],[1,26],[-30,8]],[[5162,486],[-180,12],[-321,23],[-443,32]],[[7540,2547],[-41,-46],[-103,-21],[-37,-31],[5,-25],[62,16],[-32,-41],[25,-28],[45,69],[39,-2],[26,19],[33,-44],[-44,-90],[-72,-105],[-37,-83],[-44,-30],[20,-87],[-8,-34],[7,-35]],[[6802,2281],[20,32],[-18,35],[-42,21],[-27,91]],[[7203,4663],[53,-45],[62,-29],[41,7],[29,-14],[15,-54],[50,-21],[16,-46],[57,-63],[-14,-65],[5,-28],[46,-62],[-5,-30],[23,-23],[11,-37],[34,-1],[18,-30],[15,-63],[-6,-46],[-36,-71],[-16,-11],[20,-37]]],"transform":{"scale":[0.0005852884520884515,0.00047957314049586756],"translate":[-85.605165,30.358929]},"objects":{"13":{"type":"GeometryCollection","geometries":[{"arcs":[[0,1,2,3,4,5,6]],"type":"Polygon","properties":{"STATEFP":"13","COUNTYFP":"137","COUNTYNS":"00351383","GEOIDFQ":"0500000US13137","GEOID":"13137","NAME":"Habersham","NAMELSAD":"Habersham County","STUSPS":"GA","STATE_NAME":"Georgia","LSAD":"06","ALAND":717081428,"AWATER":5672376},"id":"13137"},{"arcs":[[-6,7,8,9,10,11,12,13]],"type":"Polygon","properties":{"STATEFP":"13","COUNTYFP":"139","COUNTYNS":"01686953","GEOIDFQ":"0500000US13139","GEOID":"13139","NAME":"Hall","NAMELSAD":"Hall County","STUSPS":"GA","STATE_NAME":"Georgia","LSAD":"06","ALAND":1016590900,"AWATER":93546822},"id":"13139"},{"arcs":[[14,15,16,17,18,19]],"type":"Polygon","properties":{"STATEFP":"13","COUNTYFP":"001","COUNTYNS":"00349113","GEOIDFQ":"0500000US13001","GEOID":"13001","NAME":"Appling","NAMELSAD":"Appling County","STUSPS":"GA","STATE_NAME":"Georgia","LSAD":"06","ALAND":1316393794,"AWATER":10357488},"id":"13001"},{"arcs":[[20,21,22,23,24,25,26]],"type":"Polygon","properties":{"STATEFP":"13","COUNTYFP":"141","COUNTYNS":"00348209","GEOIDFQ":"0500000US13141","GEOID":"13141","NAME":"Hancock","NAMELSAD":"Hancock County","STUSPS":"GA","STATE_NAME":"Georgia","LSAD":"06","ALAND":1220057419,"AWATER":17479620},"id":"13141"},{"arcs":[[-22,27,28,29,30]],"type":"Polygon","properties":{"STATEFP":"13","COUNTYFP":"265","COUNTYNS":"00347654","GEOIDFQ":"0500000US13265","GEOID":"13265","NAME":"Taliaferro","NAMELSAD":"Taliaferro County","STUSPS":"GA","STATE_NAME":"Georgia","LSAD":"06","ALAND":504029144,"AWATER":1917633},"id":"13265"},{"arcs":[[31,32,33,34,35,36]],"type":"Polygon","properties":{"STATEFP":"13","COUNTYFP":"189","COUNTYNS":"00348794","GEOIDFQ":"0500000US13189","GEOID":"13189","NAME":"McDuffie","NAMELSAD":"McDuffie County","STUSPS":"GA","STATE_NAME":"Georgia","LSAD":"06","ALAND":666608437,"AWATER":23095606},"id":"13189"},{"arcs":[[37,38,39,40,41,42]],"type":"Polygon","properties":{"STATEFP":"13","COUNTYFP":"007","COUNTYNS":"00342832","GEOIDFQ":"0500000US13007","GEOID":"13007","NAME":"Baker","NAMELSAD":"Baker County","STUSPS":"GA","STATE_NAME":"Georgia","LSAD":"06","ALAND":885665382,"AWATER":18598653},"id":"13007"},{"arcs":[[-2,43,44]],"type":"Polygon","properties":{"STATEFP":"13","COUNTYFP":"241","COUNTYNS":"00351489","GEOIDFQ":"0500000US13241","GEOID":"13241","NAME":"Rabun","NAMELSAD":"Rabun County","STUSPS":"GA","STATE_NAME":"Georgia","LSAD":"06","ALAND":958651632,"AWATER":17846195},"id":"13241"},{"arcs":[[45,46,47,48]],"type":"Polygon","properties":{"STATEFP":"13","COUNTYFP":"113","COUNTYNS":"01687740","GEOIDFQ":"0500000US13113","GEOID":"13113","NAME":"Fayette","NAMELSAD":"Fayette County","STUSPS":"GA","STATE_NAME":"Georgia","LSAD":"06","ALAND":504256680,"AWATER":12780875},"id":"13113"},{"arcs":[[49,50,51,52,53,54]],"type":"Polygon","properties":{"STATEFP":"13","COUNTYFP":"029","COUNTYNS":"00350496","GEOIDFQ":"0500000US13029","GEOID":"13029","NAME":"Bryan","NAMELSAD":"Bryan County","STUSPS":"GA","STATE_NAME":"Georgia","LSAD":"06","ALAND":1133284281,"AWATER":43751220},"id":"13029"},{"arcs":[[55,56,57,58,59]],"type":"Polygon","properties":{"STATEFP":"13","COUNTYFP":"289","COUNTYNS":"00345456","GEOIDFQ":"0500000US13289","GEOID":"13289","NAME":"Twiggs","NAMELSAD":"Twiggs County","STUSPS":"GA","STATE_NAME":"Georgia","LSAD":"06","ALAND":930478090,"AWATER":8740237},"id":"13289"},{"arcs":[[60,61,62,63]],"type":"Polygon","properties":{"STATEFP":"13","COUNTYFP":"215","COUNTYNS":"00357428","GEOIDFQ":"0500000US13215","GEOID":"13215","NAME":"Muscogee","NAMELSAD":"Muscogee County","STUSPS":"GA","STATE_NAME":"Georgia","LSAD":"06","ALAND":560731682,"AWATER":11683932},"id":"13215"},{"arcs":[[-16,64,65,66,67,68,69]],"type":"Polygon","properties":{"STATEFP":"13","COUNTYFP":"267","COUNTYNS":"00347445","GEOIDFQ":"0500000US13267","GEOID":"13267","NAME":"Tattnall","NAMELSAD":"Tattnall County","STUSPS":"GA","STATE_NAME":"Georgia","LSAD":"06","ALAND":1245369508,"AWATER":19447411},"id":"13267"},{"arcs":[[-27,70,71,72,73,74]],"type":"Polygon","properties":{"STATEFP":"13","COUNTYFP":"237","COUNTYNS":"00347246","GEOIDFQ":"0500000US13237","GEOID":"13237","NAME":"Putnam","NAMELSAD":"Putnam County","STUSPS":"GA","STATE_NAME":"Georgia","LSAD":"06","ALAND":892721735,"AWATER":41451861},"id":"13237"},{"arcs":[[-54,75,76,77,-68,78]],"type":"Polygon","properties":{"STATEFP":"13","COUNTYFP":"179","COUNTYNS":"00357095","GEOIDFQ":"0500000US13179","GEOID":"13179","NAME":"Liberty","NAMELSAD":"Liberty County","STUSPS":"GA","STATE_NAME":"Georgia","LSAD":"06","ALAND":1337632042,"AWATER":222884796},"id":"13179"},{"arcs":[[79,80,81,82,83]],"type":"Polygon","properties":{"STATEFP":"13","COUNTYFP":"213","COUNTYNS":"01688005","GEOIDFQ":"0500000US13213","GEOID":"13213","NAME":"Murray","NAMELSAD":"Murray County","STUSPS":"GA","STATE_NAME":"Georgia","LSAD":"06","ALAND":892235592,"AWATER":5719192},"id":"13213"},{"arcs":[[84,85,86,87,88]],"type":"Polygon","properties":{"STATEFP":"13","COUNTYFP":"067","COUNTYNS":"01686112","GEOIDFQ":"0500000US13067","GEOID":"13067","NAME":"Cobb","NAMELSAD":"Cobb County","STUSPS":"GA","STATE_NAME":"Georgia","LSAD":"06","ALAND":879820634,"AWATER":12009196},"id":"13067"},{"arcs":[[-35,89,90,91,92,93,94,95]],"type":"Polygon","properties":{"STATEFP":"13","COUNTYFP":"163","COUNTYNS":"00345714","GEOIDFQ":"0500000US13163","GEOID":"13163","NAME":"Jefferson","NAMELSAD":"Jefferson County","STUSPS":"GA","STATE_NAME":"Georgia","LSAD":"06","ALAND":1363771349,"AWATER":8059597},"id":"13163"},{"arcs":[[-29,96,97,98,99,100,101]],"type":"Polygon","properties":{"STATEFP":"13","COUNTYFP":"221","COUNTYNS":"00351262","GEOIDFQ":"0500000US13221","GEOID":"13221","NAME":"Oglethorpe","NAMELSAD":"Oglethorpe County","STUSPS":"GA","STATE_NAME":"Georgia","LSAD":"06","ALAND":1137165335,"AWATER":7708032},"id":"13221"},{"arcs":[[102,103,104,105,106,107]],"type":"Polygon","properties":{"STATEFP":"13","COUNTYFP":"025","COUNTYNS":"00351605","GEOIDFQ":"0500000US13025","GEOID":"13025","NAME":"Brantley","NAMELSAD":"Brantley County","STUSPS":"GA","STATE_NAME":"Georgia","LSAD":"06","ALAND":1147989344,"AWATER":10274469},"id":"13025"},{"arcs":[[-23,-31,108,-36,-96,109]],"type":"Polygon","properties":{"STATEFP":"13","COUNTYFP":"301","COUNTYNS":"00347777","GEOIDFQ":"0500000US13301","GEOID":"13301","NAME":"Warren","NAMELSAD":"Warren County","STUSPS":"GA","STATE_NAME":"Georgia","LSAD":"06","ALAND":736510930,"AWATER":6007154},"id":"13301"},{"arcs":[[110,111,112,113]],"type":"Polygon","properties":{"STATEFP":"13","COUNTYFP":"209","COUNTYNS":"00352276","GEOIDFQ":"0500000US13209","GEOID":"13209","NAME":"Montgomery","NAMELSAD":"Montgomery County","STUSPS":"GA","STATE_NAME":"Georgia","LSAD":"06","ALAND":624563059,"AWATER":9191488},"id":"13209"},{"arcs":[[-91,114,115,116,117,118]],"type":"Polygon","properties":{"STATEFP":"13","COUNTYFP":"033","COUNTYNS":"00347944","GEOIDFQ":"0500000US13033","GEOID":"13033","NAME":"Burke","NAMELSAD":"Burke County","STUSPS":"GA","STATE_NAME":"Georgia","LSAD":"06","ALAND":2142029072,"AWATER":20565643},"id":"13033"},{"arcs":[[-82,119,120,121,122]],"type":"Polygon","properties":{"STATEFP":"13","COUNTYFP":"123","COUNTYNS":"00351260","GEOIDFQ":"0500000US13123","GEOID":"13123","NAME":"Gilmer","NAMELSAD":"Gilmer County","STUSPS":"GA","STATE_NAME":"Georgia","LSAD":"06","ALAND":1103804479,"AWATER":12337138},"id":"13123"},{"arcs":[[123,124,125,126,127,128]],"type":"Polygon","properties":{"STATEFP":"13","COUNTYFP":"151","COUNTYNS":"01671894","GEOIDFQ":"0500000US13151","GEOID":"13151","NAME":"Henry","NAMELSAD":"Henry County","STUSPS":"GA","STATE_NAME":"Georgia","LSAD":"06","ALAND":825466749,"AWATER":20238933},"id":"13151"},{"arcs":[[-40,129,130,131,132,133,134]],"type":"Polygon","properties":{"STATEFP":"13","COUNTYFP":"205","COUNTYNS":"00343645","GEOIDFQ":"0500000US13205","GEOID":"13205","NAME":"Mitchell","NAMELSAD":"Mitchell County","STUSPS":"GA","STATE_NAME":"Georgia","LSAD":"06","ALAND":1326483081,"AWATER":4314212},"id":"13205"},{"arcs":[[135,136,137,138,139,140,141,142]],"type":"Polygon","properties":{"STATEFP":"13","COUNTYFP":"185","COUNTYNS":"00326720","GEOIDFQ":"0500000US13185","GEOID":"13185","NAME":"Lowndes","NAMELSAD":"Lowndes County","STUSPS":"GA","STATE_NAME":"Georgia","LSAD":"06","ALAND":1287872475,"AWATER":34511663},"id":"13185"},{"arcs":[[-18,143,-103,144,145]],"type":"Polygon","properties":{"STATEFP":"13","COUNTYFP":"229","COUNTYNS":"00349086","GEOIDFQ":"0500000US13229","GEOID":"13229","NAME":"Pierce","NAMELSAD":"Pierce County","STUSPS":"GA","STATE_NAME":"Georgia","LSAD":"06","ALAND":881797534,"AWATER":7163620},"id":"13229"},{"arcs":[[-25,146,-94,147,148,149]],"type":"Polygon","properties":{"STATEFP":"13","COUNTYFP":"303","COUNTYNS":"00348428","GEOIDFQ":"0500000US13303","GEOID":"13303","NAME":"Washington","NAMELSAD":"Washington County","STUSPS":"GA","STATE_NAME":"Georgia","LSAD":"06","ALAND":1757373998,"AWATER":15098975},"id":"13303"},{"arcs":[[-52,150,151]],"type":"Polygon","properties":{"STATEFP":"13","COUNTYFP":"051","COUNTYNS":"01694477","GEOIDFQ":"0500000US13051","GEOID":"13051","NAME":"Chatham","NAMELSAD":"Chatham County","STUSPS":"GA","STATE_NAME":"Georgia","LSAD":"06","ALAND":1120936710,"AWATER":510688900},"id":"13051"},{"arcs":[[-84,152,153,154,155]],"type":"Polygon","properties":{"STATEFP":"13","COUNTYFP":"313","COUNTYNS":"00353513","GEOIDFQ":"0500000US13313","GEOID":"13313","NAME":"Whitfield","NAMELSAD":"Whitfield County","STUSPS":"GA","STATE_NAME":"Georgia","LSAD":"06","ALAND":752249528,"AWATER":1578157},"id":"13313"},{"arcs":[[-46,156,157,158,-87,159,160,161,162,163]],"type":"Polygon","properties":{"STATEFP":"13","COUNTYFP":"121","COUNTYNS":"01694833","GEOIDFQ":"0500000US13121","GEOID":"13121","NAME":"Fulton","NAMELSAD":"Fulton County","STUSPS":"GA","STATE_NAME":"Georgia","LSAD":"06","ALAND":1364558845,"AWATER":20564942},"id":"13121"},{"arcs":[[-33,164,165,166]],"type":"Polygon","properties":{"STATEFP":"13","COUNTYFP":"073","COUNTYNS":"00348865","GEOIDFQ":"0500000US13073","GEOID":"13073","NAME":"Columbia","NAMELSAD":"Columbia County","STUSPS":"GA","STATE_NAME":"Georgia","LSAD":"06","ALAND":751599722,"AWATER":45344735},"id":"13073"},{"arcs":[[-60,167,168,169,170]],"type":"Polygon","properties":{"STATEFP":"13","COUNTYFP":"021","COUNTYNS":"01672039","GEOIDFQ":"0500000US13021","GEOID":"13021","NAME":"Bibb","NAMELSAD":"Bibb County","STUSPS":"GA","STATE_NAME":"Georgia","LSAD":"06","ALAND":645898856,"AWATER":14304451},"id":"13021"},{"arcs":[[-98,171,172,173,174,175]],"type":"Polygon","properties":{"STATEFP":"13","COUNTYFP":"219","COUNTYNS":"00356774","GEOIDFQ":"0500000US13219","GEOID":"13219","NAME":"Oconee","NAMELSAD":"Oconee County","STUSPS":"GA","STATE_NAME":"Georgia","LSAD":"06","ALAND":477493473,"AWATER":5214512},"id":"13219"},{"arcs":[[-117,176,177,178,179]],"type":"Polygon","properties":{"STATEFP":"13","COUNTYFP":"251","COUNTYNS":"00350204","GEOIDFQ":"0500000US13251","GEOID":"13251","NAME":"Screven","NAMELSAD":"Screven County","STUSPS":"GA","STATE_NAME":"Georgia","LSAD":"06","ALAND":1672668621,"AWATER":26023811},"id":"13251"},{"arcs":[[180,181,182,183,184]],"type":"Polygon","properties":{"STATEFP":"13","COUNTYFP":"291","COUNTYNS":"00353193","GEOIDFQ":"0500000US13291","GEOID":"13291","NAME":"Union","NAMELSAD":"Union County","STUSPS":"GA","STATE_NAME":"Georgia","LSAD":"06","ALAND":838100500,"AWATER":18088336},"id":"13291"},{"arcs":[[-113,185,186,187,188,189]],"type":"Polygon","properties":{"STATEFP":"13","COUNTYFP":"309","COUNTYNS":"00351278","GEOIDFQ":"0500000US13309","GEOID":"13309","NAME":"Wheeler","NAMELSAD":"Wheeler County","STUSPS":"GA","STATE_NAME":"Georgia","LSAD":"06","ALAND":765322119,"AWATER":12369298},"id":"13309"},{"arcs":[[-126,190,191,192,193,194]],"type":"Polygon","properties":{"STATEFP":"13","COUNTYFP":"217","COUNTYNS":"01673547","GEOIDFQ":"0500000US13217","GEOID":"13217","NAME":"Newton","NAMELSAD":"Newton County","STUSPS":"GA","STATE_NAME":"Georgia","LSAD":"06","ALAND":709175838,"AWATER":13946237},"id":"13217"},{"arcs":[[195,196,197,198,199,200,201,202]],"type":"Polygon","properties":{"STATEFP":"13","COUNTYFP":"261","COUNTYNS":"00343504","GEOIDFQ":"0500000US13261","GEOID":"13261","NAME":"Sumter","NAMELSAD":"Sumter County","STUSPS":"GA","STATE_NAME":"Georgia","LSAD":"06","ALAND":1250646294,"AWATER":25211441},"id":"13261"},{"arcs":[[-15,203,-111,204,-65]],"type":"Polygon","properties":{"STATEFP":"13","COUNTYFP":"279","COUNTYNS":"00345220","GEOIDFQ":"0500000US13279","GEOID":"13279","NAME":"Toombs","NAMELSAD":"Toombs County","STUSPS":"GA","STATE_NAME":"Georgia","LSAD":"06","ALAND":942794616,"AWATER":18070371},"id":"13279"},{"arcs":[[-50,205,206,207,208,-179,209]],"type":"Polygon","properties":{"STATEFP":"13","COUNTYFP":"031","COUNTYNS":"00350302","GEOIDFQ":"0500000US13031","GEOID":"13031","NAME":"Bulloch","NAMELSAD":"Bulloch County","STUSPS":"GA","STATE_NAME":"Georgia","LSAD":"06","ALAND":1750752104,"AWATER":32810891},"id":"13031"},{"arcs":[[-7,-14,210,-183,211]],"type":"Polygon","properties":{"STATEFP":"13","COUNTYFP":"311","COUNTYNS":"00326781","GEOIDFQ":"0500000US13311","GEOID":"13311","NAME":"White","NAMELSAD":"White County","STUSPS":"GA","STATE_NAME":"Georgia","LSAD":"06","ALAND":623600283,"AWATER":3841609},"id":"13311"},{"arcs":[[-32,212,213,214,-165]],"type":"Polygon","properties":{"STATEFP":"13","COUNTYFP":"181","COUNTYNS":"01688000","GEOIDFQ":"0500000US13181","GEOID":"13181","NAME":"Lincoln","NAMELSAD":"Lincoln County","STUSPS":"GA","STATE_NAME":"Georgia","LSAD":"06","ALAND":544884775,"AWATER":121513274},"id":"13181"},{"arcs":[[215,216,-106,217,218]],"type":"Polygon","properties":{"STATEFP":"13","COUNTYFP":"039","COUNTYNS":"01671316","GEOIDFQ":"0500000US13039","GEOID":"13039","NAME":"Camden","NAMELSAD":"Camden County","STUSPS":"GA","STATE_NAME":"Georgia","LSAD":"06","ALAND":1632398694,"AWATER":392732535},"id":"13039"},{"arcs":[[-26,-150,219,220,-71]],"type":"Polygon","properties":{"STATEFP":"13","COUNTYFP":"009","COUNTYNS":"00345255","GEOIDFQ":"0500000US13009","GEOID":"13009","NAME":"Baldwin","NAMELSAD":"Baldwin County","STUSPS":"GA","STATE_NAME":"Georgia","LSAD":"06","ALAND":670028048,"AWATER":24803188},"id":"13009"},{"arcs":[[221,222,-107,-217]],"type":"Polygon","properties":{"STATEFP":"13","COUNTYFP":"049","COUNTYNS":"00357747","GEOIDFQ":"0500000US13049","GEOID":"13049","NAME":"Charlton","NAMELSAD":"Charlton County","STUSPS":"GA","STATE_NAME":"Georgia","LSAD":"06","ALAND":2020432416,"AWATER":5946470},"id":"13049"},{"arcs":[[-59,223,224,225,226,227,228,-168]],"type":"Polygon","properties":{"STATEFP":"13","COUNTYFP":"153","COUNTYNS":"01671693","GEOIDFQ":"0500000US13153","GEOID":"13153","NAME":"Houston","NAMELSAD":"Houston County","STUSPS":"GA","STATE_NAME":"Georgia","LSAD":"06","ALAND":974239106,"AWATER":9706193},"id":"13153"},{"arcs":[[229,-214,230,-101,231,232]],"type":"Polygon","properties":{"STATEFP":"13","COUNTYFP":"105","COUNTYNS":"00347828","GEOIDFQ":"0500000US13105","GEOID":"13105","NAME":"Elbert","NAMELSAD":"Elbert County","STUSPS":"GA","STATE_NAME":"Georgia","LSAD":"06","ALAND":909358455,"AWATER":59857015},"id":"13105"},{"arcs":[[-175,233,234,235,236]],"type":"Polygon","properties":{"STATEFP":"13","COUNTYFP":"013","COUNTYNS":"00356976","GEOIDFQ":"0500000US13013","GEOID":"13013","NAME":"Barrow","NAMELSAD":"Barrow County","STUSPS":"GA","STATE_NAME":"Georgia","LSAD":"06","ALAND":417261505,"AWATER":4725595},"id":"13013"},{"arcs":[[-34,-167,237,-115,-90]],"type":"Polygon","properties":{"STATEFP":"13","COUNTYFP":"245","COUNTYNS":"00358024","GEOIDFQ":"0500000US13245","GEOID":"13245","NAME":"Richmond","NAMELSAD":"Richmond County","STUSPS":"GA","STATE_NAME":"Georgia","LSAD":"06","ALAND":840088197,"AWATER":10943648},"id":"13245"},{"arcs":[[-58,238,239,240,-224]],"type":"Polygon","properties":{"STATEFP":"13","COUNTYFP":"023","COUNTYNS":"00347451","GEOIDFQ":"0500000US13023","GEOID":"13023","NAME":"Bleckley","NAMELSAD":"Bleckley County","STUSPS":"GA","STATE_NAME":"Georgia","LSAD":"06","ALAND":559122130,"AWATER":8425411},"id":"13023"},{"arcs":[[-62,241,242,243,244,245,246]],"type":"Polygon","properties":{"STATEFP":"13","COUNTYFP":"263","COUNTYNS":"00326757","GEOIDFQ":"0500000US13263","GEOID":"13263","NAME":"Talbot","NAMELSAD":"Talbot County","STUSPS":"GA","STATE_NAME":"Georgia","LSAD":"06","ALAND":1013662781,"AWATER":8766848},"id":"13263"},{"arcs":[[-139,247,248,249,250,251,252]],"type":"Polygon","properties":{"STATEFP":"13","COUNTYFP":"019","COUNTYNS":"00326638","GEOIDFQ":"0500000US13019","GEOID":"13019","NAME":"Berrien","NAMELSAD":"Berrien County","STUSPS":"GA","STATE_NAME":"Georgia","LSAD":"06","ALAND":1174239575,"AWATER":11671125},"id":"13019"},{"arcs":[[-92,-119,253,-208,254,-205,255,256]],"type":"Polygon","properties":{"STATEFP":"13","COUNTYFP":"107","COUNTYNS":"00347508","GEOIDFQ":"0500000US13107","GEOID":"13107","NAME":"Emanuel","NAMELSAD":"Emanuel County","STUSPS":"GA","STATE_NAME":"Georgia","LSAD":"06","ALAND":1762679432,"AWATER":24889123},"id":"13107"},{"arcs":[[-187,257,258,259,260,261]],"type":"Polygon","properties":{"STATEFP":"13","COUNTYFP":"271","COUNTYNS":"00356958","GEOIDFQ":"0500000US13271","GEOID":"13271","NAME":"Telfair","NAMELSAD":"Telfair County","STUSPS":"GA","STATE_NAME":"Georgia","LSAD":"06","ALAND":1132621092,"AWATER":17356399},"id":"13271"},{"arcs":[[[262,263,264,265,-137]],[[266,-143]]],"type":"MultiPolygon","properties":{"STATEFP":"13","COUNTYFP":"027","COUNTYNS":"00345518","GEOIDFQ":"0500000US13027","GEOID":"13027","NAME":"Brooks","NAMELSAD":"Brooks County","STUSPS":"GA","STATE_NAME":"Georgia","LSAD":"06","ALAND":1277341890,"AWATER":11955148},"id":"13027"},{"arcs":[[-21,-75,267,-172,-97,-28]],"type":"Polygon","properties":{"STATEFP":"13","COUNTYFP":"133","COUNTYNS":"00348672","GEOIDFQ":"0500000US13133","GEOID":"13133","NAME":"Greene","NAMELSAD":"Greene County","STUSPS":"GA","STATE_NAME":"Georgia","LSAD":"06","ALAND":1003664493,"AWATER":48417220},"id":"13133"},{"arcs":[[-105,268,269,270,-218]],"type":"Polygon","properties":{"STATEFP":"13","COUNTYFP":"127","COUNTYNS":"01671513","GEOIDFQ":"0500000US13127","GEOID":"13127","NAME":"Glynn","NAMELSAD":"Glynn County","STUSPS":"GA","STATE_NAME":"Georgia","LSAD":"06","ALAND":1086814714,"AWATER":429147361},"id":"13127"},{"arcs":[[-158,271,272,273,274,275,276]],"type":"Polygon","properties":{"STATEFP":"13","COUNTYFP":"045","COUNTYNS":"00326650","GEOIDFQ":"0500000US13045","GEOID":"13045","NAME":"Carroll","NAMELSAD":"Carroll County","STUSPS":"GA","STATE_NAME":"Georgia","LSAD":"06","ALAND":1292704615,"AWATER":11882832},"id":"13045"},{"arcs":[[-47,-164,277,-129,278]],"type":"Polygon","properties":{"STATEFP":"13","COUNTYFP":"063","COUNTYNS":"01672399","GEOIDFQ":"0500000US13063","GEOID":"13063","NAME":"Clayton","NAMELSAD":"Clayton County","STUSPS":"GA","STATE_NAME":"Georgia","LSAD":"06","ALAND":367009135,"AWATER":6914194},"id":"13063"},{"arcs":[[-140,-253,279,280,281]],"type":"Polygon","properties":{"STATEFP":"13","COUNTYFP":"173","COUNTYNS":"00348102","GEOIDFQ":"0500000US13173","GEOID":"13173","NAME":"Lanier","NAMELSAD":"Lanier County","STUSPS":"GA","STATE_NAME":"Georgia","LSAD":"06","ALAND":509028468,"AWATER":8421165},"id":"13173"},{"arcs":[[-228,282,283,284,285]],"type":"Polygon","properties":{"STATEFP":"13","COUNTYFP":"225","COUNTYNS":"00343153","GEOIDFQ":"0500000US13225","GEOID":"13225","NAME":"Peach","NAMELSAD":"Peach County","STUSPS":"GA","STATE_NAME":"Georgia","LSAD":"06","ALAND":389233782,"AWATER":2678497},"id":"13225"},{"arcs":[[-132,286,287,288,-265,289]],"type":"Polygon","properties":{"STATEFP":"13","COUNTYFP":"071","COUNTYNS":"00343936","GEOIDFQ":"0500000US13071","GEOID":"13071","NAME":"Colquitt","NAMELSAD":"Colquitt County","STUSPS":"GA","STATE_NAME":"Georgia","LSAD":"06","ALAND":1416897847,"AWATER":24790675},"id":"13071"},{"arcs":[[-275,290,291,292]],"type":"Polygon","properties":{"STATEFP":"13","COUNTYFP":"143","COUNTYNS":"00350637","GEOIDFQ":"0500000US13143","GEOID":"13143","NAME":"Haralson","NAMELSAD":"Haralson County","STUSPS":"GA","STATE_NAME":"Georgia","LSAD":"06","ALAND":730804593,"AWATER":2616531},"id":"13143"},{"arcs":[[-38,293,294,295,296,297]],"type":"Polygon","properties":{"STATEFP":"13","COUNTYFP":"037","COUNTYNS":"00344074","GEOIDFQ":"0500000US13037","GEOID":"13037","NAME":"Calhoun","NAMELSAD":"Calhoun County","STUSPS":"GA","STATE_NAME":"Georgia","LSAD":"06","ALAND":726191507,"AWATER":8271470},"id":"13037"},{"arcs":[[-1,-212,-182,298,-44]],"type":"Polygon","properties":{"STATEFP":"13","COUNTYFP":"281","COUNTYNS":"00351252","GEOIDFQ":"0500000US13281","GEOID":"13281","NAME":"Towns","NAMELSAD":"Towns County","STUSPS":"GA","STATE_NAME":"Georgia","LSAD":"06","ALAND":431481650,"AWATER":13450639},"id":"13281"},{"arcs":[[-125,299,300,301,-191]],"type":"Polygon","properties":{"STATEFP":"13","COUNTYFP":"247","COUNTYNS":"00357592","GEOIDFQ":"0500000US13247","GEOID":"13247","NAME":"Rockdale","NAMELSAD":"Rockdale County","STUSPS":"GA","STATE_NAME":"Georgia","LSAD":"06","ALAND":336228524,"AWATER":5899671},"id":"13247"},{"arcs":[[-73,302,303,304,-194,305]],"type":"Polygon","properties":{"STATEFP":"13","COUNTYFP":"159","COUNTYNS":"00346144","GEOIDFQ":"0500000US13159","GEOID":"13159","NAME":"Jasper","NAMELSAD":"Jasper County","STUSPS":"GA","STATE_NAME":"Georgia","LSAD":"06","ALAND":954167638,"AWATER":13100767},"id":"13159"},{"arcs":[[-41,-135,306,307,308,309]],"type":"Polygon","properties":{"STATEFP":"13","COUNTYFP":"087","COUNTYNS":"00352234","GEOIDFQ":"0500000US13087","GEOID":"13087","NAME":"Decatur","NAMELSAD":"Decatur County","STUSPS":"GA","STATE_NAME":"Georgia","LSAD":"06","ALAND":1546842856,"AWATER":67154652},"id":"13087"},{"arcs":[[-124,-278,-163,310,-300]],"type":"Polygon","properties":{"STATEFP":"13","COUNTYFP":"089","COUNTYNS":"01687424","GEOIDFQ":"0500000US13089","GEOID":"13089","NAME":"DeKalb","NAMELSAD":"DeKalb County","STUSPS":"GA","STATE_NAME":"Georgia","LSAD":"06","ALAND":693248803,"AWATER":8848778},"id":"13089"},{"arcs":[[-9,311,312,313,-236]],"type":"Polygon","properties":{"STATEFP":"13","COUNTYFP":"157","COUNTYNS":"00349570","GEOIDFQ":"0500000US13157","GEOID":"13157","NAME":"Jackson","NAMELSAD":"Jackson County","STUSPS":"GA","STATE_NAME":"Georgia","LSAD":"06","ALAND":879817681,"AWATER":8785542},"id":"13157"},{"arcs":[[-169,-229,-286,314,315,316]],"type":"Polygon","properties":{"STATEFP":"13","COUNTYFP":"079","COUNTYNS":"00342918","GEOIDFQ":"0500000US13079","GEOID":"13079","NAME":"Crawford","NAMELSAD":"Crawford County","STUSPS":"GA","STATE_NAME":"Georgia","LSAD":"06","ALAND":841524046,"AWATER":3986929},"id":"13079"},{"arcs":[[-244,317,318,319,320,-316,321]],"type":"Polygon","properties":{"STATEFP":"13","COUNTYFP":"293","COUNTYNS":"00346759","GEOIDFQ":"0500000US13293","GEOID":"13293","NAME":"Upson","NAMELSAD":"Upson County","STUSPS":"GA","STATE_NAME":"Georgia","LSAD":"06","ALAND":837774874,"AWATER":10585407},"id":"13293"},{"arcs":[[-260,322,323,324,325]],"type":"Polygon","properties":{"STATEFP":"13","COUNTYFP":"017","COUNTYNS":"00351606","GEOIDFQ":"0500000US13017","GEOID":"13017","NAME":"Ben Hill","NAMELSAD":"Ben Hill County","STUSPS":"GA","STATE_NAME":"Georgia","LSAD":"06","ALAND":647804330,"AWATER":9812173},"id":"13017"},{"arcs":[[-5,326,327,328,-312,-8]],"type":"Polygon","properties":{"STATEFP":"13","COUNTYFP":"011","COUNTYNS":"00349230","GEOIDFQ":"0500000US13011","GEOID":"13011","NAME":"Banks","NAMELSAD":"Banks County","STUSPS":"GA","STATE_NAME":"Georgia","LSAD":"06","ALAND":602578098,"AWATER":4635946},"id":"13011"},{"arcs":[[-4,329,330,-327]],"type":"Polygon","properties":{"STATEFP":"13","COUNTYFP":"257","COUNTYNS":"00350028","GEOIDFQ":"0500000US13257","GEOID":"13257","NAME":"Stephens","NAMELSAD":"Stephens County","STUSPS":"GA","STATE_NAME":"Georgia","LSAD":"06","ALAND":463250375,"AWATER":13039192},"id":"13257"},{"arcs":[[-155,331,332]],"type":"Polygon","properties":{"STATEFP":"13","COUNTYFP":"047","COUNTYNS":"00353230","GEOIDFQ":"0500000US13047","GEOID":"13047","NAME":"Catoosa","NAMELSAD":"Catoosa County","STUSPS":"GA","STATE_NAME":"Georgia","LSAD":"06","ALAND":419998920,"AWATER":771159},"id":"13047"},{"arcs":[[-93,-257,333,334,-148]],"type":"Polygon","properties":{"STATEFP":"13","COUNTYFP":"167","COUNTYNS":"00346664","GEOIDFQ":"0500000US13167","GEOID":"13167","NAME":"Johnson","NAMELSAD":"Johnson County","STUSPS":"GA","STATE_NAME":"Georgia","LSAD":"06","ALAND":784815224,"AWATER":9256633},"id":"13167"},{"arcs":[[-273,335,336,337]],"type":"Polygon","properties":{"STATEFP":"13","COUNTYFP":"149","COUNTYNS":"00347067","GEOIDFQ":"0500000US13149","GEOID":"13149","NAME":"Heard","NAMELSAD":"Heard County","STUSPS":"GA","STATE_NAME":"Georgia","LSAD":"06","ALAND":766567353,"AWATER":13263789},"id":"13149"},{"arcs":[[-292,338,339,340,341]],"type":"Polygon","properties":{"STATEFP":"13","COUNTYFP":"233","COUNTYNS":"00343585","GEOIDFQ":"0500000US13233","GEOID":"13233","NAME":"Polk","NAMELSAD":"Polk County","STUSPS":"GA","STATE_NAME":"Georgia","LSAD":"06","ALAND":803776464,"AWATER":4663881},"id":"13233"},{"arcs":[[-88,-159,-277,342]],"type":"Polygon","properties":{"STATEFP":"13","COUNTYFP":"097","COUNTYNS":"01686467","GEOIDFQ":"0500000US13097","GEOID":"13097","NAME":"Douglas","NAMELSAD":"Douglas County","STUSPS":"GA","STATE_NAME":"Georgia","LSAD":"06","ALAND":518350006,"AWATER":2379712},"id":"13097"},{"arcs":[[343,344,-281,345,346,347]],"type":"Polygon","properties":{"STATEFP":"13","COUNTYFP":"065","COUNTYNS":"00351285","GEOIDFQ":"0500000US13065","GEOID":"13065","NAME":"Clinch","NAMELSAD":"Clinch County","STUSPS":"GA","STATE_NAME":"Georgia","LSAD":"06","ALAND":2110841412,"AWATER":23291048},"id":"13065"},{"arcs":[[-13,348,349,-184,-211]],"type":"Polygon","properties":{"STATEFP":"13","COUNTYFP":"187","COUNTYNS":"00357196","GEOIDFQ":"0500000US13187","GEOID":"13187","NAME":"Lumpkin","NAMELSAD":"Lumpkin County","STUSPS":"GA","STATE_NAME":"Georgia","LSAD":"06","ALAND":728907046,"AWATER":3280374},"id":"13187"},{"arcs":[[-63,-247,350,351,352]],"type":"Polygon","properties":{"STATEFP":"13","COUNTYFP":"053","COUNTYNS":"00351012","GEOIDFQ":"0500000US13053","GEOID":"13053","NAME":"Chattahoochee","NAMELSAD":"Chattahoochee County","STUSPS":"GA","STATE_NAME":"Georgia","LSAD":"06","ALAND":644225831,"AWATER":6277089},"id":"13053"},{"arcs":[[-243,353,354,355,356,357,-318]],"type":"Polygon","properties":{"STATEFP":"13","COUNTYFP":"199","COUNTYNS":"00346892","GEOIDFQ":"0500000US13199","GEOID":"13199","NAME":"Meriwether","NAMELSAD":"Meriwether County","STUSPS":"GA","STATE_NAME":"Georgia","LSAD":"06","ALAND":1297342084,"AWATER":10832501},"id":"13199"},{"arcs":[[-133,-290,-264,358,359]],"type":"Polygon","properties":{"STATEFP":"13","COUNTYFP":"275","COUNTYNS":"00343835","GEOIDFQ":"0500000US13275","GEOID":"13275","NAME":"Thomas","NAMELSAD":"Thomas County","STUSPS":"GA","STATE_NAME":"Georgia","LSAD":"06","ALAND":1410603547,"AWATER":19634755},"id":"13275"},{"arcs":[[-61,360,361,-354,-242]],"type":"Polygon","properties":{"STATEFP":"13","COUNTYFP":"145","COUNTYNS":"00326700","GEOIDFQ":"0500000US13145","GEOID":"13145","NAME":"Harris","NAMELSAD":"Harris County","STUSPS":"GA","STATE_NAME":"Georgia","LSAD":"06","ALAND":1201301835,"AWATER":23649852},"id":"13145"},{"arcs":[[-48,-279,-128,362,363,364,-357,365]],"type":"Polygon","properties":{"STATEFP":"13","COUNTYFP":"255","COUNTYNS":"00353055","GEOIDFQ":"0500000US13255","GEOID":"13255","NAME":"Spalding","NAMELSAD":"Spalding County","STUSPS":"GA","STATE_NAME":"Georgia","LSAD":"06","ALAND":507565084,"AWATER":9372107},"id":"13255"},{"arcs":[[-250,366,367,-324,368]],"type":"Polygon","properties":{"STATEFP":"13","COUNTYFP":"155","COUNTYNS":"00352302","GEOIDFQ":"0500000US13155","GEOID":"13155","NAME":"Irwin","NAMELSAD":"Irwin County","STUSPS":"GA","STATE_NAME":"Georgia","LSAD":"06","ALAND":917795234,"AWATER":21756147},"id":"13155"},{"arcs":[[-19,-146,369,370,371]],"type":"Polygon","properties":{"STATEFP":"13","COUNTYFP":"005","COUNTYNS":"00344784","GEOIDFQ":"0500000US13005","GEOID":"13005","NAME":"Bacon","NAMELSAD":"Bacon County","STUSPS":"GA","STATE_NAME":"Georgia","LSAD":"06","ALAND":735776108,"AWATER":4500418},"id":"13005"},{"arcs":[[-225,-241,372,373,374]],"type":"Polygon","properties":{"STATEFP":"13","COUNTYFP":"235","COUNTYNS":"00347593","GEOIDFQ":"0500000US13235","GEOID":"13235","NAME":"Pulaski","NAMELSAD":"Pulaski County","STUSPS":"GA","STATE_NAME":"Georgia","LSAD":"06","ALAND":645583957,"AWATER":5046606},"id":"13235"},{"arcs":[[-174,375,-192,-302,376,-234]],"type":"Polygon","properties":{"STATEFP":"13","COUNTYFP":"297","COUNTYNS":"00351264","GEOIDFQ":"0500000US13297","GEOID":"13297","NAME":"Walton","NAMELSAD":"Walton County","STUSPS":"GA","STATE_NAME":"Georgia","LSAD":"06","ALAND":846461070,"AWATER":8234175},"id":"13297"},{"arcs":[[-189,377,-239,378,-334,379]],"type":"Polygon","properties":{"STATEFP":"13","COUNTYFP":"175","COUNTYNS":"00346568","GEOIDFQ":"0500000US13175","GEOID":"13175","NAME":"Laurens","NAMELSAD":"Laurens County","STUSPS":"GA","STATE_NAME":"Georgia","LSAD":"06","ALAND":2090990050,"AWATER":28838459},"id":"13175"},{"arcs":[[-127,-195,-305,380,381,-363]],"type":"Polygon","properties":{"STATEFP":"13","COUNTYFP":"035","COUNTYNS":"00352295","GEOIDFQ":"0500000US13035","GEOID":"13035","NAME":"Butts","NAMELSAD":"Butts County","STUSPS":"GA","STATE_NAME":"Georgia","LSAD":"06","ALAND":475741693,"AWATER":11282739},"id":"13035"},{"arcs":[[-196,382,383,-351,-246,384,385]],"type":"Polygon","properties":{"STATEFP":"13","COUNTYFP":"197","COUNTYNS":"00344107","GEOIDFQ":"0500000US13197","GEOID":"13197","NAME":"Marion","NAMELSAD":"Marion County","STUSPS":"GA","STATE_NAME":"Georgia","LSAD":"06","ALAND":947213848,"AWATER":3785944},"id":"13197"},{"arcs":[[-42,-310,386,387]],"type":"Polygon","properties":{"STATEFP":"13","COUNTYFP":"201","COUNTYNS":"00344088","GEOIDFQ":"0500000US13201","GEOID":"13201","NAME":"Miller","NAMELSAD":"Miller County","STUSPS":"GA","STATE_NAME":"Georgia","LSAD":"06","ALAND":731471757,"AWATER":3211332},"id":"13201"},{"arcs":[[-328,-331,388,389,390]],"type":"Polygon","properties":{"STATEFP":"13","COUNTYFP":"119","COUNTYNS":"00349324","GEOIDFQ":"0500000US13119","GEOID":"13119","NAME":"Franklin","NAMELSAD":"Franklin County","STUSPS":"GA","STATE_NAME":"Georgia","LSAD":"06","ALAND":676873019,"AWATER":12752863},"id":"13119"},{"arcs":[[391,-233,392,-390,393]],"type":"Polygon","properties":{"STATEFP":"13","COUNTYFP":"147","COUNTYNS":"01687995","GEOIDFQ":"0500000US13147","GEOID":"13147","NAME":"Hart","NAMELSAD":"Hart County","STUSPS":"GA","STATE_NAME":"Georgia","LSAD":"06","ALAND":601973864,"AWATER":63518171},"id":"13147"},{"arcs":[[-39,-298,394,395,396,-130]],"type":"Polygon","properties":{"STATEFP":"13","COUNTYFP":"095","COUNTYNS":"00351259","GEOIDFQ":"0500000US13095","GEOID":"13095","NAME":"Dougherty","NAMELSAD":"Dougherty County","STUSPS":"GA","STATE_NAME":"Georgia","LSAD":"06","ALAND":851186995,"AWATER":15349239},"id":"13095"},{"arcs":[[-57,397,-220,-149,-335,-379]],"type":"Polygon","properties":{"STATEFP":"13","COUNTYFP":"319","COUNTYNS":"00346824","GEOIDFQ":"0500000US13319","GEOID":"13319","NAME":"Wilkinson","NAMELSAD":"Wilkinson County","STUSPS":"GA","STATE_NAME":"Georgia","LSAD":"06","ALAND":1163481422,"AWATER":7063256},"id":"13319"},{"arcs":[[-20,-372,398,-258,-186,-112,-204]],"type":"Polygon","properties":{"STATEFP":"13","COUNTYFP":"161","COUNTYNS":"01687999","GEOIDFQ":"0500000US13161","GEOID":"13161","NAME":"Jeff Davis","NAMELSAD":"Jeff Davis County","STUSPS":"GA","STATE_NAME":"Georgia","LSAD":"06","ALAND":857075893,"AWATER":11600966},"id":"13161"},{"arcs":[[-108,-223,399,-347,400,401,-370,-145]],"type":"Polygon","properties":{"STATEFP":"13","COUNTYFP":"299","COUNTYNS":"00357722","GEOIDFQ":"0500000US13299","GEOID":"13299","NAME":"Ware","NAMELSAD":"Ware County","STUSPS":"GA","STATE_NAME":"Georgia","LSAD":"06","ALAND":2329333046,"AWATER":22342877},"id":"13299"},{"arcs":[[-131,-397,402,403,404,405,-287]],"type":"Polygon","properties":{"STATEFP":"13","COUNTYFP":"321","COUNTYNS":"00343365","GEOIDFQ":"0500000US13321","GEOID":"13321","NAME":"Worth","NAMELSAD":"Worth County","STUSPS":"GA","STATE_NAME":"Georgia","LSAD":"06","ALAND":1478106951,"AWATER":10502443},"id":"13321"},{"arcs":[[406,407,408,-295,409,410]],"type":"Polygon","properties":{"STATEFP":"13","COUNTYFP":"061","COUNTYNS":"00344805","GEOIDFQ":"0500000US13061","GEOID":"13061","NAME":"Clay","NAMELSAD":"Clay County","STUSPS":"GA","STATE_NAME":"Georgia","LSAD":"06","ALAND":506093893,"AWATER":56546964},"id":"13061"},{"arcs":[[-66,-255,-207,411]],"type":"Polygon","properties":{"STATEFP":"13","COUNTYFP":"043","COUNTYNS":"00342852","GEOIDFQ":"0500000US13043","GEOID":"13043","NAME":"Candler","NAMELSAD":"Candler County","STUSPS":"GA","STATE_NAME":"Georgia","LSAD":"06","ALAND":629530565,"AWATER":15008470},"id":"13043"},{"arcs":[[-252,412,-401,-346,-280]],"type":"Polygon","properties":{"STATEFP":"13","COUNTYFP":"003","COUNTYNS":"00345784","GEOIDFQ":"0500000US13003","GEOID":"13003","NAME":"Atkinson","NAMELSAD":"Atkinson County","STUSPS":"GA","STATE_NAME":"Georgia","LSAD":"06","ALAND":887642157,"AWATER":4696298},"id":"13003"},{"arcs":[[-199,413,-226,-375,414,415]],"type":"Polygon","properties":{"STATEFP":"13","COUNTYFP":"093","COUNTYNS":"00351608","GEOIDFQ":"0500000US13093","GEOID":"13093","NAME":"Dooly","NAMELSAD":"Dooly County","STUSPS":"GA","STATE_NAME":"Georgia","LSAD":"06","ALAND":1016910346,"AWATER":12140184},"id":"13093"},{"arcs":[[-319,-358,-365,416]],"type":"Polygon","properties":{"STATEFP":"13","COUNTYFP":"231","COUNTYNS":"00346482","GEOIDFQ":"0500000US13231","GEOID":"13231","NAME":"Pike","NAMELSAD":"Pike County","STUSPS":"GA","STATE_NAME":"Georgia","LSAD":"06","ALAND":559660484,"AWATER":8595984},"id":"13231"},{"arcs":[[-340,417,418,419,420,421]],"type":"Polygon","properties":{"STATEFP":"13","COUNTYFP":"115","COUNTYNS":"00353665","GEOIDFQ":"0500000US13115","GEOID":"13115","NAME":"Floyd","NAMELSAD":"Floyd County","STUSPS":"GA","STATE_NAME":"Georgia","LSAD":"06","ALAND":1320459232,"AWATER":22359373},"id":"13115"},{"arcs":[[-49,-366,-356,422,-336,-272,-157]],"type":"Polygon","properties":{"STATEFP":"13","COUNTYFP":"077","COUNTYNS":"00326666","GEOIDFQ":"0500000US13077","GEOID":"13077","NAME":"Coweta","NAMELSAD":"Coweta County","STUSPS":"GA","STATE_NAME":"Georgia","LSAD":"06","ALAND":1142225857,"AWATER":12624271},"id":"13077"},{"arcs":[[423,424,-419,425]],"type":"Polygon","properties":{"STATEFP":"13","COUNTYFP":"055","COUNTYNS":"00352213","GEOIDFQ":"0500000US13055","GEOID":"13055","NAME":"Chattooga","NAMELSAD":"Chattooga County","STUSPS":"GA","STATE_NAME":"Georgia","LSAD":"06","ALAND":811512397,"AWATER":570806},"id":"13055"},{"arcs":[[-12,426,427,428,-121,429,-349]],"type":"Polygon","properties":{"STATEFP":"13","COUNTYFP":"085","COUNTYNS":"00351312","GEOIDFQ":"0500000US13085","GEOID":"13085","NAME":"Dawson","NAMELSAD":"Dawson County","STUSPS":"GA","STATE_NAME":"Georgia","LSAD":"06","ALAND":546042253,"AWATER":9272655},"id":"13085"},{"arcs":[[-337,-423,-355,-362,430]],"type":"Polygon","properties":{"STATEFP":"13","COUNTYFP":"285","COUNTYNS":"01673298","GEOIDFQ":"0500000US13285","GEOID":"13285","NAME":"Troup","NAMELSAD":"Troup County","STUSPS":"GA","STATE_NAME":"Georgia","LSAD":"06","ALAND":1072316354,"AWATER":82719611},"id":"13285"},{"arcs":[[431,-185,-350,-430,-120,-81,432]],"type":"Polygon","properties":{"STATEFP":"13","COUNTYFP":"111","COUNTYNS":"00351094","GEOIDFQ":"0500000US13111","GEOID":"13111","NAME":"Fannin","NAMELSAD":"Fannin County","STUSPS":"GA","STATE_NAME":"Georgia","LSAD":"06","ALAND":1002600776,"AWATER":13470320},"id":"13111"},{"arcs":[[-24,-110,-95,-147]],"type":"Polygon","properties":{"STATEFP":"13","COUNTYFP":"125","COUNTYNS":"00345642","GEOIDFQ":"0500000US13125","GEOID":"13125","NAME":"Glascock","NAMELSAD":"Glascock County","STUSPS":"GA","STATE_NAME":"Georgia","LSAD":"06","ALAND":372299252,"AWATER":1832723},"id":"13125"},{"arcs":[[-85,433,-341,-422,434,435]],"type":"Polygon","properties":{"STATEFP":"13","COUNTYFP":"015","COUNTYNS":"00351604","GEOIDFQ":"0500000US13015","GEOID":"13015","NAME":"Bartow","NAMELSAD":"Bartow County","STUSPS":"GA","STATE_NAME":"Georgia","LSAD":"06","ALAND":1188576969,"AWATER":27365997},"id":"13015"},{"arcs":[[436,-352,-384,437,438,439]],"type":"Polygon","properties":{"STATEFP":"13","COUNTYFP":"259","COUNTYNS":"00347360","GEOIDFQ":"0500000US13259","GEOID":"13259","NAME":"Stewart","NAMELSAD":"Stewart County","STUSPS":"GA","STATE_NAME":"Georgia","LSAD":"06","ALAND":1188198306,"AWATER":12553229},"id":"13259"},{"arcs":[[-201,440,-403,-396,441]],"type":"Polygon","properties":{"STATEFP":"13","COUNTYFP":"177","COUNTYNS":"00343390","GEOIDFQ":"0500000US13177","GEOID":"13177","NAME":"Lee","NAMELSAD":"Lee County","STUSPS":"GA","STATE_NAME":"Georgia","LSAD":"06","ALAND":921808914,"AWATER":15232856},"id":"13177"},{"arcs":[[442,443,-387,-309]],"type":"Polygon","properties":{"STATEFP":"13","COUNTYFP":"253","COUNTYNS":"00351263","GEOIDFQ":"0500000US13253","GEOID":"13253","NAME":"Seminole","NAMELSAD":"Seminole County","STUSPS":"GA","STATE_NAME":"Georgia","LSAD":"06","ALAND":615253334,"AWATER":49223633},"id":"13253"},{"arcs":[[-251,-369,-323,-259,-399,-371,-402,-413]],"type":"Polygon","properties":{"STATEFP":"13","COUNTYFP":"069","COUNTYNS":"00347456","GEOIDFQ":"0500000US13069","GEOID":"13069","NAME":"Coffee","NAMELSAD":"Coffee County","STUSPS":"GA","STATE_NAME":"Georgia","LSAD":"06","ALAND":1533953524,"AWATER":26902591},"id":"13069"},{"arcs":[[-320,-417,-364,-382,444]],"type":"Polygon","properties":{"STATEFP":"13","COUNTYFP":"171","COUNTYNS":"00326713","GEOIDFQ":"0500000US13171","GEOID":"13171","NAME":"Lamar","NAMELSAD":"Lamar County","STUSPS":"GA","STATE_NAME":"Georgia","LSAD":"06","ALAND":475264402,"AWATER":6044329},"id":"13171"},{"arcs":[[-325,-368,445,-405,446,447]],"type":"Polygon","properties":{"STATEFP":"13","COUNTYFP":"287","COUNTYNS":"00343238","GEOIDFQ":"0500000US13287","GEOID":"13287","NAME":"Turner","NAMELSAD":"Turner County","STUSPS":"GA","STATE_NAME":"Georgia","LSAD":"06","ALAND":739289382,"AWATER":11756469},"id":"13287"},{"arcs":[[-170,-317,-321,-445,-381,-304,448]],"type":"Polygon","properties":{"STATEFP":"13","COUNTYFP":"207","COUNTYNS":"00343073","GEOIDFQ":"0500000US13207","GEOID":"13207","NAME":"Monroe","NAMELSAD":"Monroe County","STUSPS":"GA","STATE_NAME":"Georgia","LSAD":"06","ALAND":1025872450,"AWATER":5643846},"id":"13207"},{"arcs":[[-134,-360,449,-307]],"type":"Polygon","properties":{"STATEFP":"13","COUNTYFP":"131","COUNTYNS":"00351261","GEOIDFQ":"0500000US13131","GEOID":"13131","NAME":"Grady","NAMELSAD":"Grady County","STUSPS":"GA","STATE_NAME":"Georgia","LSAD":"06","ALAND":1177056240,"AWATER":15021845},"id":"13131"},{"arcs":[[-118,-180,-209,-254]],"type":"Polygon","properties":{"STATEFP":"13","COUNTYFP":"165","COUNTYNS":"00342985","GEOIDFQ":"0500000US13165","GEOID":"13165","NAME":"Jenkins","NAMELSAD":"Jenkins County","STUSPS":"GA","STATE_NAME":"Georgia","LSAD":"06","ALAND":899705944,"AWATER":13195935},"id":"13165"},{"arcs":[[[-245,-322,-315,450,451,452,-385]],[[-284,453,454]]],"type":"MultiPolygon","properties":{"STATEFP":"13","COUNTYFP":"269","COUNTYNS":"00344156","GEOIDFQ":"0500000US13269","GEOID":"13269","NAME":"Taylor","NAMELSAD":"Taylor County","STUSPS":"GA","STATE_NAME":"Georgia","LSAD":"06","ALAND":975613073,"AWATER":7801539},"id":"13269"},{"arcs":[[-89,-343,-276,-293,-342,-434]],"type":"Polygon","properties":{"STATEFP":"13","COUNTYFP":"223","COUNTYNS":"00349912","GEOIDFQ":"0500000US13223","GEOID":"13223","NAME":"Paulding","NAMELSAD":"Paulding County","STUSPS":"GA","STATE_NAME":"Georgia","LSAD":"06","ALAND":809073019,"AWATER":5212127},"id":"13223"},{"arcs":[[-202,-442,-395,-297,455,456]],"type":"Polygon","properties":{"STATEFP":"13","COUNTYFP":"273","COUNTYNS":"00352238","GEOIDFQ":"0500000US13273","GEOID":"13273","NAME":"Terrell","NAMELSAD":"Terrell County","STUSPS":"GA","STATE_NAME":"Georgia","LSAD":"06","ALAND":869695790,"AWATER":4951325},"id":"13273"},{"arcs":[[-203,-457,457,-438,-383]],"type":"Polygon","properties":{"STATEFP":"13","COUNTYFP":"307","COUNTYNS":"00352287","GEOIDFQ":"0500000US13307","GEOID":"13307","NAME":"Webster","NAMELSAD":"Webster County","STUSPS":"GA","STATE_NAME":"Georgia","LSAD":"06","ALAND":543010090,"AWATER":2338844},"id":"13307"},{"arcs":[[458,459,460,-332,-154,461,-420,-425]],"type":"Polygon","properties":{"STATEFP":"13","COUNTYFP":"295","COUNTYNS":"00354216","GEOIDFQ":"0500000US13295","GEOID":"13295","NAME":"Walker","NAMELSAD":"Walker County","STUSPS":"GA","STATE_NAME":"Georgia","LSAD":"06","ALAND":1155874767,"AWATER":1672676},"id":"13295"},{"arcs":[[[-198,462,-452,-454,-283,-227,-414]],[[-285,-455,-451]]],"type":"MultiPolygon","properties":{"STATEFP":"13","COUNTYFP":"193","COUNTYNS":"00346957","GEOIDFQ":"0500000US13193","GEOID":"13193","NAME":"Macon","NAMELSAD":"Macon County","STUSPS":"GA","STATE_NAME":"Georgia","LSAD":"06","ALAND":1037709939,"AWATER":13841916},"id":"13193"},{"arcs":[[463,-440,464,-408]],"type":"Polygon","properties":{"STATEFP":"13","COUNTYFP":"239","COUNTYNS":"00350547","GEOIDFQ":"0500000US13239","GEOID":"13239","NAME":"Quitman","NAMELSAD":"Quitman County","STUSPS":"GA","STATE_NAME":"Georgia","LSAD":"06","ALAND":391714544,"AWATER":24146826},"id":"13239"},{"arcs":[[-43,-388,-444,465,-410,-294]],"type":"Polygon","properties":{"STATEFP":"13","COUNTYFP":"099","COUNTYNS":"00345041","GEOIDFQ":"0500000US13099","GEOID":"13099","NAME":"Early","NAMELSAD":"Early County","STUSPS":"GA","STATE_NAME":"Georgia","LSAD":"06","ALAND":1327626626,"AWATER":9702714},"id":"13099"},{"arcs":[[-200,-416,466,-447,-404,-441]],"type":"Polygon","properties":{"STATEFP":"13","COUNTYFP":"081","COUNTYNS":"00351607","GEOIDFQ":"0500000US13081","GEOID":"13081","NAME":"Crisp","NAMELSAD":"Crisp County","STUSPS":"GA","STATE_NAME":"Georgia","LSAD":"06","ALAND":706242198,"AWATER":21403839},"id":"13081"},{"arcs":[[-122,-429,467,468]],"type":"Polygon","properties":{"STATEFP":"13","COUNTYFP":"227","COUNTYNS":"01673011","GEOIDFQ":"0500000US13227","GEOID":"13227","NAME":"Pickens","NAMELSAD":"Pickens County","STUSPS":"GA","STATE_NAME":"Georgia","LSAD":"06","ALAND":601019213,"AWATER":1690669},"id":"13227"},{"arcs":[[-56,-171,-449,-303,-72,-221,-398]],"type":"Polygon","properties":{"STATEFP":"13","COUNTYFP":"169","COUNTYNS":"00345367","GEOIDFQ":"0500000US13169","GEOID":"13169","NAME":"Jones","NAMELSAD":"Jones County","STUSPS":"GA","STATE_NAME":"Georgia","LSAD":"06","ALAND":1020304153,"AWATER":3820256},"id":"13169"},{"arcs":[[-99,-176,-237,-314,469]],"type":"Polygon","properties":{"STATEFP":"13","COUNTYFP":"059","COUNTYNS":"01672699","GEOIDFQ":"0500000US13059","GEOID":"13059","NAME":"Clarke","NAMELSAD":"Clarke County","STUSPS":"GA","STATE_NAME":"Georgia","LSAD":"06","ALAND":308985554,"AWATER":4776726},"id":"13059"},{"arcs":[[470,-460]],"type":"Polygon","properties":{"STATEFP":"13","COUNTYFP":"083","COUNTYNS":"00347465","GEOIDFQ":"0500000US13083","GEOID":"13083","NAME":"Dade","NAMELSAD":"Dade County","STUSPS":"GA","STATE_NAME":"Georgia","LSAD":"06","ALAND":450855119,"AWATER":488463},"id":"13083"},{"arcs":[[-55,-79,-67,-412,-206]],"type":"Polygon","properties":{"STATEFP":"13","COUNTYFP":"109","COUNTYNS":"00345923","GEOIDFQ":"0500000US13109","GEOID":"13109","NAME":"Evans","NAMELSAD":"Evans County","STUSPS":"GA","STATE_NAME":"Georgia","LSAD":"06","ALAND":473690215,"AWATER":10299805},"id":"13109"},{"arcs":[[-86,-436,-468,-428,471,-160]],"type":"Polygon","properties":{"STATEFP":"13","COUNTYFP":"057","COUNTYNS":"01685718","GEOIDFQ":"0500000US13057","GEOID":"13057","NAME":"Cherokee","NAMELSAD":"Cherokee County","STUSPS":"GA","STATE_NAME":"Georgia","LSAD":"06","ALAND":1090270941,"AWATER":34407819},"id":"13057"},{"arcs":[[-83,-123,-469,-435,-421,-462,-153]],"type":"Polygon","properties":{"STATEFP":"13","COUNTYFP":"129","COUNTYNS":"00356672","GEOIDFQ":"0500000US13129","GEOID":"13129","NAME":"Gordon","NAMELSAD":"Gordon County","STUSPS":"GA","STATE_NAME":"Georgia","LSAD":"06","ALAND":923219312,"AWATER":5732776},"id":"13129"},{"arcs":[[-188,-262,472,-373,-240,-378]],"type":"Polygon","properties":{"STATEFP":"13","COUNTYFP":"091","COUNTYNS":"00348116","GEOIDFQ":"0500000US13091","GEOID":"13091","NAME":"Dodge","NAMELSAD":"Dodge County","STUSPS":"GA","STATE_NAME":"Georgia","LSAD":"06","ALAND":1284554870,"AWATER":18512260},"id":"13091"},{"arcs":[[-249,473,-288,-406,-446,-367]],"type":"Polygon","properties":{"STATEFP":"13","COUNTYFP":"277","COUNTYNS":"00344090","GEOIDFQ":"0500000US13277","GEOID":"13277","NAME":"Tift","NAMELSAD":"Tift County","STUSPS":"GA","STATE_NAME":"Georgia","LSAD":"06","ALAND":675702323,"AWATER":20458292},"id":"13277"},{"arcs":[[-11,474,-161,-472,-427]],"type":"Polygon","properties":{"STATEFP":"13","COUNTYFP":"117","COUNTYNS":"01673358","GEOIDFQ":"0500000US13117","GEOID":"13117","NAME":"Forsyth","NAMELSAD":"Forsyth County","STUSPS":"GA","STATE_NAME":"Georgia","LSAD":"06","ALAND":581754395,"AWATER":58405072},"id":"13117"},{"arcs":[[-69,-78,475,476]],"type":"Polygon","properties":{"STATEFP":"13","COUNTYFP":"183","COUNTYNS":"00326719","GEOIDFQ":"0500000US13183","GEOID":"13183","NAME":"Long","NAMELSAD":"Long County","STUSPS":"GA","STATE_NAME":"Georgia","LSAD":"06","ALAND":1037028629,"AWATER":8862019},"id":"13183"},{"arcs":[[-74,-306,-193,-376,-173,-268]],"type":"Polygon","properties":{"STATEFP":"13","COUNTYFP":"211","COUNTYNS":"00346008","GEOIDFQ":"0500000US13211","GEOID":"13211","NAME":"Morgan","NAMELSAD":"Morgan County","STUSPS":"GA","STATE_NAME":"Georgia","LSAD":"06","ALAND":899791090,"AWATER":18672325},"id":"13211"},{"arcs":[[-141,-282,-345,477]],"type":"Polygon","properties":{"STATEFP":"13","COUNTYFP":"101","COUNTYNS":"00348092","GEOIDFQ":"0500000US13101","GEOID":"13101","NAME":"Echols","NAMELSAD":"Echols County","STUSPS":"GA","STATE_NAME":"Georgia","LSAD":"06","ALAND":1088849470,"AWATER":809587},"id":"13101"},{"arcs":[[-261,-326,-448,-467,-415,-374,-473]],"type":"Polygon","properties":{"STATEFP":"13","COUNTYFP":"315","COUNTYNS":"00345499","GEOIDFQ":"0500000US13315","GEOID":"13315","NAME":"Wilcox","NAMELSAD":"Wilcox County","STUSPS":"GA","STATE_NAME":"Georgia","LSAD":"06","ALAND":978525379,"AWATER":11147628},"id":"13315"},{"arcs":[[-100,-470,-313,-329,-391,-393,-232]],"type":"Polygon","properties":{"STATEFP":"13","COUNTYFP":"195","COUNTYNS":"01688004","GEOIDFQ":"0500000US13195","GEOID":"13195","NAME":"Madison","NAMELSAD":"Madison County","STUSPS":"GA","STATE_NAME":"Georgia","LSAD":"06","ALAND":731214549,"AWATER":8448220},"id":"13195"},{"arcs":[[-77,478,-270,479,-476]],"type":"Polygon","properties":{"STATEFP":"13","COUNTYFP":"191","COUNTYNS":"00356886","GEOIDFQ":"0500000US13191","GEOID":"13191","NAME":"McIntosh","NAMELSAD":"McIntosh County","STUSPS":"GA","STATE_NAME":"Georgia","LSAD":"06","ALAND":1117184399,"AWATER":369178551},"id":"13191"},{"arcs":[[-296,-409,-465,-439,-458,-456]],"type":"Polygon","properties":{"STATEFP":"13","COUNTYFP":"243","COUNTYNS":"00352242","GEOIDFQ":"0500000US13243","GEOID":"13243","NAME":"Randolph","NAMELSAD":"Randolph County","STUSPS":"GA","STATE_NAME":"Georgia","LSAD":"06","ALAND":1109126227,"AWATER":6830041},"id":"13243"},{"arcs":[[-51,-210,-178,480,-151]],"type":"Polygon","properties":{"STATEFP":"13","COUNTYFP":"103","COUNTYNS":"00350219","GEOIDFQ":"0500000US13103","GEOID":"13103","NAME":"Effingham","NAMELSAD":"Effingham County","STUSPS":"GA","STATE_NAME":"Georgia","LSAD":"06","ALAND":1240312876,"AWATER":10401161},"id":"13103"},{"arcs":[[-17,-70,-477,-480,-269,-104,-144]],"type":"Polygon","properties":{"STATEFP":"13","COUNTYFP":"305","COUNTYNS":"00350608","GEOIDFQ":"0500000US13305","GEOID":"13305","NAME":"Wayne","NAMELSAD":"Wayne County","STUSPS":"GA","STATE_NAME":"Georgia","LSAD":"06","ALAND":1662287074,"AWATER":17768149},"id":"13305"},{"arcs":[[-30,-102,-231,-213,-37,-109]],"type":"Polygon","properties":{"STATEFP":"13","COUNTYFP":"317","COUNTYNS":"00351265","GEOIDFQ":"0500000US13317","GEOID":"13317","NAME":"Wilkes","NAMELSAD":"Wilkes County","STUSPS":"GA","STATE_NAME":"Georgia","LSAD":"06","ALAND":1216008875,"AWATER":11889477},"id":"13317"},{"arcs":[[-10,-235,-377,-301,-311,-162,-475]],"type":"Polygon","properties":{"STATEFP":"13","COUNTYFP":"135","COUNTYNS":"01688166","GEOIDFQ":"0500000US13135","GEOID":"13135","NAME":"Gwinnett","NAMELSAD":"Gwinnett County","STUSPS":"GA","STATE_NAME":"Georgia","LSAD":"06","ALAND":1116635239,"AWATER":15672305},"id":"13135"},{"arcs":[[-138,-266,-289,-474,-248]],"type":"Polygon","properties":{"STATEFP":"13","COUNTYFP":"075","COUNTYNS":"00343878","GEOIDFQ":"0500000US13075","GEOID":"13075","NAME":"Cook","NAMELSAD":"Cook County","STUSPS":"GA","STATE_NAME":"Georgia","LSAD":"06","ALAND":591733042,"AWATER":12259817},"id":"13075"},{"arcs":[[-197,-386,-453,-463]],"type":"Polygon","properties":{"STATEFP":"13","COUNTYFP":"249","COUNTYNS":"00344129","GEOIDFQ":"0500000US13249","GEOID":"13249","NAME":"Schley","NAMELSAD":"Schley County","STUSPS":"GA","STATE_NAME":"Georgia","LSAD":"06","ALAND":432291203,"AWATER":2369649},"id":"13249"},{"arcs":[[-114,-190,-380,-256]],"type":"Polygon","properties":{"STATEFP":"13","COUNTYFP":"283","COUNTYNS":"00347505","GEOIDFQ":"0500000US13283","GEOID":"13283","NAME":"Treutlen","NAMELSAD":"Treutlen County","STUSPS":"GA","STATE_NAME":"Georgia","LSAD":"06","ALAND":516524094,"AWATER":7810905},"id":"13283"}]}}}