{"type":"Topology","arcs":[[[1039,8715],[10,97],[87,91],[34,119],[19,29],[53,35],[92,29],[63,54],[56,32],[56,54],[50,9],[93,-43],[69,51],[52,-18],[24,9],[58,-24],[51,22],[55,-24],[96,-24],[56,-60],[50,-119],[-7,-110],[-46,-82],[-11,-55],[-25,-14],[-14,-77],[20,-176],[-40,-36],[-17,-44],[-56,-29],[-24,-39],[-124,-108],[-69,38],[-84,16],[-34,-12],[-108,25],[-35,28],[-41,-8],[-58,37],[-80,113],[-89,22],[-17,16],[-100,35],[-65,141]],[[0,8204],[28,44],[17,76],[52,47],[35,50],[115,58],[25,23],[25,59],[6,52],[42,21],[53,6],[39,-31],[-53,-105],[-15,-75],[18,-92],[-191,-82],[-75,-143],[-26,-98],[-62,32],[-14,36],[-19,122]],[[7342,6350],[37,-12],[30,19],[7,61],[44,12],[43,-109],[59,-13]],[[7562,6308],[43,-58],[-6,-40],[-37,-11],[-43,67],[-32,0],[-52,61],[-69,9],[-24,14]],[[4472,7449],[97,14],[183,-3],[72,7],[36,55],[95,101],[6,45],[121,126],[58,29],[37,-1],[67,-94],[22,-64],[26,-18],[-6,-59],[48,-66],[26,-62],[91,-86],[28,-64],[-1,-50],[-36,-7],[3,-53],[26,-86],[49,-6],[25,-54],[37,-28],[4,-32],[40,-1],[27,66],[-46,27],[34,36],[62,-40],[-20,-64],[24,-61],[41,-20],[23,-36],[-7,-56],[35,-77],[78,-63],[19,-32],[-79,-64],[-13,-32],[-41,-13],[0,49],[-23,20],[-102,-26],[-71,-50],[-44,-3],[-18,43],[-52,28],[-93,70],[-45,-9],[-92,1],[0,33],[-41,33],[-30,-32],[-164,-41],[-119,-16],[-22,18],[-65,208],[-48,54],[-24,8],[-16,84],[-54,82],[-63,69],[5,118],[-6,34],[-43,56],[-61,55]],[[7562,6308],[49,-14],[26,14],[43,-20],[141,39],[18,-18],[59,21],[70,-8],[8,-39],[61,-2],[-8,-41],[-54,-84],[-150,-131],[-34,-5],[-43,-32],[-49,5],[-38,-29],[-59,25],[-110,25],[-183,69],[-11,18],[-140,26],[-121,-34],[-19,4],[-217,-15],[-105,16],[-27,23],[23,37],[22,79],[90,97],[9,53],[-15,77],[35,-18],[96,-10],[22,-31],[69,-12],[60,2],[85,-13],[74,-26],[38,7],[65,-13]],[[8063,5604],[12,86],[59,137],[94,71],[83,25],[11,-34],[53,-13],[56,-81],[24,-57],[65,-94],[38,-91],[68,-3],[55,35],[95,18],[33,37],[108,50],[33,-21],[57,16],[95,-27],[29,-20],[0,-36],[138,-140],[51,-21],[32,4],[7,-52],[47,-50],[43,15],[70,-60],[41,-2],[87,-41],[35,-50],[4,-145],[-10,-38],[-57,-73],[-36,-8],[-41,-74],[-41,-17],[-32,13],[-73,-32],[-64,-60],[-35,22],[-51,-10],[-33,17],[-50,-15],[-47,-34],[-149,-78],[-53,5],[-115,-28],[-23,16],[-65,6],[-64,60],[3,47],[-33,44],[25,29],[-13,209],[-18,38],[-11,120],[-29,33],[-73,13],[-45,-53],[-27,-4],[-65,49],[-39,8],[-56,41],[-23,-6],[-126,150],[-27,72],[1,42],[-28,40]],[[8057,4519],[51,75],[73,24],[84,74],[47,28],[44,9],[34,-24],[33,-52],[-20,-31],[-14,-78],[51,-24],[-31,-46],[-50,12],[-46,-22],[-53,23],[-67,-32],[-13,30],[-46,-42],[-30,7],[-47,69]],[[7238,5563],[57,58],[110,18],[42,-16],[121,-10],[74,-43],[122,-135],[53,-96],[-1,-42],[-54,-111],[-29,-26],[-54,-16],[-54,-47],[-109,4],[-57,-12],[-43,60],[-23,94],[10,84],[-42,90],[-98,58],[-27,57],[2,31]],[[9510,2291],[17,17],[9,99],[25,43],[39,24],[46,52],[8,30],[56,63],[115,26],[-2,37],[40,50],[33,66],[1,46],[62,66],[10,30],[60,31],[21,150],[-47,81],[-47,55],[-61,138],[-30,197],[12,95],[38,74],[33,23],[70,6],[133,-70],[17,12],[91,-73],[14,-52],[90,-62],[77,-39],[39,-59],[60,-18],[43,-52],[75,28],[89,-39],[46,-9],[134,-54],[244,-152],[114,-54],[152,-123],[39,-54],[43,-22],[118,-132],[14,-49],[60,-51],[24,-80],[-24,-75],[15,-72],[-9,-136],[19,-30],[48,6],[45,35],[45,-15],[40,8],[24,-36],[34,-96],[-11,-44],[1,-82],[16,-32],[68,-31],[-4,-46],[48,-37],[53,-65],[120,-61],[88,-55],[10,-30],[-31,-104],[-34,-48],[-122,-129],[-46,-25],[-128,-135],[-14,-23],[-175,-100],[-51,-7],[-133,-105],[-62,-25],[-63,-5],[-16,-20],[-93,18],[-68,24],[-70,-20],[-56,-60],[-47,-32],[-19,-46],[-118,-74],[-36,-10],[-80,-99],[-116,-40],[-56,-65],[-66,-94],[7,-73],[-31,-64],[-24,-15],[-41,-79],[-12,-75],[-46,-2],[-18,-55],[-62,-71],[-64,-34],[-3,67],[-90,90],[-81,30],[-95,92],[-112,26],[-66,39],[-9,52],[-53,78],[-26,97],[0,55],[18,47],[22,269],[27,116],[5,158],[-28,90],[-27,52],[13,39],[-37,71],[-15,64],[9,63],[-60,15],[5,25],[-27,68],[9,35],[-40,199],[-62,94],[-72,52],[13,56],[-48,64],[-3,43],[-26,45]]],"transform":{"scale":[0.00044000080906148904,0.000357975733390854],"translate":[-160.245183,18.910361]},"objects":{"15":{"type":"GeometryCollection","geometries":[{"arcs":[[[0]],[[1]]],"type":"MultiPolygon","properties":{"STATEFP":"15","COUNTYFP":"007","COUNTYNS":"00365282","GEOIDFQ":"0500000US15007","GEOID":"15007","NAME":"Kauai","NAMELSAD":"Kauai County","STUSPS":"HI","STATE_NAME":"Hawaii","LSAD":"06","ALAND":1605377397,"AWATER":1674359172},"id":"15007"},{"arcs":[[2,3]],"type":"Polygon","properties":{"STATEFP":"15","COUNTYFP":"005","COUNTYNS":"01702380","GEOIDFQ":"0500000US15005","GEOID":"15005","NAME":"Kalawao","NAMELSAD":"Kalawao County","STUSPS":"HI","STATE_NAME":"Hawaii","LSAD":"06","ALAND":31057603,"AWATER":105764468},"id":"15005"},{"arcs":[[4]],"type":"Polygon","properties":{"STATEFP":"15","COUNTYFP":"003","COUNTYNS":"00365281","GEOIDFQ":"0500000US15003","GEOID":"15003","NAME":"Honolulu","NAMELSAD":"Honolulu County","STUSPS":"HI","STATE_NAME":"Hawaii","LSAD":"06","ALAND":1556040330,"AWATER":4054449312},"id":"15003"},{"arcs":[[[-4,5]],[[6]],[[7]],[[8]]],"type":"MultiPolygon","properties":{"STATEFP":"15","COUNTYFP":"009","COUNTYNS":"00365283","GEOIDFQ":"0500000US15009","GEOID":"15009","NAME":"Maui","NAMELSAD":"Maui County","STUSPS":"HI","STATE_NAME":"Hawaii","LSAD":"06","ALAND":3008374289,"AWATER":3203268772},"id":"15009"},{"arcs":[[9]],"type":"Polygon","properties":{"STATEFP":"15","COUNTYFP":"001","COUNTYNS":"00365280","GEOIDFQ":"0500000US15001","GEOID":"15001","NAME":"Hawaii","NAMELSAD":"Hawaii County","STUSPS":"HI","STATE_NAME":"Hawaii","LSAD":"06","ALAND":10433586949,"AWATER":2739520970},"id":"15001"}]}}}