{"type":"Topology","arcs":[[[1345,2027],[396,3],[0,157],[5,154],[0,469],[-1,82]],[[1745,2892],[56,30],[7,-23],[45,6],[30,-13],[39,30],[25,-4],[40,39],[25,37],[52,-3],[31,32],[43,14],[51,54],[10,-3],[25,61],[1,38],[16,46],[23,24],[28,6],[43,-8],[25,43],[-11,68],[51,65],[40,7],[63,28],[48,12],[24,15],[24,-9],[95,29],[15,45],[33,63],[25,20],[25,47],[8,43],[18,22],[-14,26],[35,14],[24,-27],[21,-63],[18,-103],[36,-23],[60,-52],[48,21],[56,-8]],[[3102,3538],[27,-20]],[[3129,3518],[-35,-43],[11,-52],[22,-25],[-23,-24]],[[3104,3374],[-16,-13],[-5,-41],[-21,-10],[-14,-47],[-17,-93],[17,-30],[20,-4],[9,-54],[-35,-34],[6,-31],[-10,-25],[6,-45],[-48,-36],[-21,4],[-1,-422],[-4,0],[1,-311]],[[2971,2182],[-1,-511],[67,-5]],[[3037,1666],[0,-259]],[[3037,1407],[-573,-1],[0,150],[17,0],[0,145],[-74,-9],[-48,30],[-42,-15],[-60,6],[-26,32],[-34,-4],[-64,-26],[-107,-1],[-34,24],[3,38],[-97,3],[-19,26],[-39,-12],[-26,34],[-49,-22],[-15,-33],[14,-26],[-23,-16],[-47,5],[-27,21],[-24,42],[-56,5],[-34,41],[-42,5],[6,37],[-83,27],[-7,39],[21,22],[-20,19],[-43,2],[-40,32]],[[7135,1865],[14,-56],[-15,-20],[-35,-12],[10,-42],[-29,3],[-34,-13],[-9,-58],[-22,-31],[19,-28],[4,-66],[18,-22],[-9,-37],[-17,0],[-8,-36],[10,-71],[32,-47],[12,-47],[29,-2],[38,36],[121,0],[12,-70],[19,-8],[0,-71],[27,0],[14,-33],[1,-167],[27,-1],[2,-63],[13,0],[1,-79],[13,0],[0,-52]],[[7393,772],[-27,0],[0,-158],[-2,-131],[-120,0],[0,53],[-196,-1]],[[7048,535],[-48,42],[-35,52],[-6,25],[-95,-1],[-6,-29],[-22,-32],[-67,23],[0,32],[52,90],[0,54],[-9,49],[-63,-12],[-4,35],[-27,0],[-26,39],[0,26],[-49,0]],[[6643,928],[0,98],[6,20],[34,0],[2,101],[14,40],[-53,0],[0,52],[-27,0],[-1,39],[-27,0],[0,65],[-54,0],[0,104],[-27,1],[1,214],[-22,36],[-21,12],[-4,33],[-59,34],[-12,-24],[-23,1],[-35,-34],[-75,-7],[-6,-22],[-43,-24],[-14,29],[16,17],[-25,24]],[[6188,1737],[20,40],[-8,28],[60,13],[24,29],[33,18],[657,-1],[161,1]],[[1203,8080],[68,-53],[16,-44],[153,0],[20,-20],[17,-55]],[[1477,7908],[24,-42],[36,-90],[74,-75],[34,-6],[49,-50],[-58,-28],[-46,-5],[-62,14],[-30,-19],[-17,-30],[-26,-18],[-4,-41],[-64,8],[-17,17],[-47,8],[-30,-12],[-38,31],[-52,-2],[-33,9],[-37,24],[-47,-17],[-4,-32],[-33,-57],[8,-30],[-25,-8],[-29,13],[0,-163],[-19,-39],[-2,-29],[-35,10],[-36,40],[-60,17],[-33,-13],[8,-44],[-20,-26],[-40,13],[-21,-5]],[[745,7231],[-1,436],[26,9],[-26,88],[-16,30],[1,31],[308,0],[-4,24],[33,22],[63,-15],[29,7],[46,-6],[11,32],[-10,100],[-48,45],[-11,49],[57,-3]],[[1495,4529],[-10,26],[-1,48],[-26,83],[19,70],[-10,39],[11,20],[17,82],[-36,42],[10,35],[-41,39],[-7,25],[12,27],[7,123],[15,43],[35,26],[7,72],[35,0],[24,61],[-30,45],[9,25],[33,29],[4,39],[17,20],[-33,20],[-37,7],[-6,53]],[[1513,5628],[11,53],[29,41],[54,-9],[67,44],[73,73],[13,-29],[-15,-15],[104,1],[467,0],[1195,2]],[[3511,5789],[-31,-17],[-22,-66],[15,-54],[-16,-48],[14,-95],[-7,-29],[7,-37],[-17,-60],[0,-42],[16,-26],[-17,-17],[13,-45],[-8,-34],[-50,-16],[9,-25],[-8,-30],[-37,-13],[-24,-47]],[[3348,5088],[-140,-92],[-19,-43],[-39,-23],[-33,16],[-44,-28],[-9,31],[-28,35],[-73,29],[-62,-43],[-21,-26],[17,-28],[-13,-22],[-5,-43],[-21,-53],[-40,-31],[-35,0],[-17,-16],[-63,-19],[-34,-57],[20,-66],[-6,-19],[20,-25],[58,-14],[14,-36],[6,-50],[-12,-8],[6,-64],[-25,-64],[-53,-76],[-14,-11]],[[2683,4242],[-50,22],[-25,-5],[-6,-82],[-45,-26],[-21,-53],[-21,13],[-56,-43],[-67,0],[-19,-14],[-712,0],[-91,2],[-5,-49],[-19,-72],[11,-39],[-60,6],[-80,0]],[[1417,3902],[1,312],[84,1],[0,314],[-7,0]],[[6643,928],[-108,0],[1,-157],[-215,1],[0,-158],[-477,-3]],[[5844,611],[-2,0],[0,315],[-2,156],[-238,2],[1,68],[-28,12],[-57,-15]],[[5518,1149],[0,90],[80,0],[0,157],[-80,0],[0,155],[-10,0],[1,474],[324,0]],[[5833,2025],[0,-447],[264,0],[13,35],[32,9],[6,47],[25,18],[-7,19],[22,31]],[[7900,20],[-465,-2],[-364,-1]],[[7071,17],[0,310],[54,0],[-1,124],[-17,13],[-21,44],[-21,-1],[-17,28]],[[7393,772],[189,0],[6,26],[25,0],[7,-27],[154,-1]],[[7774,770],[0,-44],[55,-49],[-13,-53],[-28,-17],[9,-27],[-6,-40],[28,-26],[-34,-19],[-32,-31],[1,-32],[-17,-37],[25,-96],[28,-22],[-12,-86],[111,-47],[11,-124]],[[473,5146],[378,-3],[1,-312],[34,-53],[-5,-39],[102,0],[0,-223],[167,-85],[149,0]],[[1299,4431],[-12,-38],[-16,-5],[-2,-59],[-20,-40],[6,-31],[-22,-48],[8,-20],[-3,-98],[-10,-34],[3,-49],[-11,-6],[4,-71],[-6,-30],[-129,0]],[[1089,3902],[-441,1],[-173,2]],[[475,3905],[3,33],[-41,37],[-64,10],[-6,82],[-77,11],[-34,-32],[-45,49],[-20,39],[-23,-4],[-25,-33],[-43,-1],[-65,53],[-4,24],[23,21],[19,42],[-9,18],[-54,50],[-10,41],[22,16],[16,39],[1,38],[-16,56],[44,37],[17,42],[28,4],[24,37],[-3,41],[29,28],[6,55],[31,47],[3,44],[21,16],[2,33],[24,26],[-1,37],[25,33],[42,21],[21,-1],[44,34],[44,15],[2,27],[47,76]],[[1644,10805],[26,-8],[65,-102],[24,-10],[64,-96],[25,-26],[26,11],[51,-62],[-3,-53],[31,-60],[29,11],[32,-28],[-5,-23],[72,-45],[13,-19],[-19,-72],[8,-22],[50,-34],[-4,-36],[12,-14],[-91,-78],[4,-19],[56,-34],[34,-69],[36,-13],[41,3],[-14,-36],[-50,-12],[-21,8],[-77,-28],[-16,-32],[52,3],[89,-46],[20,-41],[32,9],[58,-27],[3,-21],[36,-16],[28,-86],[85,-22],[13,-16],[43,4],[20,-29],[37,6],[35,-15],[50,-6],[9,-41],[25,-14],[10,-28],[-14,-30],[20,-18],[34,-3],[26,-56],[30,-3],[49,-36],[19,-40],[38,-9],[19,-60],[39,-38],[21,-3],[21,-36],[6,-56],[24,-25],[67,-17],[25,-41],[33,-29]],[[3145,8921],[-558,0],[-374,1],[-263,1],[-692,1]],[[1258,8924],[0,157]],[[1258,9081],[0,708]],[[1258,9789],[0,575],[0,284]],[[1258,10648],[0,230],[65,75],[68,18],[28,-31],[70,-55],[43,9],[36,-6],[23,-38],[35,-12],[18,-33]],[[7774,770],[22,56],[-29,72],[-9,42],[-16,16],[-17,94],[43,36],[324,0],[41,-15],[-5,-20],[32,-18],[54,-15],[35,63],[44,-27],[-20,-115],[-17,-25],[18,-28],[47,2],[53,-8],[5,26],[40,-17],[29,19],[26,-3],[38,19],[23,24]],[[8535,948],[-1,-297],[1,-627],[-372,-1],[-263,-3]],[[357,3413],[40,0],[0,-79],[56,0],[0,-26],[28,-1],[0,-25],[56,0],[0,-27],[82,0],[0,13],[55,0],[1,13],[55,0]],[[730,3281],[276,0]],[[1006,3281],[-1,-312],[55,0],[-1,-316],[-54,1],[-1,-158],[3,-147]],[[1007,2349],[-14,13],[-79,15],[-39,82],[-21,34],[-62,29],[-12,25],[-71,64],[-23,36],[-51,41],[0,92],[-25,34],[-17,46],[-45,37],[-33,-4],[-54,15],[-21,34],[-44,30],[-12,46],[-23,19],[-63,16]],[[298,3053],[0,230],[-9,39],[31,36],[-13,17],[49,14],[1,24]],[[3511,5789],[13,38],[34,55],[49,47],[23,12],[5,26],[-51,42],[-40,43],[-7,36],[-34,27],[-25,34],[-23,-2],[-35,30],[-15,40],[-31,4],[4,54],[-11,18],[14,65],[29,-2],[45,-39],[40,5],[34,-15],[20,-23],[21,27],[26,59],[50,27],[42,43]],[[3688,6440],[52,23],[40,-27],[46,9],[2,-28],[46,-28],[17,-36],[71,-34],[31,-56],[13,-1],[76,38],[26,30],[18,51],[-1,36],[29,1],[32,-18],[32,27],[61,11],[20,50],[33,4],[21,18],[1,26],[20,30],[72,64],[-17,23],[11,30],[35,19],[31,-1],[13,-23],[33,10],[26,-68],[33,-26],[-12,-39],[25,-8],[34,12],[25,-21],[49,-17],[14,-37],[-28,-39],[-23,-72],[43,4],[42,-16],[17,-60],[-32,-45],[13,-89],[34,-7],[20,-19],[7,-66],[-14,-21],[2,-28],[27,-23],[12,-26],[40,-40],[-16,-28],[48,-40],[29,-51],[62,-52],[-3,-32],[19,-33],[5,-30],[36,-34],[51,7],[10,-14],[-23,-29],[49,-33],[3,-20],[45,-8],[12,-178],[-30,-23],[-45,-11],[9,-31],[27,-27],[-8,-26],[23,-15],[8,-38],[37,-21],[9,-30],[52,0],[39,-32],[22,-63],[54,27],[29,22],[46,19],[12,-15],[39,-9],[41,-40],[66,-25],[-9,-23],[50,-56],[1,-42],[27,-41],[19,-8],[3,-53],[19,-23],[-8,-33],[-24,-8],[-17,-26],[28,-37],[40,-25],[-14,-31],[31,-18],[14,-39],[-15,-37],[27,-44],[2,-32],[74,-66],[29,-7],[38,-26],[29,-35],[50,-39],[44,33]],[[6101,4308],[0,-263],[-167,0],[-83,7]],[[5851,4052],[-449,-2]],[[5402,4050],[-19,48],[12,23],[-15,38],[-5,44],[-17,13],[-14,40],[-57,63],[-8,32],[-57,99],[-36,-13],[-33,-46],[-72,8],[-49,31],[-89,10],[-72,45],[-54,11],[-48,21],[-49,3],[-39,54],[-76,63],[-27,12],[-34,38],[-31,50],[-25,9],[-29,32],[-41,62],[-22,47],[1,26],[-35,61],[-24,17],[-65,-42],[-18,24],[-22,-6],[-66,11],[16,42],[-1,30],[22,70],[-11,33],[2,33],[-57,-2],[-33,-21],[-22,-49],[-30,-6],[-54,-47],[-19,-63],[-37,-27],[-17,7],[-19,-51],[43,-18],[-15,-66],[-31,-30],[-37,-9],[-18,-35],[-4,-35],[-47,-33],[-41,18],[-35,-39],[-31,-12],[-53,33],[7,50],[-45,56],[-46,17],[-69,-21],[-32,6],[-1,29],[-29,45],[-36,34],[-25,9],[-23,47],[6,39],[23,50],[-20,26]],[[3102,3538],[32,59],[-20,34],[-69,33],[-22,33],[0,24],[34,49],[17,-2],[20,36],[-33,3],[-36,39],[25,13],[16,25],[-10,26],[-57,15],[-23,22],[-37,-1],[-30,30],[-18,-3],[-33,22],[7,20],[-17,39],[25,17],[-15,23],[-1,46],[-14,24],[-26,-25],[-21,40],[-38,1],[-65,35],[-10,27]],[[5402,4050],[-132,0],[1,-314],[-58,1],[5,-124],[12,-14],[0,-124],[-18,-55],[7,-18],[60,-25],[26,-37],[19,-54],[-48,12],[-42,-14],[-7,-60],[-46,-45],[-6,-17],[-40,-13],[-18,-27],[-33,-7],[-28,-26],[-36,-9],[-60,-41],[-53,-24],[-38,-41],[-73,-28],[-33,-74],[-19,-20]],[[4744,2852],[-12,6],[-8,50],[-31,8],[-11,37],[-44,46],[-40,-2],[-10,40],[-30,14],[-39,44],[-17,7],[-16,53],[-25,50],[-40,4],[-28,-11],[0,-26],[-23,-22],[-65,11],[-28,28],[-7,33],[-24,0],[-28,28],[-21,0],[-110,75],[-11,53],[7,33],[-19,14],[-68,5],[-24,-28],[-70,39],[-24,-8],[-65,9],[-15,15],[-31,-10],[-16,-49],[5,-31],[-17,-16],[-47,-3],[-27,13],[-2,43],[-31,33],[-27,8],[-26,29],[-51,25],[-182,0],[0,117],[-82,0],[-67,-33],[-28,-43],[-40,-22]],[[8080,4984],[30,-43],[24,11],[57,-56],[40,-68],[65,-76],[-28,-13],[18,-68],[64,-15],[0,-26],[42,-36],[26,-4],[-10,-28],[11,-30],[41,-23],[67,-17],[5,-7],[-1,-218],[0,-602],[3,-66]],[[8534,3599],[-92,-27],[-87,-52],[-35,-9],[-48,26],[-47,-18],[-12,-22],[-31,-13],[-35,11],[-11,26],[-25,15],[-61,-46]],[[8050,3490],[-53,-18],[-57,27],[-31,2],[-40,-19],[-40,-31],[0,-32],[-191,0],[-1,26],[-192,1],[1,52],[-193,0]],[[7253,3498],[0,79],[-247,0],[1,156]],[[7007,3733],[167,0],[1,156],[166,1],[-1,78],[77,0],[8,79],[0,154],[84,0],[0,153],[240,-1],[0,269]],[[7749,4622],[42,22],[87,-26],[11,-20],[49,9],[-2,25],[-36,11],[-24,78],[31,39],[10,32],[31,40],[-24,61],[21,15],[59,21],[24,-17],[23,24],[7,51],[22,-3]],[[1745,2892],[-6,-10],[-413,400]],[[1326,3282],[8,0],[2,620],[81,0]],[[3037,1666],[16,11],[91,-6],[7,-17],[49,-49],[25,-34],[-18,-59],[-29,-21],[-7,-42],[10,-45],[35,7],[43,-25],[26,-3],[17,-28],[-7,-47],[36,-17],[6,-62],[58,-10],[44,17],[90,-26],[40,3],[48,-21]],[[3617,1192],[73,-26],[60,-7],[15,-19],[60,-37],[53,0],[34,-8],[38,5],[33,-17],[25,-29],[63,-20],[69,-8],[79,-45],[10,-28],[31,-34],[35,-3],[79,48],[34,11],[58,-5]],[[4466,970],[-20,-14],[-72,-7],[-3,-20],[0,-156],[-298,1],[-1,-157],[7,1],[-1,-608]],[[4078,10],[-255,3],[-180,-2],[-287,13],[-96,-1],[-223,-10]],[[3037,13],[0,451],[1,602],[-1,341]],[[4744,2852],[30,-4],[33,15],[6,21],[29,6],[36,-10],[20,-57],[2,-38],[44,-69],[26,6],[-1,-234],[377,-1],[0,-148],[488,0]],[[5834,2339],[-1,-314]],[[5518,1149],[-93,6],[-78,78],[-20,29],[-33,-7],[-17,-17],[-83,-10]],[[5194,1228],[0,325],[81,0],[-1,633],[-414,-1]],[[4860,2185],[-408,1],[-502,-1]],[[3950,2185],[0,105],[-27,0],[0,123],[-52,15],[-40,-17],[-26,14],[-31,-6],[-43,7],[0,64],[10,54],[-27,0],[0,67],[40,41],[13,42],[-16,21],[-58,10],[-28,47],[-19,11],[12,50],[-21,16],[-45,10],[-23,36],[-43,1],[5,41],[23,51],[0,29],[-23,17],[-12,29],[16,21],[-5,47],[19,27],[-33,21],[-3,61],[-13,38],[-53,3],[-28,-28],[-36,20],[-50,-21],[-45,8],[11,38],[-73,22],[-42,21],[-29,25],[-24,-10],[-27,18]],[[1495,4529],[-39,-7],[-44,25],[-22,-50],[-4,-29],[-28,2],[-59,-39]],[[473,5146],[5,27],[42,27],[18,31],[23,95],[-21,32],[-8,47],[16,31],[-4,38],[69,68],[19,33],[12,49],[28,15],[13,34],[20,13],[9,57],[20,57],[9,68],[22,48]],[[765,5916],[474,1],[17,-51],[41,-100],[-4,-23],[25,-77],[-26,-36],[221,-2]],[[5844,611],[0,-594]],[[5844,17],[-257,-3],[-468,-6],[-328,-6],[-189,-2],[-122,8],[-70,2],[-332,0]],[[4466,970],[20,14],[75,2]],[[4561,986],[74,26],[57,-26],[65,38],[35,-16],[8,-24],[26,-20],[55,-7],[62,31],[14,17],[31,74],[20,18],[31,52],[13,36],[25,21],[87,30],[30,-8]],[[7135,1865],[159,-2],[493,-2]],[[7787,1861],[488,1],[263,-2]],[[8538,1860],[1,-536],[-4,-376]],[[1477,7908],[31,-4],[23,-27],[25,17],[51,-3],[51,-27],[55,-74],[58,-31],[78,4],[79,-24],[41,-21],[47,2],[4,19],[38,34],[-8,23],[32,57],[-3,41],[27,32],[45,23],[9,23],[33,26],[19,44],[11,50],[1081,221],[344,68]],[[3648,8381],[34,17],[31,3],[110,-23],[25,31],[34,21],[92,14],[34,-14],[16,-24],[-2,-65],[-29,-39],[17,-31],[-22,-37],[-6,-80],[-66,-10],[-2,-42],[29,-33],[11,-32],[-18,-28],[0,-29],[-51,-43],[16,-40],[-5,-54],[-26,-53],[8,-41],[-60,-31],[6,-35],[20,-11],[12,-68],[-4,-53],[-41,-24],[-18,13],[-37,-3],[-15,-35],[9,-39],[62,-21],[20,-28],[-12,-65],[-33,-17],[-19,-37],[37,-2],[9,-32],[-19,-17],[19,-20],[85,-26],[13,-36],[-40,-40],[26,-44],[24,-19],[9,-34],[-21,-18],[-8,-36],[-39,19],[-44,-20],[-54,-11],[-7,-33],[-72,-97],[31,-27],[-3,-28],[27,-28],[31,-11],[12,-33],[-6,-60],[-32,-37],[-24,2],[-32,-33],[35,-44],[-27,-42],[-10,-48]],[[765,5916],[18,16],[1,82],[75,138],[30,26],[13,55],[45,36],[-2,78],[18,14],[27,59],[29,36],[27,19],[27,46],[0,23],[-33,62],[-56,57],[-10,19],[0,76],[-79,80],[-54,12],[-46,-6],[-20,21],[-25,49],[-52,10],[-38,-17],[-26,16],[-17,55]],[[617,6978],[61,24],[28,45],[-37,83],[11,38],[41,47],[24,16]],[[1203,8080],[-1,61],[-106,-4],[-12,105],[-1,131]],[[1083,8373],[175,-2],[0,553]],[[3145,8921],[47,-26],[-16,-38],[7,-37],[-23,-29],[27,-11],[11,-50],[47,-32],[29,9],[50,-57],[30,-1],[59,-43],[-7,-42],[-25,-41],[49,-27],[18,26],[40,10],[14,30],[35,5],[39,-11],[30,-34],[2,-36],[-25,-23],[8,-35],[20,-3],[10,-34],[27,-10]],[[5851,4052],[0,-315],[1,-158],[412,0]],[[6264,3579],[0,-314],[-2,0],[-1,-316]],[[6261,2949],[-2,-150],[-82,0],[-80,-7],[0,-157],[-166,1],[0,-148],[-14,0],[0,-149],[-83,0]],[[617,6978],[-27,39],[-40,26],[-32,45],[-13,67],[-20,11],[-3,29],[-32,34],[-37,119],[-20,26],[-30,8],[-5,21],[32,13],[13,44],[20,23],[2,33],[16,12],[-26,44],[-30,26],[10,47],[-20,64],[-29,27],[9,30],[-49,40],[-5,38],[-44,17],[-9,36],[22,26],[16,69],[-7,14],[1,209]],[[280,8215],[441,2],[19,56],[64,69],[65,35],[41,-5],[173,1]],[[1258,9081],[-177,1],[0,26],[-431,1],[0,-8],[-89,0],[-18,26],[-66,55],[-39,7],[-40,-23],[-33,37],[14,47],[-46,27],[-54,-5]],[[279,9272],[0,238],[0,192]],[[279,9702],[316,1],[0,26],[59,0],[45,9],[0,-26],[146,0],[0,52],[59,0],[0,26],[139,-3],[215,2]],[[7071,17],[-69,1],[-37,5],[-636,-2],[-485,-4]],[[7253,3498],[0,-235],[-9,-78],[46,-7],[22,29],[44,-34],[40,-18],[21,-34],[73,-28],[37,-48],[48,-15],[41,-23],[121,0],[0,-51]],[[7737,2956],[-615,-1],[-617,1]],[[6505,2956],[-164,-1],[-80,-6]],[[6264,3579],[1,156],[62,-1],[680,-1]],[[279,9702],[-1,376],[-2,478],[0,250]],[[276,10806],[562,-1],[2,26],[177,0],[-1,-183],[242,0]],[[4561,986],[0,415]],[[4561,1401],[231,-1],[0,154],[69,0],[-1,631]],[[2971,2182],[677,1]],[[3648,2183],[0,-627]],[[3648,1556],[-32,0],[1,-364]],[[6505,2956],[0,-364],[574,0],[0,-27],[82,0],[0,-78],[305,-2],[0,-151],[323,-1],[-2,-157],[0,-315]],[[7737,2956],[82,0],[0,-9],[229,0]],[[8048,2947],[215,0],[25,-28],[-1,-29],[16,-62],[22,-29],[79,11],[22,-26],[55,-18],[25,8],[31,-45]],[[8537,2729],[1,-334],[0,-535]],[[4561,1401],[-163,0],[0,78],[-407,1],[0,27],[-28,0],[0,49],[-315,0]],[[3648,2183],[302,2]],[[280,8215],[0,286],[0,383],[-1,388]],[[8534,3599],[1,-302],[2,-568]],[[8048,2947],[-1,471],[3,72]],[[1089,3902],[-1,-155],[-109,1],[0,-103],[-55,1],[0,-52],[-194,1],[0,-314]],[[357,3413],[10,26],[-5,37],[24,4],[-7,32],[11,52],[-23,20],[52,17],[-7,34],[13,33],[-13,25],[-40,24],[-7,66],[48,16],[39,60],[23,46]],[[1326,3282],[-320,-1]],[[1644,12652],[0,-378],[0,-522]],[[1644,11752],[-448,-1],[-419,-2],[-146,0],[-1,336],[0,290],[-340,-1]],[[290,12374],[0,275],[677,1],[677,2]],[[1644,11752],[0,-516],[0,-431]],[[276,10806],[1,122],[1,144],[8,443],[-1,233],[3,283],[2,343]],[[3037,13],[-380,1],[-430,2],[-435,-2],[-171,2],[-368,0],[-49,-2],[-356,3],[-539,2],[-11,1],[0,301],[0,383],[0,444],[0,329],[0,393],[-1,524],[1,659]],[[1007,2349],[38,-2],[70,12],[32,-21],[9,-39],[20,-17],[18,-40],[-12,-25],[-2,-43],[42,-47],[27,-11],[50,-76],[46,-13]],[[6101,4308],[-12,56],[-24,30],[15,30],[43,39],[24,41],[56,11],[28,24],[42,-11],[35,-22],[84,9],[24,-18],[49,6],[88,-24],[16,15],[79,-47],[41,-10],[23,32],[18,50],[-3,64],[7,13],[48,6],[9,26],[37,27],[40,5],[38,-13],[10,-37],[52,-19],[27,15],[38,-3],[15,-20],[34,-14],[44,29],[51,-15],[-1,32],[77,-19],[39,37],[68,2],[40,11],[39,-67],[28,-32],[23,27],[27,0],[54,31],[42,5],[16,29],[120,-17]]],"transform":{"scale":[0.000725976226724441,0.0005542439140056911],"translate":[-117.242675,41.988552]},"objects":{"16":{"type":"GeometryCollection","geometries":[{"arcs":[[0,1,2,3,4,5,6,7]],"type":"Polygon","properties":{"STATEFP":"16","COUNTYFP":"039","COUNTYNS":"00400252","GEOIDFQ":"0500000US16039","GEOID":"16039","NAME":"Elmore","NAMELSAD":"Elmore County","STUSPS":"ID","STATE_NAME":"Idaho","LSAD":"06","ALAND":7964417385,"AWATER":68330393},"id":"16039"},{"arcs":[[8,9,10,11,12]],"type":"Polygon","properties":{"STATEFP":"16","COUNTYFP":"005","COUNTYNS":"00395091","GEOIDFQ":"0500000US16005","GEOID":"16005","NAME":"Bannock","NAMELSAD":"Bannock County","STUSPS":"ID","STATE_NAME":"Idaho","LSAD":"06","ALAND":2881336692,"AWATER":92075809},"id":"16005"},{"arcs":[[13,14,15]],"type":"Polygon","properties":{"STATEFP":"16","COUNTYFP":"061","COUNTYNS":"00395622","GEOIDFQ":"0500000US16061","GEOID":"16061","NAME":"Lewis","NAMELSAD":"Lewis County","STUSPS":"ID","STATE_NAME":"Idaho","LSAD":"06","ALAND":1240141963,"AWATER":2340247},"id":"16061"},{"arcs":[[16,17,18,19,20,21]],"type":"Polygon","properties":{"STATEFP":"16","COUNTYFP":"085","COUNTYNS":"00399756","GEOIDFQ":"0500000US16085","GEOID":"16085","NAME":"Valley","NAMELSAD":"Valley County","STUSPS":"ID","STATE_NAME":"Idaho","LSAD":"06","ALAND":9492617021,"AWATER":177110435},"id":"16085"},{"arcs":[[-12,22,23,24,25]],"type":"Polygon","properties":{"STATEFP":"16","COUNTYFP":"077","COUNTYNS":"00394951","GEOIDFQ":"0500000US16077","GEOID":"16077","NAME":"Power","NAMELSAD":"Power County","STUSPS":"ID","STATE_NAME":"Idaho","LSAD":"06","ALAND":3635892408,"AWATER":99205466},"id":"16077"},{"arcs":[[26,27,-10,28,29]],"type":"Polygon","properties":{"STATEFP":"16","COUNTYFP":"041","COUNTYNS":"00395585","GEOIDFQ":"0500000US16041","GEOID":"16041","NAME":"Franklin","NAMELSAD":"Franklin County","STUSPS":"ID","STATE_NAME":"Idaho","LSAD":"06","ALAND":1717211137,"AWATER":12151740},"id":"16041"},{"arcs":[[30,31,32,33]],"type":"Polygon","properties":{"STATEFP":"16","COUNTYFP":"087","COUNTYNS":"00399757","GEOIDFQ":"0500000US16087","GEOID":"16087","NAME":"Washington","NAMELSAD":"Washington County","STUSPS":"ID","STATE_NAME":"Idaho","LSAD":"06","ALAND":3762876947,"AWATER":53221420},"id":"16087"},{"arcs":[[34,35,36,37,38,39]],"type":"Polygon","properties":{"STATEFP":"16","COUNTYFP":"079","COUNTYNS":"01702379","GEOIDFQ":"0500000US16079","GEOID":"16079","NAME":"Shoshone","NAMELSAD":"Shoshone County","STUSPS":"ID","STATE_NAME":"Idaho","LSAD":"06","ALAND":6830898582,"AWATER":13962457},"id":"16079"},{"arcs":[[-30,40,41]],"type":"Polygon","properties":{"STATEFP":"16","COUNTYFP":"007","COUNTYNS":"00395090","GEOIDFQ":"0500000US16007","GEOID":"16007","NAME":"Bear Lake","NAMELSAD":"Bear Lake County","STUSPS":"ID","STATE_NAME":"Idaho","LSAD":"06","ALAND":2527132030,"AWATER":191364281},"id":"16007"},{"arcs":[[42,43,44,45,46]],"type":"Polygon","properties":{"STATEFP":"16","COUNTYFP":"027","COUNTYNS":"00399406","GEOIDFQ":"0500000US16027","GEOID":"16027","NAME":"Canyon","NAMELSAD":"Canyon County","STUSPS":"ID","STATE_NAME":"Idaho","LSAD":"06","ALAND":1520448738,"AWATER":43120577},"id":"16027"},{"arcs":[[-19,47,48,49,50,51]],"type":"Polygon","properties":{"STATEFP":"16","COUNTYFP":"059","COUNTYNS":"00399754","GEOIDFQ":"0500000US16059","GEOID":"16059","NAME":"Lemhi","NAMELSAD":"Lemhi County","STUSPS":"ID","STATE_NAME":"Idaho","LSAD":"06","ALAND":11819938748,"AWATER":14081449},"id":"16059"},{"arcs":[[-3,52,-20,-52,53,54]],"type":"Polygon","properties":{"STATEFP":"16","COUNTYFP":"037","COUNTYNS":"00399758","GEOIDFQ":"0500000US16037","GEOID":"16037","NAME":"Custer","NAMELSAD":"Custer County","STUSPS":"ID","STATE_NAME":"Idaho","LSAD":"06","ALAND":12748378762,"AWATER":42527190},"id":"16037"},{"arcs":[[55,56,57,58,59,60]],"type":"Polygon","properties":{"STATEFP":"16","COUNTYFP":"043","COUNTYNS":"00395408","GEOIDFQ":"0500000US16043","GEOID":"16043","NAME":"Fremont","NAMELSAD":"Fremont County","STUSPS":"ID","STATE_NAME":"Idaho","LSAD":"06","ALAND":4827633112,"AWATER":83440654},"id":"16043"},{"arcs":[[-2,61,62,-21,-53]],"type":"Polygon","properties":{"STATEFP":"16","COUNTYFP":"015","COUNTYNS":"00395157","GEOIDFQ":"0500000US16015","GEOID":"16015","NAME":"Boise","NAMELSAD":"Boise County","STUSPS":"ID","STATE_NAME":"Idaho","LSAD":"06","ALAND":4919339892,"AWATER":19101504},"id":"16015"},{"arcs":[[-7,63,64,65,66,67]],"type":"Polygon","properties":{"STATEFP":"16","COUNTYFP":"083","COUNTYNS":"00399334","GEOIDFQ":"0500000US16083","GEOID":"16083","NAME":"Twin Falls","NAMELSAD":"Twin Falls County","STUSPS":"ID","STATE_NAME":"Idaho","LSAD":"06","ALAND":4977221528,"AWATER":18056256},"id":"16083"},{"arcs":[[-4,-55,68,69,-25,70,71,72,73]],"type":"Polygon","properties":{"STATEFP":"16","COUNTYFP":"013","COUNTYNS":"00395696","GEOIDFQ":"0500000US16013","GEOID":"16013","NAME":"Blaine","NAMELSAD":"Blaine County","STUSPS":"ID","STATE_NAME":"Idaho","LSAD":"06","ALAND":6831709431,"AWATER":44656834},"id":"16013"},{"arcs":[[-17,74,-31,75,76]],"type":"Polygon","properties":{"STATEFP":"16","COUNTYFP":"003","COUNTYNS":"00395067","GEOIDFQ":"0500000US16003","GEOID":"16003","NAME":"Adams","NAMELSAD":"Adams County","STUSPS":"ID","STATE_NAME":"Idaho","LSAD":"06","ALAND":3529645203,"AWATER":17359845},"id":"16003"},{"arcs":[[-24,77,78,-66,79,80,-71]],"type":"Polygon","properties":{"STATEFP":"16","COUNTYFP":"031","COUNTYNS":"00395698","GEOIDFQ":"0500000US16031","GEOID":"16031","NAME":"Cassia","NAMELSAD":"Cassia County","STUSPS":"ID","STATE_NAME":"Idaho","LSAD":"06","ALAND":6644897862,"AWATER":39158549},"id":"16031"},{"arcs":[[-9,81,82,83,-41,-29]],"type":"Polygon","properties":{"STATEFP":"16","COUNTYFP":"029","COUNTYNS":"00395406","GEOIDFQ":"0500000US16029","GEOID":"16029","NAME":"Caribou","NAMELSAD":"Caribou County","STUSPS":"ID","STATE_NAME":"Idaho","LSAD":"06","ALAND":4569241503,"AWATER":89209011},"id":"16029"},{"arcs":[[-15,84,85,-48,-18,-77,86,87]],"type":"Polygon","properties":{"STATEFP":"16","COUNTYFP":"049","COUNTYNS":"00395699","GEOIDFQ":"0500000US16049","GEOID":"16049","NAME":"Idaho","NAMELSAD":"Idaho County","STUSPS":"ID","STATE_NAME":"Idaho","LSAD":"06","ALAND":21956620661,"AWATER":67532942},"id":"16049"},{"arcs":[[-14,88,89,-36,90,-85]],"type":"Polygon","properties":{"STATEFP":"16","COUNTYFP":"035","COUNTYNS":"00395697","GEOIDFQ":"0500000US16035","GEOID":"16035","NAME":"Clearwater","NAMELSAD":"Clearwater County","STUSPS":"ID","STATE_NAME":"Idaho","LSAD":"06","ALAND":6364412855,"AWATER":79592497},"id":"16035"},{"arcs":[[-51,91,92,93,-69,-54]],"type":"Polygon","properties":{"STATEFP":"16","COUNTYFP":"023","COUNTYNS":"00401703","GEOIDFQ":"0500000US16023","GEOID":"16023","NAME":"Butte","NAMELSAD":"Butte County","STUSPS":"ID","STATE_NAME":"Idaho","LSAD":"06","ALAND":5792474010,"AWATER":5259978},"id":"16023"},{"arcs":[[-16,-88,94,95,-89]],"type":"Polygon","properties":{"STATEFP":"16","COUNTYFP":"069","COUNTYNS":"00399394","GEOIDFQ":"0500000US16069","GEOID":"16069","NAME":"Nez Perce","NAMELSAD":"Nez Perce County","STUSPS":"ID","STATE_NAME":"Idaho","LSAD":"06","ALAND":2197139833,"AWATER":21252879},"id":"16069"},{"arcs":[[-38,96,97,98]],"type":"Polygon","properties":{"STATEFP":"16","COUNTYFP":"009","COUNTYNS":"00395190","GEOIDFQ":"0500000US16009","GEOID":"16009","NAME":"Benewah","NAMELSAD":"Benewah County","STUSPS":"ID","STATE_NAME":"Idaho","LSAD":"06","ALAND":2012244688,"AWATER":18801416},"id":"16009"},{"arcs":[[99,-78,-23,-11,-28]],"type":"Polygon","properties":{"STATEFP":"16","COUNTYFP":"071","COUNTYNS":"00399759","GEOIDFQ":"0500000US16071","GEOID":"16071","NAME":"Oneida","NAMELSAD":"Oneida County","STUSPS":"ID","STATE_NAME":"Idaho","LSAD":"06","ALAND":3105269249,"AWATER":3995240},"id":"16071"},{"arcs":[[-59,100,101,102,-93,103]],"type":"Polygon","properties":{"STATEFP":"16","COUNTYFP":"051","COUNTYNS":"00399751","GEOIDFQ":"0500000US16051","GEOID":"16051","NAME":"Jefferson","NAMELSAD":"Jefferson County","STUSPS":"ID","STATE_NAME":"Idaho","LSAD":"06","ALAND":2832619464,"AWATER":31166193},"id":"16051"},{"arcs":[[-39,-99,104,105]],"type":"Polygon","properties":{"STATEFP":"16","COUNTYFP":"055","COUNTYNS":"00395661","GEOIDFQ":"0500000US16055","GEOID":"16055","NAME":"Kootenai","NAMELSAD":"Kootenai County","STUSPS":"ID","STATE_NAME":"Idaho","LSAD":"06","ALAND":3205870033,"AWATER":184411362},"id":"16055"},{"arcs":[[-72,-81,106,107]],"type":"Polygon","properties":{"STATEFP":"16","COUNTYFP":"067","COUNTYNS":"00394807","GEOIDFQ":"0500000US16067","GEOID":"16067","NAME":"Minidoka","NAMELSAD":"Minidoka County","STUSPS":"ID","STATE_NAME":"Idaho","LSAD":"06","ALAND":1961208115,"AWATER":13330815},"id":"16067"},{"arcs":[[-6,108,109,110,-64]],"type":"Polygon","properties":{"STATEFP":"16","COUNTYFP":"047","COUNTYNS":"00395441","GEOIDFQ":"0500000US16047","GEOID":"16047","NAME":"Gooding","NAMELSAD":"Gooding County","STUSPS":"ID","STATE_NAME":"Idaho","LSAD":"06","ALAND":1888938104,"AWATER":12467164},"id":"16047"},{"arcs":[[-13,-26,-70,-94,-103,111,-82]],"type":"Polygon","properties":{"STATEFP":"16","COUNTYFP":"011","COUNTYNS":"00400593","GEOIDFQ":"0500000US16011","GEOID":"16011","NAME":"Bingham","NAMELSAD":"Bingham County","STUSPS":"ID","STATE_NAME":"Idaho","LSAD":"06","ALAND":5422741966,"AWATER":68632371},"id":"16011"},{"arcs":[[-83,-112,-102,112,113,114]],"type":"Polygon","properties":{"STATEFP":"16","COUNTYFP":"019","COUNTYNS":"00395407","GEOIDFQ":"0500000US16019","GEOID":"16019","NAME":"Bonneville","NAMELSAD":"Bonneville County","STUSPS":"ID","STATE_NAME":"Idaho","LSAD":"06","ALAND":4832814964,"AWATER":88912973},"id":"16019"},{"arcs":[[-73,-108,115,-110,116]],"type":"Polygon","properties":{"STATEFP":"16","COUNTYFP":"063","COUNTYNS":"00395624","GEOIDFQ":"0500000US16063","GEOID":"16063","NAME":"Lincoln","NAMELSAD":"Lincoln County","STUSPS":"ID","STATE_NAME":"Idaho","LSAD":"06","ALAND":3111517510,"AWATER":11588561},"id":"16063"},{"arcs":[[-37,-90,-96,117,-97]],"type":"Polygon","properties":{"STATEFP":"16","COUNTYFP":"057","COUNTYNS":"00395613","GEOIDFQ":"0500000US16057","GEOID":"16057","NAME":"Latah","NAMELSAD":"Latah County","STUSPS":"ID","STATE_NAME":"Idaho","LSAD":"06","ALAND":2786483030,"AWATER":2369979},"id":"16057"},{"arcs":[[-57,118,-114,119]],"type":"Polygon","properties":{"STATEFP":"16","COUNTYFP":"081","COUNTYNS":"00399297","GEOIDFQ":"0500000US16081","GEOID":"16081","NAME":"Teton","NAMELSAD":"Teton County","STUSPS":"ID","STATE_NAME":"Idaho","LSAD":"06","ALAND":1163139989,"AWATER":2868472},"id":"16081"},{"arcs":[[-33,120,-43,121]],"type":"Polygon","properties":{"STATEFP":"16","COUNTYFP":"075","COUNTYNS":"00394896","GEOIDFQ":"0500000US16075","GEOID":"16075","NAME":"Payette","NAMELSAD":"Payette County","STUSPS":"ID","STATE_NAME":"Idaho","LSAD":"06","ALAND":1053814731,"AWATER":8906669},"id":"16075"},{"arcs":[[-5,-74,-117,-109]],"type":"Polygon","properties":{"STATEFP":"16","COUNTYFP":"025","COUNTYNS":"00399408","GEOIDFQ":"0500000US16025","GEOID":"16025","NAME":"Camas","NAMELSAD":"Camas County","STUSPS":"ID","STATE_NAME":"Idaho","LSAD":"06","ALAND":2782253889,"AWATER":11548054},"id":"16025"},{"arcs":[[-22,-63,122,-44,-121,-32,-75]],"type":"Polygon","properties":{"STATEFP":"16","COUNTYFP":"045","COUNTYNS":"00395442","GEOIDFQ":"0500000US16045","GEOID":"16045","NAME":"Gem","NAMELSAD":"Gem County","STUSPS":"ID","STATE_NAME":"Idaho","LSAD":"06","ALAND":1449806862,"AWATER":12481361},"id":"16045"},{"arcs":[[123,124,125]],"type":"Polygon","properties":{"STATEFP":"16","COUNTYFP":"021","COUNTYNS":"00395159","GEOIDFQ":"0500000US16021","GEOID":"16021","NAME":"Boundary","NAMELSAD":"Boundary County","STUSPS":"ID","STATE_NAME":"Idaho","LSAD":"06","ALAND":3285862966,"AWATER":24278846},"id":"16021"},{"arcs":[[-58,-120,-113,-101]],"type":"Polygon","properties":{"STATEFP":"16","COUNTYFP":"065","COUNTYNS":"00394803","GEOIDFQ":"0500000US16065","GEOID":"16065","NAME":"Madison","NAMELSAD":"Madison County","STUSPS":"ID","STATE_NAME":"Idaho","LSAD":"06","ALAND":1215396272,"AWATER":10500950},"id":"16065"},{"arcs":[[126,-40,-106,127,-125]],"type":"Polygon","properties":{"STATEFP":"16","COUNTYFP":"017","COUNTYNS":"00395158","GEOIDFQ":"0500000US16017","GEOID":"16017","NAME":"Bonner","NAMELSAD":"Bonner County","STUSPS":"ID","STATE_NAME":"Idaho","LSAD":"06","ALAND":4489041236,"AWATER":478899611},"id":"16017"},{"arcs":[[-65,-111,-116,-107,-80]],"type":"Polygon","properties":{"STATEFP":"16","COUNTYFP":"053","COUNTYNS":"00395662","GEOIDFQ":"0500000US16053","GEOID":"16053","NAME":"Jerome","NAMELSAD":"Jerome County","STUSPS":"ID","STATE_NAME":"Idaho","LSAD":"06","ALAND":1547635283,"AWATER":12902354},"id":"16053"},{"arcs":[[-8,-68,128,-46,129]],"type":"Polygon","properties":{"STATEFP":"16","COUNTYFP":"073","COUNTYNS":"00399760","GEOIDFQ":"0500000US16073","GEOID":"16073","NAME":"Owyhee","NAMELSAD":"Owyhee County","STUSPS":"ID","STATE_NAME":"Idaho","LSAD":"06","ALAND":19860555064,"AWATER":74132052},"id":"16073"},{"arcs":[[-50,130,-60,-104,-92]],"type":"Polygon","properties":{"STATEFP":"16","COUNTYFP":"033","COUNTYNS":"00399755","GEOIDFQ":"0500000US16033","GEOID":"16033","NAME":"Clark","NAMELSAD":"Clark County","STUSPS":"ID","STATE_NAME":"Idaho","LSAD":"06","ALAND":4566524478,"AWATER":2476453},"id":"16033"},{"arcs":[[-1,-130,-45,-123,-62]],"type":"Polygon","properties":{"STATEFP":"16","COUNTYFP":"001","COUNTYNS":"00395066","GEOIDFQ":"0500000US16001","GEOID":"16001","NAME":"Ada","NAMELSAD":"Ada County","STUSPS":"ID","STATE_NAME":"Idaho","LSAD":"06","ALAND":2725319005,"AWATER":22034672},"id":"16001"}]}}}