{"type":"Topology","arcs":[[[3450,7121],[125,2],[121,7],[117,1],[0,-157],[7,-236],[-56,-43],[-66,-2]],[[3698,6693],[-1,62],[-245,-6]],[[3452,6749],[-1,0]],[[3451,6749],[-1,372]],[[1140,5811],[1,125]],[[1141,5936],[243,0],[137,-3],[101,0]],[[1622,5933],[-1,-249]],[[1621,5684],[0,-372]],[[1621,5312],[-395,3],[-92,1]],[[1134,5316],[6,495]],[[3517,7844],[90,1],[332,-6],[4,-29],[-7,-58],[2,-58],[-15,-41],[-9,-8],[-10,-77],[7,-45],[28,-84],[46,-83]],[[3985,7356],[-468,3]],[[3517,7359],[1,124],[-1,361]],[[1920,2052],[27,16],[16,26],[38,8],[13,30],[39,11],[11,-6],[96,-6],[55,35],[15,-11],[50,18],[22,14],[35,2],[39,-10],[21,5],[118,-8]],[[2515,2176],[-1,-42]],[[2514,2134],[-3,-370]],[[2511,1764],[-101,2],[-185,1],[-187,6]],[[2038,1773],[-117,0]],[[1921,1773],[-1,279]],[[3777,2271],[45,0]],[[3822,2271],[277,-3]],[[4099,2268],[1,-17],[-20,-20],[25,-45],[-28,-4],[-15,-22],[-30,-17],[-32,-4],[-12,-30],[25,-7],[-12,-52],[-42,-65],[-24,-8],[-19,-24],[-9,-27],[1,-39],[-13,-30],[-17,-2],[-22,40],[-8,-28],[-20,-22],[-11,14],[10,18],[-28,5],[-17,-27],[-11,-57],[-29,28]],[[3742,1826],[-3,4]],[[3739,1830],[-1,15],[37,31],[-1,80],[-10,8],[-11,34],[11,47],[23,44],[3,27],[-15,51],[2,26],[17,25],[-21,40],[4,13]],[[1920,2052],[-3,340]],[[1917,2392],[119,1],[-3,124]],[[2033,2517],[123,-4],[242,2]],[[2398,2515],[123,-8]],[[2521,2507],[-2,-124],[-4,-207]],[[1611,4456],[22,38],[57,4],[22,-14],[31,11],[39,-17],[42,-1],[7,9],[41,-5],[23,22],[25,-2],[37,28],[33,-8],[39,-46]],[[2029,4475],[0,-43],[24,0],[1,-165]],[[2054,4267],[-128,-1],[1,-52],[-5,-31],[-71,0],[0,-21],[-239,0]],[[1612,4162],[-1,294]],[[3698,6693],[2,-62],[122,4],[3,-124],[124,2],[2,-26],[1,-99],[280,0]],[[4232,6388],[-1,-244]],[[4231,6144],[-270,-3],[-247,-5],[2,-124],[-246,-5]],[[3470,6007],[-9,371]],[[3461,6378],[-7,246],[-2,125]],[[2938,4379],[0,62],[60,0],[1,62],[120,198]],[[3119,4701],[121,0]],[[3240,4701],[-3,-83],[1,-489]],[[3238,4129],[0,-124],[-11,0]],[[3227,4005],[-290,1]],[[2937,4006],[1,373]],[[3450,7121],[-1,114],[27,0],[0,124]],[[3476,7359],[41,0]],[[3985,7356],[24,-44],[27,-37],[30,-27],[12,-25],[2,-41],[16,-57],[16,-33],[17,-91],[9,-12],[-2,-35],[7,-34],[29,-58],[10,-35],[20,-27],[25,-17],[7,-57],[-2,-338]],[[2979,1268],[0,61]],[[2979,1329],[183,0],[169,2]],[[3331,1331],[1,-264],[-2,-174]],[[3330,893],[-39,0]],[[3291,893],[-314,0]],[[2977,893],[2,375]],[[468,6194],[7,51],[15,23],[4,36],[21,18],[56,15],[48,-18],[31,14],[46,30],[21,4],[54,-4],[39,-4],[100,18],[53,45],[11,24],[58,21],[43,-11],[41,8],[52,59],[74,32],[4,15],[-5,69],[10,46],[21,22],[-2,48],[6,19],[34,36],[39,22]],[[1349,6832],[-6,-51],[12,-9],[-1,-58],[11,-10],[-3,-25],[43,-17],[29,-26],[-3,-67],[-22,-19]],[[1409,6550],[7,-15],[-19,-48],[-21,-3],[-27,-18],[-96,-16],[-39,-24],[-4,-19],[-36,-29],[-27,-9],[-1,-184]],[[1146,6185],[-124,0],[-214,2],[-156,5],[-184,2]],[[3739,1830],[-40,-5],[-130,0]],[[3569,1825],[3,278],[0,167]],[[3572,2270],[205,1]],[[1611,4456],[-24,-10],[-25,10],[-23,-12],[-33,-34],[-35,0],[-8,-21],[-51,2],[-13,-14],[-19,8],[-81,-1],[-17,28],[2,21],[-12,32],[-42,12]],[[1230,4477],[17,16],[30,6],[44,21],[56,-5],[14,14],[3,33]],[[1394,4562],[20,17],[24,34],[33,10],[21,48],[41,50],[0,22],[19,32],[-2,19],[21,43],[52,21],[38,46],[25,16]],[[1686,4920],[102,-2],[118,1],[3,-165],[118,1]],[[2027,4755],[2,-144],[0,-136]],[[646,5208],[122,-5]],[[768,5203],[123,-6],[121,-1],[121,-4]],[[1133,5192],[-3,-353],[-2,-146]],[[1128,4693],[-121,3],[-121,0],[-246,9]],[[640,4705],[3,284],[3,219]],[[2149,399],[-32,48],[7,36],[27,34]],[[2151,517],[190,0],[63,1]],[[2404,518],[27,-4],[17,-16],[4,-45],[-8,-13],[-29,-14],[-11,-15],[-14,-56],[-1,-27],[11,-15],[-16,-15],[9,-52],[-16,-24],[21,-39],[23,-13],[35,-2],[29,-29]],[[2485,139],[-10,-31],[2,-36],[14,-25],[36,-30],[-40,-17],[-23,14],[-7,45],[-38,36],[-27,38],[-51,8],[7,-35],[25,-13],[21,-29],[-9,-27],[-28,-6],[-22,25],[-69,42],[-7,26],[10,40],[-9,25],[-33,31],[-22,38],[-28,67],[-6,32],[7,41],[-29,1]],[[2731,7843],[174,-4],[73,2]],[[2978,7841],[2,-235],[0,-248]],[[2980,7358],[-249,-2]],[[2731,7356],[-1,124],[1,363]],[[2977,893],[-117,2],[-19,-5],[-120,-1],[-97,0]],[[2624,889],[-120,5]],[[2504,894],[3,372]],[[2507,1266],[217,0],[255,2]],[[1937,7423],[62,2],[248,2]],[[2247,7427],[237,3],[0,-76],[247,2]],[[2731,7356],[1,-123],[-3,0],[1,-247]],[[2730,6986],[-363,-5],[-82,0],[0,21],[-41,0],[-70,13],[-16,-13],[-159,-2]],[[1999,7000],[1,41],[-60,0]],[[1940,7041],[1,136],[-4,246]],[[8,4585],[116,-1],[266,-5],[248,-4]],[[638,4575],[-2,-126]],[[636,4449],[-1,-247],[-2,-121]],[[633,4081],[1,-125],[-98,0],[-274,1],[-105,1]],[[157,3958],[4,38],[-18,37],[-54,38],[-20,57],[5,22],[24,30],[-1,26],[-15,17],[-6,9],[-57,121],[6,29],[-22,101],[2,42],[-5,33],[8,27]],[[902,2788],[-14,40],[-2,42],[-35,78],[-1,14],[31,45],[-3,42],[-25,53],[-1,30],[-12,68],[-6,38],[-26,20],[-44,63],[-25,15],[-25,29],[-86,61],[-16,22]],[[612,3448],[184,0],[158,-5]],[[954,3443],[-9,-43],[12,-76],[10,-27],[-8,-47],[12,-23],[7,-64],[-22,-44],[-2,-36],[11,-35]],[[965,3048],[15,-59],[9,-14],[-7,-29],[12,-14],[7,-60],[28,-41],[25,-15],[30,18],[43,2]],[[1127,2836],[-22,-13],[-16,-47],[-22,-33],[-38,-39],[-42,-9],[-45,28],[-11,22],[-29,33],[0,10]],[[3346,3124],[205,1],[170,3]],[[3721,3128],[61,2]],[[3782,3130],[3,-130],[2,-248],[-1,-83]],[[3786,2669],[-95,-1],[-122,-4],[-115,1]],[[3454,2665],[-109,6],[0,84]],[[3345,2755],[-1,128],[2,126],[0,115]],[[3345,2755],[-232,6],[-120,-1]],[[2993,2760],[-120,-4],[1,432]],[[2874,3188],[355,-1]],[[3229,3187],[0,-62],[117,-1]],[[3454,2665],[1,-166],[-27,2],[-1,-72],[13,-25],[-27,-41],[12,-22],[36,-19],[-2,-9]],[[3459,2313],[-176,5],[-175,6],[-120,-2]],[[2988,2322],[3,313]],[[2991,2635],[2,125]],[[3569,1825],[-117,2],[-116,-3]],[[3336,1824],[-353,2]],[[2983,1826],[3,122],[1,188]],[[2987,2136],[1,186]],[[3459,2313],[113,-2],[0,-41]],[[965,3048],[5,24],[17,14],[8,33],[-5,25],[26,6],[51,-6],[21,-14],[185,-1],[0,72],[119,0],[-1,47],[9,5],[49,0]],[[1449,3253],[2,-125],[0,-248]],[[1451,2880],[-136,0],[-2,-107]],[[1313,2773],[-35,1],[-79,44],[-24,10],[-48,8]],[[1621,5312],[-3,-123],[122,-1],[1,-158]],[[1741,5030],[-10,-12],[-7,-45],[-19,-36],[-19,-17]],[[1394,4562],[-146,5],[-122,2],[2,124]],[[1133,5192],[1,124]],[[2514,2134],[118,1],[118,4],[237,-3]],[[2983,1826],[-2,-187]],[[2981,1639],[-157,2],[-83,-1],[-211,-1]],[[2530,1639],[-22,0],[3,125]],[[2740,5618],[1,253],[366,3]],[[3107,5874],[122,1],[233,8]],[[3462,5883],[4,-170]],[[3466,5713],[7,-248],[7,-286],[-120,-2],[-119,0]],[[3241,5177],[-122,-1],[-1,77],[-7,0],[-2,123],[-367,-6]],[[2742,5370],[-2,248]],[[2114,854],[5,18],[24,-6],[18,8],[-1,18],[-30,37],[-12,23],[6,63],[-15,19],[-61,21],[-14,28],[-22,23],[-34,-6],[-20,20],[8,38],[-14,24]],[[1952,1182],[-7,27],[22,23],[4,29],[65,137]],[[2036,1398],[332,-6],[111,-1]],[[2479,1391],[28,0],[0,-125]],[[2504,894],[-70,-2],[-248,2],[1,-28],[-13,-23],[-60,11]],[[2730,6986],[-1,-235],[4,-138]],[[2733,6613],[-121,-3],[-122,3],[1,-62]],[[2491,6551],[-249,0],[-245,0]],[[1997,6551],[-1,123],[3,326]],[[3466,5713],[123,4]],[[3589,5717],[7,-332],[7,-268],[1,-123],[122,1],[10,-5],[62,1]],[[3798,4991],[3,-123]],[[3801,4868],[-197,2],[-243,-3],[-120,0]],[[3241,4867],[0,310]],[[1140,5811],[-115,0],[-128,6],[-124,1]],[[773,5818],[-174,2]],[[599,5820],[-1,4],[3,34],[-46,84],[-19,14],[-36,0],[-25,48],[-51,59],[-1,13],[24,52],[15,21],[6,45]],[[1146,6185],[-5,-249]],[[2938,4379],[-62,1],[-239,-8],[-123,-2]],[[2514,4370],[-4,331]],[[2510,4701],[100,2],[509,-2]],[[4231,6144],[0,-188],[1,-221]],[[4232,5735],[-505,-14],[-138,-4]],[[3462,5883],[11,0],[-3,124]],[[3331,1331],[0,1]],[[3331,1332],[99,0],[178,-4],[22,-20]],[[3630,1308],[16,-18],[20,-43],[28,-10],[0,-25],[-27,-2],[-29,10],[-5,-18],[33,-22],[23,12],[10,-15],[-15,-46],[-23,-40],[-65,-45],[-35,-60],[0,-35],[17,-53],[8,-40]],[[3586,858],[-19,-1],[-29,36],[-208,0]],[[3786,2669],[40,0]],[[3826,2669],[-2,-391],[-2,-7]],[[4232,4998],[-1,-20],[-5,-467],[-2,-376]],[[4224,4135],[-51,-1],[26,-19],[-64,-1],[2,19],[-342,-3]],[[3795,4130],[-2,248],[-3,243],[15,0],[-4,247]],[[3798,4991],[182,3],[117,0],[135,4]],[[2038,1773],[1,-124],[-3,-251]],[[1952,1182],[-31,20],[-39,42],[-60,18],[-2,29],[-49,37],[-20,-13],[-19,-24],[-22,-14],[-38,7],[-16,12],[-23,51],[16,30],[13,0],[23,20],[-16,24],[-51,-13],[-18,8],[-32,42],[-25,26],[-37,3],[-34,33],[-5,30],[-29,18],[-15,-7],[-35,24]],[[1388,1585],[180,69],[-1,125],[146,-4]],[[1713,1775],[208,-2]],[[3291,893],[-3,-250]],[[3288,643],[-43,-21],[-22,-31],[-11,-67],[-26,-58],[-5,-21],[7,-31],[26,-30],[14,-29],[26,-24],[17,-61],[7,-11],[-20,-62],[-1,-20],[-17,-29],[-32,-9]],[[3208,139],[0,130],[-118,125],[-116,127]],[[2974,521],[1,130],[2,242]],[[2510,4701],[-121,-1],[-2,63]],[[2387,4763],[-2,227],[-4,155]],[[2381,5145],[144,3],[0,21],[35,1],[0,18],[60,4],[-1,51],[65,2],[-3,124],[61,1]],[[3241,4867],[-1,-166]],[[2054,4267],[100,1],[0,-62],[84,-1],[0,-20],[198,-2]],[[2436,4183],[1,-147]],[[2437,4036],[-43,-5],[-42,-29],[-3,-16],[-31,-21],[-31,10],[-5,-21],[-22,-2],[-28,-14],[-16,25],[0,-111],[-57,0],[1,-61],[-60,1],[1,-166]],[[2101,3626],[-178,-2]],[[1923,3624],[-239,-1]],[[1684,3623],[3,51],[-65,227],[-1,95],[-8,0],[-1,124]],[[1612,4120],[0,42]],[[356,3731],[-41,24],[-27,21],[-37,50],[-32,28],[-49,43],[-18,24],[5,37]],[[633,4081],[24,-6],[342,-3]],[[999,4072],[5,-17],[-34,-52]],[[970,4003],[-8,-31],[-41,-90],[13,-45],[27,-51],[3,-24],[30,-86],[5,-29],[-10,-25]],[[989,3622],[-12,-49],[-19,-42],[-7,-48],[3,-40]],[[612,3448],[-13,12],[-48,22],[-47,36],[-23,29],[-5,37],[-11,11],[-27,51],[-51,10],[-21,27],[-10,48]],[[3782,3130],[216,6],[-1,-10],[96,0],[0,-21],[29,0]],[[4122,3105],[-23,-10],[-8,-21],[17,-10],[-11,-31],[37,-4],[3,-30],[15,-2],[31,-34],[-8,-22],[10,-27],[-7,-52],[50,-20],[17,-23],[-13,-49],[4,-27],[-23,-19],[1,-32],[12,-20]],[[4226,2672],[-162,-1],[-74,-3],[-164,1]],[[2437,4036],[40,3],[40,-20],[3,-208],[120,-1]],[[2640,3810],[2,-186],[-1,-252],[-122,5]],[[2519,3377],[-415,0],[-3,249]],[[2494,6161],[1,-293]],[[2495,5868],[-208,0],[26,28],[5,35],[-145,0]],[[2173,5931],[-1,122],[117,-2],[20,72],[2,24],[56,17],[25,14],[37,-13],[65,-4]],[[640,4705],[-2,-130]],[[8,4585],[-1,51],[10,18],[4,42],[33,91],[18,30],[27,21],[47,19],[2,37],[-8,25],[3,30],[14,39],[-4,41],[-20,29],[-20,13],[5,24],[23,21],[33,50],[45,24],[62,17],[67,0]],[[348,5207],[173,-5],[125,6]],[[2247,7427],[-2,246],[-4,178]],[[2241,7851],[38,-1],[122,-3],[330,-4]],[[3238,4129],[240,0],[121,2],[196,-1]],[[3795,4130],[1,-124],[-34,0],[3,-151]],[[3765,3855],[-64,-1],[-39,-5],[-1,-41],[-433,-2]],[[3228,3806],[-1,199]],[[2874,3188],[-235,-1],[-120,4]],[[2519,3191],[0,186]],[[2640,3810],[111,-2],[118,1]],[[2869,3809],[1,-104],[97,-1],[1,-83],[80,0],[0,-20],[20,-1],[0,-20],[21,-1],[0,-20],[19,-1],[1,-41],[120,-1]],[[3229,3516],[0,-103]],[[3229,3413],[0,-226]],[[1684,3623],[-241,-3]],[[1443,3620],[-157,0]],[[1286,3620],[1,165],[-40,0],[0,41],[-37,1],[2,123],[-119,1],[0,51],[-123,1]],[[999,4072],[-11,23],[-1,31]],[[987,4126],[365,-5],[260,-1]],[[2974,521],[-19,-3],[-187,1],[8,-26],[-33,-21]],[[2743,472],[-29,-8],[-38,18],[-28,-1],[-28,-21],[0,50]],[[2620,510],[1,212],[3,167]],[[1286,3620],[-297,2]],[[1621,5684],[124,1],[244,-2]],[[1989,5683],[203,0],[-6,-48],[-20,-26]],[[2166,5609],[-33,-74],[-22,-18],[-3,-20],[-34,-62],[-5,-24],[11,-49]],[[2080,5362],[7,-35],[-7,-29],[-41,-25],[-23,-28],[-4,-35],[-43,-54],[4,-34],[-22,-34],[-23,11],[-52,-16],[-32,3],[-40,-18],[-63,-38]],[[1243,2011],[52,59],[31,131]],[[1326,2201],[126,-134],[-1,-20],[117,-126],[0,-21],[130,-1],[10,-16],[-23,-33],[10,-32],[16,-23],[2,-20]],[[1388,1585],[-40,37],[-10,21],[-24,43],[-17,18],[-33,16],[-34,45],[-13,46],[-7,57],[1,53],[4,24],[28,66]],[[1940,7041],[-166,0],[-114,2],[-215,-4]],[[1445,7039],[-13,23],[2,23],[23,49],[-15,53],[-11,13],[-4,48],[6,58],[-9,12],[-32,8],[-8,31],[-44,27],[-34,10],[-37,21]],[[1269,7415],[223,5],[199,0]],[[1691,7420],[246,3]],[[1326,2201],[6,16],[36,61],[34,34],[14,43],[-2,44]],[[1414,2399],[238,-3],[146,-3],[119,-1]],[[1429,2558],[46,37],[6,11],[9,45],[-4,16],[-57,39],[-33,16],[-27,28],[-29,17],[-27,6]],[[1451,2880],[354,-1],[121,1]],[[1926,2880],[63,0]],[[1989,2880],[2,-177],[40,0],[2,-186]],[[1414,2399],[-6,21],[-24,39],[4,42],[23,21],[18,36]],[[3742,1826],[4,-37],[0,-30],[15,-25],[31,-24],[32,-12],[-19,-22],[-18,-34],[-26,5],[-6,-29],[-24,-2],[-20,-16],[13,-19],[47,21],[4,-18],[-11,-27],[-36,-22],[-34,0],[-1,-28],[18,-11],[-10,-24],[15,-43],[-9,-25],[-17,-4],[7,-37],[-26,4],[3,-25],[34,-4],[7,-26],[-45,-5],[-33,21],[-7,-20]],[[3331,1332],[1,185],[4,307]],[[768,5203],[1,289],[4,326]],[[1691,7420],[-7,438]],[[1684,7858],[94,0],[181,-1],[154,-4],[128,-2]],[[3451,6749],[-361,-7]],[[3090,6742],[1,248],[-1,245],[14,0],[0,123]],[[3104,7358],[372,1]],[[3229,3413],[118,-1],[192,2],[162,3],[15,2]],[[3716,3419],[5,-291]],[[3586,858],[33,-29],[16,-27],[21,-14],[8,-28],[-7,-28],[-15,-18],[-57,-2],[-42,-11],[-113,-16],[-33,-17],[-49,-51],[-13,-3],[-28,27],[-19,2]],[[1409,6550],[199,-1],[144,1]],[[1752,6550],[5,-94],[1,-295],[-1,-108]],[[1757,6053],[-11,0],[0,-120],[-124,0]],[[348,5207],[65,44],[12,38],[-3,41],[8,37],[17,41],[-5,45],[7,19],[36,33],[12,29],[25,22],[24,34],[38,24],[11,47],[-6,31],[13,38],[4,40],[-7,50]],[[1449,3253],[-3,120],[-3,247]],[[1923,3624],[2,-249],[-5,0],[5,-284],[1,-211]],[[2398,2515],[-4,365],[8,41]],[[2402,2921],[0,269],[117,1]],[[2991,2635],[-119,-3],[-237,-2],[-114,2],[0,-125]],[[2495,5868],[122,1],[0,-254]],[[2617,5615],[-120,2],[-244,-7],[-87,-1]],[[1989,5683],[1,248]],[[1990,5931],[183,0]],[[2740,5618],[-123,-3]],[[2494,6161],[-3,243],[0,147]],[[2733,6613],[127,4],[113,-1],[117,1]],[[3090,6617],[6,-247]],[[3096,6370],[3,-125],[5,-144],[3,-227]],[[3461,6378],[-243,-7],[-122,-1]],[[3090,6617],[0,125]],[[2530,1639],[0,-22],[12,-19],[-5,-37],[-25,-55],[11,-19],[-20,-71],[-24,-25]],[[1230,4477],[-21,-4],[-21,-42],[-2,-21],[-35,-23],[-5,-51],[-21,-19],[-61,-25],[-3,-8]],[[1061,4284],[-30,-10],[-27,4],[-42,-3],[5,31],[-35,37],[-20,5],[-8,19],[-18,9],[6,40],[-35,5],[10,28],[-106,2],[-125,-2]],[[4225,3743],[1,-184]],[[4226,3559],[-167,-1],[1,15],[-289,-8]],[[3771,3565],[-4,166],[-2,124]],[[4224,4135],[1,-392]],[[2080,5362],[237,1],[1,-124],[2,-64],[61,1],[0,-31]],[[2387,4763],[-360,-8]],[[4226,2672],[11,-37],[-6,-12],[33,-46],[-10,-72],[-27,-72],[-71,-27],[-32,-85],[5,-27],[-30,-26]],[[987,4126],[12,25],[19,10],[18,29],[5,34],[23,37],[-3,23]],[[924,7862],[229,-2],[375,2],[156,-4]],[[1269,7415],[-42,17],[-36,28],[-30,41],[-12,34],[15,63],[-29,46],[-32,38],[-28,20],[-58,29],[-17,36],[-57,25],[-31,27],[-2,19],[14,24]],[[2981,1639],[-2,-310]],[[4232,5347],[0,-349]],[[4232,5735],[0,-388]],[[3208,139],[-33,-4],[-47,15],[-25,33],[-23,19],[-81,38],[-47,7],[-78,63],[-68,30],[-62,23]],[[2744,363],[-1,109]],[[3104,7358],[-124,0]],[[2978,7841],[73,2],[354,0],[112,1]],[[1989,2880],[56,1],[0,41],[238,-1],[119,0]],[[2937,4006],[-13,0],[0,-74],[-58,1],[3,-124]],[[2436,4183],[79,1],[-1,186]],[[1990,5931],[-1,122],[-232,0]],[[1752,6550],[245,1]],[[3771,3565],[-57,-1],[2,-145]],[[3229,3516],[-1,290]],[[1349,6832],[57,29],[8,12],[-3,30],[14,62],[18,43],[2,31]],[[4226,3559],[0,-184],[-15,6],[-16,-19],[-30,-7],[-18,-32],[7,-25],[-10,-10],[5,-38],[25,-6],[7,-53],[-13,-26],[-18,-12],[-28,-48]],[[2151,517],[54,14],[8,17],[6,58],[-12,42],[-18,33],[-22,23],[-22,39],[-26,59],[-5,44],[0,8]],[[2620,510],[-58,6],[-158,2]],[[2737,362],[-43,6],[-28,-7],[-30,-19],[-49,-51],[-18,-27],[-12,-34],[-22,-33],[-19,-14],[-31,-44]],[[2744,363],[-7,-1]]],"transform":{"scale":[0.0009420893527204518,0.000704424192317477],"translate":[-91.512974,36.970298]},"objects":{"17":{"type":"GeometryCollection","geometries":[{"arcs":[[0,1,2,3]],"type":"Polygon","properties":{"STATEFP":"17","COUNTYFP":"043","COUNTYNS":"00422191","GEOIDFQ":"0500000US17043","GEOID":"17043","NAME":"DuPage","NAMELSAD":"DuPage County","STUSPS":"IL","STATE_NAME":"Illinois","LSAD":"06","ALAND":849236415,"AWATER":22006224},"id":"17043"},{"arcs":[[4,5,6,7,8,9]],"type":"Polygon","properties":{"STATEFP":"17","COUNTYFP":"095","COUNTYNS":"00424249","GEOIDFQ":"0500000US17095","GEOID":"17095","NAME":"Knox","NAMELSAD":"Knox County","STUSPS":"IL","STATE_NAME":"Illinois","LSAD":"06","ALAND":1855351760,"AWATER":8914499},"id":"17095"},{"arcs":[[10,11,12]],"type":"Polygon","properties":{"STATEFP":"17","COUNTYFP":"097","COUNTYNS":"01784796","GEOIDFQ":"0500000US17097","GEOID":"17097","NAME":"Lake","NAMELSAD":"Lake County","STUSPS":"IL","STATE_NAME":"Illinois","LSAD":"06","ALAND":1149124986,"AWATER":2394833743},"id":"17097"},{"arcs":[[13,14,15,16,17,18]],"type":"Polygon","properties":{"STATEFP":"17","COUNTYFP":"189","COUNTYNS":"01785150","GEOIDFQ":"0500000US17189","GEOID":"17189","NAME":"Washington","NAMELSAD":"Washington County","STUSPS":"IL","STATE_NAME":"Illinois","LSAD":"06","ALAND":1457120178,"AWATER":3386079},"id":"17189"},{"arcs":[[19,20,21,22,23]],"type":"Polygon","properties":{"STATEFP":"17","COUNTYFP":"185","COUNTYNS":"00424293","GEOIDFQ":"0500000US17185","GEOID":"17185","NAME":"Wabash","NAMELSAD":"Wabash County","STUSPS":"IL","STATE_NAME":"Illinois","LSAD":"06","ALAND":578403989,"AWATER":10973571},"id":"17185"},{"arcs":[[-14,24,25,26,27,28]],"type":"Polygon","properties":{"STATEFP":"17","COUNTYFP":"027","COUNTYNS":"00424215","GEOIDFQ":"0500000US17027","GEOID":"17027","NAME":"Clinton","NAMELSAD":"Clinton County","STUSPS":"IL","STATE_NAME":"Illinois","LSAD":"06","ALAND":1227502153,"AWATER":75634262},"id":"17027"},{"arcs":[[29,30,31,32]],"type":"Polygon","properties":{"STATEFP":"17","COUNTYFP":"129","COUNTYNS":"00424266","GEOIDFQ":"0500000US17129","GEOID":"17129","NAME":"Menard","NAMELSAD":"Menard County","STUSPS":"IL","STATE_NAME":"Illinois","LSAD":"06","ALAND":814269348,"AWATER":2640418},"id":"17129"},{"arcs":[[-2,33,34,35,36,37]],"type":"Polygon","properties":{"STATEFP":"17","COUNTYFP":"197","COUNTYNS":"01785190","GEOIDFQ":"0500000US17197","GEOID":"17197","NAME":"Will","NAMELSAD":"Will County","STUSPS":"IL","STATE_NAME":"Illinois","LSAD":"06","ALAND":2164990677,"AWATER":34485763},"id":"17197"},{"arcs":[[38,39,40,41,42,43]],"type":"Polygon","properties":{"STATEFP":"17","COUNTYFP":"147","COUNTYNS":"00424275","GEOIDFQ":"0500000US17147","GEOID":"17147","NAME":"Piatt","NAMELSAD":"Piatt County","STUSPS":"IL","STATE_NAME":"Illinois","LSAD":"06","ALAND":1137492093,"AWATER":754122},"id":"17147"},{"arcs":[[-1,44,45,-12,46,-34]],"type":"Polygon","properties":{"STATEFP":"17","COUNTYFP":"031","COUNTYNS":"01784766","GEOIDFQ":"0500000US17031","GEOID":"17031","NAME":"Cook","NAMELSAD":"Cook County","STUSPS":"IL","STATE_NAME":"Illinois","LSAD":"06","ALAND":2447358069,"AWATER":1786339736},"id":"17031"},{"arcs":[[47,48,49,50,51,52]],"type":"Polygon","properties":{"STATEFP":"17","COUNTYFP":"165","COUNTYNS":"00424283","GEOIDFQ":"0500000US17165","GEOID":"17165","NAME":"Saline","NAMELSAD":"Saline County","STUSPS":"IL","STATE_NAME":"Illinois","LSAD":"06","ALAND":984186255,"AWATER":17963038},"id":"17165"},{"arcs":[[53,54,55,56]],"type":"Polygon","properties":{"STATEFP":"17","COUNTYFP":"161","COUNTYNS":"00424282","GEOIDFQ":"0500000US17161","GEOID":"17161","NAME":"Rock Island","NAMELSAD":"Rock Island County","STUSPS":"IL","STATE_NAME":"Illinois","LSAD":"06","ALAND":1107212317,"AWATER":61631338},"id":"17161"},{"arcs":[[-24,57,58,59]],"type":"Polygon","properties":{"STATEFP":"17","COUNTYFP":"047","COUNTYNS":"00424225","GEOIDFQ":"0500000US17047","GEOID":"17047","NAME":"Edwards","NAMELSAD":"Edwards County","STUSPS":"IL","STATE_NAME":"Illinois","LSAD":"06","ALAND":576012469,"AWATER":781202},"id":"17047"},{"arcs":[[-30,60,61,62,63,64]],"type":"Polygon","properties":{"STATEFP":"17","COUNTYFP":"125","COUNTYNS":"00424261","GEOIDFQ":"0500000US17125","GEOID":"17125","NAME":"Mason","NAMELSAD":"Mason County","STUSPS":"IL","STATE_NAME":"Illinois","LSAD":"06","ALAND":1396914845,"AWATER":62748509},"id":"17125"},{"arcs":[[65,66,67,68,69]],"type":"Polygon","properties":{"STATEFP":"17","COUNTYFP":"109","COUNTYNS":"01784729","GEOIDFQ":"0500000US17109","GEOID":"17109","NAME":"McDonough","NAMELSAD":"McDonough County","STUSPS":"IL","STATE_NAME":"Illinois","LSAD":"06","ALAND":1526291866,"AWATER":2060301},"id":"17109"},{"arcs":[[70,71,72,73]],"type":"Polygon","properties":{"STATEFP":"17","COUNTYFP":"003","COUNTYNS":"00424203","GEOIDFQ":"0500000US17003","GEOID":"17003","NAME":"Alexander","NAMELSAD":"Alexander County","STUSPS":"IL","STATE_NAME":"Illinois","LSAD":"06","ALAND":609667770,"AWATER":44639202},"id":"17003"},{"arcs":[[74,75,76,77]],"type":"Polygon","properties":{"STATEFP":"17","COUNTYFP":"007","COUNTYNS":"00424205","GEOIDFQ":"0500000US17007","GEOID":"17007","NAME":"Boone","NAMELSAD":"Boone County","STUSPS":"IL","STATE_NAME":"Illinois","LSAD":"06","ALAND":727137091,"AWATER":3338156},"id":"17007"},{"arcs":[[-53,78,79,80,81]],"type":"Polygon","properties":{"STATEFP":"17","COUNTYFP":"199","COUNTYNS":"01785215","GEOIDFQ":"0500000US17199","GEOID":"17199","NAME":"Williamson","NAMELSAD":"Williamson County","STUSPS":"IL","STATE_NAME":"Illinois","LSAD":"06","ALAND":1088353644,"AWATER":62455779},"id":"17199"},{"arcs":[[82,83,84,85,86,87]],"type":"Polygon","properties":{"STATEFP":"17","COUNTYFP":"141","COUNTYNS":"01784894","GEOIDFQ":"0500000US17141","GEOID":"17141","NAME":"Ogle","NAMELSAD":"Ogle County","STUSPS":"IL","STATE_NAME":"Illinois","LSAD":"06","ALAND":1964903749,"AWATER":12378958},"id":"17141"},{"arcs":[[88,89,90,91,92]],"type":"Polygon","properties":{"STATEFP":"17","COUNTYFP":"001","COUNTYNS":"00424202","GEOIDFQ":"0500000US17001","GEOID":"17001","NAME":"Adams","NAMELSAD":"Adams County","STUSPS":"IL","STATE_NAME":"Illinois","LSAD":"06","ALAND":2214827090,"AWATER":41753385},"id":"17001"},{"arcs":[[93,94,95,96,97]],"type":"Polygon","properties":{"STATEFP":"17","COUNTYFP":"013","COUNTYNS":"00424208","GEOIDFQ":"0500000US17013","GEOID":"17013","NAME":"Calhoun","NAMELSAD":"Calhoun County","STUSPS":"IL","STATE_NAME":"Illinois","LSAD":"06","ALAND":657415185,"AWATER":77051402},"id":"17013"},{"arcs":[[98,99,100,101,102,103]],"type":"Polygon","properties":{"STATEFP":"17","COUNTYFP":"079","COUNTYNS":"00424241","GEOIDFQ":"0500000US17079","GEOID":"17079","NAME":"Jasper","NAMELSAD":"Jasper County","STUSPS":"IL","STATE_NAME":"Illinois","LSAD":"06","ALAND":1281043466,"AWATER":9334674},"id":"17079"},{"arcs":[[-104,104,105,106,107]],"type":"Polygon","properties":{"STATEFP":"17","COUNTYFP":"049","COUNTYNS":"00424226","GEOIDFQ":"0500000US17049","GEOID":"17049","NAME":"Effingham","NAMELSAD":"Effingham County","STUSPS":"IL","STATE_NAME":"Illinois","LSAD":"06","ALAND":1240001925,"AWATER":3178181},"id":"17049"},{"arcs":[[-103,108,109,110,111,-105]],"type":"Polygon","properties":{"STATEFP":"17","COUNTYFP":"025","COUNTYNS":"00424214","GEOIDFQ":"0500000US17025","GEOID":"17025","NAME":"Clay","NAMELSAD":"Clay County","STUSPS":"IL","STATE_NAME":"Illinois","LSAD":"06","ALAND":1213023045,"AWATER":3064499},"id":"17025"},{"arcs":[[-59,112,113,114,115,-110,116]],"type":"Polygon","properties":{"STATEFP":"17","COUNTYFP":"191","COUNTYNS":"00424296","GEOIDFQ":"0500000US17191","GEOID":"17191","NAME":"Wayne","NAMELSAD":"Wayne County","STUSPS":"IL","STATE_NAME":"Illinois","LSAD":"06","ALAND":1848817749,"AWATER":4217594},"id":"17191"},{"arcs":[[-97,117,118,119,120]],"type":"Polygon","properties":{"STATEFP":"17","COUNTYFP":"083","COUNTYNS":"00424243","GEOIDFQ":"0500000US17083","GEOID":"17083","NAME":"Jersey","NAMELSAD":"Jersey County","STUSPS":"IL","STATE_NAME":"Illinois","LSAD":"06","ALAND":957144905,"AWATER":20332592},"id":"17083"},{"arcs":[[-9,121,122,-63,123,-68,124]],"type":"Polygon","properties":{"STATEFP":"17","COUNTYFP":"057","COUNTYNS":"00424230","GEOIDFQ":"0500000US17057","GEOID":"17057","NAME":"Fulton","NAMELSAD":"Fulton County","STUSPS":"IL","STATE_NAME":"Illinois","LSAD":"06","ALAND":2242138203,"AWATER":43898933},"id":"17057"},{"arcs":[[-16,125,-115,126,127,128]],"type":"Polygon","properties":{"STATEFP":"17","COUNTYFP":"081","COUNTYNS":"00424242","GEOIDFQ":"0500000US17081","GEOID":"17081","NAME":"Jefferson","NAMELSAD":"Jefferson County","STUSPS":"IL","STATE_NAME":"Illinois","LSAD":"06","ALAND":1479496305,"AWATER":32544477},"id":"17081"},{"arcs":[[129,130,131,132,133,134]],"type":"Polygon","properties":{"STATEFP":"17","COUNTYFP":"105","COUNTYNS":"00424254","GEOIDFQ":"0500000US17105","GEOID":"17105","NAME":"Livingston","NAMELSAD":"Livingston County","STUSPS":"IL","STATE_NAME":"Illinois","LSAD":"06","ALAND":2702983876,"AWATER":5975815},"id":"17105"},{"arcs":[[135,136,137,138,-81,139]],"type":"Polygon","properties":{"STATEFP":"17","COUNTYFP":"077","COUNTYNS":"00424240","GEOIDFQ":"0500000US17077","GEOID":"17077","NAME":"Jackson","NAMELSAD":"Jackson County","STUSPS":"IL","STATE_NAME":"Illinois","LSAD":"06","ALAND":1511448965,"AWATER":48302865},"id":"17077"},{"arcs":[[-86,140,141,142,143]],"type":"Polygon","properties":{"STATEFP":"17","COUNTYFP":"103","COUNTYNS":"00424253","GEOIDFQ":"0500000US17103","GEOID":"17103","NAME":"Lee","NAMELSAD":"Lee County","STUSPS":"IL","STATE_NAME":"Illinois","LSAD":"06","ALAND":1877142078,"AWATER":9779872},"id":"17103"},{"arcs":[[-133,144,145,146,147,148]],"type":"Polygon","properties":{"STATEFP":"17","COUNTYFP":"053","COUNTYNS":"00424228","GEOIDFQ":"0500000US17053","GEOID":"17053","NAME":"Ford","NAMELSAD":"Ford County","STUSPS":"IL","STATE_NAME":"Illinois","LSAD":"06","ALAND":1257690139,"AWATER":1640595},"id":"17053"},{"arcs":[[-5,149,150,151,-57,152]],"type":"Polygon","properties":{"STATEFP":"17","COUNTYFP":"131","COUNTYNS":"01784750","GEOIDFQ":"0500000US17131","GEOID":"17131","NAME":"Mercer","NAMELSAD":"Mercer County","STUSPS":"IL","STATE_NAME":"Illinois","LSAD":"06","ALAND":1453604386,"AWATER":19411909},"id":"17131"},{"arcs":[[-39,153,154,155]],"type":"Polygon","properties":{"STATEFP":"17","COUNTYFP":"039","COUNTYNS":"00426598","GEOIDFQ":"0500000US17039","GEOID":"17039","NAME":"De Witt","NAMELSAD":"De Witt County","STUSPS":"IL","STATE_NAME":"Illinois","LSAD":"06","ALAND":1029678313,"AWATER":19492326},"id":"17039"},{"arcs":[[-36,156,157,-145,-132,158]],"type":"Polygon","properties":{"STATEFP":"17","COUNTYFP":"091","COUNTYNS":"00424247","GEOIDFQ":"0500000US17091","GEOID":"17091","NAME":"Kankakee","NAMELSAD":"Kankakee County","STUSPS":"IL","STATE_NAME":"Illinois","LSAD":"06","ALAND":1752101320,"AWATER":12459008},"id":"17091"},{"arcs":[[-50,159,160,161,162]],"type":"Polygon","properties":{"STATEFP":"17","COUNTYFP":"059","COUNTYNS":"00424231","GEOIDFQ":"0500000US17059","GEOID":"17059","NAME":"Gallatin","NAMELSAD":"Gallatin County","STUSPS":"IL","STATE_NAME":"Illinois","LSAD":"06","ALAND":836415230,"AWATER":13355417},"id":"17059"},{"arcs":[[-20,-60,-117,-109,-102,163,164]],"type":"Polygon","properties":{"STATEFP":"17","COUNTYFP":"159","COUNTYNS":"00424281","GEOIDFQ":"0500000US17159","GEOID":"17159","NAME":"Richland","NAMELSAD":"Richland County","STUSPS":"IL","STATE_NAME":"Illinois","LSAD":"06","ALAND":932518180,"AWATER":4840675},"id":"17159"},{"arcs":[[165,166,167,-147,168]],"type":"Polygon","properties":{"STATEFP":"17","COUNTYFP":"183","COUNTYNS":"01785114","GEOIDFQ":"0500000US17183","GEOID":"17183","NAME":"Vermilion","NAMELSAD":"Vermilion County","STUSPS":"IL","STATE_NAME":"Illinois","LSAD":"06","ALAND":2326639022,"AWATER":7527081},"id":"17183"},{"arcs":[[-18,169,-137,170,171,172]],"type":"Polygon","properties":{"STATEFP":"17","COUNTYFP":"157","COUNTYNS":"01784967","GEOIDFQ":"0500000US17157","GEOID":"17157","NAME":"Randolph","NAMELSAD":"Randolph County","STUSPS":"IL","STATE_NAME":"Illinois","LSAD":"06","ALAND":1490194102,"AWATER":56150220},"id":"17157"},{"arcs":[[-52,173,174,175,176]],"type":"Polygon","properties":{"STATEFP":"17","COUNTYFP":"151","COUNTYNS":"00424277","GEOIDFQ":"0500000US17151","GEOID":"17151","NAME":"Pope","NAMELSAD":"Pope County","STUSPS":"IL","STATE_NAME":"Illinois","LSAD":"06","ALAND":955362038,"AWATER":14662240},"id":"17151"},{"arcs":[[-40,-156,177,178,179,-134,-149,180]],"type":"Polygon","properties":{"STATEFP":"17","COUNTYFP":"113","COUNTYNS":"01784833","GEOIDFQ":"0500000US17113","GEOID":"17113","NAME":"McLean","NAMELSAD":"McLean County","STUSPS":"IL","STATE_NAME":"Illinois","LSAD":"06","ALAND":3064597294,"AWATER":7804856},"id":"17113"},{"arcs":[[-32,181,182,183,184,185,186,187]],"type":"Polygon","properties":{"STATEFP":"17","COUNTYFP":"167","COUNTYNS":"01785010","GEOIDFQ":"0500000US17167","GEOID":"17167","NAME":"Sangamon","NAMELSAD":"Sangamon County","STUSPS":"IL","STATE_NAME":"Illinois","LSAD":"06","ALAND":2248704917,"AWATER":22747684},"id":"17167"},{"arcs":[[188,-92,189,190,191,192,-95,193]],"type":"Polygon","properties":{"STATEFP":"17","COUNTYFP":"149","COUNTYNS":"01784941","GEOIDFQ":"0500000US17149","GEOID":"17149","NAME":"Pike","NAMELSAD":"Pike County","STUSPS":"IL","STATE_NAME":"Illinois","LSAD":"06","ALAND":2153190712,"AWATER":45251538},"id":"17149"},{"arcs":[[-101,194,195,196,-164]],"type":"Polygon","properties":{"STATEFP":"17","COUNTYFP":"033","COUNTYNS":"00424218","GEOIDFQ":"0500000US17033","GEOID":"17033","NAME":"Crawford","NAMELSAD":"Crawford County","STUSPS":"IL","STATE_NAME":"Illinois","LSAD":"06","ALAND":1149031270,"AWATER":5744817},"id":"17033"},{"arcs":[[-184,197,198,199]],"type":"Polygon","properties":{"STATEFP":"17","COUNTYFP":"021","COUNTYNS":"00424212","GEOIDFQ":"0500000US17021","GEOID":"17021","NAME":"Christian","NAMELSAD":"Christian County","STUSPS":"IL","STATE_NAME":"Illinois","LSAD":"06","ALAND":1837552893,"AWATER":16227346},"id":"17021"},{"arcs":[[200,201,202]],"type":"Polygon","properties":{"STATEFP":"17","COUNTYFP":"155","COUNTYNS":"00424279","GEOIDFQ":"0500000US17155","GEOID":"17155","NAME":"Putnam","NAMELSAD":"Putnam County","STUSPS":"IL","STATE_NAME":"Illinois","LSAD":"06","ALAND":414649975,"AWATER":31194387},"id":"17155"},{"arcs":[[-70,203,-89,204,205]],"type":"Polygon","properties":{"STATEFP":"17","COUNTYFP":"067","COUNTYNS":"00424235","GEOIDFQ":"0500000US17067","GEOID":"17067","NAME":"Hancock","NAMELSAD":"Hancock County","STUSPS":"IL","STATE_NAME":"Illinois","LSAD":"06","ALAND":2055798710,"AWATER":53563365},"id":"17067"},{"arcs":[[-78,-84,206,207]],"type":"Polygon","properties":{"STATEFP":"17","COUNTYFP":"201","COUNTYNS":"01785216","GEOIDFQ":"0500000US17201","GEOID":"17201","NAME":"Winnebago","NAMELSAD":"Winnebago County","STUSPS":"IL","STATE_NAME":"Illinois","LSAD":"06","ALAND":1328789495,"AWATER":15877063},"id":"17201"},{"arcs":[[-42,208,209,210,211]],"type":"Polygon","properties":{"STATEFP":"17","COUNTYFP":"041","COUNTYNS":"00424222","GEOIDFQ":"0500000US17041","GEOID":"17041","NAME":"Douglas","NAMELSAD":"Douglas County","STUSPS":"IL","STATE_NAME":"Illinois","LSAD":"06","ALAND":1079117766,"AWATER":1441160},"id":"17041"},{"arcs":[[-107,212,213,-199,214,215,216,217]],"type":"Polygon","properties":{"STATEFP":"17","COUNTYFP":"173","COUNTYNS":"01785051","GEOIDFQ":"0500000US17173","GEOID":"17173","NAME":"Shelby","NAMELSAD":"Shelby County","STUSPS":"IL","STATE_NAME":"Illinois","LSAD":"06","ALAND":1964526143,"AWATER":24749348},"id":"17173"},{"arcs":[[-187,218,219,220,-191,221,222]],"type":"Polygon","properties":{"STATEFP":"17","COUNTYFP":"137","COUNTYNS":"00424270","GEOIDFQ":"0500000US17137","GEOID":"17137","NAME":"Morgan","NAMELSAD":"Morgan County","STUSPS":"IL","STATE_NAME":"Illinois","LSAD":"06","ALAND":1473595806,"AWATER":9053547},"id":"17137"},{"arcs":[[-177,223,224,225,-79]],"type":"Polygon","properties":{"STATEFP":"17","COUNTYFP":"087","COUNTYNS":"00424245","GEOIDFQ":"0500000US17087","GEOID":"17087","NAME":"Johnson","NAMELSAD":"Johnson County","STUSPS":"IL","STATE_NAME":"Illinois","LSAD":"06","ALAND":890274791,"AWATER":12813242},"id":"17087"},{"arcs":[[-192,-221,226]],"type":"Polygon","properties":{"STATEFP":"17","COUNTYFP":"171","COUNTYNS":"00424286","GEOIDFQ":"0500000US17171","GEOID":"17171","NAME":"Scott","NAMELSAD":"Scott County","STUSPS":"IL","STATE_NAME":"Illinois","LSAD":"06","ALAND":649542040,"AWATER":4814547},"id":"17171"},{"arcs":[[-8,227,228,229,230,-122]],"type":"Polygon","properties":{"STATEFP":"17","COUNTYFP":"143","COUNTYNS":"01784920","GEOIDFQ":"0500000US17143","GEOID":"17143","NAME":"Peoria","NAMELSAD":"Peoria County","STUSPS":"IL","STATE_NAME":"Illinois","LSAD":"06","ALAND":1602412938,"AWATER":29919375},"id":"17143"},{"arcs":[[231,232,-172,233]],"type":"Polygon","properties":{"STATEFP":"17","COUNTYFP":"133","COUNTYNS":"01784865","GEOIDFQ":"0500000US17133","GEOID":"17133","NAME":"Monroe","NAMELSAD":"Monroe County","STUSPS":"IL","STATE_NAME":"Illinois","LSAD":"06","ALAND":997924032,"AWATER":33756312},"id":"17133"},{"arcs":[[-88,234,235,236,237]],"type":"Polygon","properties":{"STATEFP":"17","COUNTYFP":"015","COUNTYNS":"00424209","GEOIDFQ":"0500000US17015","GEOID":"17015","NAME":"Carroll","NAMELSAD":"Carroll County","STUSPS":"IL","STATE_NAME":"Illinois","LSAD":"06","ALAND":1153597409,"AWATER":55881823},"id":"17015"},{"arcs":[[238,239,-25,-19,-173,-233]],"type":"Polygon","properties":{"STATEFP":"17","COUNTYFP":"163","COUNTYNS":"01784987","GEOIDFQ":"0500000US17163","GEOID":"17163","NAME":"St. Clair","NAMELSAD":"St. Clair County","STUSPS":"IL","STATE_NAME":"Illinois","LSAD":"06","ALAND":1703560308,"AWATER":41809674},"id":"17163"},{"arcs":[[240,-120,241,242,243,-26,-240,244]],"type":"Polygon","properties":{"STATEFP":"17","COUNTYFP":"119","COUNTYNS":"00424258","GEOIDFQ":"0500000US17119","GEOID":"17119","NAME":"Madison","NAMELSAD":"Madison County","STUSPS":"IL","STATE_NAME":"Illinois","LSAD":"06","ALAND":1853192372,"AWATER":63157281},"id":"17119"},{"arcs":[[-23,245,-161,246,-113,-58]],"type":"Polygon","properties":{"STATEFP":"17","COUNTYFP":"193","COUNTYNS":"00424297","GEOIDFQ":"0500000US17193","GEOID":"17193","NAME":"White","NAMELSAD":"White County","STUSPS":"IL","STATE_NAME":"Illinois","LSAD":"06","ALAND":1281999215,"AWATER":17833681},"id":"17193"},{"arcs":[[-10,-125,-67,247,-150]],"type":"Polygon","properties":{"STATEFP":"17","COUNTYFP":"187","COUNTYNS":"01785134","GEOIDFQ":"0500000US17187","GEOID":"17187","NAME":"Warren","NAMELSAD":"Warren County","STUSPS":"IL","STATE_NAME":"Illinois","LSAD":"06","ALAND":1404705831,"AWATER":1735113},"id":"17187"},{"arcs":[[-83,-238,248,249,-207]],"type":"Polygon","properties":{"STATEFP":"17","COUNTYFP":"177","COUNTYNS":"01785076","GEOIDFQ":"0500000US17177","GEOID":"17177","NAME":"Stephenson","NAMELSAD":"Stephenson County","STUSPS":"IL","STATE_NAME":"Illinois","LSAD":"06","ALAND":1461392058,"AWATER":1350223},"id":"17177"},{"arcs":[[-4,250,251,252,-45]],"type":"Polygon","properties":{"STATEFP":"17","COUNTYFP":"089","COUNTYNS":"00424246","GEOIDFQ":"0500000US17089","GEOID":"17089","NAME":"Kane","NAMELSAD":"Kane County","STUSPS":"IL","STATE_NAME":"Illinois","LSAD":"06","ALAND":1345139287,"AWATER":12480820},"id":"17089"},{"arcs":[[-99,-108,-218,253,254]],"type":"Polygon","properties":{"STATEFP":"17","COUNTYFP":"035","COUNTYNS":"00424219","GEOIDFQ":"0500000US17035","GEOID":"17035","NAME":"Cumberland","NAMELSAD":"Cumberland County","STUSPS":"IL","STATE_NAME":"Illinois","LSAD":"06","ALAND":895995630,"AWATER":2532358},"id":"17035"},{"arcs":[[-51,-163,255,-174]],"type":"Polygon","properties":{"STATEFP":"17","COUNTYFP":"069","COUNTYNS":"00424236","GEOIDFQ":"0500000US17069","GEOID":"17069","NAME":"Hardin","NAMELSAD":"Hardin County","STUSPS":"IL","STATE_NAME":"Illinois","LSAD":"06","ALAND":459438162,"AWATER":10482693},"id":"17069"},{"arcs":[[-41,-181,-148,-168,-209]],"type":"Polygon","properties":{"STATEFP":"17","COUNTYFP":"019","COUNTYNS":"00424211","GEOIDFQ":"0500000US17019","GEOID":"17019","NAME":"Champaign","NAMELSAD":"Champaign County","STUSPS":"IL","STATE_NAME":"Illinois","LSAD":"06","ALAND":2579898008,"AWATER":6110542},"id":"17019"},{"arcs":[[-6,-153,-56,256,257,258]],"type":"Polygon","properties":{"STATEFP":"17","COUNTYFP":"073","COUNTYNS":"00424238","GEOIDFQ":"0500000US17073","GEOID":"17073","NAME":"Henry","NAMELSAD":"Henry County","STUSPS":"IL","STATE_NAME":"Illinois","LSAD":"06","ALAND":2132042739,"AWATER":6481370},"id":"17073"},{"arcs":[[-66,-206,259,-151,-248]],"type":"Polygon","properties":{"STATEFP":"17","COUNTYFP":"071","COUNTYNS":"00424237","GEOIDFQ":"0500000US17071","GEOID":"17071","NAME":"Henderson","NAMELSAD":"Henderson County","STUSPS":"IL","STATE_NAME":"Illinois","LSAD":"06","ALAND":981068776,"AWATER":42565933},"id":"17071"},{"arcs":[[-119,260,-219,-186,261,-242]],"type":"Polygon","properties":{"STATEFP":"17","COUNTYFP":"117","COUNTYNS":"00424257","GEOIDFQ":"0500000US17117","GEOID":"17117","NAME":"Macoupin","NAMELSAD":"Macoupin County","STUSPS":"IL","STATE_NAME":"Illinois","LSAD":"06","ALAND":2235146415,"AWATER":12194715},"id":"17117"},{"arcs":[[-28,262,263,-213,-106,-112,264]],"type":"Polygon","properties":{"STATEFP":"17","COUNTYFP":"051","COUNTYNS":"00424227","GEOIDFQ":"0500000US17051","GEOID":"17051","NAME":"Fayette","NAMELSAD":"Fayette County","STUSPS":"IL","STATE_NAME":"Illinois","LSAD":"06","ALAND":1855600276,"AWATER":22898580},"id":"17051"},{"arcs":[[-202,265,266,-229,267,268]],"type":"Polygon","properties":{"STATEFP":"17","COUNTYFP":"123","COUNTYNS":"00424260","GEOIDFQ":"0500000US17123","GEOID":"17123","NAME":"Marshall","NAMELSAD":"Marshall County","STUSPS":"IL","STATE_NAME":"Illinois","LSAD":"06","ALAND":1001865238,"AWATER":30343574},"id":"17123"},{"arcs":[[-130,269,-266,-201,270,-142,271,272,273]],"type":"Polygon","properties":{"STATEFP":"17","COUNTYFP":"099","COUNTYNS":"00422247","GEOIDFQ":"0500000US17099","GEOID":"17099","NAME":"LaSalle","NAMELSAD":"LaSalle County","STUSPS":"IL","STATE_NAME":"Illinois","LSAD":"06","ALAND":2939940625,"AWATER":33828203},"id":"17099"},{"arcs":[[-3,-38,274,-273,275,-251]],"type":"Polygon","properties":{"STATEFP":"17","COUNTYFP":"093","COUNTYNS":"00424248","GEOIDFQ":"0500000US17093","GEOID":"17093","NAME":"Kendall","NAMELSAD":"Kendall County","STUSPS":"IL","STATE_NAME":"Illinois","LSAD":"06","ALAND":829425891,"AWATER":5122499},"id":"17093"},{"arcs":[[-17,-129,276,-138,-170]],"type":"Polygon","properties":{"STATEFP":"17","COUNTYFP":"145","COUNTYNS":"01784940","GEOIDFQ":"0500000US17145","GEOID":"17145","NAME":"Perry","NAMELSAD":"Perry County","STUSPS":"IL","STATE_NAME":"Illinois","LSAD":"06","ALAND":1144587288,"AWATER":13199036},"id":"17145"},{"arcs":[[-62,277,278,-90,-204,-69,-124]],"type":"Polygon","properties":{"STATEFP":"17","COUNTYFP":"169","COUNTYNS":"01785037","GEOIDFQ":"0500000US17169","GEOID":"17169","NAME":"Schuyler","NAMELSAD":"Schuyler County","STUSPS":"IL","STATE_NAME":"Illinois","LSAD":"06","ALAND":1132602766,"AWATER":10510632},"id":"17169"},{"arcs":[[279,280,281,-210,-167,282]],"type":"Polygon","properties":{"STATEFP":"17","COUNTYFP":"045","COUNTYNS":"00424224","GEOIDFQ":"0500000US17045","GEOID":"17045","NAME":"Edgar","NAMELSAD":"Edgar County","STUSPS":"IL","STATE_NAME":"Illinois","LSAD":"06","ALAND":1614400671,"AWATER":1565052},"id":"17045"},{"arcs":[[-64,-123,-231,283,-179,284]],"type":"Polygon","properties":{"STATEFP":"17","COUNTYFP":"179","COUNTYNS":"01785094","GEOIDFQ":"0500000US17179","GEOID":"17179","NAME":"Tazewell","NAMELSAD":"Tazewell County","STUSPS":"IL","STATE_NAME":"Illinois","LSAD":"06","ALAND":1674390616,"AWATER":29668273},"id":"17179"},{"arcs":[[-21,-165,-197,285]],"type":"Polygon","properties":{"STATEFP":"17","COUNTYFP":"101","COUNTYNS":"00424252","GEOIDFQ":"0500000US17101","GEOID":"17101","NAME":"Lawrence","NAMELSAD":"Lawrence County","STUSPS":"IL","STATE_NAME":"Illinois","LSAD":"06","ALAND":963938120,"AWATER":5076511},"id":"17101"},{"arcs":[[-135,-180,-284,-230,-267,-270]],"type":"Polygon","properties":{"STATEFP":"17","COUNTYFP":"203","COUNTYNS":"01785231","GEOIDFQ":"0500000US17203","GEOID":"17203","NAME":"Woodford","NAMELSAD":"Woodford County","STUSPS":"IL","STATE_NAME":"Illinois","LSAD":"06","ALAND":1366366883,"AWATER":39858698},"id":"17203"},{"arcs":[[-33,-188,-223,286,-278,-61]],"type":"Polygon","properties":{"STATEFP":"17","COUNTYFP":"017","COUNTYNS":"00424210","GEOIDFQ":"0500000US17017","GEOID":"17017","NAME":"Cass","NAMELSAD":"Cass County","STUSPS":"IL","STATE_NAME":"Illinois","LSAD":"06","ALAND":973198198,"AWATER":20569928},"id":"17017"},{"arcs":[[287,-249,-237,288]],"type":"Polygon","properties":{"STATEFP":"17","COUNTYFP":"085","COUNTYNS":"00424244","GEOIDFQ":"0500000US17085","GEOID":"17085","NAME":"Jo Daviess","NAMELSAD":"Jo Daviess County","STUSPS":"IL","STATE_NAME":"Illinois","LSAD":"06","ALAND":1556385363,"AWATER":45789931},"id":"17085"},{"arcs":[[-48,-82,-139,-277,-128,289]],"type":"Polygon","properties":{"STATEFP":"17","COUNTYFP":"055","COUNTYNS":"00424229","GEOIDFQ":"0500000US17055","GEOID":"17055","NAME":"Franklin","NAMELSAD":"Franklin County","STUSPS":"IL","STATE_NAME":"Illinois","LSAD":"06","ALAND":1059137475,"AWATER":58368794},"id":"17055"},{"arcs":[[290,-169,-146,-158,291]],"type":"Polygon","properties":{"STATEFP":"17","COUNTYFP":"075","COUNTYNS":"00424239","GEOIDFQ":"0500000US17075","GEOID":"17075","NAME":"Iroquois","NAMELSAD":"Iroquois County","STUSPS":"IL","STATE_NAME":"Illinois","LSAD":"06","ALAND":2894072162,"AWATER":4208707},"id":"17075"},{"arcs":[[-15,-29,-265,-111,-116,-126]],"type":"Polygon","properties":{"STATEFP":"17","COUNTYFP":"121","COUNTYNS":"00424259","GEOIDFQ":"0500000US17121","GEOID":"17121","NAME":"Marion","NAMELSAD":"Marion County","STUSPS":"IL","STATE_NAME":"Illinois","LSAD":"06","ALAND":1482866786,"AWATER":9232943},"id":"17121"},{"arcs":[[-49,-290,-127,-114,-247,-160]],"type":"Polygon","properties":{"STATEFP":"17","COUNTYFP":"065","COUNTYNS":"00424234","GEOIDFQ":"0500000US17065","GEOID":"17065","NAME":"Hamilton","NAMELSAD":"Hamilton County","STUSPS":"IL","STATE_NAME":"Illinois","LSAD":"06","ALAND":1125745190,"AWATER":3158473},"id":"17065"},{"arcs":[[292,293,-224,-176]],"type":"Polygon","properties":{"STATEFP":"17","COUNTYFP":"127","COUNTYNS":"01784730","GEOIDFQ":"0500000US17127","GEOID":"17127","NAME":"Massac","NAMELSAD":"Massac County","STUSPS":"IL","STATE_NAME":"Illinois","LSAD":"06","ALAND":614222111,"AWATER":12780838},"id":"17127"},{"arcs":[[-13,-46,-253,294,-76,295]],"type":"Polygon","properties":{"STATEFP":"17","COUNTYFP":"111","COUNTYNS":"01784815","GEOIDFQ":"0500000US17111","GEOID":"17111","NAME":"McHenry","NAMELSAD":"McHenry County","STUSPS":"IL","STATE_NAME":"Illinois","LSAD":"06","ALAND":1562806157,"AWATER":19855932},"id":"17111"},{"arcs":[[-27,-244,296,-263]],"type":"Polygon","properties":{"STATEFP":"17","COUNTYFP":"005","COUNTYNS":"00424204","GEOIDFQ":"0500000US17005","GEOID":"17005","NAME":"Bond","NAMELSAD":"Bond County","STUSPS":"IL","STATE_NAME":"Illinois","LSAD":"06","ALAND":985066653,"AWATER":6462629},"id":"17005"},{"arcs":[[-37,-159,-131,-274,-275]],"type":"Polygon","properties":{"STATEFP":"17","COUNTYFP":"063","COUNTYNS":"00424233","GEOIDFQ":"0500000US17063","GEOID":"17063","NAME":"Grundy","NAMELSAD":"Grundy County","STUSPS":"IL","STATE_NAME":"Illinois","LSAD":"06","ALAND":1082959771,"AWATER":32112492},"id":"17063"},{"arcs":[[-44,297,-215,-198,-183,298,-154]],"type":"Polygon","properties":{"STATEFP":"17","COUNTYFP":"115","COUNTYNS":"00424256","GEOIDFQ":"0500000US17115","GEOID":"17115","NAME":"Macon","NAMELSAD":"Macon County","STUSPS":"IL","STATE_NAME":"Illinois","LSAD":"06","ALAND":1503613053,"AWATER":13477733},"id":"17115"},{"arcs":[[-91,-279,-287,-222,-190]],"type":"Polygon","properties":{"STATEFP":"17","COUNTYFP":"009","COUNTYNS":"00424206","GEOIDFQ":"0500000US17009","GEOID":"17009","NAME":"Brown","NAMELSAD":"Brown County","STUSPS":"IL","STATE_NAME":"Illinois","LSAD":"06","ALAND":791828624,"AWATER":4144346},"id":"17009"},{"arcs":[[-143,-271,-203,-269,299,-258,300]],"type":"Polygon","properties":{"STATEFP":"17","COUNTYFP":"011","COUNTYNS":"00424207","GEOIDFQ":"0500000US17011","GEOID":"17011","NAME":"Bureau","NAMELSAD":"Bureau County","STUSPS":"IL","STATE_NAME":"Illinois","LSAD":"06","ALAND":2250884555,"AWATER":11523912},"id":"17011"},{"arcs":[[-77,-295,-252,-276,-272,-141,-85]],"type":"Polygon","properties":{"STATEFP":"17","COUNTYFP":"037","COUNTYNS":"00422190","GEOIDFQ":"0500000US17037","GEOID":"17037","NAME":"DeKalb","NAMELSAD":"DeKalb County","STUSPS":"IL","STATE_NAME":"Illinois","LSAD":"06","ALAND":1635155498,"AWATER":8560431},"id":"17037"},{"arcs":[[-31,-65,-285,-178,-155,-299,-182]],"type":"Polygon","properties":{"STATEFP":"17","COUNTYFP":"107","COUNTYNS":"00424255","GEOIDFQ":"0500000US17107","GEOID":"17107","NAME":"Logan","NAMELSAD":"Logan County","STUSPS":"IL","STATE_NAME":"Illinois","LSAD":"06","ALAND":1600748259,"AWATER":2262329},"id":"17107"},{"arcs":[[-7,-259,-300,-268,-228]],"type":"Polygon","properties":{"STATEFP":"17","COUNTYFP":"175","COUNTYNS":"00424288","GEOIDFQ":"0500000US17175","GEOID":"17175","NAME":"Stark","NAMELSAD":"Stark County","STUSPS":"IL","STATE_NAME":"Illinois","LSAD":"06","ALAND":746189904,"AWATER":684784},"id":"17175"},{"arcs":[[-211,-282,301,-254,-217,302]],"type":"Polygon","properties":{"STATEFP":"17","COUNTYFP":"029","COUNTYNS":"00424216","GEOIDFQ":"0500000US17029","GEOID":"17029","NAME":"Coles","NAMELSAD":"Coles County","STUSPS":"IL","STATE_NAME":"Illinois","LSAD":"06","ALAND":1316418025,"AWATER":4650073},"id":"17029"},{"arcs":[[-55,303,-235,-87,-144,-301,-257]],"type":"Polygon","properties":{"STATEFP":"17","COUNTYFP":"195","COUNTYNS":"01785167","GEOIDFQ":"0500000US17195","GEOID":"17195","NAME":"Whiteside","NAMELSAD":"Whiteside County","STUSPS":"IL","STATE_NAME":"Illinois","LSAD":"06","ALAND":1771808926,"AWATER":31883751},"id":"17195"},{"arcs":[[-43,-212,-303,-216,-298]],"type":"Polygon","properties":{"STATEFP":"17","COUNTYFP":"139","COUNTYNS":"01784885","GEOIDFQ":"0500000US17139","GEOID":"17139","NAME":"Moultrie","NAMELSAD":"Moultrie County","STUSPS":"IL","STATE_NAME":"Illinois","LSAD":"06","ALAND":870127368,"AWATER":22111272},"id":"17139"},{"arcs":[[-100,-255,-302,-281,304,-195]],"type":"Polygon","properties":{"STATEFP":"17","COUNTYFP":"023","COUNTYNS":"00424213","GEOIDFQ":"0500000US17023","GEOID":"17023","NAME":"Clark","NAMELSAD":"Clark County","STUSPS":"IL","STATE_NAME":"Illinois","LSAD":"06","ALAND":1298594814,"AWATER":8731439},"id":"17023"},{"arcs":[[305,-140,-80,-226,306,-72]],"type":"Polygon","properties":{"STATEFP":"17","COUNTYFP":"181","COUNTYNS":"01785113","GEOIDFQ":"0500000US17181","GEOID":"17181","NAME":"Union","NAMELSAD":"Union County","STUSPS":"IL","STATE_NAME":"Illinois","LSAD":"06","ALAND":1070733038,"AWATER":22538656},"id":"17181"},{"arcs":[[307,-73,-307,-225,-294,308]],"type":"Polygon","properties":{"STATEFP":"17","COUNTYFP":"153","COUNTYNS":"01784966","GEOIDFQ":"0500000US17153","GEOID":"17153","NAME":"Pulaski","NAMELSAD":"Pulaski County","STUSPS":"IL","STATE_NAME":"Illinois","LSAD":"06","ALAND":516105488,"AWATER":9763459},"id":"17153"},{"arcs":[[-96,-193,-227,-220,-261,-118]],"type":"Polygon","properties":{"STATEFP":"17","COUNTYFP":"061","COUNTYNS":"00424232","GEOIDFQ":"0500000US17061","GEOID":"17061","NAME":"Greene","NAMELSAD":"Greene County","STUSPS":"IL","STATE_NAME":"Illinois","LSAD":"06","ALAND":1406736598,"AWATER":8423898},"id":"17061"},{"arcs":[[-185,-200,-214,-264,-297,-243,-262]],"type":"Polygon","properties":{"STATEFP":"17","COUNTYFP":"135","COUNTYNS":"01784866","GEOIDFQ":"0500000US17135","GEOID":"17135","NAME":"Montgomery","NAMELSAD":"Montgomery County","STUSPS":"IL","STATE_NAME":"Illinois","LSAD":"06","ALAND":1822745305,"AWATER":15472187},"id":"17135"}]}}}