{"type":"Topology","arcs":[[[663,3621],[0,327]],[[663,3948],[303,0]],[[966,3948],[198,0]],[[1164,3948],[3,-232]],[[1167,3716],[2,-116]],[[1169,3600],[-132,0],[-374,2]],[[663,3602],[0,19]],[[2151,865],[260,-6]],[[2411,859],[0,-116],[21,0],[0,-39],[22,0],[4,-38],[22,0],[0,-20],[21,-1],[-3,-95],[68,-1],[0,-7]],[[2566,542],[-9,-25],[3,-96],[-13,-38],[-11,-52],[-25,-22],[-61,-7],[-31,-7],[-12,-18],[2,-22],[-19,-6],[-34,54],[-29,16],[-28,5],[-57,-8],[-51,24],[-15,15],[-40,23],[-12,34],[-2,24],[11,39],[-20,38],[-50,31]],[[2063,544],[15,-5],[12,33],[14,1],[21,32],[2,70],[12,21],[-13,59],[28,88],[-3,22]],[[2512,4298],[5,-234],[3,-230],[87,1]],[[2607,3835],[2,-115]],[[2609,3720],[-353,-4]],[[2256,3716],[-5,241],[2,163],[-2,59]],[[2251,4179],[1,115],[260,4]],[[998,1979],[1,349],[46,-1],[1,116]],[[1046,2443],[218,-3]],[[1264,2440],[-2,-175],[87,0]],[[1349,2265],[-3,-59],[0,-116],[-130,1],[-1,-233]],[[1215,1858],[-218,5]],[[997,1863],[1,116]],[[2251,4179],[-86,-1],[-264,1]],[[1901,4179],[1,348]],[[1902,4527],[368,1],[88,1]],[[2358,4529],[2,-117],[67,2],[0,-59],[86,1]],[[2513,4356],[-1,-58]],[[1163,1506],[96,-1],[132,2]],[[1391,1507],[0,-116],[-22,0],[-1,-416]],[[1368,975],[-19,-13],[-19,11],[-22,-2],[-22,15],[-37,-8],[-23,5],[-23,-11],[-9,16]],[[1194,988],[-22,10],[-19,20],[-20,-17],[-30,-12],[-30,38],[-37,10],[-16,-17],[-24,8]],[[996,1028],[5,41],[-12,10],[7,49],[-13,15],[14,22],[-16,9],[-11,40],[-18,10],[26,36],[-6,11],[20,28],[-15,27],[18,14],[3,54],[25,-1],[48,15],[8,22],[35,-4],[6,38],[43,42]],[[2853,4996],[113,2],[426,2]],[[3392,5000],[2,-349]],[[3394,4651],[-135,0]],[[3259,4651],[-268,2],[1,39],[-136,0]],[[2856,4692],[-2,189]],[[2854,4881],[-1,115]],[[966,3948],[-2,233],[-9,0],[1,409]],[[956,4590],[58,23],[9,8]],[[1023,4621],[31,31],[71,28],[84,-22],[57,-38],[50,-29],[45,23]],[[1361,4614],[0,-86]],[[1361,4528],[-1,-346]],[[1360,4182],[-66,0],[1,-99],[-133,-1],[2,-134]],[[1215,1858],[189,0],[246,-3]],[[1650,1855],[1,-231]],[[1651,1624],[-1,-117]],[[1650,1507],[-259,0]],[[1163,1506],[-36,5],[-130,1]],[[997,1512],[0,351]],[[956,4590],[-57,-43],[-66,-18],[-15,-13],[-24,-1],[-32,14],[-99,-9]],[[663,4520],[0,176],[1,229],[2,317],[56,-44],[60,20],[20,-13],[-16,-28],[11,-21],[50,-18],[94,-12],[77,4]],[[1018,5130],[3,-156],[0,-231],[2,-122]],[[3394,4651],[134,2],[321,7]],[[3849,4660],[0,-25],[0,-350],[1,-89]],[[3850,4196],[-92,-3],[-225,-4]],[[3533,4189],[-307,-1]],[[3226,4188],[0,118]],[[3226,4306],[-3,231],[34,0],[2,114]],[[123,644],[32,-26],[12,53],[19,25],[30,-4],[-10,-17],[12,-14],[22,21],[9,27],[24,-38],[19,2],[15,28],[-2,37],[10,25],[21,23],[27,8],[46,60]],[[409,854],[51,10],[22,13],[9,20],[86,5],[30,55],[40,2],[-11,25],[15,9],[10,-27],[63,19],[13,28]],[[737,1013],[1,-90],[21,-1],[0,-39],[43,0],[0,-81],[64,14],[43,-14],[-1,-172]],[[908,630],[0,-59],[-175,-1],[-1,-48]],[[732,522],[-259,4]],[[473,526],[1,44],[-131,1],[1,36],[-216,2]],[[128,609],[-5,35]],[[3096,3722],[288,0]],[[3384,3722],[0,-117],[-7,0],[0,-133],[-15,0]],[[3362,3472],[-131,-2],[-132,2]],[[3099,3472],[-3,250]],[[2607,3835],[265,2]],[[2872,3837],[222,0]],[[3094,3837],[2,-115]],[[3099,3472],[-157,0]],[[2942,3472],[-332,-1]],[[2610,3471],[0,38]],[[2610,3509],[-1,211]],[[2151,865],[-63,0]],[[2088,865],[1,332],[-1,22]],[[2088,1219],[-1,57],[20,5],[7,27],[13,12]],[[2127,1320],[37,2],[23,18],[45,5],[59,-27],[88,19],[22,-21],[31,-5],[20,5],[24,-12],[19,16],[85,-39]],[[2580,1281],[3,-212],[43,1],[1,-20]],[[2627,1050],[0,-19],[-22,0],[0,-38],[-21,-1],[0,-19],[-85,-2],[1,-17],[-43,-1],[-2,-94]],[[2455,859],[-44,0]],[[1258,573],[88,-1],[177,3]],[[1523,575],[0,-33],[-11,-54],[15,-46],[23,-6],[-15,-29],[16,-29],[-13,-9],[3,-51],[-24,4],[-20,-22]],[[1497,300],[-50,-15],[-53,-54],[-28,-15],[-62,-7],[-40,-15],[-38,-33],[2,-34],[-15,-55],[-16,-34],[-31,-22],[-39,2],[-14,39],[-27,34],[-65,10],[-57,39]],[[964,140],[1,62],[50,62],[46,33],[21,30],[18,7],[-4,23],[10,24],[27,-20],[42,7],[-11,13],[7,25],[20,25],[6,28],[61,1],[0,113]],[[3384,3722],[155,2]],[[3539,3724],[311,5]],[[3850,3729],[-1,-292],[0,-57]],[[3849,3380],[-250,-2],[-236,-3]],[[3363,3375],[-1,97]],[[1194,988],[-1,-376]],[[1193,612],[-148,-2],[-115,1],[0,19],[-22,0]],[[737,1013],[61,-9],[9,19],[23,-4],[2,-24],[24,4],[-10,20],[22,5],[57,-42],[54,22],[17,24]],[[1875,363],[-25,-2],[-15,-22],[-1,-79],[22,-43],[-5,-13],[-27,-12],[-64,5],[-13,-19],[2,-53],[-8,-12],[-39,-20],[-20,-1],[-8,20],[21,50],[-7,21],[-42,3],[-38,-26],[-15,1],[-23,25],[-34,57],[-18,45],[-21,12]],[[1523,575],[-1,59],[132,-1],[0,20]],[[1654,653],[128,4],[-2,-78],[130,-1],[-1,-114]],[[1909,464],[3,-34],[29,-12],[2,-26],[-23,-23],[-45,-6]],[[3533,4189],[4,-232],[2,-233]],[[3094,3837],[133,1],[-1,350]],[[2610,3471],[2,-97],[-1,-116]],[[2611,3258],[-446,-4]],[[2165,3254],[0,210]],[[2165,3464],[0,39],[313,5],[132,1]],[[473,526],[0,-58],[-9,0],[-5,-302]],[[459,166],[-27,-8],[-45,-1],[-28,-19],[-51,-1],[-32,33],[-18,27],[-38,5],[-26,-31],[-13,-14],[2,-31],[25,-24],[13,-43],[-3,-13],[-33,-17],[-11,-26],[-19,-3],[-19,20],[-45,18],[-15,-3],[-11,14],[-26,-12],[-36,21],[5,17],[33,-9],[29,2],[0,24],[-31,9],[-22,40],[-17,17],[8,19],[36,-20],[49,5],[-8,24],[-37,4],[-3,24],[28,-5],[-7,36],[18,3],[10,24],[-16,40],[11,22],[-20,11],[2,26],[36,0],[40,21],[12,25],[-4,17],[-52,-20],[-14,18],[22,15],[27,2],[6,27],[29,-5],[20,32],[20,21],[-35,11],[-34,23],[-17,23],[1,28]],[[1636,2864],[265,0],[166,1]],[[2067,2865],[-2,-77],[2,-311]],[[2067,2477],[-163,-3],[0,-39],[-223,1]],[[1681,2436],[17,38],[-53,0],[0,313],[-9,0]],[[1636,2787],[0,77]],[[3270,2334],[203,2],[104,-1]],[[3577,2335],[15,-2],[110,0],[133,-3]],[[3835,2330],[-5,-289]],[[3830,2041],[-288,3]],[[3542,2044],[-78,4],[-100,-3],[-92,-53]],[[3272,1992],[-1,246]],[[3271,2238],[-1,96]],[[2942,3472],[3,-175],[0,-228]],[[2945,3069],[0,-175]],[[2945,2894],[-335,-3]],[[2610,2891],[-1,253],[2,114]],[[2067,2477],[90,2]],[[2157,2479],[-2,-194],[-1,-195]],[[2154,2090],[-151,-3]],[[2003,2087],[-98,-2],[-194,3],[0,9]],[[1711,2097],[-2,164],[-62,0]],[[1647,2261],[-3,69],[43,40],[-10,36],[4,30]],[[2088,865],[0,-38],[-168,3],[-268,-2]],[[1652,828],[-1,175]],[[1651,1003],[-1,214]],[[1650,1217],[261,3],[5,-2],[172,1]],[[663,3948],[0,365],[0,207]],[[3542,2044],[-19,-114],[-47,-293],[-12,-72]],[[3464,1565],[-4,-24]],[[3460,1541],[-78,-2],[-1,-19]],[[3381,1520],[-283,-2]],[[3098,1518],[1,117],[5,260]],[[3104,1895],[168,97]],[[998,1979],[-426,1]],[[572,1980],[-5,36],[10,9],[-7,24],[20,30],[33,7],[17,17],[17,-5],[0,172],[-1,173]],[[656,2443],[175,1]],[[831,2444],[215,-1]],[[3464,1565],[22,-16],[19,-1],[15,21],[31,-3],[8,24],[35,20],[17,-5],[11,25],[51,-2],[13,17],[36,15],[17,-8],[24,24]],[[3763,1676],[47,-58],[8,-24],[-6,-16],[-42,-38],[-10,-17],[10,-20]],[[3770,1503],[-70,-1],[-245,3],[5,36]],[[2455,859],[33,-19],[186,1],[-1,-5],[56,-67],[-24,-11],[-15,-23],[3,-50]],[[2693,685],[-30,-7],[-22,-22],[-4,-35],[-15,-23],[-33,-25],[-23,-31]],[[2853,4996],[-6,314]],[[2847,5310],[430,1],[112,0]],[[3389,5311],[3,-214],[0,-97]],[[1902,4527],[1,349]],[[1903,4876],[-1,58],[212,3],[265,0]],[[2379,4937],[1,-58]],[[2380,4879],[1,-118],[5,-232],[-28,0]],[[732,522],[-6,-58],[-1,-115],[27,0],[-1,-125]],[[751,224],[-54,-40],[-17,-7],[-46,26],[-25,28],[-4,28],[-30,5],[-5,-28],[-26,-37],[8,-20],[40,-30],[-4,-35],[-29,-36],[-36,-8],[-31,4],[-11,36],[18,32],[0,21],[-15,10],[-25,-7]],[[2854,4881],[-231,-3],[-243,1]],[[2379,4937],[-1,230],[-2,145]],[[2376,5312],[317,-2],[154,0]],[[409,854],[13,49],[-28,6],[14,29],[35,3],[33,16],[16,21],[32,4],[-28,42],[21,19],[-1,16],[34,24],[-5,26],[35,79],[77,25],[31,68],[11,67],[-37,44],[6,11],[-12,35],[-12,19],[-2,29],[25,18]],[[667,1504],[330,-1],[0,9]],[[1349,2265],[298,-4]],[[1711,2097],[-22,11],[-21,-35],[-21,9],[3,-227]],[[2610,2891],[0,-19],[-88,-2]],[[2522,2870],[-355,-2]],[[2167,2868],[-2,339]],[[2165,3207],[0,47]],[[3098,1518],[-109,-1],[1,-39],[-42,0],[0,-38],[-44,0],[1,-40],[-86,0],[0,-12]],[[2819,1388],[-46,11],[-29,-1],[-29,-17],[-27,-3]],[[2688,1378],[-4,348]],[[2684,1726],[-1,80],[132,3]],[[2815,1809],[141,2],[148,84]],[[1484,5312],[352,-1]],[[1836,5311],[-3,-146],[45,-1],[2,-105],[-14,-13],[0,-39],[-6,-16],[-25,0],[0,-115]],[[1835,4876],[-138,-1],[-33,-25],[-34,-15],[-9,-29],[-19,-27],[-19,-52],[-25,-18],[-26,-30],[-36,-16],[-65,-12],[-59,-26],[-11,-11]],[[1361,4614],[-1,147],[1,251],[-3,109],[0,123]],[[1358,5244],[27,23],[40,15],[59,30]],[[1193,612],[0,-38],[65,-1]],[[964,140],[-40,26],[-49,18],[-47,35],[-33,9],[-44,-4]],[[2856,4692],[-1,-155],[-39,-1],[2,-175]],[[2818,4361],[-130,-4],[-175,-1]],[[1018,5130],[71,15],[5,9],[69,13],[83,31],[112,46]],[[1835,4876],[68,0]],[[1902,4527],[-406,1],[-135,0]],[[2580,1281],[25,-7],[29,15],[13,29],[41,60]],[[2819,1388],[0,-104],[44,-10],[0,-29],[44,0],[0,-39],[44,0],[1,-96]],[[2952,1110],[-210,-1],[-52,-1],[-32,-39],[0,-19],[-31,0]],[[3392,5000],[219,2],[237,3]],[[3848,5005],[0,-139],[1,-206]],[[3389,5311],[262,-1],[173,1],[22,1],[0,-86],[2,-221]],[[3226,4306],[-136,0],[-224,-4]],[[2866,4302],[-46,-1],[-2,60]],[[3363,3375],[5,-306]],[[3368,3069],[-199,-1],[-224,1]],[[2256,3716],[-245,-2]],[[2011,3714],[1,175],[-178,0],[0,57],[-66,1]],[[1768,3947],[2,118],[-2,115]],[[1768,4180],[133,-1]],[[1360,4182],[274,0],[134,-2]],[[1768,3947],[-194,2],[0,-26],[-16,-27],[4,-44],[-19,-1],[3,-136]],[[1546,3715],[-179,-1],[-200,2]],[[3592,1317],[-87,-46],[-46,-36],[-42,-16],[-34,4]],[[3383,1223],[-2,141],[0,156]],[[3770,1503],[83,-14],[16,-12],[-10,-33],[-33,-24],[-5,-27],[18,-35],[-30,-10],[-58,13],[-54,-23],[-68,1],[-37,-22]],[[2165,3207],[-221,-5],[-309,3]],[[1635,3205],[0,47]],[[1635,3252],[1,290]],[[1636,3542],[265,-1],[108,1]],[[2009,3542],[78,0],[0,-58],[33,0],[0,-20],[45,0]],[[3577,2335],[2,252]],[[3579,2587],[0,19],[76,-3],[181,-1]],[[3836,2602],[0,-211],[-1,-61]],[[1368,975],[53,-14],[11,16],[29,11],[8,15],[182,0]],[[1652,828],[2,-175]],[[3849,3380],[-9,-407]],[[3840,2973],[-96,2],[-273,-3],[-88,1]],[[3383,2973],[-14,-1],[-1,97]],[[667,1504],[-4,26],[15,46],[-19,21],[-55,20],[8,48],[-12,25],[9,21],[-34,32],[-17,1],[-3,29],[-40,4],[11,29],[-18,10],[8,19],[26,9],[31,45],[19,11],[15,25],[-8,49],[-27,6]],[[2866,4302],[2,-206],[4,-259]],[[1636,2864],[-1,341]],[[2167,2868],[-100,-3]],[[2522,2870],[-1,-77],[-18,0],[2,-230]],[[2505,2563],[0,-78]],[[2505,2485],[-348,-6]],[[3383,2973],[1,-175],[-23,0],[-1,-113]],[[3360,2685],[-94,-1]],[[3266,2684],[-345,-2]],[[2921,2682],[0,115],[23,0],[1,97]],[[2815,1809],[1,174],[2,118]],[[2818,2101],[63,0],[2,137]],[[2883,2238],[388,0]],[[1636,2787],[-368,2]],[[1268,2789],[-96,1],[0,114]],[[1172,2904],[-1,115],[0,234]],[[1171,3253],[464,-1]],[[1546,3715],[89,0],[1,-173]],[[1171,3253],[0,202]],[[1171,3455],[-2,145]],[[3383,1223],[-29,19],[-23,35],[-26,11],[-43,2],[-33,-7],[-46,-8],[-44,9],[-30,-11],[-19,-27],[-4,-35],[20,-31],[-1,-63],[13,-34]],[[3118,1083],[-59,0],[-21,8],[0,19],[-86,0]],[[3830,2041],[0,-266],[-48,-37],[-33,-15],[-9,-18],[23,-29]],[[2011,3714],[-2,-172]],[[656,2443],[-1,368],[2,353]],[[657,3164],[48,0],[0,-28],[98,0]],[[803,3136],[-13,-91],[-20,-43],[5,-74],[-11,-14],[23,-11]],[[787,2903],[-16,-23],[34,-32],[29,-9],[13,-18],[-9,-23],[24,-12],[-12,-29],[-22,-12],[2,-38],[11,-17],[-7,-34],[4,-28],[-9,-36],[3,-34],[-15,-46],[3,-31],[11,-37]],[[2154,2090],[195,3]],[[2349,2093],[4,-157],[3,-196],[-1,-39]],[[2355,1701],[-108,-2],[-170,0]],[[2077,1699],[-61,0],[1,55],[-4,215],[-9,0],[-1,118]],[[2505,2563],[215,3],[158,-1]],[[2878,2565],[1,-97],[4,-230]],[[2818,2101],[-134,0],[-179,-4]],[[2505,2097],[-1,118],[3,79],[-2,191]],[[3850,4196],[0,-259],[0,-208]],[[1651,1624],[426,-2]],[[2077,1622],[44,0],[6,-302]],[[1650,1217],[0,290]],[[3270,2334],[-2,129],[-2,221]],[[3360,2685],[44,0],[-2,-97],[177,-1]],[[2921,2682],[-43,0],[0,-117]],[[1172,2904],[-385,-1]],[[803,3136],[-1,20],[-25,11],[-12,20],[23,36],[71,24],[73,60],[18,30],[37,29],[5,13],[88,34],[45,7],[46,35]],[[2077,1699],[0,-77]],[[1264,2440],[4,349]],[[2505,2097],[-156,-4]],[[2684,1726],[-28,1],[-28,-13],[-16,-25],[-257,-7],[0,19]],[[3840,2973],[-1,-117],[-3,-254]],[[2184,5311],[192,1]],[[1836,5311],[348,0]],[[657,3164],[6,438]],[[3118,1083],[15,-30],[0,-23],[-21,-29],[-39,-18],[-38,-57],[-30,-14],[-72,-10],[-37,-32],[-23,-61],[-1,-22],[-20,-53],[-33,-38],[-67,-37],[-23,5],[-14,19],[-22,2]],[[2063,544],[-33,23],[-18,-7],[-5,-30],[14,-13],[44,-9],[8,-10],[-23,-26],[-40,4],[-35,-33],[-29,26],[-37,-5]]],"transform":{"scale":[0.0008546167303632718,0.0007506222535895523],"translate":[-88.0929181297755,37.773223]},"objects":{"18":{"type":"GeometryCollection","geometries":[{"arcs":[[0,1,2,3,4,5,6]],"type":"Polygon","properties":{"STATEFP":"18","COUNTYFP":"007","COUNTYNS":"00450403","GEOIDFQ":"0500000US18007","GEOID":"18007","NAME":"Benton","NAMELSAD":"Benton County","STUSPS":"IN","STATE_NAME":"Indiana","LSAD":"06","ALAND":1052608712,"AWATER":236033},"id":"18007"},{"arcs":[[7,8,9,10]],"type":"Polygon","properties":{"STATEFP":"18","COUNTYFP":"061","COUNTYNS":"00451677","GEOIDFQ":"0500000US18061","GEOID":"18061","NAME":"Harrison","NAMELSAD":"Harrison County","STUSPS":"IN","STATE_NAME":"Indiana","LSAD":"06","ALAND":1253763064,"AWATER":5276999},"id":"18061"},{"arcs":[[11,12,13,14,15]],"type":"Polygon","properties":{"STATEFP":"18","COUNTYFP":"103","COUNTYNS":"00450373","GEOIDFQ":"0500000US18103","GEOID":"18103","NAME":"Miami","NAMELSAD":"Miami County","STUSPS":"IN","STATE_NAME":"Indiana","LSAD":"06","ALAND":968246957,"AWATER":9184623},"id":"18103"},{"arcs":[[16,17,18,19,20,21]],"type":"Polygon","properties":{"STATEFP":"18","COUNTYFP":"021","COUNTYNS":"00450341","GEOIDFQ":"0500000US18021","GEOID":"18021","NAME":"Clay","NAMELSAD":"Clay County","STUSPS":"IN","STATE_NAME":"Indiana","LSAD":"06","ALAND":926180647,"AWATER":7047383},"id":"18021"},{"arcs":[[-16,22,23,24,25,26]],"type":"Polygon","properties":{"STATEFP":"18","COUNTYFP":"049","COUNTYNS":"00450353","GEOIDFQ":"0500000US18049","GEOID":"18049","NAME":"Fulton","NAMELSAD":"Fulton County","STUSPS":"IN","STATE_NAME":"Indiana","LSAD":"06","ALAND":954130544,"AWATER":7442130},"id":"18049"},{"arcs":[[27,28,29,30,31]],"type":"Polygon","properties":{"STATEFP":"18","COUNTYFP":"027","COUNTYNS":"00450343","GEOIDFQ":"0500000US18027","GEOID":"18027","NAME":"Daviess","NAMELSAD":"Daviess County","STUSPS":"IN","STATE_NAME":"Indiana","LSAD":"06","ALAND":1112436825,"AWATER":19061974},"id":"18027"},{"arcs":[[32,33,34,35,36,37]],"type":"Polygon","properties":{"STATEFP":"18","COUNTYFP":"113","COUNTYNS":"00450377","GEOIDFQ":"0500000US18113","GEOID":"18113","NAME":"Noble","NAMELSAD":"Noble County","STUSPS":"IN","STATE_NAME":"Indiana","LSAD":"06","ALAND":1064077377,"AWATER":17068591},"id":"18113"},{"arcs":[[-3,38,39,40,41,42,43]],"type":"Polygon","properties":{"STATEFP":"18","COUNTYFP":"073","COUNTYNS":"00450494","GEOIDFQ":"0500000US18073","GEOID":"18073","NAME":"Jasper","NAMELSAD":"Jasper County","STUSPS":"IN","STATE_NAME":"Indiana","LSAD":"06","ALAND":1449563751,"AWATER":4428654},"id":"18073"},{"arcs":[[-21,44,45,46,47,-28,48,49]],"type":"Polygon","properties":{"STATEFP":"18","COUNTYFP":"055","COUNTYNS":"00451676","GEOIDFQ":"0500000US18055","GEOID":"18055","NAME":"Greene","NAMELSAD":"Greene County","STUSPS":"IN","STATE_NAME":"Indiana","LSAD":"06","ALAND":1404988520,"AWATER":8915031},"id":"18055"},{"arcs":[[-40,50,51,52]],"type":"Polygon","properties":{"STATEFP":"18","COUNTYFP":"089","COUNTYNS":"00450495","GEOIDFQ":"0500000US18089","GEOID":"18089","NAME":"Lake","NAMELSAD":"Lake County","STUSPS":"IN","STATE_NAME":"Indiana","LSAD":"06","ALAND":1292104575,"AWATER":330842544},"id":"18089"},{"arcs":[[-35,53,54,55,56,57,58]],"type":"Polygon","properties":{"STATEFP":"18","COUNTYFP":"003","COUNTYNS":"00450402","GEOIDFQ":"0500000US18003","GEOID":"18003","NAME":"Allen","NAMELSAD":"Allen County","STUSPS":"IN","STATE_NAME":"Indiana","LSAD":"06","ALAND":1702000559,"AWATER":7347953},"id":"18003"},{"arcs":[[59,60,61,62,63,64,65]],"type":"Polygon","properties":{"STATEFP":"18","COUNTYFP":"051","COUNTYNS":"00450354","GEOIDFQ":"0500000US18051","GEOID":"18051","NAME":"Gibson","NAMELSAD":"Gibson County","STUSPS":"IN","STATE_NAME":"Indiana","LSAD":"06","ALAND":1262302951,"AWATER":30891645},"id":"18051"},{"arcs":[[66,67,68,69]],"type":"Polygon","properties":{"STATEFP":"18","COUNTYFP":"009","COUNTYNS":"00450404","GEOIDFQ":"0500000US18009","GEOID":"18009","NAME":"Blackford","NAMELSAD":"Blackford County","STUSPS":"IN","STATE_NAME":"Indiana","LSAD":"06","ALAND":427559408,"AWATER":1298757},"id":"18009"},{"arcs":[[-13,70,71,72,-70,73,74,75,76]],"type":"Polygon","properties":{"STATEFP":"18","COUNTYFP":"053","COUNTYNS":"00450355","GEOIDFQ":"0500000US18053","GEOID":"18053","NAME":"Grant","NAMELSAD":"Grant County","STUSPS":"IN","STATE_NAME":"Indiana","LSAD":"06","ALAND":1072484434,"AWATER":2101803},"id":"18053"},{"arcs":[[-8,77,78,79,80,81,82,83]],"type":"Polygon","properties":{"STATEFP":"18","COUNTYFP":"175","COUNTYNS":"00451665","GEOIDFQ":"0500000US18175","GEOID":"18175","NAME":"Washington","NAMELSAD":"Washington County","STUSPS":"IN","STATE_NAME":"Indiana","LSAD":"06","ALAND":1330447126,"AWATER":7529046},"id":"18175"},{"arcs":[[84,85,86,87]],"type":"Polygon","properties":{"STATEFP":"18","COUNTYFP":"147","COUNTYNS":"00450388","GEOIDFQ":"0500000US18147","GEOID":"18147","NAME":"Spencer","NAMELSAD":"Spencer County","STUSPS":"IN","STATE_NAME":"Indiana","LSAD":"06","ALAND":1027934785,"AWATER":11968675},"id":"18147"},{"arcs":[[-68,88,89,90,91,92]],"type":"Polygon","properties":{"STATEFP":"18","COUNTYFP":"075","COUNTYNS":"00450362","GEOIDFQ":"0500000US18075","GEOID":"18075","NAME":"Jay","NAMELSAD":"Jay County","STUSPS":"IN","STATE_NAME":"Indiana","LSAD":"06","ALAND":994310124,"AWATER":458556},"id":"18075"},{"arcs":[[-31,93,94,-62,95]],"type":"Polygon","properties":{"STATEFP":"18","COUNTYFP":"125","COUNTYNS":"00450381","GEOIDFQ":"0500000US18125","GEOID":"18125","NAME":"Pike","NAMELSAD":"Pike County","STUSPS":"IN","STATE_NAME":"Indiana","LSAD":"06","ALAND":865964079,"AWATER":17466143},"id":"18125"},{"arcs":[[96,-86,97,98,99]],"type":"Polygon","properties":{"STATEFP":"18","COUNTYFP":"123","COUNTYNS":"00451682","GEOIDFQ":"0500000US18123","GEOID":"18123","NAME":"Perry","NAMELSAD":"Perry County","STUSPS":"IN","STATE_NAME":"Indiana","LSAD":"06","ALAND":988702368,"AWATER":11837413},"id":"18123"},{"arcs":[[-57,100,-89,-67,-73,101]],"type":"Polygon","properties":{"STATEFP":"18","COUNTYFP":"179","COUNTYNS":"00450337","GEOIDFQ":"0500000US18179","GEOID":"18179","NAME":"Wells","NAMELSAD":"Wells County","STUSPS":"IN","STATE_NAME":"Indiana","LSAD":"06","ALAND":953341278,"AWATER":5596377},"id":"18179"},{"arcs":[[-76,102,103,104,105]],"type":"Polygon","properties":{"STATEFP":"18","COUNTYFP":"159","COUNTYNS":"00450394","GEOIDFQ":"0500000US18159","GEOID":"18159","NAME":"Tipton","NAMELSAD":"Tipton County","STUSPS":"IN","STATE_NAME":"Indiana","LSAD":"06","ALAND":674797600,"AWATER":68028},"id":"18159"},{"arcs":[[-65,106,107]],"type":"Polygon","properties":{"STATEFP":"18","COUNTYFP":"129","COUNTYNS":"00450383","GEOIDFQ":"0500000US18129","GEOID":"18129","NAME":"Posey","NAMELSAD":"Posey County","STUSPS":"IN","STATE_NAME":"Indiana","LSAD":"06","ALAND":1060302166,"AWATER":26505384},"id":"18129"},{"arcs":[[108,109,110,111,112]],"type":"Polygon","properties":{"STATEFP":"18","COUNTYFP":"063","COUNTYNS":"00450358","GEOIDFQ":"0500000US18063","GEOID":"18063","NAME":"Hendricks","NAMELSAD":"Hendricks County","STUSPS":"IN","STATE_NAME":"Indiana","LSAD":"06","ALAND":1053849484,"AWATER":4880745},"id":"18063"},{"arcs":[[113,114,115,116,117,118,119]],"type":"Polygon","properties":{"STATEFP":"18","COUNTYFP":"047","COUNTYNS":"00450352","GEOIDFQ":"0500000US18047","GEOID":"18047","NAME":"Franklin","NAMELSAD":"Franklin County","STUSPS":"IN","STATE_NAME":"Indiana","LSAD":"06","ALAND":995659492,"AWATER":17154637},"id":"18047"},{"arcs":[[-75,120,121,122,123,-103]],"type":"Polygon","properties":{"STATEFP":"18","COUNTYFP":"095","COUNTYNS":"00450370","GEOIDFQ":"0500000US18095","GEOID":"18095","NAME":"Madison","NAMELSAD":"Madison County","STUSPS":"IN","STATE_NAME":"Indiana","LSAD":"06","ALAND":1170470120,"AWATER":2546828},"id":"18095"},{"arcs":[[-111,124,125,126,127,128,129]],"type":"Polygon","properties":{"STATEFP":"18","COUNTYFP":"109","COUNTYNS":"00450375","GEOIDFQ":"0500000US18109","GEOID":"18109","NAME":"Morgan","NAMELSAD":"Morgan County","STUSPS":"IN","STATE_NAME":"Indiana","LSAD":"06","ALAND":1045939783,"AWATER":14475032},"id":"18109"},{"arcs":[[-79,130,131,132,133]],"type":"Polygon","properties":{"STATEFP":"18","COUNTYFP":"117","COUNTYNS":"00451681","GEOIDFQ":"0500000US18117","GEOID":"18117","NAME":"Orange","NAMELSAD":"Orange County","STUSPS":"IN","STATE_NAME":"Indiana","LSAD":"06","ALAND":1031795758,"AWATER":25416478},"id":"18117"},{"arcs":[[-2,134,-51,-39]],"type":"Polygon","properties":{"STATEFP":"18","COUNTYFP":"111","COUNTYNS":"00450376","GEOIDFQ":"0500000US18111","GEOID":"18111","NAME":"Newton","NAMELSAD":"Newton County","STUSPS":"IN","STATE_NAME":"Indiana","LSAD":"06","ALAND":1040539822,"AWATER":4349506},"id":"18111"},{"arcs":[[-118,135,136,137,138,139,140]],"type":"Polygon","properties":{"STATEFP":"18","COUNTYFP":"137","COUNTYNS":"00450385","GEOIDFQ":"0500000US18137","GEOID":"18137","NAME":"Ripley","NAMELSAD":"Ripley County","STUSPS":"IN","STATE_NAME":"Indiana","LSAD":"06","ALAND":1156253050,"AWATER":4221158},"id":"18137"},{"arcs":[[-17,141,142,143,144]],"type":"Polygon","properties":{"STATEFP":"18","COUNTYFP":"167","COUNTYNS":"00450398","GEOIDFQ":"0500000US18167","GEOID":"18167","NAME":"Vigo","NAMELSAD":"Vigo County","STUSPS":"IN","STATE_NAME":"Indiana","LSAD":"06","ALAND":1045400268,"AWATER":17661310},"id":"18167"},{"arcs":[[-137,145,146,147]],"type":"Polygon","properties":{"STATEFP":"18","COUNTYFP":"115","COUNTYNS":"00450378","GEOIDFQ":"0500000US18115","GEOID":"18115","NAME":"Ohio","NAMELSAD":"Ohio County","STUSPS":"IN","STATE_NAME":"Indiana","LSAD":"06","ALAND":223126827,"AWATER":3369528},"id":"18115"},{"arcs":[[-9,-84,148,149]],"type":"Polygon","properties":{"STATEFP":"18","COUNTYFP":"043","COUNTYNS":"00450350","GEOIDFQ":"0500000US18043","GEOID":"18043","NAME":"Floyd","NAMELSAD":"Floyd County","STUSPS":"IN","STATE_NAME":"Indiana","LSAD":"06","ALAND":384577980,"AWATER":2669695},"id":"18043"},{"arcs":[[-33,150,151,152]],"type":"Polygon","properties":{"STATEFP":"18","COUNTYFP":"087","COUNTYNS":"00450368","GEOIDFQ":"0500000US18087","GEOID":"18087","NAME":"LaGrange","NAMELSAD":"LaGrange County","STUSPS":"IN","STATE_NAME":"Indiana","LSAD":"06","ALAND":983242845,"AWATER":18311996},"id":"18087"},{"arcs":[[-25,153,154,155,156]],"type":"Polygon","properties":{"STATEFP":"18","COUNTYFP":"099","COUNTYNS":"00450372","GEOIDFQ":"0500000US18099","GEOID":"18099","NAME":"Marshall","NAMELSAD":"Marshall County","STUSPS":"IN","STATE_NAME":"Indiana","LSAD":"06","ALAND":1148964732,"AWATER":15863826},"id":"18099"},{"arcs":[[-64,157,158,-107]],"type":"Polygon","properties":{"STATEFP":"18","COUNTYFP":"163","COUNTYNS":"00450396","GEOIDFQ":"0500000US18163","GEOID":"18163","NAME":"Vanderburgh","NAMELSAD":"Vanderburgh County","STUSPS":"IN","STATE_NAME":"Indiana","LSAD":"06","ALAND":604507314,"AWATER":8954961},"id":"18163"},{"arcs":[[-38,159,-156,160,161,-151]],"type":"Polygon","properties":{"STATEFP":"18","COUNTYFP":"039","COUNTYNS":"00450348","GEOIDFQ":"0500000US18039","GEOID":"18039","NAME":"Elkhart","NAMELSAD":"Elkhart County","STUSPS":"IN","STATE_NAME":"Indiana","LSAD":"06","ALAND":1199572614,"AWATER":12465421},"id":"18039"},{"arcs":[[162,163,-49,-32,-96,-61]],"type":"Polygon","properties":{"STATEFP":"18","COUNTYFP":"083","COUNTYNS":"00450366","GEOIDFQ":"0500000US18083","GEOID":"18083","NAME":"Knox","NAMELSAD":"Knox County","STUSPS":"IN","STATE_NAME":"Indiana","LSAD":"06","ALAND":1335995227,"AWATER":20908211},"id":"18083"},{"arcs":[[-20,164,-129,165,-45]],"type":"Polygon","properties":{"STATEFP":"18","COUNTYFP":"119","COUNTYNS":"00450379","GEOIDFQ":"0500000US18119","GEOID":"18119","NAME":"Owen","NAMELSAD":"Owen County","STUSPS":"IN","STATE_NAME":"Indiana","LSAD":"06","ALAND":997909059,"AWATER":6568942},"id":"18119"},{"arcs":[[-104,-124,166,167,168,169]],"type":"Polygon","properties":{"STATEFP":"18","COUNTYFP":"057","COUNTYNS":"00450356","GEOIDFQ":"0500000US18057","GEOID":"18057","NAME":"Hamilton","NAMELSAD":"Hamilton County","STUSPS":"IN","STATE_NAME":"Indiana","LSAD":"06","ALAND":1021464665,"AWATER":20919490},"id":"18057"},{"arcs":[[-140,170,171,172,173,174]],"type":"Polygon","properties":{"STATEFP":"18","COUNTYFP":"079","COUNTYNS":"00450364","GEOIDFQ":"0500000US18079","GEOID":"18079","NAME":"Jennings","NAMELSAD":"Jennings County","STUSPS":"IN","STATE_NAME":"Indiana","LSAD":"06","ALAND":975392021,"AWATER":4518578},"id":"18079"},{"arcs":[[175,176,177,178,179]],"type":"Polygon","properties":{"STATEFP":"18","COUNTYFP":"091","COUNTYNS":"00450507","GEOIDFQ":"0500000US18091","GEOID":"18091","NAME":"LaPorte","NAMELSAD":"LaPorte County","STUSPS":"IN","STATE_NAME":"Indiana","LSAD":"06","ALAND":1549559361,"AWATER":38775326},"id":"18091"},{"arcs":[[-63,-95,180,-88,181,-158]],"type":"Polygon","properties":{"STATEFP":"18","COUNTYFP":"173","COUNTYNS":"00450335","GEOIDFQ":"0500000US18173","GEOID":"18173","NAME":"Warrick","NAMELSAD":"Warrick County","STUSPS":"IN","STATE_NAME":"Indiana","LSAD":"06","ALAND":996186009,"AWATER":16631845},"id":"18173"},{"arcs":[[-26,-157,-160,-37,182,183]],"type":"Polygon","properties":{"STATEFP":"18","COUNTYFP":"085","COUNTYNS":"00450367","GEOIDFQ":"0500000US18085","GEOID":"18085","NAME":"Kosciusko","NAMELSAD":"Kosciusko County","STUSPS":"IN","STATE_NAME":"Indiana","LSAD":"06","ALAND":1376443874,"AWATER":59427459},"id":"18085"},{"arcs":[[-41,-53,184,-179]],"type":"Polygon","properties":{"STATEFP":"18","COUNTYFP":"127","COUNTYNS":"00450382","GEOIDFQ":"0500000US18127","GEOID":"18127","NAME":"Porter","NAMELSAD":"Porter County","STUSPS":"IN","STATE_NAME":"Indiana","LSAD":"06","ALAND":1082907704,"AWATER":268619697},"id":"18127"},{"arcs":[[-42,-178,185,-154,186]],"type":"Polygon","properties":{"STATEFP":"18","COUNTYFP":"149","COUNTYNS":"00450389","GEOIDFQ":"0500000US18149","GEOID":"18149","NAME":"Starke","NAMELSAD":"Starke County","STUSPS":"IN","STATE_NAME":"Indiana","LSAD":"06","ALAND":800679821,"AWATER":7929143},"id":"18149"},{"arcs":[[-82,187,-172,188,189]],"type":"Polygon","properties":{"STATEFP":"18","COUNTYFP":"143","COUNTYNS":"00450386","GEOIDFQ":"0500000US18143","GEOID":"18143","NAME":"Scott","NAMELSAD":"Scott County","STUSPS":"IN","STATE_NAME":"Indiana","LSAD":"06","ALAND":493140265,"AWATER":6074951},"id":"18143"},{"arcs":[[-34,190,191,-54]],"type":"Polygon","properties":{"STATEFP":"18","COUNTYFP":"033","COUNTYNS":"00450346","GEOIDFQ":"0500000US18033","GEOID":"18033","NAME":"DeKalb","NAMELSAD":"DeKalb County","STUSPS":"IN","STATE_NAME":"Indiana","LSAD":"06","ALAND":939735805,"AWATER":2657419},"id":"18033"},{"arcs":[[-153,192,-191]],"type":"Polygon","properties":{"STATEFP":"18","COUNTYFP":"151","COUNTYNS":"00450390","GEOIDFQ":"0500000US18151","GEOID":"18151","NAME":"Steuben","NAMELSAD":"Steuben County","STUSPS":"IN","STATE_NAME":"Indiana","LSAD":"06","ALAND":799762192,"AWATER":35421788},"id":"18151"},{"arcs":[[-36,-59,193,194,-183]],"type":"Polygon","properties":{"STATEFP":"18","COUNTYFP":"183","COUNTYNS":"00450369","GEOIDFQ":"0500000US18183","GEOID":"18183","NAME":"Whitley","NAMELSAD":"Whitley County","STUSPS":"IN","STATE_NAME":"Indiana","LSAD":"06","ALAND":869256022,"AWATER":6074674},"id":"18183"},{"arcs":[[-69,-93,195,196,-121,-74]],"type":"Polygon","properties":{"STATEFP":"18","COUNTYFP":"035","COUNTYNS":"00450347","GEOIDFQ":"0500000US18035","GEOID":"18035","NAME":"Delaware","NAMELSAD":"Delaware County","STUSPS":"IN","STATE_NAME":"Indiana","LSAD":"06","ALAND":1015558816,"AWATER":9841207},"id":"18035"},{"arcs":[[-15,197,198,199,200,-23]],"type":"Polygon","properties":{"STATEFP":"18","COUNTYFP":"017","COUNTYNS":"00450339","GEOIDFQ":"0500000US18017","GEOID":"18017","NAME":"Cass","NAMELSAD":"Cass County","STUSPS":"IN","STATE_NAME":"Indiana","LSAD":"06","ALAND":1067448392,"AWATER":7002034},"id":"18017"},{"arcs":[[-4,-44,201,-200,202,203]],"type":"Polygon","properties":{"STATEFP":"18","COUNTYFP":"181","COUNTYNS":"00450338","GEOIDFQ":"0500000US18181","GEOID":"18181","NAME":"White","NAMELSAD":"White County","STUSPS":"IN","STATE_NAME":"Indiana","LSAD":"06","ALAND":1308413377,"AWATER":9165592},"id":"18181"},{"arcs":[[204,205,-138,-148,206]],"type":"Polygon","properties":{"STATEFP":"18","COUNTYFP":"155","COUNTYNS":"00450392","GEOIDFQ":"0500000US18155","GEOID":"18155","NAME":"Switzerland","NAMELSAD":"Switzerland County","STUSPS":"IN","STATE_NAME":"Indiana","LSAD":"06","ALAND":571526246,"AWATER":7531844},"id":"18155"},{"arcs":[[-105,-170,207,208,209,210,211]],"type":"Polygon","properties":{"STATEFP":"18","COUNTYFP":"023","COUNTYNS":"00450342","GEOIDFQ":"0500000US18023","GEOID":"18023","NAME":"Clinton","NAMELSAD":"Clinton County","STUSPS":"IN","STATE_NAME":"Indiana","LSAD":"06","ALAND":1049119186,"AWATER":461117},"id":"18023"},{"arcs":[[-115,212,213,214]],"type":"Polygon","properties":{"STATEFP":"18","COUNTYFP":"161","COUNTYNS":"00450395","GEOIDFQ":"0500000US18161","GEOID":"18161","NAME":"Union","NAMELSAD":"Union County","STUSPS":"IN","STATE_NAME":"Indiana","LSAD":"06","ALAND":417483435,"AWATER":10323665},"id":"18161"},{"arcs":[[-30,215,-132,216,-98,-85,-181,-94]],"type":"Polygon","properties":{"STATEFP":"18","COUNTYFP":"037","COUNTYNS":"00451675","GEOIDFQ":"0500000US18037","GEOID":"18037","NAME":"Dubois","NAMELSAD":"Dubois County","STUSPS":"IN","STATE_NAME":"Indiana","LSAD":"06","ALAND":1106616364,"AWATER":20892924},"id":"18037"},{"arcs":[[-92,217,218,219,-196]],"type":"Polygon","properties":{"STATEFP":"18","COUNTYFP":"135","COUNTYNS":"00446853","GEOIDFQ":"0500000US18135","GEOID":"18135","NAME":"Randolph","NAMELSAD":"Randolph County","STUSPS":"IN","STATE_NAME":"Indiana","LSAD":"06","ALAND":1171656766,"AWATER":2420288},"id":"18135"},{"arcs":[[-22,-50,-164,220,-142]],"type":"Polygon","properties":{"STATEFP":"18","COUNTYFP":"153","COUNTYNS":"00450391","GEOIDFQ":"0500000US18153","GEOID":"18153","NAME":"Sullivan","NAMELSAD":"Sullivan County","STUSPS":"IN","STATE_NAME":"Indiana","LSAD":"06","ALAND":1158231910,"AWATER":17922659},"id":"18153"},{"arcs":[[-12,-27,-184,-195,221,-71]],"type":"Polygon","properties":{"STATEFP":"18","COUNTYFP":"169","COUNTYNS":"00450399","GEOIDFQ":"0500000US18169","GEOID":"18169","NAME":"Wabash","NAMELSAD":"Wabash County","STUSPS":"IN","STATE_NAME":"Indiana","LSAD":"06","ALAND":1068471083,"AWATER":21851089},"id":"18169"},{"arcs":[[-109,222,-208,-169,223]],"type":"Polygon","properties":{"STATEFP":"18","COUNTYFP":"011","COUNTYNS":"00450405","GEOIDFQ":"0500000US18011","GEOID":"18011","NAME":"Boone","NAMELSAD":"Boone County","STUSPS":"IN","STATE_NAME":"Indiana","LSAD":"06","ALAND":1095260011,"AWATER":876741},"id":"18011"},{"arcs":[[-110,-224,-168,224,225,226,-125]],"type":"Polygon","properties":{"STATEFP":"18","COUNTYFP":"097","COUNTYNS":"00450371","GEOIDFQ":"0500000US18097","GEOID":"18097","NAME":"Marion","NAMELSAD":"Marion County","STUSPS":"IN","STATE_NAME":"Indiana","LSAD":"06","ALAND":1025624692,"AWATER":18162960},"id":"18097"},{"arcs":[[-122,-197,-220,227,228,229,230]],"type":"Polygon","properties":{"STATEFP":"18","COUNTYFP":"065","COUNTYNS":"00450359","GEOIDFQ":"0500000US18065","GEOID":"18065","NAME":"Henry","NAMELSAD":"Henry County","STUSPS":"IN","STATE_NAME":"Indiana","LSAD":"06","ALAND":1014957932,"AWATER":7652085},"id":"18065"},{"arcs":[[-119,-141,-175,231,232,233]],"type":"Polygon","properties":{"STATEFP":"18","COUNTYFP":"031","COUNTYNS":"00450345","GEOIDFQ":"0500000US18031","GEOID":"18031","NAME":"Decatur","NAMELSAD":"Decatur County","STUSPS":"IN","STATE_NAME":"Indiana","LSAD":"06","ALAND":964946131,"AWATER":1955432},"id":"18031"},{"arcs":[[-113,234,235,236,237,-209,-223]],"type":"Polygon","properties":{"STATEFP":"18","COUNTYFP":"107","COUNTYNS":"00450374","GEOIDFQ":"0500000US18107","GEOID":"18107","NAME":"Montgomery","NAMELSAD":"Montgomery County","STUSPS":"IN","STATE_NAME":"Indiana","LSAD":"06","ALAND":1306977643,"AWATER":2055936},"id":"18107"},{"arcs":[[-5,-204,238,-210,-238,239,240]],"type":"Polygon","properties":{"STATEFP":"18","COUNTYFP":"157","COUNTYNS":"00450393","GEOIDFQ":"0500000US18157","GEOID":"18157","NAME":"Tippecanoe","NAMELSAD":"Tippecanoe County","STUSPS":"IN","STATE_NAME":"Indiana","LSAD":"06","ALAND":1292135550,"AWATER":11256387},"id":"18157"},{"arcs":[[241,242,-189,-171,-139,-206]],"type":"Polygon","properties":{"STATEFP":"18","COUNTYFP":"077","COUNTYNS":"00450363","GEOIDFQ":"0500000US18077","GEOID":"18077","NAME":"Jefferson","NAMELSAD":"Jefferson County","STUSPS":"IN","STATE_NAME":"Indiana","LSAD":"06","ALAND":934205472,"AWATER":5991420},"id":"18077"},{"arcs":[[243,-146,-136,-117]],"type":"Polygon","properties":{"STATEFP":"18","COUNTYFP":"029","COUNTYNS":"00450344","GEOIDFQ":"0500000US18029","GEOID":"18029","NAME":"Dearborn","NAMELSAD":"Dearborn County","STUSPS":"IN","STATE_NAME":"Indiana","LSAD":"06","ALAND":790171256,"AWATER":6019020},"id":"18029"},{"arcs":[[-199,244,-211,-239,-203]],"type":"Polygon","properties":{"STATEFP":"18","COUNTYFP":"015","COUNTYNS":"00450406","GEOIDFQ":"0500000US18015","GEOID":"18015","NAME":"Carroll","NAMELSAD":"Carroll County","STUSPS":"IN","STATE_NAME":"Indiana","LSAD":"06","ALAND":964057409,"AWATER":7236323},"id":"18015"},{"arcs":[[-144,245,246,247,248]],"type":"Polygon","properties":{"STATEFP":"18","COUNTYFP":"165","COUNTYNS":"00450397","GEOIDFQ":"0500000US18165","GEOID":"18165","NAME":"Vermillion","NAMELSAD":"Vermillion County","STUSPS":"IN","STATE_NAME":"Indiana","LSAD":"06","ALAND":665353000,"AWATER":7817397},"id":"18165"},{"arcs":[[-127,249,250,251,252]],"type":"Polygon","properties":{"STATEFP":"18","COUNTYFP":"013","COUNTYNS":"00451684","GEOIDFQ":"0500000US18013","GEOID":"18013","NAME":"Brown","NAMELSAD":"Brown County","STUSPS":"IN","STATE_NAME":"Indiana","LSAD":"06","ALAND":808075009,"AWATER":11994828},"id":"18013"},{"arcs":[[-226,253,254,-233,255,256]],"type":"Polygon","properties":{"STATEFP":"18","COUNTYFP":"145","COUNTYNS":"00450387","GEOIDFQ":"0500000US18145","GEOID":"18145","NAME":"Shelby","NAMELSAD":"Shelby County","STUSPS":"IN","STATE_NAME":"Indiana","LSAD":"06","ALAND":1064838386,"AWATER":4195717},"id":"18145"},{"arcs":[[-56,257,-90,-101]],"type":"Polygon","properties":{"STATEFP":"18","COUNTYFP":"001","COUNTYNS":"00450401","GEOIDFQ":"0500000US18001","GEOID":"18001","NAME":"Adams","NAMELSAD":"Adams County","STUSPS":"IN","STATE_NAME":"Indiana","LSAD":"06","ALAND":877812921,"AWATER":2693850},"id":"18001"},{"arcs":[[-47,258,259,-80,-134,260]],"type":"Polygon","properties":{"STATEFP":"18","COUNTYFP":"093","COUNTYNS":"00451703","GEOIDFQ":"0500000US18093","GEOID":"18093","NAME":"Lawrence","NAMELSAD":"Lawrence County","STUSPS":"IN","STATE_NAME":"Indiana","LSAD":"06","ALAND":1163282510,"AWATER":7207557},"id":"18093"},{"arcs":[[-14,-77,-106,-212,-245,-198]],"type":"Polygon","properties":{"STATEFP":"18","COUNTYFP":"067","COUNTYNS":"00450360","GEOIDFQ":"0500000US18067","GEOID":"18067","NAME":"Howard","NAMELSAD":"Howard County","STUSPS":"IN","STATE_NAME":"Indiana","LSAD":"06","ALAND":759058623,"AWATER":2194576},"id":"18067"},{"arcs":[[-114,261,-229,262,-213]],"type":"Polygon","properties":{"STATEFP":"18","COUNTYFP":"041","COUNTYNS":"00450349","GEOIDFQ":"0500000US18041","GEOID":"18041","NAME":"Fayette","NAMELSAD":"Fayette County","STUSPS":"IN","STATE_NAME":"Indiana","LSAD":"06","ALAND":556901575,"AWATER":366408},"id":"18041"},{"arcs":[[-58,-102,-72,-222,-194]],"type":"Polygon","properties":{"STATEFP":"18","COUNTYFP":"069","COUNTYNS":"00450361","GEOIDFQ":"0500000US18069","GEOID":"18069","NAME":"Huntington","NAMELSAD":"Huntington County","STUSPS":"IN","STATE_NAME":"Indiana","LSAD":"06","ALAND":991031149,"AWATER":13127296},"id":"18069"},{"arcs":[[-123,-231,263,-254,-225,-167]],"type":"Polygon","properties":{"STATEFP":"18","COUNTYFP":"059","COUNTYNS":"00450357","GEOIDFQ":"0500000US18059","GEOID":"18059","NAME":"Hancock","NAMELSAD":"Hancock County","STUSPS":"IN","STATE_NAME":"Indiana","LSAD":"06","ALAND":792425236,"AWATER":2769690},"id":"18059"},{"arcs":[[-237,264,-248,265,-240]],"type":"Polygon","properties":{"STATEFP":"18","COUNTYFP":"045","COUNTYNS":"00450351","GEOIDFQ":"0500000US18045","GEOID":"18045","NAME":"Fountain","NAMELSAD":"Fountain County","STUSPS":"IN","STATE_NAME":"Indiana","LSAD":"06","ALAND":1024757106,"AWATER":5728587},"id":"18045"},{"arcs":[[-46,-166,-128,-253,266,-259]],"type":"Polygon","properties":{"STATEFP":"18","COUNTYFP":"105","COUNTYNS":"00451680","GEOIDFQ":"0500000US18105","GEOID":"18105","NAME":"Monroe","NAMELSAD":"Monroe County","STUSPS":"IN","STATE_NAME":"Indiana","LSAD":"06","ALAND":1021809764,"AWATER":43507762},"id":"18105"},{"arcs":[[-19,267,-235,-112,-130,-165]],"type":"Polygon","properties":{"STATEFP":"18","COUNTYFP":"133","COUNTYNS":"00450384","GEOIDFQ":"0500000US18133","GEOID":"18133","NAME":"Putnam","NAMELSAD":"Putnam County","STUSPS":"IN","STATE_NAME":"Indiana","LSAD":"06","ALAND":1244583012,"AWATER":5588762},"id":"18133"},{"arcs":[[-126,-227,-257,268,-250]],"type":"Polygon","properties":{"STATEFP":"18","COUNTYFP":"081","COUNTYNS":"00450365","GEOIDFQ":"0500000US18081","GEOID":"18081","NAME":"Johnson","NAMELSAD":"Johnson County","STUSPS":"IN","STATE_NAME":"Indiana","LSAD":"06","ALAND":829871088,"AWATER":3563561},"id":"18081"},{"arcs":[[-174,269,-251,-269,-256,-232]],"type":"Polygon","properties":{"STATEFP":"18","COUNTYFP":"005","COUNTYNS":"00451683","GEOIDFQ":"0500000US18005","GEOID":"18005","NAME":"Bartholomew","NAMELSAD":"Bartholomew County","STUSPS":"IN","STATE_NAME":"Indiana","LSAD":"06","ALAND":1053968862,"AWATER":6715104},"id":"18005"},{"arcs":[[-214,-263,-228,-219,270]],"type":"Polygon","properties":{"STATEFP":"18","COUNTYFP":"177","COUNTYNS":"00450336","GEOIDFQ":"0500000US18177","GEOID":"18177","NAME":"Wayne","NAMELSAD":"Wayne County","STUSPS":"IN","STATE_NAME":"Indiana","LSAD":"06","ALAND":1040539367,"AWATER":6701882},"id":"18177"},{"arcs":[[-18,-145,-249,-265,-236,-268]],"type":"Polygon","properties":{"STATEFP":"18","COUNTYFP":"121","COUNTYNS":"00450380","GEOIDFQ":"0500000US18121","GEOID":"18121","NAME":"Parke","NAMELSAD":"Parke County","STUSPS":"IN","STATE_NAME":"Indiana","LSAD":"06","ALAND":1151832456,"AWATER":13645018},"id":"18121"},{"arcs":[[-24,-201,-202,-43,-187]],"type":"Polygon","properties":{"STATEFP":"18","COUNTYFP":"131","COUNTYNS":"00446852","GEOIDFQ":"0500000US18131","GEOID":"18131","NAME":"Pulaski","NAMELSAD":"Pulaski County","STUSPS":"IN","STATE_NAME":"Indiana","LSAD":"06","ALAND":1123220656,"AWATER":2216959},"id":"18131"},{"arcs":[[271,-161,-155,-186,-177,272]],"type":"Polygon","properties":{"STATEFP":"18","COUNTYFP":"141","COUNTYNS":"00452855","GEOIDFQ":"0500000US18141","GEOID":"18141","NAME":"St. Joseph","NAMELSAD":"St. Joseph County","STUSPS":"IN","STATE_NAME":"Indiana","LSAD":"06","ALAND":1185646697,"AWATER":9336372},"id":"18141"},{"arcs":[[-6,-241,-266,-247,273]],"type":"Polygon","properties":{"STATEFP":"18","COUNTYFP":"171","COUNTYNS":"00450400","GEOIDFQ":"0500000US18171","GEOID":"18171","NAME":"Warren","NAMELSAD":"Warren County","STUSPS":"IN","STATE_NAME":"Indiana","LSAD":"06","ALAND":944531015,"AWATER":4442225},"id":"18171"},{"arcs":[[-83,-190,-243,274,-149]],"type":"Polygon","properties":{"STATEFP":"18","COUNTYFP":"019","COUNTYNS":"00450340","GEOIDFQ":"0500000US18019","GEOID":"18019","NAME":"Clark","NAMELSAD":"Clark County","STUSPS":"IN","STATE_NAME":"Indiana","LSAD":"06","ALAND":964744991,"AWATER":10695690},"id":"18019"},{"arcs":[[-120,-234,-255,-264,-230,-262]],"type":"Polygon","properties":{"STATEFP":"18","COUNTYFP":"139","COUNTYNS":"00446854","GEOIDFQ":"0500000US18139","GEOID":"18139","NAME":"Rush","NAMELSAD":"Rush County","STUSPS":"IN","STATE_NAME":"Indiana","LSAD":"06","ALAND":1057069249,"AWATER":838340},"id":"18139"},{"arcs":[[-81,-260,-267,-252,-270,-173,-188]],"type":"Polygon","properties":{"STATEFP":"18","COUNTYFP":"071","COUNTYNS":"00451678","GEOIDFQ":"0500000US18071","GEOID":"18071","NAME":"Jackson","NAMELSAD":"Jackson County","STUSPS":"IN","STATE_NAME":"Indiana","LSAD":"06","ALAND":1320837989,"AWATER":10172528},"id":"18071"},{"arcs":[[-29,-48,-261,-133,-216]],"type":"Polygon","properties":{"STATEFP":"18","COUNTYFP":"101","COUNTYNS":"00451679","GEOIDFQ":"0500000US18101","GEOID":"18101","NAME":"Martin","NAMELSAD":"Martin County","STUSPS":"IN","STATE_NAME":"Indiana","LSAD":"06","ALAND":869615719,"AWATER":12033245},"id":"18101"},{"arcs":[[-11,275,-99,-217,-131,-78]],"type":"Polygon","properties":{"STATEFP":"18","COUNTYFP":"025","COUNTYNS":"00451674","GEOIDFQ":"0500000US18025","GEOID":"18025","NAME":"Crawford","NAMELSAD":"Crawford County","STUSPS":"IN","STATE_NAME":"Indiana","LSAD":"06","ALAND":791534793,"AWATER":8201106},"id":"18025"}]}}}