{"type":"Topology","arcs":[[[2318,1985],[157,0]],[[2475,1985],[159,1]],[[2634,1986],[1,-236],[0,-141]],[[2635,1609],[-159,0],[-158,1]],[[2318,1610],[0,375]],[[3587,1133],[1,190]],[[3588,1323],[145,-1],[173,0]],[[3906,1322],[79,-1],[-2,-156]],[[3983,1165],[-35,3],[-13,-3],[-29,-23],[-21,-11],[-30,14],[-36,-12],[-14,-13],[-2,-28],[-10,-18],[-4,-38]],[[3789,1036],[-203,3],[1,94]],[[1052,1987],[158,-1]],[[1210,1986],[156,0]],[[1366,1986],[0,-281],[0,-95]],[[1366,1610],[-79,-1]],[[1287,1609],[-237,1]],[[1050,1610],[2,377]],[[67,2744],[233,0],[135,1],[93,-1]],[[528,2744],[1,-94],[-2,-110],[1,-174]],[[528,2366],[-255,1],[-139,1],[-41,-1]],[[93,2367],[2,19],[-6,28],[-9,12],[1,16],[-15,17],[0,10],[-46,51],[-14,9],[1,16],[-7,16],[0,25],[11,23],[18,18],[7,35],[22,8],[0,24],[15,30],[-6,20]],[[1474,845],[156,0]],[[1630,845],[155,-1]],[[1785,844],[0,-281]],[[1785,563],[-155,0],[-156,2]],[[1474,565],[0,280]],[[527,3122],[161,1],[81,-3],[80,0]],[[849,3120],[1,-123],[-1,-158],[0,-94]],[[849,2745],[-160,1],[-161,-2]],[[528,2744],[0,190],[-1,188]],[[3349,567],[0,110],[1,174]],[[3350,851],[79,1],[78,-2]],[[3507,850],[79,-1],[-1,-94]],[[3585,755],[-1,-284],[-25,0]],[[3559,471],[-211,1]],[[3348,472],[1,95]],[[1172,2745],[321,-2]],[[1493,2743],[0,-285]],[[1493,2458],[0,-94]],[[1493,2364],[-120,2],[-40,-1],[-161,1]],[[1172,2366],[-1,94],[1,95],[0,190]],[[1474,565],[-159,1],[-153,0]],[[1162,566],[1,280]],[[1163,846],[155,0]],[[1318,846],[156,-1]],[[3906,1322],[1,189]],[[3907,1511],[76,0],[17,-10],[8,-20],[20,-8],[9,4],[31,27],[7,-11],[14,11],[12,-8],[11,10],[12,-9],[44,11],[32,-7],[11,2],[18,-13],[11,-25],[24,5],[17,-4],[10,10],[12,-11]],[[4303,1465],[1,-37],[-13,-17],[-6,-35],[3,-53],[-3,-11],[-47,-25],[-33,-45],[-27,-6],[-28,9],[-37,-17],[-7,-18],[-34,-35],[-64,-13],[-25,3]],[[734,1610],[159,1],[157,-1]],[[1050,1610],[1,-283],[35,0],[0,-106]],[[1086,1221],[-78,1]],[[1008,1222],[-234,1]],[[774,1223],[1,104],[-42,0],[1,283]],[[1493,2743],[321,0]],[[1814,2743],[0,-285]],[[1814,2458],[-147,0],[-174,0]],[[2318,1610],[-79,0]],[[2239,1610],[-239,0]],[[2000,1610],[0,173],[0,202]],[[2000,1985],[160,0]],[[2160,1985],[158,0]],[[1287,1609],[1,-282],[29,0],[0,-106]],[[1317,1221],[-231,0]],[[3559,471],[31,-24],[48,-19],[7,-20],[26,-7],[26,-30],[31,-4],[7,-11],[26,-11]],[[3761,345],[-8,-30],[-42,-33],[-42,0],[-40,-13],[-29,-18],[-21,-38],[-15,-17],[-3,-18],[12,-10],[13,-22],[3,-31],[-9,-30],[-2,-23],[5,-19],[-1,-28],[-30,-15],[-15,9],[-26,-5],[-12,22],[-19,9],[4,23],[-10,10],[4,20],[-24,2],[-12,11],[-9,26],[-15,10],[-6,42],[-39,11],[-6,7],[2,25],[-19,17]],[[3350,239],[-1,17],[-1,216]],[[2408,849],[156,0]],[[2564,849],[157,0]],[[2721,849],[0,-284]],[[2721,565],[-245,-1],[-67,0]],[[2409,564],[-1,285]],[[1785,844],[79,0],[74,6]],[[1938,850],[158,-1]],[[2096,849],[1,-285]],[[2097,564],[-157,1],[-84,-3],[-71,1]],[[3350,239],[-9,16],[-146,-8],[-161,-6]],[[3034,241],[1,89],[0,235]],[[3035,565],[95,1],[117,1],[102,0]],[[2635,1609],[0,-283],[6,0],[0,-100]],[[2641,1226],[-78,0]],[[2563,1226],[-65,-1],[-246,0]],[[2252,1225],[0,101],[-14,0],[1,284]],[[2136,2744],[161,-1],[162,0]],[[2459,2743],[-2,-381]],[[2457,2362],[-80,0],[-242,1]],[[2135,2363],[1,381]],[[3698,3301],[5,-30],[-12,-31],[9,-19],[14,-3],[36,-21],[15,-14],[14,-24],[19,-41],[-14,-28],[-27,-30],[-17,-48],[-23,-29],[0,-53]],[[3717,2930],[-292,1]],[[3425,2931],[1,283],[-4,0],[0,172]],[[3422,3386],[267,0],[2,-18],[-11,-26],[2,-16],[16,-25]],[[2634,1986],[0,94],[159,1]],[[2793,2081],[160,0]],[[2953,2081],[0,-236],[1,-110],[0,-125]],[[2954,1610],[-160,-1],[-159,0]],[[2670,229],[-155,-2],[-106,-4]],[[2409,223],[0,341]],[[2721,565],[1,-334]],[[2722,231],[-52,-2]],[[2000,1985],[-159,1]],[[1841,1986],[0,284],[-27,0],[0,94]],[[1814,2364],[80,-1],[241,0]],[[2135,2363],[1,-94],[25,0],[-1,-284]],[[1366,1610],[238,0]],[[1604,1610],[0,-284],[26,0],[0,-106]],[[1630,1220],[-185,0],[-128,1]],[[2954,1610],[-2,-138],[1,-146],[1,-99]],[[2954,1227],[-78,0]],[[2876,1227],[-235,-1]],[[2408,849],[-156,-1]],[[2252,848],[0,358]],[[2252,1206],[0,19]],[[2563,1226],[1,-259],[0,-118]],[[1815,3385],[219,0],[103,0]],[[2137,3385],[0,-265]],[[2137,3120],[-169,0],[-153,0]],[[1815,3120],[0,265]],[[3789,1036],[0,0],[-4,-35],[-10,-16],[-15,-40],[0,-9],[33,-45],[16,-37],[24,0],[12,-11],[29,-64],[-2,-26]],[[3872,753],[-151,0],[-136,2]],[[3507,850],[1,284]],[[3508,1134],[79,-1]],[[1163,846],[-156,1]],[[1007,847],[1,248],[0,127]],[[1317,1221],[1,-188],[0,-187]],[[2097,564],[0,-141],[-1,-204]],[[2096,219],[-67,-2],[-81,-1],[-164,-4]],[[1784,212],[1,351]],[[2457,2362],[0,-93],[17,0],[1,-284]],[[2459,3074],[226,-1],[94,1]],[[2779,3074],[0,-332]],[[2779,2742],[-180,0],[-140,1]],[[2459,2743],[1,135],[-1,196]],[[396,3385],[131,0]],[[527,3385],[1,-168],[-1,-95]],[[527,3122],[-121,2],[-40,-2],[-161,0],[-150,3]],[[55,3125],[-15,9],[-3,22],[27,7],[11,19],[-7,26],[7,11],[1,52],[-9,0],[-25,26],[-1,14],[-13,3],[-4,24],[12,11],[-3,26],[-8,10],[99,0],[272,0]],[[67,2744],[-3,17],[22,22],[6,16],[-14,20],[20,34],[-13,17],[0,27],[14,1],[20,14],[4,21],[-4,13],[14,20],[-2,22],[-16,18],[1,34],[-4,25],[-10,21],[-23,-7],[-24,10],[-11,13],[12,9],[-1,14]],[[2721,849],[156,1]],[[2877,850],[157,1]],[[3034,851],[1,-286]],[[3035,565],[-183,0],[-131,0]],[[1630,1220],[0,-375]],[[849,2745],[1,-190],[-1,-187]],[[849,2368],[-240,-1]],[[609,2367],[-81,-1]],[[3424,2457],[81,0],[242,2]],[[3747,2459],[-1,-95],[0,-95],[3,0],[0,-190]],[[3749,2079],[-159,1]],[[3590,2080],[-159,0]],[[3431,2080],[0,187],[-8,0],[0,95],[1,95]],[[2953,2081],[160,0]],[[3113,2081],[67,0],[92,2]],[[3272,2083],[-3,-189],[0,-95],[3,-190]],[[3272,1609],[-159,1],[-159,0]],[[2409,564],[-234,-1],[-78,1]],[[2096,849],[156,-1]],[[3034,851],[160,1]],[[3194,852],[84,-3],[72,2]],[[2137,3120],[0,-267],[-1,-109]],[[2136,2744],[-241,0],[-81,-1]],[[1814,2743],[1,221],[0,156]],[[3431,2080],[-80,0],[-79,3]],[[3113,2081],[0,185],[-12,0],[0,189]],[[3101,2455],[108,-1],[53,2],[81,0],[81,1]],[[3731,2830],[7,-27],[-2,-25],[2,-33],[31,-29],[6,-36],[-2,-16],[11,-8],[1,-23],[8,-54],[10,-21],[38,-26],[10,-16],[19,-13],[21,-1],[17,-11]],[[3908,2491],[0,-32],[-161,0]],[[3424,2457],[0,209],[1,265]],[[3717,2930],[2,-45],[12,-55]],[[3588,1323],[0,284]],[[3588,1607],[1,94]],[[3589,1701],[159,0],[159,-1]],[[3907,1700],[0,-189]],[[1814,2364],[0,94]],[[734,1610],[-79,0]],[[655,1610],[2,378]],[[657,1988],[157,-1],[79,0]],[[893,1987],[159,0]],[[1630,1220],[79,0],[156,0],[72,9]],[[1937,1229],[0,-157],[1,-222]],[[3908,2491],[30,-12],[57,-14],[33,-12],[12,-11],[11,-42],[17,-26],[12,-30],[6,-27],[-5,-7],[-9,-18],[1,-15],[21,-21],[36,-19],[11,-27],[37,-23],[18,-15]],[[4196,2172],[-130,1],[-1,-95],[-158,1]],[[3907,2079],[-158,0]],[[3101,2455],[0,287]],[[3101,2742],[0,191]],[[3101,2933],[155,-1],[169,-1]],[[859,219],[-103,2],[-164,3],[9,9],[1,17],[-13,17],[-1,16],[-12,22],[-23,8],[-13,11],[-12,34],[-16,10],[-4,15],[4,18],[21,19],[12,20],[-6,21],[4,35],[-7,31],[25,22],[-1,19]],[[560,568],[87,-1],[204,0]],[[851,567],[0,-187],[10,-1],[-2,-79],[0,-81]],[[3508,1134],[-10,38],[-3,37],[-11,19],[-80,0],[-131,1]],[[3273,1229],[1,96],[-4,0],[0,94],[2,127],[0,63]],[[3272,1609],[79,0],[92,-2],[145,0]],[[3872,753],[0,-3],[5,-38],[-2,-31],[-9,-29],[4,-23],[-7,-36],[-24,-18],[-16,-27],[-16,-17],[-8,-21],[-23,-26],[-4,-14],[3,-35],[-11,-31],[-5,-28],[2,-31]],[[2851,3385],[251,1]],[[3102,3386],[0,-312]],[[3102,3074],[-149,0],[-174,0]],[[2779,3074],[1,311]],[[2780,3385],[71,0]],[[2252,1206],[-7,-8],[-39,14],[-12,12],[-92,5],[-165,0]],[[1937,1229],[0,96],[-16,0],[-1,285]],[[1920,1610],[80,0]],[[3102,3074],[-1,-141]],[[3101,2742],[-30,0],[-292,0]],[[560,568],[-16,21],[-3,20],[8,35],[-3,11],[-20,16],[-5,13],[6,33],[-12,15],[1,18],[10,20],[-2,32],[-11,28],[1,18]],[[514,848],[104,0],[234,0]],[[852,848],[-1,-281]],[[2137,3385],[161,-1],[144,1],[17,0]],[[2459,3385],[0,-265]],[[2459,3120],[-80,-1],[-242,1]],[[3101,2455],[-322,0]],[[2779,2455],[0,287]],[[849,2368],[1,-95],[44,0],[-1,-286]],[[657,1988],[0,123],[1,162],[-50,0],[1,94]],[[1784,212],[-148,-2],[-162,-1]],[[1474,209],[-1,320],[1,36]],[[849,3120],[323,-1]],[[1172,3119],[0,-374]],[[1172,2745],[-95,0],[-228,0]],[[2954,1227],[239,1]],[[3193,1228],[0,-188],[1,-125],[0,-63]],[[2877,850],[-1,377]],[[849,3120],[0,265]],[[849,3385],[323,1]],[[1172,3386],[0,-267]],[[655,1610],[-211,0],[-106,4]],[[338,1614],[-16,38],[14,15],[-1,24],[9,37],[-18,9],[-19,-4],[-5,9],[2,23],[-18,1],[-16,37],[-12,-3],[-11,10],[-5,29],[9,39],[-9,14],[-21,10],[-6,15],[-19,22],[0,31],[-6,22]],[[190,1992],[137,-2],[92,-2],[238,0]],[[849,2368],[54,-1],[188,0],[81,-1]],[[1172,2366],[0,-93],[39,-1],[-1,-286]],[[3273,1229],[-80,-1]],[[1007,847],[-155,1]],[[514,848],[19,6],[8,10],[-16,14],[-31,-4],[-9,7],[-3,12],[11,39],[-7,22],[5,14],[-10,11],[1,19],[15,2],[-5,-23],[21,2],[7,16],[-12,25],[-25,4],[-18,19],[-3,10],[18,17],[-5,30],[5,15],[-2,25],[9,24],[-9,13],[-22,0],[-27,9],[-10,16],[16,22]],[[435,1224],[106,-1],[233,0]],[[1213,3386],[280,-1]],[[1493,3385],[0,-266]],[[1493,3119],[-321,0]],[[1172,3386],[41,0]],[[3907,2079],[0,-284]],[[3907,1795],[0,-95]],[[3589,1701],[0,206],[1,173]],[[1493,2364],[0,-92],[31,0],[0,-287]],[[1524,1985],[-158,1]],[[2918,237],[-91,-2],[-105,-4]],[[3034,241],[-116,-4]],[[2793,2081],[0,187],[-14,0],[0,93]],[[2779,2361],[0,94]],[[2459,3074],[0,46]],[[2459,3385],[321,0]],[[2457,2362],[161,-1],[161,0]],[[1920,1610],[-237,0]],[[1683,1610],[-1,376]],[[1682,1986],[159,0]],[[1493,2743],[0,134],[0,242]],[[1493,3385],[133,0],[189,0]],[[435,1224],[-2,35],[-19,1],[-6,-34],[-12,0],[-26,27],[-1,27],[7,27],[-18,14],[-3,30],[13,25],[-3,15],[-15,24],[11,18],[20,2],[-3,18],[-15,11],[-2,17],[14,10],[5,27],[7,12],[-2,15],[-26,19],[-6,37],[-15,13]],[[4196,2172],[20,-28],[19,-36],[-10,-48],[8,-26],[19,-31],[24,-22],[27,-13],[24,-16],[21,-8],[28,-20],[6,-24],[20,-6],[6,-9],[-4,-44],[3,-37],[7,-10]],[[4414,1794],[-196,1],[-73,-1],[-152,0],[-86,1]],[[2409,223],[-111,-3],[-77,-1],[-125,0]],[[1682,1986],[-158,-1]],[[1683,1610],[-79,0]],[[1474,209],[-110,0],[-192,4]],[[1172,213],[1,165],[-11,1],[0,187]],[[190,1992],[14,4],[8,12],[-5,32],[-17,18],[-8,17],[-1,21],[-10,16],[-16,12],[-7,23],[6,19],[-4,19],[2,19],[17,23],[4,16],[-3,30],[-7,10],[-34,7],[-20,-1],[-3,38],[2,34],[-15,6]],[[3102,3386],[238,0],[82,0]],[[4354,1523],[-25,-17],[-22,-27],[-4,-14]],[[4414,1794],[9,-40],[-15,-37],[-1,-18],[8,-18],[-1,-24],[-11,-32],[-10,-48],[3,-22],[-5,-10],[-37,-22]],[[1162,566],[-77,1],[-234,0]],[[976,217],[-117,2]],[[1172,213],[-196,4]],[[527,3385],[161,0],[116,0],[45,0]]],"transform":{"scale":[0.0014683551887858916,0.0009222359287515645],"translate":[-96.63514800000002,40.378264]},"objects":{"19":{"type":"GeometryCollection","geometries":[{"arcs":[[0,1,2,3,4]],"type":"Polygon","properties":{"STATEFP":"19","COUNTYFP":"127","COUNTYNS":"00465252","GEOIDFQ":"0500000US19127","GEOID":"19127","NAME":"Marshall","NAMELSAD":"Marshall County","STUSPS":"IA","STATE_NAME":"Iowa","LSAD":"06","ALAND":1482776070,"AWATER":1803080},"id":"19127"},{"arcs":[[5,6,7,8,9]],"type":"Polygon","properties":{"STATEFP":"19","COUNTYFP":"139","COUNTYNS":"00465258","GEOIDFQ":"0500000US19139","GEOID":"19139","NAME":"Muscatine","NAMELSAD":"Muscatine County","STUSPS":"IA","STATE_NAME":"Iowa","LSAD":"06","ALAND":1132964471,"AWATER":30262337},"id":"19139"},{"arcs":[[10,11,12,13,14,15]],"type":"Polygon","properties":{"STATEFP":"19","COUNTYFP":"027","COUNTYNS":"00465203","GEOIDFQ":"0500000US19027","GEOID":"19027","NAME":"Carroll","NAMELSAD":"Carroll County","STUSPS":"IA","STATE_NAME":"Iowa","LSAD":"06","ALAND":1474877204,"AWATER":2145349},"id":"19027"},{"arcs":[[16,17,18,19]],"type":"Polygon","properties":{"STATEFP":"19","COUNTYFP":"149","COUNTYNS":"00465263","GEOIDFQ":"0500000US19149","GEOID":"19149","NAME":"Plymouth","NAMELSAD":"Plymouth County","STUSPS":"IA","STATE_NAME":"Iowa","LSAD":"06","ALAND":2234715252,"AWATER":2176851},"id":"19149"},{"arcs":[[20,21,22,23,24]],"type":"Polygon","properties":{"STATEFP":"19","COUNTYFP":"175","COUNTYNS":"00465276","GEOIDFQ":"0500000US19175","GEOID":"19175","NAME":"Union","NAMELSAD":"Union County","STUSPS":"IA","STATE_NAME":"Iowa","LSAD":"06","ALAND":1097235798,"AWATER":5575854},"id":"19175"},{"arcs":[[25,26,27,28]],"type":"Polygon","properties":{"STATEFP":"19","COUNTYFP":"141","COUNTYNS":"00465259","GEOIDFQ":"0500000US19141","GEOID":"19141","NAME":"O'Brien","NAMELSAD":"O'Brien County","STUSPS":"IA","STATE_NAME":"Iowa","LSAD":"06","ALAND":1484153962,"AWATER":447448},"id":"19141"},{"arcs":[[29,30,31,32,33,34]],"type":"Polygon","properties":{"STATEFP":"19","COUNTYFP":"087","COUNTYNS":"00465232","GEOIDFQ":"0500000US19087","GEOID":"19087","NAME":"Henry","NAMELSAD":"Henry County","STUSPS":"IA","STATE_NAME":"Iowa","LSAD":"06","ALAND":1124800195,"AWATER":5774825},"id":"19087"},{"arcs":[[35,36,37,38,39]],"type":"Polygon","properties":{"STATEFP":"19","COUNTYFP":"151","COUNTYNS":"00465264","GEOIDFQ":"0500000US19151","GEOID":"19151","NAME":"Pocahontas","NAMELSAD":"Pocahontas County","STUSPS":"IA","STATE_NAME":"Iowa","LSAD":"06","ALAND":1495047203,"AWATER":3666528},"id":"19151"},{"arcs":[[-25,40,41,42,43]],"type":"Polygon","properties":{"STATEFP":"19","COUNTYFP":"003","COUNTYNS":"00465191","GEOIDFQ":"0500000US19003","GEOID":"19003","NAME":"Adams","NAMELSAD":"Adams County","STUSPS":"IA","STATE_NAME":"Iowa","LSAD":"06","ALAND":1096686252,"AWATER":5367876},"id":"19003"},{"arcs":[[-8,44,45,46]],"type":"Polygon","properties":{"STATEFP":"19","COUNTYFP":"163","COUNTYNS":"00465270","GEOIDFQ":"0500000US19163","GEOID":"19163","NAME":"Scott","NAMELSAD":"Scott County","STUSPS":"IA","STATE_NAME":"Iowa","LSAD":"06","ALAND":1186475545,"AWATER":26184354},"id":"19163"},{"arcs":[[47,48,49,50,51]],"type":"Polygon","properties":{"STATEFP":"19","COUNTYFP":"165","COUNTYNS":"00465271","GEOIDFQ":"0500000US19165","GEOID":"19165","NAME":"Shelby","NAMELSAD":"Shelby County","STUSPS":"IA","STATE_NAME":"Iowa","LSAD":"06","ALAND":1530103549,"AWATER":1486125},"id":"19165"},{"arcs":[[-37,52,53,54]],"type":"Polygon","properties":{"STATEFP":"19","COUNTYFP":"091","COUNTYNS":"00465234","GEOIDFQ":"0500000US19091","GEOID":"19091","NAME":"Humboldt","NAMELSAD":"Humboldt County","STUSPS":"IA","STATE_NAME":"Iowa","LSAD":"06","ALAND":1125017986,"AWATER":3373409},"id":"19091"},{"arcs":[[-5,55,56,57,58,59]],"type":"Polygon","properties":{"STATEFP":"19","COUNTYFP":"169","COUNTYNS":"00465273","GEOIDFQ":"0500000US19169","GEOID":"19169","NAME":"Story","NAMELSAD":"Story County","STUSPS":"IA","STATE_NAME":"Iowa","LSAD":"06","ALAND":1482884330,"AWATER":2860570},"id":"19169"},{"arcs":[[-15,60,61,-49]],"type":"Polygon","properties":{"STATEFP":"19","COUNTYFP":"009","COUNTYNS":"00465194","GEOIDFQ":"0500000US19009","GEOID":"19009","NAME":"Audubon","NAMELSAD":"Audubon County","STUSPS":"IA","STATE_NAME":"Iowa","LSAD":"06","ALAND":1147262326,"AWATER":1152260},"id":"19009"},{"arcs":[[-34,62,63,64]],"type":"Polygon","properties":{"STATEFP":"19","COUNTYFP":"111","COUNTYNS":"00465244","GEOIDFQ":"0500000US19111","GEOID":"19111","NAME":"Lee","NAMELSAD":"Lee County","STUSPS":"IA","STATE_NAME":"Iowa","LSAD":"06","ALAND":1340448555,"AWATER":55266763},"id":"19111"},{"arcs":[[65,66,67,68,69]],"type":"Polygon","properties":{"STATEFP":"19","COUNTYFP":"135","COUNTYNS":"00465256","GEOIDFQ":"0500000US19135","GEOID":"19135","NAME":"Monroe","NAMELSAD":"Monroe County","STUSPS":"IA","STATE_NAME":"Iowa","LSAD":"06","ALAND":1123299100,"AWATER":1522790},"id":"19135"},{"arcs":[[-23,70,71,72,73]],"type":"Polygon","properties":{"STATEFP":"19","COUNTYFP":"039","COUNTYNS":"00465209","GEOIDFQ":"0500000US19039","GEOID":"19039","NAME":"Clarke","NAMELSAD":"Clarke County","STUSPS":"IA","STATE_NAME":"Iowa","LSAD":"06","ALAND":1116573606,"AWATER":1524746},"id":"19039"},{"arcs":[[-35,-65,74,75,76]],"type":"Polygon","properties":{"STATEFP":"19","COUNTYFP":"177","COUNTYNS":"00465277","GEOIDFQ":"0500000US19177","GEOID":"19177","NAME":"Van Buren","NAMELSAD":"Van Buren County","STUSPS":"IA","STATE_NAME":"Iowa","LSAD":"06","ALAND":1255605674,"AWATER":14880499},"id":"19177"},{"arcs":[[-4,77,78,79,80,-56]],"type":"Polygon","properties":{"STATEFP":"19","COUNTYFP":"099","COUNTYNS":"00465238","GEOIDFQ":"0500000US19099","GEOID":"19099","NAME":"Jasper","NAMELSAD":"Jasper County","STUSPS":"IA","STATE_NAME":"Iowa","LSAD":"06","ALAND":1891800876,"AWATER":6538381},"id":"19099"},{"arcs":[[81,82,83,84]],"type":"Polygon","properties":{"STATEFP":"19","COUNTYFP":"069","COUNTYNS":"00465223","GEOIDFQ":"0500000US19069","GEOID":"19069","NAME":"Franklin","NAMELSAD":"Franklin County","STUSPS":"IA","STATE_NAME":"Iowa","LSAD":"06","ALAND":1507300414,"AWATER":1438346},"id":"19069"},{"arcs":[[85,86,87,88]],"type":"Polygon","properties":{"STATEFP":"19","COUNTYFP":"005","COUNTYNS":"00465192","GEOIDFQ":"0500000US19005","GEOID":"19005","NAME":"Allamakee","NAMELSAD":"Allamakee County","STUSPS":"IA","STATE_NAME":"Iowa","LSAD":"06","ALAND":1655186565,"AWATER":51091697},"id":"19005"},{"arcs":[[-3,89,90,91,92]],"type":"Polygon","properties":{"STATEFP":"19","COUNTYFP":"171","COUNTYNS":"00465274","GEOIDFQ":"0500000US19171","GEOID":"19171","NAME":"Tama","NAMELSAD":"Tama County","STUSPS":"IA","STATE_NAME":"Iowa","LSAD":"06","ALAND":1867410624,"AWATER":2769418},"id":"19171"},{"arcs":[[93,94,-69,95,96]],"type":"Polygon","properties":{"STATEFP":"19","COUNTYFP":"007","COUNTYNS":"00465193","GEOIDFQ":"0500000US19007","GEOID":"19007","NAME":"Appanoose","NAMELSAD":"Appanoose County","STUSPS":"IA","STATE_NAME":"Iowa","LSAD":"06","ALAND":1287997906,"AWATER":49093607},"id":"19007"},{"arcs":[[-59,97,98,99,100]],"type":"Polygon","properties":{"STATEFP":"19","COUNTYFP":"079","COUNTYNS":"00465228","GEOIDFQ":"0500000US19079","GEOID":"19079","NAME":"Hamilton","NAMELSAD":"Hamilton County","STUSPS":"IA","STATE_NAME":"Iowa","LSAD":"06","ALAND":1493725531,"AWATER":1956182},"id":"19079"},{"arcs":[[-14,101,102,103,-61]],"type":"Polygon","properties":{"STATEFP":"19","COUNTYFP":"077","COUNTYNS":"00465227","GEOIDFQ":"0500000US19077","GEOID":"19077","NAME":"Guthrie","NAMELSAD":"Guthrie County","STUSPS":"IA","STATE_NAME":"Iowa","LSAD":"06","ALAND":1529683433,"AWATER":6328832},"id":"19077"},{"arcs":[[-78,-93,104,105,106]],"type":"Polygon","properties":{"STATEFP":"19","COUNTYFP":"157","COUNTYNS":"00465267","GEOIDFQ":"0500000US19157","GEOID":"19157","NAME":"Poweshiek","NAMELSAD":"Poweshiek County","STUSPS":"IA","STATE_NAME":"Iowa","LSAD":"06","ALAND":1514965905,"AWATER":2939275},"id":"19157"},{"arcs":[[-66,107,108,109,-80,110]],"type":"Polygon","properties":{"STATEFP":"19","COUNTYFP":"125","COUNTYNS":"00465251","GEOIDFQ":"0500000US19125","GEOID":"19125","NAME":"Marion","NAMELSAD":"Marion County","STUSPS":"IA","STATE_NAME":"Iowa","LSAD":"06","ALAND":1436123090,"AWATER":41484609},"id":"19125"},{"arcs":[[111,112,113,114]],"type":"Polygon","properties":{"STATEFP":"19","COUNTYFP":"189","COUNTYNS":"00465283","GEOIDFQ":"0500000US19189","GEOID":"19189","NAME":"Winnebago","NAMELSAD":"Winnebago County","STUSPS":"IA","STATE_NAME":"Iowa","LSAD":"06","ALAND":1037261953,"AWATER":3182049},"id":"19189"},{"arcs":[[-10,115,116,-32,117,118]],"type":"Polygon","properties":{"STATEFP":"19","COUNTYFP":"115","COUNTYNS":"00465246","GEOIDFQ":"0500000US19115","GEOID":"19115","NAME":"Louisa","NAMELSAD":"Louisa County","STUSPS":"IA","STATE_NAME":"Iowa","LSAD":"06","ALAND":1040596807,"AWATER":40784321},"id":"19115"},{"arcs":[[-43,119,120,-50,-62,121]],"type":"Polygon","properties":{"STATEFP":"19","COUNTYFP":"029","COUNTYNS":"00465204","GEOIDFQ":"0500000US19029","GEOID":"19029","NAME":"Cass","NAMELSAD":"Cass County","STUSPS":"IA","STATE_NAME":"Iowa","LSAD":"06","ALAND":1461422458,"AWATER":1787165},"id":"19029"},{"arcs":[[-74,122,123,124]],"type":"Polygon","properties":{"STATEFP":"19","COUNTYFP":"053","COUNTYNS":"00465215","GEOIDFQ":"0500000US19053","GEOID":"19053","NAME":"Decatur","NAMELSAD":"Decatur County","STUSPS":"IA","STATE_NAME":"Iowa","LSAD":"06","ALAND":1377569413,"AWATER":4138626},"id":"19053"},{"arcs":[[-1,-60,-101,-84,125]],"type":"Polygon","properties":{"STATEFP":"19","COUNTYFP":"083","COUNTYNS":"00465230","GEOIDFQ":"0500000US19083","GEOID":"19083","NAME":"Hardin","NAMELSAD":"Hardin County","STUSPS":"IA","STATE_NAME":"Iowa","LSAD":"06","ALAND":1474498037,"AWATER":1783759},"id":"19083"},{"arcs":[[126,127,128,129]],"type":"Polygon","properties":{"STATEFP":"19","COUNTYFP":"067","COUNTYNS":"00465222","GEOIDFQ":"0500000US19067","GEOID":"19067","NAME":"Floyd","NAMELSAD":"Floyd County","STUSPS":"IA","STATE_NAME":"Iowa","LSAD":"06","ALAND":1296471922,"AWATER":2023929},"id":"19067"},{"arcs":[[130,131,132,133]],"type":"Polygon","properties":{"STATEFP":"19","COUNTYFP":"119","COUNTYNS":"00465248","GEOIDFQ":"0500000US19119","GEOID":"19119","NAME":"Lyon","NAMELSAD":"Lyon County","STUSPS":"IA","STATE_NAME":"Iowa","LSAD":"06","ALAND":1521901256,"AWATER":440273},"id":"19119"},{"arcs":[[-17,134,-133,-29]],"type":"Polygon","properties":{"STATEFP":"19","COUNTYFP":"167","COUNTYNS":"00465272","GEOIDFQ":"0500000US19167","GEOID":"19167","NAME":"Sioux","NAMELSAD":"Sioux County","STUSPS":"IA","STATE_NAME":"Iowa","LSAD":"06","ALAND":1988881471,"AWATER":2802041},"id":"19167"},{"arcs":[[-68,135,136,137,138]],"type":"Polygon","properties":{"STATEFP":"19","COUNTYFP":"179","COUNTYNS":"00465278","GEOIDFQ":"0500000US19179","GEOID":"19179","NAME":"Wapello","NAMELSAD":"Wapello County","STUSPS":"IA","STATE_NAME":"Iowa","LSAD":"06","ALAND":1118480955,"AWATER":10808728},"id":"19179"},{"arcs":[[-21,-44,-122,-104,139]],"type":"Polygon","properties":{"STATEFP":"19","COUNTYFP":"001","COUNTYNS":"00465190","GEOIDFQ":"0500000US19001","GEOID":"19001","NAME":"Adair","NAMELSAD":"Adair County","STUSPS":"IA","STATE_NAME":"Iowa","LSAD":"06","ALAND":1474404185,"AWATER":2597996},"id":"19001"},{"arcs":[[-18,-28,140,141,142]],"type":"Polygon","properties":{"STATEFP":"19","COUNTYFP":"035","COUNTYNS":"00465207","GEOIDFQ":"0500000US19035","GEOID":"19035","NAME":"Cherokee","NAMELSAD":"Cherokee County","STUSPS":"IA","STATE_NAME":"Iowa","LSAD":"06","ALAND":1494181140,"AWATER":423160},"id":"19035"},{"arcs":[[143,144,145,146,147]],"type":"Polygon","properties":{"STATEFP":"19","COUNTYFP":"055","COUNTYNS":"00465216","GEOIDFQ":"0500000US19055","GEOID":"19055","NAME":"Delaware","NAMELSAD":"Delaware County","STUSPS":"IA","STATE_NAME":"Iowa","LSAD":"06","ALAND":1496196766,"AWATER":3181863},"id":"19055"},{"arcs":[[-92,148,149,150,151]],"type":"Polygon","properties":{"STATEFP":"19","COUNTYFP":"011","COUNTYNS":"00465195","GEOIDFQ":"0500000US19011","GEOID":"19011","NAME":"Benton","NAMELSAD":"Benton County","STUSPS":"IA","STATE_NAME":"Iowa","LSAD":"06","ALAND":1854696268,"AWATER":5857896},"id":"19011"},{"arcs":[[-70,152,-73,153,-108]],"type":"Polygon","properties":{"STATEFP":"19","COUNTYFP":"117","COUNTYNS":"00465247","GEOIDFQ":"0500000US19117","GEOID":"19117","NAME":"Lucas","NAMELSAD":"Lucas County","STUSPS":"IA","STATE_NAME":"Iowa","LSAD":"06","ALAND":1115458270,"AWATER":9852845},"id":"19117"},{"arcs":[[-30,-77,-138,154,155]],"type":"Polygon","properties":{"STATEFP":"19","COUNTYFP":"101","COUNTYNS":"00465239","GEOIDFQ":"0500000US19101","GEOID":"19101","NAME":"Jefferson","NAMELSAD":"Jefferson County","STUSPS":"IA","STATE_NAME":"Iowa","LSAD":"06","ALAND":1128002429,"AWATER":3522238},"id":"19101"},{"arcs":[[-114,156,157,158]],"type":"Polygon","properties":{"STATEFP":"19","COUNTYFP":"081","COUNTYNS":"00465229","GEOIDFQ":"0500000US19081","GEOID":"19081","NAME":"Hancock","NAMELSAD":"Hancock County","STUSPS":"IA","STATE_NAME":"Iowa","LSAD":"06","ALAND":1478895051,"AWATER":5265568},"id":"19081"},{"arcs":[[-148,159,-150,160,161]],"type":"Polygon","properties":{"STATEFP":"19","COUNTYFP":"019","COUNTYNS":"00465199","GEOIDFQ":"0500000US19019","GEOID":"19019","NAME":"Buchanan","NAMELSAD":"Buchanan County","STUSPS":"IA","STATE_NAME":"Iowa","LSAD":"06","ALAND":1479101364,"AWATER":5208356},"id":"19019"},{"arcs":[[162,163,-144,164,-87,165]],"type":"Polygon","properties":{"STATEFP":"19","COUNTYFP":"043","COUNTYNS":"00465210","GEOIDFQ":"0500000US19043","GEOID":"19043","NAME":"Clayton","NAMELSAD":"Clayton County","STUSPS":"IA","STATE_NAME":"Iowa","LSAD":"06","ALAND":2016211331,"AWATER":36692127},"id":"19043"},{"arcs":[[-7,166,167,168,169,-45]],"type":"Polygon","properties":{"STATEFP":"19","COUNTYFP":"031","COUNTYNS":"00465205","GEOIDFQ":"0500000US19031","GEOID":"19031","NAME":"Cedar","NAMELSAD":"Cedar County","STUSPS":"IA","STATE_NAME":"Iowa","LSAD":"06","ALAND":1500798699,"AWATER":6385833},"id":"19031"},{"arcs":[[-54,-158,-85,-100,170]],"type":"Polygon","properties":{"STATEFP":"19","COUNTYFP":"197","COUNTYNS":"00465287","GEOIDFQ":"0500000US19197","GEOID":"19197","NAME":"Wright","NAMELSAD":"Wright County","STUSPS":"IA","STATE_NAME":"Iowa","LSAD":"06","ALAND":1503260264,"AWATER":4703964},"id":"19197"},{"arcs":[[-16,-48,171,172,173,174]],"type":"Polygon","properties":{"STATEFP":"19","COUNTYFP":"047","COUNTYNS":"00465212","GEOIDFQ":"0500000US19047","GEOID":"19047","NAME":"Crawford","NAMELSAD":"Crawford County","STUSPS":"IA","STATE_NAME":"Iowa","LSAD":"06","ALAND":1849765413,"AWATER":2171717},"id":"19047"},{"arcs":[[-22,-140,175,176,-71]],"type":"Polygon","properties":{"STATEFP":"19","COUNTYFP":"121","COUNTYNS":"00465249","GEOIDFQ":"0500000US19121","GEOID":"19121","NAME":"Madison","NAMELSAD":"Madison County","STUSPS":"IA","STATE_NAME":"Iowa","LSAD":"06","ALAND":1452999065,"AWATER":2983840},"id":"19121"},{"arcs":[[177,178,179,-145,-164]],"type":"Polygon","properties":{"STATEFP":"19","COUNTYFP":"061","COUNTYNS":"00465219","GEOIDFQ":"0500000US19061","GEOID":"19061","NAME":"Dubuque","NAMELSAD":"Dubuque County","STUSPS":"IA","STATE_NAME":"Iowa","LSAD":"06","ALAND":1575486166,"AWATER":21140740},"id":"19061"},{"arcs":[[-162,180,181,182,-165]],"type":"Polygon","properties":{"STATEFP":"19","COUNTYFP":"065","COUNTYNS":"00465221","GEOIDFQ":"0500000US19065","GEOID":"19065","NAME":"Fayette","NAMELSAD":"Fayette County","STUSPS":"IA","STATE_NAME":"Iowa","LSAD":"06","ALAND":1892806762,"AWATER":1354955},"id":"19065"},{"arcs":[[183,184,185]],"type":"Polygon","properties":{"STATEFP":"19","COUNTYFP":"071","COUNTYNS":"00465224","GEOIDFQ":"0500000US19071","GEOID":"19071","NAME":"Fremont","NAMELSAD":"Fremont County","STUSPS":"IA","STATE_NAME":"Iowa","LSAD":"06","ALAND":1323918212,"AWATER":14168938},"id":"19071"},{"arcs":[[-6,-119,186,187,188,-167]],"type":"Polygon","properties":{"STATEFP":"19","COUNTYFP":"103","COUNTYNS":"00465240","GEOIDFQ":"0500000US19103","GEOID":"19103","NAME":"Johnson","NAMELSAD":"Johnson County","STUSPS":"IA","STATE_NAME":"Iowa","LSAD":"06","ALAND":1587655790,"AWATER":26070847},"id":"19103"},{"arcs":[[-33,-117,189,-63]],"type":"Polygon","properties":{"STATEFP":"19","COUNTYFP":"057","COUNTYNS":"00465217","GEOIDFQ":"0500000US19057","GEOID":"19057","NAME":"Des Moines","NAMELSAD":"Des Moines County","STUSPS":"IA","STATE_NAME":"Iowa","LSAD":"06","ALAND":1077769234,"AWATER":35341938},"id":"19057"},{"arcs":[[190,191,192,193,194]],"type":"Polygon","properties":{"STATEFP":"19","COUNTYFP":"089","COUNTYNS":"00465233","GEOIDFQ":"0500000US19089","GEOID":"19089","NAME":"Howard","NAMELSAD":"Howard County","STUSPS":"IA","STATE_NAME":"Iowa","LSAD":"06","ALAND":1225702822,"AWATER":931480},"id":"19089"},{"arcs":[[-57,-81,-110,195,196,197]],"type":"Polygon","properties":{"STATEFP":"19","COUNTYFP":"153","COUNTYNS":"00465265","GEOIDFQ":"0500000US19153","GEOID":"19153","NAME":"Polk","NAMELSAD":"Polk County","STUSPS":"IA","STATE_NAME":"Iowa","LSAD":"06","ALAND":1483337950,"AWATER":49645912},"id":"19153"},{"arcs":[[-128,-193,198,-182,199]],"type":"Polygon","properties":{"STATEFP":"19","COUNTYFP":"037","COUNTYNS":"00465208","GEOIDFQ":"0500000US19037","GEOID":"19037","NAME":"Chickasaw","NAMELSAD":"Chickasaw County","STUSPS":"IA","STATE_NAME":"Iowa","LSAD":"06","ALAND":1306192621,"AWATER":3455450},"id":"19037"},{"arcs":[[200,201,202,-185]],"type":"Polygon","properties":{"STATEFP":"19","COUNTYFP":"129","COUNTYNS":"00465253","GEOIDFQ":"0500000US19129","GEOID":"19129","NAME":"Mills","NAMELSAD":"Mills County","STUSPS":"IA","STATE_NAME":"Iowa","LSAD":"06","ALAND":1132940495,"AWATER":8319851},"id":"19129"},{"arcs":[[-113,203,204,205]],"type":"Polygon","properties":{"STATEFP":"19","COUNTYFP":"195","COUNTYNS":"00465286","GEOIDFQ":"0500000US19195","GEOID":"19195","NAME":"Worth","NAMELSAD":"Worth County","STUSPS":"IA","STATE_NAME":"Iowa","LSAD":"06","ALAND":1036314915,"AWATER":4709127},"id":"19195"},{"arcs":[[-181,206,207,-200]],"type":"Polygon","properties":{"STATEFP":"19","COUNTYFP":"017","COUNTYNS":"00465198","GEOIDFQ":"0500000US19017","GEOID":"19017","NAME":"Bremer","NAMELSAD":"Bremer County","STUSPS":"IA","STATE_NAME":"Iowa","LSAD":"06","ALAND":1127885598,"AWATER":10166457},"id":"19017"},{"arcs":[[-142,208,-174,209]],"type":"Polygon","properties":{"STATEFP":"19","COUNTYFP":"093","COUNTYNS":"00465235","GEOIDFQ":"0500000US19093","GEOID":"19093","NAME":"Ida","NAMELSAD":"Ida County","STUSPS":"IA","STATE_NAME":"Iowa","LSAD":"06","ALAND":1117614341,"AWATER":1391966},"id":"19093"},{"arcs":[[-24,-125,210,211]],"type":"Polygon","properties":{"STATEFP":"19","COUNTYFP":"159","COUNTYNS":"00465268","GEOIDFQ":"0500000US19159","GEOID":"19159","NAME":"Ringgold","NAMELSAD":"Ringgold County","STUSPS":"IA","STATE_NAME":"Iowa","LSAD":"06","ALAND":1386922817,"AWATER":8732661},"id":"19159"},{"arcs":[[-27,212,213,214]],"type":"Polygon","properties":{"STATEFP":"19","COUNTYFP":"041","COUNTYNS":"00465625","GEOIDFQ":"0500000US19041","GEOID":"19041","NAME":"Clay","NAMELSAD":"Clay County","STUSPS":"IA","STATE_NAME":"Iowa","LSAD":"06","ALAND":1469139450,"AWATER":13866670},"id":"19041"},{"arcs":[[-106,215,216,-155,-137,217]],"type":"Polygon","properties":{"STATEFP":"19","COUNTYFP":"107","COUNTYNS":"00465242","GEOIDFQ":"0500000US19107","GEOID":"19107","NAME":"Keokuk","NAMELSAD":"Keokuk County","STUSPS":"IA","STATE_NAME":"Iowa","LSAD":"06","ALAND":1500056810,"AWATER":1944064},"id":"19107"},{"arcs":[[-213,218,219,220]],"type":"Polygon","properties":{"STATEFP":"19","COUNTYFP":"059","COUNTYNS":"00465218","GEOIDFQ":"0500000US19059","GEOID":"19059","NAME":"Dickinson","NAMELSAD":"Dickinson County","STUSPS":"IA","STATE_NAME":"Iowa","LSAD":"06","ALAND":985574301,"AWATER":60680641},"id":"19059"},{"arcs":[[-173,221,222,223]],"type":"Polygon","properties":{"STATEFP":"19","COUNTYFP":"133","COUNTYNS":"00465255","GEOIDFQ":"0500000US19133","GEOID":"19133","NAME":"Monona","NAMELSAD":"Monona County","STUSPS":"IA","STATE_NAME":"Iowa","LSAD":"06","ALAND":1797639078,"AWATER":12591063},"id":"19133"},{"arcs":[[-11,-175,-209,224,225]],"type":"Polygon","properties":{"STATEFP":"19","COUNTYFP":"161","COUNTYNS":"00465269","GEOIDFQ":"0500000US19161","GEOID":"19161","NAME":"Sac","NAMELSAD":"Sac County","STUSPS":"IA","STATE_NAME":"Iowa","LSAD":"06","ALAND":1489300198,"AWATER":8569434},"id":"19161"},{"arcs":[[-105,-152,-188,226,-216]],"type":"Polygon","properties":{"STATEFP":"19","COUNTYFP":"095","COUNTYNS":"00465236","GEOIDFQ":"0500000US19095","GEOID":"19095","NAME":"Iowa","NAMELSAD":"Iowa County","STUSPS":"IA","STATE_NAME":"Iowa","LSAD":"06","ALAND":1518911682,"AWATER":2686847},"id":"19095"},{"arcs":[[-51,-121,227,-202,228,229]],"type":"Polygon","properties":{"STATEFP":"19","COUNTYFP":"155","COUNTYNS":"00465266","GEOIDFQ":"0500000US19155","GEOID":"19155","NAME":"Pottawattamie","NAMELSAD":"Pottawattamie County","STUSPS":"IA","STATE_NAME":"Iowa","LSAD":"06","ALAND":2463812990,"AWATER":20356854},"id":"19155"},{"arcs":[[230,231,232,-221,233]],"type":"Polygon","properties":{"STATEFP":"19","COUNTYFP":"063","COUNTYNS":"00465220","GEOIDFQ":"0500000US19063","GEOID":"19063","NAME":"Emmet","NAMELSAD":"Emmet County","STUSPS":"IA","STATE_NAME":"Iowa","LSAD":"06","ALAND":1025349319,"AWATER":17175565},"id":"19063"},{"arcs":[[-146,-180,234,235,-169,236]],"type":"Polygon","properties":{"STATEFP":"19","COUNTYFP":"105","COUNTYNS":"00465241","GEOIDFQ":"0500000US19105","GEOID":"19105","NAME":"Jones","NAMELSAD":"Jones County","STUSPS":"IA","STATE_NAME":"Iowa","LSAD":"06","ALAND":1490844756,"AWATER":3782491},"id":"19105"},{"arcs":[[-12,-226,-39,237,238]],"type":"Polygon","properties":{"STATEFP":"19","COUNTYFP":"025","COUNTYNS":"00465202","GEOIDFQ":"0500000US19025","GEOID":"19025","NAME":"Calhoun","NAMELSAD":"Calhoun County","STUSPS":"IA","STATE_NAME":"Iowa","LSAD":"06","ALAND":1475894594,"AWATER":5873827},"id":"19025"},{"arcs":[[239,-96,-139,-76,240]],"type":"Polygon","properties":{"STATEFP":"19","COUNTYFP":"051","COUNTYNS":"00465214","GEOIDFQ":"0500000US19051","GEOID":"19051","NAME":"Davis","NAMELSAD":"Davis County","STUSPS":"IA","STATE_NAME":"Iowa","LSAD":"06","ALAND":1300661922,"AWATER":6904087},"id":"19051"},{"arcs":[[-91,241,242,-207,-161,-149]],"type":"Polygon","properties":{"STATEFP":"19","COUNTYFP":"013","COUNTYNS":"00465196","GEOIDFQ":"0500000US19013","GEOID":"19013","NAME":"Black Hawk","NAMELSAD":"Black Hawk County","STUSPS":"IA","STATE_NAME":"Iowa","LSAD":"06","ALAND":1465346458,"AWATER":17885471},"id":"19013"},{"arcs":[[-127,243,-205,244,-194]],"type":"Polygon","properties":{"STATEFP":"19","COUNTYFP":"131","COUNTYNS":"00465254","GEOIDFQ":"0500000US19131","GEOID":"19131","NAME":"Mitchell","NAMELSAD":"Mitchell County","STUSPS":"IA","STATE_NAME":"Iowa","LSAD":"06","ALAND":1215368199,"AWATER":1118491},"id":"19131"},{"arcs":[[-40,-225,-141,-215]],"type":"Polygon","properties":{"STATEFP":"19","COUNTYFP":"021","COUNTYNS":"00465200","GEOIDFQ":"0500000US19021","GEOID":"19021","NAME":"Buena Vista","NAMELSAD":"Buena Vista County","STUSPS":"IA","STATE_NAME":"Iowa","LSAD":"06","ALAND":1488981875,"AWATER":13798140},"id":"19021"},{"arcs":[[-2,-126,245,-242,-90]],"type":"Polygon","properties":{"STATEFP":"19","COUNTYFP":"075","COUNTYNS":"00465226","GEOIDFQ":"0500000US19075","GEOID":"19075","NAME":"Grundy","NAMELSAD":"Grundy County","STUSPS":"IA","STATE_NAME":"Iowa","LSAD":"06","ALAND":1299799696,"AWATER":92512},"id":"19075"},{"arcs":[[-58,-198,246,247,248,-98]],"type":"Polygon","properties":{"STATEFP":"19","COUNTYFP":"015","COUNTYNS":"00465197","GEOIDFQ":"0500000US19015","GEOID":"19015","NAME":"Boone","NAMELSAD":"Boone County","STUSPS":"IA","STATE_NAME":"Iowa","LSAD":"06","ALAND":1477486979,"AWATER":8209418},"id":"19015"},{"arcs":[[-53,249,-232,250,-115,-159]],"type":"Polygon","properties":{"STATEFP":"19","COUNTYFP":"109","COUNTYNS":"00465243","GEOIDFQ":"0500000US19109","GEOID":"19109","NAME":"Kossuth","NAMELSAD":"Kossuth County","STUSPS":"IA","STATE_NAME":"Iowa","LSAD":"06","ALAND":2519371239,"AWATER":4116153},"id":"19109"},{"arcs":[[-52,-230,251,-222,-172]],"type":"Polygon","properties":{"STATEFP":"19","COUNTYFP":"085","COUNTYNS":"00465231","GEOIDFQ":"0500000US19085","GEOID":"19085","NAME":"Harrison","NAMELSAD":"Harrison County","STUSPS":"IA","STATE_NAME":"Iowa","LSAD":"06","ALAND":1804896264,"AWATER":12325505},"id":"19085"},{"arcs":[[-179,252,253,-235]],"type":"Polygon","properties":{"STATEFP":"19","COUNTYFP":"097","COUNTYNS":"00465237","GEOIDFQ":"0500000US19097","GEOID":"19097","NAME":"Jackson","NAMELSAD":"Jackson County","STUSPS":"IA","STATE_NAME":"Iowa","LSAD":"06","ALAND":1647354406,"AWATER":35119567},"id":"19097"},{"arcs":[[-36,-214,-233,-250]],"type":"Polygon","properties":{"STATEFP":"19","COUNTYFP":"147","COUNTYNS":"00465262","GEOIDFQ":"0500000US19147","GEOID":"19147","NAME":"Palo Alto","NAMELSAD":"Palo Alto County","STUSPS":"IA","STATE_NAME":"Iowa","LSAD":"06","ALAND":1460400550,"AWATER":14428727},"id":"19147"},{"arcs":[[254,-123,-153,-95]],"type":"Polygon","properties":{"STATEFP":"19","COUNTYFP":"185","COUNTYNS":"00465281","GEOIDFQ":"0500000US19185","GEOID":"19185","NAME":"Wayne","NAMELSAD":"Wayne County","STUSPS":"IA","STATE_NAME":"Iowa","LSAD":"06","ALAND":1360957546,"AWATER":4272457},"id":"19185"},{"arcs":[[-72,-177,-196,-109,-154]],"type":"Polygon","properties":{"STATEFP":"19","COUNTYFP":"181","COUNTYNS":"00465279","GEOIDFQ":"0500000US19181","GEOID":"19181","NAME":"Warren","NAMELSAD":"Warren County","STUSPS":"IA","STATE_NAME":"Iowa","LSAD":"06","ALAND":1475407684,"AWATER":8645720},"id":"19181"},{"arcs":[[-147,-237,-168,-189,-151,-160]],"type":"Polygon","properties":{"STATEFP":"19","COUNTYFP":"113","COUNTYNS":"00465245","GEOIDFQ":"0500000US19113","GEOID":"19113","NAME":"Linn","NAMELSAD":"Linn County","STUSPS":"IA","STATE_NAME":"Iowa","LSAD":"06","ALAND":1857054782,"AWATER":19828878},"id":"19113"},{"arcs":[[-38,-55,-171,-99,-249,255,-238]],"type":"Polygon","properties":{"STATEFP":"19","COUNTYFP":"187","COUNTYNS":"00465282","GEOIDFQ":"0500000US19187","GEOID":"19187","NAME":"Webster","NAMELSAD":"Webster County","STUSPS":"IA","STATE_NAME":"Iowa","LSAD":"06","ALAND":1853665899,"AWATER":7269394},"id":"19187"},{"arcs":[[-13,-239,-256,-248,256,-102]],"type":"Polygon","properties":{"STATEFP":"19","COUNTYFP":"073","COUNTYNS":"00465225","GEOIDFQ":"0500000US19073","GEOID":"19073","NAME":"Greene","NAMELSAD":"Greene County","STUSPS":"IA","STATE_NAME":"Iowa","LSAD":"06","ALAND":1475148024,"AWATER":4404193},"id":"19073"},{"arcs":[[257,258,-41,-212]],"type":"Polygon","properties":{"STATEFP":"19","COUNTYFP":"173","COUNTYNS":"00465275","GEOIDFQ":"0500000US19173","GEOID":"19173","NAME":"Taylor","NAMELSAD":"Taylor County","STUSPS":"IA","STATE_NAME":"Iowa","LSAD":"06","ALAND":1377618881,"AWATER":7133363},"id":"19173"},{"arcs":[[-19,-143,-210,-224,259]],"type":"Polygon","properties":{"STATEFP":"19","COUNTYFP":"193","COUNTYNS":"00465285","GEOIDFQ":"0500000US19193","GEOID":"19193","NAME":"Woodbury","NAMELSAD":"Woodbury County","STUSPS":"IA","STATE_NAME":"Iowa","LSAD":"06","ALAND":2260790947,"AWATER":12793661},"id":"19193"},{"arcs":[[-103,-257,-247,-197,-176]],"type":"Polygon","properties":{"STATEFP":"19","COUNTYFP":"049","COUNTYNS":"00465213","GEOIDFQ":"0500000US19049","GEOID":"19049","NAME":"Dallas","NAMELSAD":"Dallas County","STUSPS":"IA","STATE_NAME":"Iowa","LSAD":"06","ALAND":1523509790,"AWATER":8741826},"id":"19049"},{"arcs":[[-67,-111,-79,-107,-218,-136]],"type":"Polygon","properties":{"STATEFP":"19","COUNTYFP":"123","COUNTYNS":"00465250","GEOIDFQ":"0500000US19123","GEOID":"19123","NAME":"Mahaska","NAMELSAD":"Mahaska County","STUSPS":"IA","STATE_NAME":"Iowa","LSAD":"06","ALAND":1478496996,"AWATER":6594320},"id":"19123"},{"arcs":[[260,-88,-183,-199,-192]],"type":"Polygon","properties":{"STATEFP":"19","COUNTYFP":"191","COUNTYNS":"00465284","GEOIDFQ":"0500000US19191","GEOID":"19191","NAME":"Winneshiek","NAMELSAD":"Winneshiek County","STUSPS":"IA","STATE_NAME":"Iowa","LSAD":"06","ALAND":1786686752,"AWATER":745729},"id":"19191"},{"arcs":[[-31,-156,-217,-227,-187,-118]],"type":"Polygon","properties":{"STATEFP":"19","COUNTYFP":"183","COUNTYNS":"00465280","GEOIDFQ":"0500000US19183","GEOID":"19183","NAME":"Washington","NAMELSAD":"Washington County","STUSPS":"IA","STATE_NAME":"Iowa","LSAD":"06","ALAND":1473258539,"AWATER":5339036},"id":"19183"},{"arcs":[[-82,-157,-206,-244,-130]],"type":"Polygon","properties":{"STATEFP":"19","COUNTYFP":"033","COUNTYNS":"00465206","GEOIDFQ":"0500000US19033","GEOID":"19033","NAME":"Cerro Gordo","NAMELSAD":"Cerro Gordo County","STUSPS":"IA","STATE_NAME":"Iowa","LSAD":"06","ALAND":1471896011,"AWATER":17653603},"id":"19033"},{"arcs":[[-83,-129,-208,-243,-246]],"type":"Polygon","properties":{"STATEFP":"19","COUNTYFP":"023","COUNTYNS":"00465201","GEOIDFQ":"0500000US19023","GEOID":"19023","NAME":"Butler","NAMELSAD":"Butler County","STUSPS":"IA","STATE_NAME":"Iowa","LSAD":"06","ALAND":1502550828,"AWATER":4194983},"id":"19023"},{"arcs":[[261,-46,-170,-236,-254,262]],"type":"Polygon","properties":{"STATEFP":"19","COUNTYFP":"045","COUNTYNS":"00465211","GEOIDFQ":"0500000US19045","GEOID":"19045","NAME":"Clinton","NAMELSAD":"Clinton County","STUSPS":"IA","STATE_NAME":"Iowa","LSAD":"06","ALAND":1799934699,"AWATER":39410955},"id":"19045"},{"arcs":[[-42,263,-203,-228,-120]],"type":"Polygon","properties":{"STATEFP":"19","COUNTYFP":"137","COUNTYNS":"00465257","GEOIDFQ":"0500000US19137","GEOID":"19137","NAME":"Montgomery","NAMELSAD":"Montgomery County","STUSPS":"IA","STATE_NAME":"Iowa","LSAD":"06","ALAND":1098405770,"AWATER":2410446},"id":"19137"},{"arcs":[[264,-186,-264,-259,265]],"type":"Polygon","properties":{"STATEFP":"19","COUNTYFP":"145","COUNTYNS":"00465261","GEOIDFQ":"0500000US19145","GEOID":"19145","NAME":"Page","NAMELSAD":"Page County","STUSPS":"IA","STATE_NAME":"Iowa","LSAD":"06","ALAND":1385497645,"AWATER":1359014},"id":"19145"},{"arcs":[[-26,-132,266,-219]],"type":"Polygon","properties":{"STATEFP":"19","COUNTYFP":"143","COUNTYNS":"00465260","GEOIDFQ":"0500000US19143","GEOID":"19143","NAME":"Osceola","NAMELSAD":"Osceola County","STUSPS":"IA","STATE_NAME":"Iowa","LSAD":"06","ALAND":1032593803,"AWATER":1835263},"id":"19143"}]}}}