{"type":"Topology","arcs":[[[1822,848],[66,0],[0,220]],[[1888,1068],[127,0],[133,0]],[[2148,1068],[5,0],[0,-74]],[[2153,994],[0,-220],[0,-74]],[[2153,700],[-111,0],[-215,1]],[[1827,701],[-5,0],[0,147]],[[579,626],[87,0],[176,0]],[[842,626],[0,-220]],[[842,406],[-1,-74]],[[841,332],[-249,0]],[[592,332],[-13,0]],[[579,332],[-1,147],[1,147]],[[1085,1436],[57,-1]],[[1142,1435],[76,-1],[258,1]],[[1476,1435],[8,0]],[[1484,1435],[-1,-121],[1,-172]],[[1484,1142],[0,-73]],[[1484,1069],[-188,-1],[-199,1]],[[1097,1069],[-10,0]],[[1087,1069],[-2,318],[0,49]],[[3063,2167],[92,0]],[[3155,2167],[136,0]],[[3291,2167],[-5,-17],[-16,-12],[-5,4],[-13,-17],[-14,-34],[-8,1],[-9,-16],[-7,2],[-8,-14],[4,-27],[-2,-16],[14,-17],[2,-11],[17,-17],[4,-19],[14,-15],[-4,-5],[27,-34],[9,-15],[12,4],[6,-22],[7,1],[12,-13],[-26,-2],[2,-12],[25,4],[0,-14],[16,6],[9,-11],[9,4],[2,18],[27,-5],[14,-10]],[[3406,1836],[-1,-36],[0,-73],[-67,0]],[[3338,1727],[1,24],[-124,1],[0,15],[-22,-3],[-65,0],[0,11],[11,16],[1,16],[-11,1],[0,67],[-68,1]],[[3061,1876],[1,165],[1,126]],[[2815,1361],[206,0],[59,0]],[[3080,1361],[1,-73],[66,0]],[[3147,1288],[0,-146],[-11,0],[0,-73],[-2,-1],[0,-148]],[[3134,920],[-55,0],[-133,2]],[[2946,922],[0,73],[-66,0],[-65,-1]],[[2815,994],[0,196],[0,171]],[[579,332],[-263,1]],[[316,333],[0,85],[0,208]],[[316,626],[263,0]],[[1473,2168],[197,0],[126,1]],[[1796,2169],[13,0]],[[1809,2169],[0,-74],[-2,-183],[0,-110]],[[1807,1802],[-177,0],[-150,0]],[[1480,1802],[-8,0]],[[1472,1802],[0,147],[2,146],[-1,73]],[[0,2535],[127,0],[258,-1]],[[385,2534],[-1,-365]],[[384,2169],[-179,0],[-204,0]],[[1,2169],[0,5],[-1,232],[0,129]],[[1087,1069],[-265,2]],[[822,1071],[-1,220],[-1,147]],[[820,1438],[144,-1],[121,-1]],[[3324,517],[181,-1],[158,-2]],[[3663,514],[0,-87],[0,-96]],[[3663,331],[-2,1],[0,-74]],[[3661,258],[-125,1],[-71,0],[-141,2]],[[3324,261],[0,146]],[[3324,407],[0,110]],[[3147,1288],[172,-1],[108,0]],[[3427,1287],[-1,-220],[-1,-74]],[[3425,993],[-1,-73],[-99,1]],[[3325,921],[-191,-1]],[[316,333],[-18,0]],[[298,333],[-174,0],[-118,1]],[[6,334],[0,214],[0,80]],[[6,628],[189,-1],[121,-1]],[[6,628],[-2,258],[0,183]],[[4,1069],[173,0],[114,1]],[[291,1070],[15,0]],[[306,1070],[1,-159],[-1,-208],[10,0],[0,-77]],[[291,1070],[0,367]],[[291,1437],[50,1]],[[341,1438],[165,1],[49,-1]],[[555,1438],[1,-221],[1,-146]],[[557,1071],[-251,-1]],[[1499,625],[197,-2],[131,0]],[[1827,623],[-1,-75],[2,-146]],[[1828,402],[1,-73]],[[1829,329],[-197,-1],[-123,-1]],[[1509,327],[-8,0],[0,73]],[[1501,400],[-2,225]],[[2227,329],[129,1],[197,1]],[[2553,331],[2,0],[1,-152],[0,-174]],[[2556,5],[-186,-1],[-142,0]],[[2228,4],[-1,179],[0,146]],[[1822,848],[-131,0],[-66,1],[0,73],[-132,0]],[[1493,922],[-1,147],[-8,0]],[[1484,1142],[134,0],[65,1],[67,-1],[66,-1]],[[1816,1141],[0,-73],[72,0]],[[3925,623],[176,0],[44,1],[43,-1]],[[4188,623],[0,-49]],[[4188,574],[0,-245]],[[4188,329],[-260,0]],[[3928,329],[-3,0]],[[3925,329],[1,104],[-1,92],[0,98]],[[4,1069],[0,5],[0,156],[0,136],[0,70]],[[4,1436],[114,0],[173,1]],[[2148,1068],[0,220]],[[2148,1288],[67,-1],[211,1],[57,0]],[[2483,1288],[-1,-221],[2,-5],[0,-68]],[[2484,994],[-33,0],[-100,1],[0,-13],[-44,0],[0,12],[-154,0]],[[579,626],[0,78],[-9,0],[1,220],[-1,147]],[[570,1071],[120,0],[132,0]],[[1097,1069],[1,-147],[0,-73]],[[1098,849],[-132,0],[-131,1],[-1,-146],[8,0],[0,-78]],[[385,2534],[53,1],[158,-1],[182,0],[12,0]],[[790,2534],[-1,-114],[-1,-251]],[[788,2169],[-62,-1],[-162,1],[-165,0]],[[399,2169],[-15,0]],[[1098,849],[-1,-73]],[[1097,776],[0,-74],[8,0],[0,-149],[-1,-147]],[[1104,406],[-98,0],[-164,0]],[[3155,2167],[0,122],[0,245]],[[3155,2534],[206,-1],[135,0]],[[3496,2533],[0,-293],[0,-73]],[[3496,2167],[-205,0]],[[3672,1471],[0,110]],[[3672,1581],[89,-1],[67,1],[112,0]],[[3940,1581],[0,-111]],[[3940,1470],[0,-36],[-5,-31],[1,-189]],[[3936,1214],[-100,0],[-89,-1],[-77,1]],[[3670,1214],[0,220],[2,37]],[[1472,1802],[-182,-1],[-145,1]],[[1145,1802],[-10,-1]],[[1135,1801],[2,220],[0,147]],[[1137,2168],[186,0],[135,0]],[[1458,2168],[15,0]],[[3496,2167],[122,0]],[[3618,2167],[1,-160],[-1,-134]],[[3618,1873],[0,-73],[-2,-3]],[[3616,1797],[-3,12],[-26,10],[2,9],[16,1],[-15,24],[-13,6],[-13,-11],[-16,4],[-13,-3],[-5,16],[-23,-6],[-8,10],[-8,-7],[-11,-20],[-17,13],[-10,0],[-8,-8],[-4,-17],[-10,-10],[-25,16]],[[1458,2168],[0,134],[1,159],[0,73]],[[1459,2534],[269,0],[67,0]],[[1795,2534],[1,-219],[0,-146]],[[2144,2168],[198,0],[136,0]],[[2478,2168],[2,0],[-1,-146],[1,-74]],[[2480,1948],[-2,-24],[1,-49]],[[2479,1875],[-19,-1],[-250,1],[-68,0]],[[2142,1875],[0,147],[2,146]],[[1104,406],[66,0]],[[1170,406],[-1,-74],[10,0],[0,-221],[1,-103]],[[1180,8],[-207,-1],[-120,-1]],[[853,6],[-1,93],[0,148],[1,85],[-12,0]],[[3663,331],[178,-1],[84,-1]],[[3928,329],[2,-111],[-2,-49],[-1,-164]],[[3927,5],[-159,0],[-107,0]],[[3661,5],[0,253]],[[4471,54],[0,-49],[-72,0],[-162,0],[-40,0]],[[4197,5],[0,205],[-1,82]],[[4196,292],[103,0],[172,-1]],[[4471,291],[0,-126],[0,-111]],[[399,2169],[-1,-145],[-1,-220]],[[397,1804],[-52,0]],[[345,1804],[-144,-1],[-198,-1]],[[3,1802],[-2,245],[0,122]],[[4056,2532],[3,-13],[20,-12],[17,-21],[13,0],[11,-9],[-2,-22],[15,-7],[12,6],[10,-4],[2,-17],[7,-7],[28,-10],[27,3],[6,5],[5,22],[15,0],[21,4],[19,-14],[-9,-24],[15,-18],[15,-1],[10,-11],[0,-12],[-10,-14],[-20,-1],[-5,-13],[10,-11],[11,0],[11,9],[12,-7],[-1,-17],[-8,-11],[-16,-5],[-32,18],[-9,-11],[1,-33],[-9,-13],[-15,-2],[-11,-8],[-13,-24],[-3,-19]],[[4209,2208],[-19,0],[-8,17],[-16,15],[-129,0]],[[4037,2240],[0,292]],[[4037,2532],[19,0]],[[788,2169],[13,0]],[[801,2169],[0,-147],[-1,-219]],[[800,1803],[-54,0]],[[746,1803],[-168,-1],[-133,2],[-48,0]],[[3940,1581],[0,157]],[[3940,1738],[11,0],[16,10],[22,-1],[37,-27],[18,-3],[18,9],[14,1],[53,0]],[[4129,1727],[0,-67],[13,6],[33,-2],[15,-13],[7,9],[-8,14],[19,1]],[[4208,1675],[-1,-205]],[[4207,1470],[-139,0],[-128,0]],[[1509,327],[-1,-67],[0,-92],[2,-162]],[[1510,6],[-201,1],[-77,0],[-52,1]],[[1170,406],[171,-6],[50,-1],[110,1]],[[1827,701],[0,-78]],[[1499,625],[0,76],[-7,0],[1,74]],[[1493,775],[0,147]],[[2227,329],[-70,0],[0,74]],[[2157,403],[0,220]],[[2157,623],[121,0],[275,1]],[[2553,624],[-1,-73],[1,-146]],[[2553,405],[0,-74]],[[2480,1948],[180,0],[156,0]],[[2816,1948],[-1,-147]],[[2815,1801],[0,-146]],[[2815,1655],[-133,0],[-202,0]],[[2480,1655],[-1,220]],[[3496,2533],[137,0],[134,0]],[[3767,2533],[0,-293]],[[3767,2240],[0,-73],[-149,0]],[[3324,517],[0,89],[0,144],[1,171]],[[3425,993],[70,1],[170,-2]],[[3665,992],[0,-110]],[[3665,882],[0,-184],[-2,0],[0,-74]],[[3663,624],[0,-110]],[[341,1438],[2,110],[2,256]],[[746,1803],[-2,-146],[-2,-97],[0,-123]],[[742,1437],[-89,0],[-98,1]],[[2815,994],[-199,0]],[[2616,994],[-132,0]],[[2483,1288],[-1,74]],[[2482,1362],[183,-1],[150,0]],[[1097,776],[131,-1],[265,0]],[[3063,2167],[-133,0],[-113,1]],[[2817,2168],[0,73]],[[2817,2241],[-1,293]],[[2816,2534],[0,0],[193,0],[80,0],[66,0]],[[3663,624],[262,-1]],[[3061,1876],[0,-74]],[[3061,1802],[-142,1],[-104,-2]],[[2816,1948],[1,220]],[[4477,1562],[-1,-92]],[[4476,1470],[-202,0],[-67,0]],[[4208,1675],[16,-3],[4,18],[25,-6],[9,-9],[10,2],[10,14],[14,-8]],[[4296,1683],[12,21],[-1,12],[4,17],[13,8],[14,0],[22,-14],[117,0]],[[4477,1727],[0,-165]],[[3080,1361],[-1,41],[3,32],[0,98],[22,0],[0,49]],[[3104,1581],[234,0]],[[3338,1581],[0,-37],[67,0],[0,-74],[23,0]],[[3428,1470],[-1,-183]],[[2616,994],[0,-221]],[[2616,773],[2,-148],[-65,-1]],[[2157,623],[0,77],[-4,0]],[[3767,2240],[135,0]],[[3902,2240],[0,-73],[-4,0],[0,-124]],[[3898,2043],[-11,0],[0,-171]],[[3887,1872],[-269,1]],[[2553,405],[198,2],[65,1],[66,-2],[64,0]],[[2946,406],[2,-71],[0,-119],[2,-211]],[[2950,5],[-190,0],[-204,0]],[[2478,2168],[0,73]],[[2478,2241],[200,-1],[139,1]],[[3324,5],[-135,0],[-239,0]],[[2946,406],[264,0],[114,1]],[[3324,261],[0,-256]],[[3672,1581],[0,192],[-16,11],[-14,-1],[-26,14]],[[3887,1872],[0,-73],[-3,0],[-2,-54],[9,-9],[20,12],[21,-1],[8,-9]],[[3925,623],[1,74],[3,0],[0,183]],[[3929,880],[199,0],[67,0]],[[4195,880],[-2,-135],[0,-49],[-5,0],[0,-73]],[[3639,5],[-119,0],[-196,0]],[[3661,5],[-22,0]],[[1795,2534],[205,0],[134,0]],[[2134,2534],[0,-146],[-1,-220]],[[2133,2168],[-123,0],[-201,1]],[[1476,1435],[1,109],[1,123],[2,135]],[[1807,1802],[6,0]],[[1813,1802],[-1,-220],[-2,-147]],[[1810,1435],[-232,0],[-94,0]],[[4207,1470],[0,-37],[-5,0],[0,-59],[0,-198]],[[4202,1176],[-144,1],[-122,0]],[[3936,1177],[0,37]],[[570,1071],[-13,0]],[[742,1437],[78,1]],[[4188,329],[8,0],[0,-37]],[[4197,5],[-201,0],[-69,0]],[[1828,402],[80,0],[151,0],[98,1]],[[2228,4],[-119,1],[-102,0],[-172,0]],[[1835,5],[-1,211],[1,114],[-6,-1]],[[4209,2208],[4,-11],[-6,-18],[-19,1],[-11,-6],[-4,-17],[6,-18],[32,-32],[2,-17],[8,-12],[26,-12],[13,-23]],[[4260,2043],[-127,0]],[[4133,2043],[-168,2],[-67,-2]],[[3902,2240],[135,0]],[[592,332],[0,-146],[1,-182]],[[593,4],[-131,-1],[-163,-1]],[[299,2],[-1,208],[0,123]],[[1142,1435],[1,147],[2,220]],[[4,1436],[-1,294],[0,72]],[[3428,1470],[244,1]],[[3670,1214],[0,-147],[-5,0],[0,-75]],[[4474,1175],[0,-144],[-1,-132],[1,-20]],[[4474,879],[-104,1],[-100,-1],[-75,1]],[[4195,880],[1,186],[6,0],[0,110]],[[4202,1176],[128,0],[144,-1]],[[3338,1727],[0,-146]],[[3104,1581],[-21,0],[0,91],[-23,-11],[1,141]],[[3936,1177],[0,-111],[-5,0],[-2,-186]],[[3929,880],[-110,1],[-154,1]],[[3767,2533],[270,-1]],[[2480,1655],[0,-73]],[[2480,1582],[-145,-1],[-56,1],[-134,-1]],[[2145,1581],[0,128],[1,93],[-4,0]],[[2142,1802],[0,73]],[[4474,879],[-1,-78],[-2,-144],[0,-84]],[[4471,573],[-283,1]],[[4471,573],[0,-17],[1,-111],[-1,-132],[0,-22]],[[299,2],[-164,-1],[-121,-1],[-8,0],[0,125],[0,209]],[[1810,1435],[6,0]],[[1816,1435],[0,-294]],[[1835,5],[-274,0],[-51,1]],[[4478,1786],[-1,-59]],[[4296,1683],[1,116],[4,0],[0,62],[75,-2]],[[4376,1859],[8,-17],[16,-9],[13,1],[16,11],[11,-1],[5,-17],[13,-7],[23,5],[7,-18],[-10,-21]],[[2148,1288],[0,147],[-3,0]],[[2145,1435],[0,146]],[[2480,1582],[0,-147],[2,0],[0,-73]],[[4129,1727],[-1,72],[5,0],[0,232],[0,12]],[[4260,2043],[14,-11],[0,-10],[14,-8],[12,7],[10,-2],[4,-12],[-19,-23],[6,-41],[14,-16],[19,-11],[12,-22],[-5,-15],[6,-12],[22,-2],[7,-6]],[[2133,2168],[11,0]],[[2142,1802],[-134,0],[-195,0]],[[2946,406],[0,221],[1,148]],[[2947,775],[-1,147]],[[853,6],[-188,-2],[-72,0]],[[1816,1435],[199,0],[130,0]],[[2815,1655],[0,-294]],[[1137,2168],[-11,0]],[[1126,2168],[0,183],[1,183]],[[1127,2534],[219,0],[112,0],[1,0]],[[2616,773],[0,1],[204,0],[127,1]],[[800,1803],[179,-1],[156,-1]],[[4476,1470],[-1,-99],[-1,-121],[0,-75]],[[2134,2534],[138,1],[206,-1]],[[2478,2534],[0,-74],[-1,-73],[1,-146]],[[790,2534],[162,0],[166,0],[9,0]],[[1126,2168],[-165,0],[-160,1]],[[2478,2534],[66,0],[187,0],[85,0]]],"transform":{"scale":[0.0016626216577540094,0.0011874011834319546],"translate":[-102.051744,36.993016]},"objects":{"20":{"type":"GeometryCollection","geometries":[{"arcs":[[0,1,2,3,4,5]],"type":"Polygon","properties":{"STATEFP":"20","COUNTYFP":"185","COUNTYNS":"00485054","GEOIDFQ":"0500000US20185","GEOID":"20185","NAME":"Stafford","NAMELSAD":"Stafford County","STUSPS":"KS","STATE_NAME":"Kansas","LSAD":"06","ALAND":2051389756,"AWATER":7435417},"id":"20185"},{"arcs":[[6,7,8,9,10,11]],"type":"Polygon","properties":{"STATEFP":"20","COUNTYFP":"081","COUNTYNS":"00485328","GEOIDFQ":"0500000US20081","GEOID":"20081","NAME":"Haskell","NAMELSAD":"Haskell County","STUSPS":"KS","STATE_NAME":"Kansas","LSAD":"06","ALAND":1495772622,"AWATER":910409},"id":"20081"},{"arcs":[[12,13,14,15,16,17,18,19]],"type":"Polygon","properties":{"STATEFP":"20","COUNTYFP":"135","COUNTYNS":"00485031","GEOIDFQ":"0500000US20135","GEOID":"20135","NAME":"Ness","NAMELSAD":"Ness County","STUSPS":"KS","STATE_NAME":"Kansas","LSAD":"06","ALAND":2783562237,"AWATER":667491},"id":"20135"},{"arcs":[[20,21,22,23,24,25]],"type":"Polygon","properties":{"STATEFP":"20","COUNTYFP":"161","COUNTYNS":"00485044","GEOIDFQ":"0500000US20161","GEOID":"20161","NAME":"Riley","NAMELSAD":"Riley County","STUSPS":"KS","STATE_NAME":"Kansas","LSAD":"06","ALAND":1579010810,"AWATER":32092080},"id":"20161"},{"arcs":[[26,27,28,29,30,31]],"type":"Polygon","properties":{"STATEFP":"20","COUNTYFP":"115","COUNTYNS":"00485022","GEOIDFQ":"0500000US20115","GEOID":"20115","NAME":"Marion","NAMELSAD":"Marion County","STUSPS":"KS","STATE_NAME":"Kansas","LSAD":"06","ALAND":2445722717,"AWATER":24432823},"id":"20115"},{"arcs":[[-12,32,33,34]],"type":"Polygon","properties":{"STATEFP":"20","COUNTYFP":"067","COUNTYNS":"00485099","GEOIDFQ":"0500000US20067","GEOID":"20067","NAME":"Grant","NAMELSAD":"Grant County","STUSPS":"KS","STATE_NAME":"Kansas","LSAD":"06","ALAND":1488745956,"AWATER":871232},"id":"20067"},{"arcs":[[35,36,37,38,39,40]],"type":"Polygon","properties":{"STATEFP":"20","COUNTYFP":"163","COUNTYNS":"00485045","GEOIDFQ":"0500000US20163","GEOID":"20163","NAME":"Rooks","NAMELSAD":"Rooks County","STUSPS":"KS","STATE_NAME":"Kansas","LSAD":"06","ALAND":2306454199,"AWATER":11962259},"id":"20163"},{"arcs":[[41,42,43,44]],"type":"Polygon","properties":{"STATEFP":"20","COUNTYFP":"023","COUNTYNS":"00484981","GEOIDFQ":"0500000US20023","GEOID":"20023","NAME":"Cheyenne","NAMELSAD":"Cheyenne County","STUSPS":"KS","STATE_NAME":"Kansas","LSAD":"06","ALAND":2641501919,"AWATER":2738021},"id":"20023"},{"arcs":[[-20,45,46,47]],"type":"Polygon","properties":{"STATEFP":"20","COUNTYFP":"101","COUNTYNS":"00485015","GEOIDFQ":"0500000US20101","GEOID":"20101","NAME":"Lane","NAMELSAD":"Lane County","STUSPS":"KS","STATE_NAME":"Kansas","LSAD":"06","ALAND":1858080224,"AWATER":551220},"id":"20101"},{"arcs":[[48,49,50,51,52,53]],"type":"Polygon","properties":{"STATEFP":"20","COUNTYFP":"049","COUNTYNS":"00484994","GEOIDFQ":"0500000US20049","GEOID":"20049","NAME":"Elk","NAMELSAD":"Elk County","STUSPS":"KS","STATE_NAME":"Kansas","LSAD":"06","ALAND":1668637026,"AWATER":16060833},"id":"20049"},{"arcs":[[-29,54,55,56,57]],"type":"Polygon","properties":{"STATEFP":"20","COUNTYFP":"017","COUNTYNS":"00484978","GEOIDFQ":"0500000US20017","GEOID":"20017","NAME":"Chase","NAMELSAD":"Chase County","STUSPS":"KS","STATE_NAME":"Kansas","LSAD":"06","ALAND":2002198773,"AWATER":12091092},"id":"20017"},{"arcs":[[-34,58,59,60,61]],"type":"Polygon","properties":{"STATEFP":"20","COUNTYFP":"187","COUNTYNS":"00485055","GEOIDFQ":"0500000US20187","GEOID":"20187","NAME":"Stanton","NAMELSAD":"Stanton County","STUSPS":"KS","STATE_NAME":"Kansas","LSAD":"06","ALAND":1762103386,"AWATER":178555},"id":"20187"},{"arcs":[[62,63,64,65,-62]],"type":"Polygon","properties":{"STATEFP":"20","COUNTYFP":"075","COUNTYNS":"00485327","GEOIDFQ":"0500000US20075","GEOID":"20075","NAME":"Hamilton","NAMELSAD":"Hamilton County","STUSPS":"KS","STATE_NAME":"Kansas","LSAD":"06","ALAND":2580958335,"AWATER":2893322},"id":"20075"},{"arcs":[[-65,66,67,68,69,70]],"type":"Polygon","properties":{"STATEFP":"20","COUNTYFP":"203","COUNTYNS":"00485062","GEOIDFQ":"0500000US20203","GEOID":"20203","NAME":"Wichita","NAMELSAD":"Wichita County","STUSPS":"KS","STATE_NAME":"Kansas","LSAD":"06","ALAND":1861078198,"AWATER":61987},"id":"20203"},{"arcs":[[71,72,73,74,75,76]],"type":"Polygon","properties":{"STATEFP":"20","COUNTYFP":"097","COUNTYNS":"00485013","GEOIDFQ":"0500000US20097","GEOID":"20097","NAME":"Kiowa","NAMELSAD":"Kiowa County","STUSPS":"KS","STATE_NAME":"Kansas","LSAD":"06","ALAND":1871627807,"AWATER":596764},"id":"20097"},{"arcs":[[77,78,79,80]],"type":"Polygon","properties":{"STATEFP":"20","COUNTYFP":"077","COUNTYNS":"00485004","GEOIDFQ":"0500000US20077","GEOID":"20077","NAME":"Harper","NAMELSAD":"Harper County","STUSPS":"KS","STATE_NAME":"Kansas","LSAD":"06","ALAND":2075290350,"AWATER":3899269},"id":"20077"},{"arcs":[[-1,81,82,-17,83,84]],"type":"Polygon","properties":{"STATEFP":"20","COUNTYFP":"145","COUNTYNS":"00485036","GEOIDFQ":"0500000US20145","GEOID":"20145","NAME":"Pawnee","NAMELSAD":"Pawnee County","STUSPS":"KS","STATE_NAME":"Kansas","LSAD":"06","ALAND":1953531639,"AWATER":992041},"id":"20145"},{"arcs":[[85,86,87,88,89,90]],"type":"Polygon","properties":{"STATEFP":"20","COUNTYFP":"133","COUNTYNS":"00485030","GEOIDFQ":"0500000US20133","GEOID":"20133","NAME":"Neosho","NAMELSAD":"Neosho County","STUSPS":"KS","STATE_NAME":"Kansas","LSAD":"06","ALAND":1480129691,"AWATER":16350961},"id":"20133"},{"arcs":[[91,92,-67,-64]],"type":"Polygon","properties":{"STATEFP":"20","COUNTYFP":"071","COUNTYNS":"00485002","GEOIDFQ":"0500000US20071","GEOID":"20071","NAME":"Greeley","NAMELSAD":"Greeley County","STUSPS":"KS","STATE_NAME":"Kansas","LSAD":"06","ALAND":2016057912,"AWATER":0},"id":"20071"},{"arcs":[[-3,93,94,95,96]],"type":"Polygon","properties":{"STATEFP":"20","COUNTYFP":"159","COUNTYNS":"00485043","GEOIDFQ":"0500000US20159","GEOID":"20159","NAME":"Rice","NAMELSAD":"Rice County","STUSPS":"KS","STATE_NAME":"Kansas","LSAD":"06","ALAND":1880940797,"AWATER":4477982},"id":"20159"},{"arcs":[[-7,97,98,-46,-19,99,100]],"type":"Polygon","properties":{"STATEFP":"20","COUNTYFP":"055","COUNTYNS":"00485326","GEOIDFQ":"0500000US20055","GEOID":"20055","NAME":"Finney","NAMELSAD":"Finney County","STUSPS":"KS","STATE_NAME":"Kansas","LSAD":"06","ALAND":3372157850,"AWATER":1716371},"id":"20055"},{"arcs":[[-43,101,102,103,104]],"type":"Polygon","properties":{"STATEFP":"20","COUNTYFP":"153","COUNTYNS":"00485040","GEOIDFQ":"0500000US20153","GEOID":"20153","NAME":"Rawlins","NAMELSAD":"Rawlins County","STUSPS":"KS","STATE_NAME":"Kansas","LSAD":"06","ALAND":2769775704,"AWATER":415527},"id":"20153"},{"arcs":[[-8,-101,105,106,107]],"type":"Polygon","properties":{"STATEFP":"20","COUNTYFP":"069","COUNTYNS":"00485001","GEOIDFQ":"0500000US20069","GEOID":"20069","NAME":"Gray","NAMELSAD":"Gray County","STUSPS":"KS","STATE_NAME":"Kansas","LSAD":"06","ALAND":2250356170,"AWATER":1113338},"id":"20069"},{"arcs":[[-22,108,109,110,111]],"type":"Polygon","properties":{"STATEFP":"20","COUNTYFP":"117","COUNTYNS":"00485023","GEOIDFQ":"0500000US20117","GEOID":"20117","NAME":"Marshall","NAMELSAD":"Marshall County","STUSPS":"KS","STATE_NAME":"Kansas","LSAD":"06","ALAND":2331450552,"AWATER":12735557},"id":"20117"},{"arcs":[[112,113,114,115,116,117]],"type":"Polygon","properties":{"STATEFP":"20","COUNTYFP":"139","COUNTYNS":"00485033","GEOIDFQ":"0500000US20139","GEOID":"20139","NAME":"Osage","NAMELSAD":"Osage County","STUSPS":"KS","STATE_NAME":"Kansas","LSAD":"06","ALAND":1827253336,"AWATER":37137002},"id":"20139"},{"arcs":[[-41,118,119,120,121,122]],"type":"Polygon","properties":{"STATEFP":"20","COUNTYFP":"065","COUNTYNS":"00481811","GEOIDFQ":"0500000US20065","GEOID":"20065","NAME":"Graham","NAMELSAD":"Graham County","STUSPS":"KS","STATE_NAME":"Kansas","LSAD":"06","ALAND":2327173853,"AWATER":599356},"id":"20065"},{"arcs":[[-23,-112,123,124,125,126]],"type":"Polygon","properties":{"STATEFP":"20","COUNTYFP":"149","COUNTYNS":"00485038","GEOIDFQ":"0500000US20149","GEOID":"20149","NAME":"Pottawatomie","NAMELSAD":"Pottawatomie County","STUSPS":"KS","STATE_NAME":"Kansas","LSAD":"06","ALAND":2177494706,"AWATER":54148191},"id":"20149"},{"arcs":[[-36,-123,127,128,129]],"type":"Polygon","properties":{"STATEFP":"20","COUNTYFP":"147","COUNTYNS":"00485037","GEOIDFQ":"0500000US20147","GEOID":"20147","NAME":"Phillips","NAMELSAD":"Phillips County","STUSPS":"KS","STATE_NAME":"Kansas","LSAD":"06","ALAND":2294395646,"AWATER":22493383},"id":"20147"},{"arcs":[[130,131,132,133,134]],"type":"Polygon","properties":{"STATEFP":"20","COUNTYFP":"123","COUNTYNS":"00485026","GEOIDFQ":"0500000US20123","GEOID":"20123","NAME":"Mitchell","NAMELSAD":"Mitchell County","STUSPS":"KS","STATE_NAME":"Kansas","LSAD":"06","ALAND":1817632933,"AWATER":44979981},"id":"20123"},{"arcs":[[-9,-108,135,136,137,138]],"type":"Polygon","properties":{"STATEFP":"20","COUNTYFP":"119","COUNTYNS":"00485024","GEOIDFQ":"0500000US20119","GEOID":"20119","NAME":"Meade","NAMELSAD":"Meade County","STUSPS":"KS","STATE_NAME":"Kansas","LSAD":"06","ALAND":2533222403,"AWATER":3258258},"id":"20119"},{"arcs":[[-51,139,-90,140,141,142]],"type":"Polygon","properties":{"STATEFP":"20","COUNTYFP":"125","COUNTYNS":"00485027","GEOIDFQ":"0500000US20125","GEOID":"20125","NAME":"Montgomery","NAMELSAD":"Montgomery County","STUSPS":"KS","STATE_NAME":"Kansas","LSAD":"06","ALAND":1666900089,"AWATER":20430011},"id":"20125"},{"arcs":[[143,144,145,146]],"type":"Polygon","properties":{"STATEFP":"20","COUNTYFP":"021","COUNTYNS":"00484980","GEOIDFQ":"0500000US20021","GEOID":"20021","NAME":"Cherokee","NAMELSAD":"Cherokee County","STUSPS":"KS","STATE_NAME":"Kansas","LSAD":"06","ALAND":1521791036,"AWATER":8951464},"id":"20021"},{"arcs":[[-44,-105,147,148,149,150]],"type":"Polygon","properties":{"STATEFP":"20","COUNTYFP":"181","COUNTYNS":"00485053","GEOIDFQ":"0500000US20181","GEOID":"20181","NAME":"Sherman","NAMELSAD":"Sherman County","STUSPS":"KS","STATE_NAME":"Kansas","LSAD":"06","ALAND":2735192871,"AWATER":548248},"id":"20181"},{"arcs":[[151,152,153,154]],"type":"Polygon","properties":{"STATEFP":"20","COUNTYFP":"043","COUNTYNS":"00484991","GEOIDFQ":"0500000US20043","GEOID":"20043","NAME":"Doniphan","NAMELSAD":"Doniphan County","STUSPS":"KS","STATE_NAME":"Kansas","LSAD":"06","ALAND":1019096765,"AWATER":12433103},"id":"20043"},{"arcs":[[-104,155,156,157,158,-148]],"type":"Polygon","properties":{"STATEFP":"20","COUNTYFP":"193","COUNTYNS":"00485057","GEOIDFQ":"0500000US20193","GEOID":"20193","NAME":"Thomas","NAMELSAD":"Thomas County","STUSPS":"KS","STATE_NAME":"Kansas","LSAD":"06","ALAND":2783425506,"AWATER":288241},"id":"20193"},{"arcs":[[-115,159,160,161,162,163]],"type":"Polygon","properties":{"STATEFP":"20","COUNTYFP":"045","COUNTYNS":"00484992","GEOIDFQ":"0500000US20045","GEOID":"20045","NAME":"Douglas","NAMELSAD":"Douglas County","STUSPS":"KS","STATE_NAME":"Kansas","LSAD":"06","ALAND":1180426483,"AWATER":48876650},"id":"20045"},{"arcs":[[-76,164,165,-137,166]],"type":"Polygon","properties":{"STATEFP":"20","COUNTYFP":"025","COUNTYNS":"00484982","GEOIDFQ":"0500000US20025","GEOID":"20025","NAME":"Clark","NAMELSAD":"Clark County","STUSPS":"KS","STATE_NAME":"Kansas","LSAD":"06","ALAND":2524300311,"AWATER":6603384},"id":"20025"},{"arcs":[[-6,167,-72,168,169,-82]],"type":"Polygon","properties":{"STATEFP":"20","COUNTYFP":"047","COUNTYNS":"00484993","GEOIDFQ":"0500000US20047","GEOID":"20047","NAME":"Edwards","NAMELSAD":"Edwards County","STUSPS":"KS","STATE_NAME":"Kansas","LSAD":"06","ALAND":1610699241,"AWATER":206413},"id":"20047"},{"arcs":[[-78,170,171,172,173,174]],"type":"Polygon","properties":{"STATEFP":"20","COUNTYFP":"095","COUNTYNS":"00485012","GEOIDFQ":"0500000US20095","GEOID":"20095","NAME":"Kingman","NAMELSAD":"Kingman County","STUSPS":"KS","STATE_NAME":"Kansas","LSAD":"06","ALAND":2236245114,"AWATER":8391920},"id":"20095"},{"arcs":[[-133,175,176,177,178,179]],"type":"Polygon","properties":{"STATEFP":"20","COUNTYFP":"143","COUNTYNS":"00485035","GEOIDFQ":"0500000US20143","GEOID":"20143","NAME":"Ottawa","NAMELSAD":"Ottawa County","STUSPS":"KS","STATE_NAME":"Kansas","LSAD":"06","ALAND":1866683177,"AWATER":1567629},"id":"20143"},{"arcs":[[-111,180,181,182,-124]],"type":"Polygon","properties":{"STATEFP":"20","COUNTYFP":"131","COUNTYNS":"00485029","GEOIDFQ":"0500000US20131","GEOID":"20131","NAME":"Nemaha","NAMELSAD":"Nemaha County","STUSPS":"KS","STATE_NAME":"Kansas","LSAD":"06","ALAND":1858128451,"AWATER":5204921},"id":"20131"},{"arcs":[[-49,183,-57,184,185,186,187]],"type":"Polygon","properties":{"STATEFP":"20","COUNTYFP":"073","COUNTYNS":"00485003","GEOIDFQ":"0500000US20073","GEOID":"20073","NAME":"Greenwood","NAMELSAD":"Greenwood County","STUSPS":"KS","STATE_NAME":"Kansas","LSAD":"06","ALAND":2961143635,"AWATER":24145021},"id":"20073"},{"arcs":[[-69,188,-149,-159,189,190]],"type":"Polygon","properties":{"STATEFP":"20","COUNTYFP":"109","COUNTYNS":"00485019","GEOIDFQ":"0500000US20109","GEOID":"20109","NAME":"Logan","NAMELSAD":"Logan County","STUSPS":"KS","STATE_NAME":"Kansas","LSAD":"06","ALAND":2779039724,"AWATER":274632},"id":"20109"},{"arcs":[[-32,191,192,-96,193,194]],"type":"Polygon","properties":{"STATEFP":"20","COUNTYFP":"113","COUNTYNS":"00485021","GEOIDFQ":"0500000US20113","GEOID":"20113","NAME":"McPherson","NAMELSAD":"McPherson County","STUSPS":"KS","STATE_NAME":"Kansas","LSAD":"06","ALAND":2326547449,"AWATER":6003328},"id":"20113"},{"arcs":[[-77,-167,-136,-107,195,-169]],"type":"Polygon","properties":{"STATEFP":"20","COUNTYFP":"057","COUNTYNS":"00484997","GEOIDFQ":"0500000US20057","GEOID":"20057","NAME":"Ford","NAMELSAD":"Ford County","STUSPS":"KS","STATE_NAME":"Kansas","LSAD":"06","ALAND":2844508244,"AWATER":2097356},"id":"20057"},{"arcs":[[-21,196,197,198,199,-109]],"type":"Polygon","properties":{"STATEFP":"20","COUNTYFP":"201","COUNTYNS":"00485061","GEOIDFQ":"0500000US20201","GEOID":"20201","NAME":"Washington","NAMELSAD":"Washington County","STUSPS":"KS","STATE_NAME":"Kansas","LSAD":"06","ALAND":2317414338,"AWATER":10139473},"id":"20201"},{"arcs":[[-50,-188,200,-91,-140]],"type":"Polygon","properties":{"STATEFP":"20","COUNTYFP":"205","COUNTYNS":"00485063","GEOIDFQ":"0500000US20205","GEOID":"20205","NAME":"Wilson","NAMELSAD":"Wilson County","STUSPS":"KS","STATE_NAME":"Kansas","LSAD":"06","ALAND":1477388027,"AWATER":12046473},"id":"20205"},{"arcs":[[-26,201,202,-177,203,-197]],"type":"Polygon","properties":{"STATEFP":"20","COUNTYFP":"027","COUNTYNS":"00484983","GEOIDFQ":"0500000US20027","GEOID":"20027","NAME":"Clay","NAMELSAD":"Clay County","STUSPS":"KS","STATE_NAME":"Kansas","LSAD":"06","ALAND":1671314414,"AWATER":26701336},"id":"20027"},{"arcs":[[204,205,-163,206,207,208]],"type":"Polygon","properties":{"STATEFP":"20","COUNTYFP":"091","COUNTYNS":"00485010","GEOIDFQ":"0500000US20091","GEOID":"20091","NAME":"Johnson","NAMELSAD":"Johnson County","STUSPS":"KS","STATE_NAME":"Kansas","LSAD":"06","ALAND":1226693774,"AWATER":16304948},"id":"20091"},{"arcs":[[-28,209,210,211,212,-55]],"type":"Polygon","properties":{"STATEFP":"20","COUNTYFP":"127","COUNTYNS":"00485028","GEOIDFQ":"0500000US20127","GEOID":"20127","NAME":"Morris","NAMELSAD":"Morris County","STUSPS":"KS","STATE_NAME":"Kansas","LSAD":"06","ALAND":1800929247,"AWATER":19545268},"id":"20127"},{"arcs":[[-4,-97,-193,213,214,-173,215]],"type":"Polygon","properties":{"STATEFP":"20","COUNTYFP":"155","COUNTYNS":"00485041","GEOIDFQ":"0500000US20155","GEOID":"20155","NAME":"Reno","NAMELSAD":"Reno County","STUSPS":"KS","STATE_NAME":"Kansas","LSAD":"06","ALAND":3251230773,"AWATER":43517491},"id":"20155"},{"arcs":[[-125,-183,216,217,218,219]],"type":"Polygon","properties":{"STATEFP":"20","COUNTYFP":"085","COUNTYNS":"00485007","GEOIDFQ":"0500000US20085","GEOID":"20085","NAME":"Jackson","NAMELSAD":"Jackson County","STUSPS":"KS","STATE_NAME":"Kansas","LSAD":"06","ALAND":1699600349,"AWATER":4666513},"id":"20085"},{"arcs":[[-79,-175,220,221,222]],"type":"Polygon","properties":{"STATEFP":"20","COUNTYFP":"191","COUNTYNS":"00481812","GEOIDFQ":"0500000US20191","GEOID":"20191","NAME":"Sumner","NAMELSAD":"Sumner County","STUSPS":"KS","STATE_NAME":"Kansas","LSAD":"06","ALAND":3060505663,"AWATER":8512878},"id":"20191"},{"arcs":[[-132,223,224,-198,-204,-176]],"type":"Polygon","properties":{"STATEFP":"20","COUNTYFP":"029","COUNTYNS":"00484984","GEOIDFQ":"0500000US20029","GEOID":"20029","NAME":"Cloud","NAMELSAD":"Cloud County","STUSPS":"KS","STATE_NAME":"Kansas","LSAD":"06","ALAND":1852726647,"AWATER":6859889},"id":"20029"},{"arcs":[[225,-222,226,-53,227]],"type":"Polygon","properties":{"STATEFP":"20","COUNTYFP":"035","COUNTYNS":"00484987","GEOIDFQ":"0500000US20035","GEOID":"20035","NAME":"Cowley","NAMELSAD":"Cowley County","STUSPS":"KS","STATE_NAME":"Kansas","LSAD":"06","ALAND":2915648175,"AWATER":17322934},"id":"20035"},{"arcs":[[-114,228,-126,-220,229,-160]],"type":"Polygon","properties":{"STATEFP":"20","COUNTYFP":"177","COUNTYNS":"00485051","GEOIDFQ":"0500000US20177","GEOID":"20177","NAME":"Shawnee","NAMELSAD":"Shawnee County","STUSPS":"KS","STATE_NAME":"Kansas","LSAD":"06","ALAND":1408983519,"AWATER":30350116},"id":"20177"},{"arcs":[[-86,230,231,232]],"type":"Polygon","properties":{"STATEFP":"20","COUNTYFP":"001","COUNTYNS":"00484970","GEOIDFQ":"0500000US20001","GEOID":"20001","NAME":"Allen","NAMELSAD":"Allen County","STUSPS":"KS","STATE_NAME":"Kansas","LSAD":"06","ALAND":1295764702,"AWATER":13021465},"id":"20001"},{"arcs":[[233,-228,-52,-143,234]],"type":"Polygon","properties":{"STATEFP":"20","COUNTYFP":"019","COUNTYNS":"00484979","GEOIDFQ":"0500000US20019","GEOID":"20019","NAME":"Chautauqua","NAMELSAD":"Chautauqua County","STUSPS":"KS","STATE_NAME":"Kansas","LSAD":"06","ALAND":1654694133,"AWATER":15243776},"id":"20019"},{"arcs":[[-37,-130,235,236,237]],"type":"Polygon","properties":{"STATEFP":"20","COUNTYFP":"183","COUNTYNS":"00484969","GEOIDFQ":"0500000US20183","GEOID":"20183","NAME":"Smith","NAMELSAD":"Smith County","STUSPS":"KS","STATE_NAME":"Kansas","LSAD":"06","ALAND":2319241779,"AWATER":3884267},"id":"20183"},{"arcs":[[-15,238,-39,239,240,241]],"type":"Polygon","properties":{"STATEFP":"20","COUNTYFP":"051","COUNTYNS":"00484995","GEOIDFQ":"0500000US20051","GEOID":"20051","NAME":"Ellis","NAMELSAD":"Ellis County","STUSPS":"KS","STATE_NAME":"Kansas","LSAD":"06","ALAND":2330818742,"AWATER":1140645},"id":"20051"},{"arcs":[[-116,-164,242,243,244]],"type":"Polygon","properties":{"STATEFP":"20","COUNTYFP":"059","COUNTYNS":"00484998","GEOIDFQ":"0500000US20059","GEOID":"20059","NAME":"Franklin","NAMELSAD":"Franklin County","STUSPS":"KS","STATE_NAME":"Kansas","LSAD":"06","ALAND":1480882209,"AWATER":13893465},"id":"20059"},{"arcs":[[-47,-99,245,-70,-191,246]],"type":"Polygon","properties":{"STATEFP":"20","COUNTYFP":"171","COUNTYNS":"00485048","GEOIDFQ":"0500000US20171","GEOID":"20171","NAME":"Scott","NAMELSAD":"Scott County","STUSPS":"KS","STATE_NAME":"Kansas","LSAD":"06","ALAND":1858536840,"AWATER":306079},"id":"20171"},{"arcs":[[-89,247,-145,248,-141]],"type":"Polygon","properties":{"STATEFP":"20","COUNTYFP":"099","COUNTYNS":"00485014","GEOIDFQ":"0500000US20099","GEOID":"20099","NAME":"Labette","NAMELSAD":"Labette County","STUSPS":"KS","STATE_NAME":"Kansas","LSAD":"06","ALAND":1671559663,"AWATER":20007244},"id":"20099"},{"arcs":[[-74,249,-171,-81,250,251]],"type":"Polygon","properties":{"STATEFP":"20","COUNTYFP":"007","COUNTYNS":"00484973","GEOIDFQ":"0500000US20007","GEOID":"20007","NAME":"Barber","NAMELSAD":"Barber County","STUSPS":"KS","STATE_NAME":"Kansas","LSAD":"06","ALAND":2937240771,"AWATER":5411508},"id":"20007"},{"arcs":[[-153,252,253,254,-218,255]],"type":"Polygon","properties":{"STATEFP":"20","COUNTYFP":"005","COUNTYNS":"00484972","GEOIDFQ":"0500000US20005","GEOID":"20005","NAME":"Atchison","NAMELSAD":"Atchison County","STUSPS":"KS","STATE_NAME":"Kansas","LSAD":"06","ALAND":1116736556,"AWATER":6851102},"id":"20005"},{"arcs":[[-11,256,257,258,-59,-33]],"type":"Polygon","properties":{"STATEFP":"20","COUNTYFP":"189","COUNTYNS":"00485056","GEOIDFQ":"0500000US20189","GEOID":"20189","NAME":"Stevens","NAMELSAD":"Stevens County","STUSPS":"KS","STATE_NAME":"Kansas","LSAD":"06","ALAND":1884030839,"AWATER":28020},"id":"20189"},{"arcs":[[-14,259,-119,-40,-239]],"type":"Polygon","properties":{"STATEFP":"20","COUNTYFP":"195","COUNTYNS":"00485058","GEOIDFQ":"0500000US20195","GEOID":"20195","NAME":"Trego","NAMELSAD":"Trego County","STUSPS":"KS","STATE_NAME":"Kansas","LSAD":"06","ALAND":2303727354,"AWATER":26281951},"id":"20195"},{"arcs":[[260,-150,-189,-68,-93]],"type":"Polygon","properties":{"STATEFP":"20","COUNTYFP":"199","COUNTYNS":"00485060","GEOIDFQ":"0500000US20199","GEOID":"20199","NAME":"Wallace","NAMELSAD":"Wallace County","STUSPS":"KS","STATE_NAME":"Kansas","LSAD":"06","ALAND":2366348285,"AWATER":140936},"id":"20199"},{"arcs":[[-56,-213,261,-118,262,-185]],"type":"Polygon","properties":{"STATEFP":"20","COUNTYFP":"111","COUNTYNS":"00485020","GEOIDFQ":"0500000US20111","GEOID":"20111","NAME":"Lyon","NAMELSAD":"Lyon County","STUSPS":"KS","STATE_NAME":"Kansas","LSAD":"06","ALAND":2194956547,"AWATER":20563504},"id":"20111"},{"arcs":[[263,264,265,266]],"type":"Polygon","properties":{"STATEFP":"20","COUNTYFP":"107","COUNTYNS":"00485018","GEOIDFQ":"0500000US20107","GEOID":"20107","NAME":"Linn","NAMELSAD":"Linn County","STUSPS":"KS","STATE_NAME":"Kansas","LSAD":"06","ALAND":1538662706,"AWATER":31893232},"id":"20107"},{"arcs":[[-25,267,-211,268,-202]],"type":"Polygon","properties":{"STATEFP":"20","COUNTYFP":"061","COUNTYNS":"00484999","GEOIDFQ":"0500000US20061","GEOID":"20061","NAME":"Geary","NAMELSAD":"Geary County","STUSPS":"KS","STATE_NAME":"Kansas","LSAD":"06","ALAND":996244647,"AWATER":51656412},"id":"20061"},{"arcs":[[-117,-245,269,270,-186,-263]],"type":"Polygon","properties":{"STATEFP":"20","COUNTYFP":"031","COUNTYNS":"00484985","GEOIDFQ":"0500000US20031","GEOID":"20031","NAME":"Coffey","NAMELSAD":"Coffey County","STUSPS":"KS","STATE_NAME":"Kansas","LSAD":"06","ALAND":1623623909,"AWATER":70470788},"id":"20031"},{"arcs":[[-154,-256,-217,-182,271]],"type":"Polygon","properties":{"STATEFP":"20","COUNTYFP":"013","COUNTYNS":"00484976","GEOIDFQ":"0500000US20013","GEOID":"20013","NAME":"Brown","NAMELSAD":"Brown County","STUSPS":"KS","STATE_NAME":"Kansas","LSAD":"06","ALAND":1478550081,"AWATER":3196147},"id":"20013"},{"arcs":[[-134,-180,272,273,274,275]],"type":"Polygon","properties":{"STATEFP":"20","COUNTYFP":"105","COUNTYNS":"00485017","GEOIDFQ":"0500000US20105","GEOID":"20105","NAME":"Lincoln","NAMELSAD":"Lincoln County","STUSPS":"KS","STATE_NAME":"Kansas","LSAD":"06","ALAND":1863236810,"AWATER":2748359},"id":"20105"},{"arcs":[[-87,-233,-265,276,277]],"type":"Polygon","properties":{"STATEFP":"20","COUNTYFP":"011","COUNTYNS":"00484975","GEOIDFQ":"0500000US20011","GEOID":"20011","NAME":"Bourbon","NAMELSAD":"Bourbon County","STUSPS":"KS","STATE_NAME":"Kansas","LSAD":"06","ALAND":1645836648,"AWATER":9402853},"id":"20011"},{"arcs":[[-88,-278,278,-146,-248]],"type":"Polygon","properties":{"STATEFP":"20","COUNTYFP":"037","COUNTYNS":"00484988","GEOIDFQ":"0500000US20037","GEOID":"20037","NAME":"Crawford","NAMELSAD":"Crawford County","STUSPS":"KS","STATE_NAME":"Kansas","LSAD":"06","ALAND":1527499261,"AWATER":13573629},"id":"20037"},{"arcs":[[-60,-259,279]],"type":"Polygon","properties":{"STATEFP":"20","COUNTYFP":"129","COUNTYNS":"00485135","GEOIDFQ":"0500000US20129","GEOID":"20129","NAME":"Morton","NAMELSAD":"Morton County","STUSPS":"KS","STATE_NAME":"Kansas","LSAD":"06","ALAND":1889993628,"AWATER":507796},"id":"20129"},{"arcs":[[-16,-242,280,281,-84]],"type":"Polygon","properties":{"STATEFP":"20","COUNTYFP":"165","COUNTYNS":"00485358","GEOIDFQ":"0500000US20165","GEOID":"20165","NAME":"Rush","NAMELSAD":"Rush County","STUSPS":"KS","STATE_NAME":"Kansas","LSAD":"06","ALAND":1858997550,"AWATER":544720},"id":"20165"},{"arcs":[[-75,-252,282,-165]],"type":"Polygon","properties":{"STATEFP":"20","COUNTYFP":"033","COUNTYNS":"00484986","GEOIDFQ":"0500000US20033","GEOID":"20033","NAME":"Comanche","NAMELSAD":"Comanche County","STUSPS":"KS","STATE_NAME":"Kansas","LSAD":"06","ALAND":2041681087,"AWATER":3604155},"id":"20033"},{"arcs":[[283,-208,284,285]],"type":"Polygon","properties":{"STATEFP":"20","COUNTYFP":"209","COUNTYNS":"00485065","GEOIDFQ":"0500000US20209","GEOID":"20209","NAME":"Wyandotte","NAMELSAD":"Wyandotte County","STUSPS":"KS","STATE_NAME":"Kansas","LSAD":"06","ALAND":392739386,"AWATER":11801597},"id":"20209"},{"arcs":[[-95,286,287,-274,288,-194]],"type":"Polygon","properties":{"STATEFP":"20","COUNTYFP":"053","COUNTYNS":"00484996","GEOIDFQ":"0500000US20053","GEOID":"20053","NAME":"Ellsworth","NAMELSAD":"Ellsworth County","STUSPS":"KS","STATE_NAME":"Kansas","LSAD":"06","ALAND":1853331059,"AWATER":19969761},"id":"20053"},{"arcs":[[-162,289,-254,290,-285,-207]],"type":"Polygon","properties":{"STATEFP":"20","COUNTYFP":"103","COUNTYNS":"00485016","GEOIDFQ":"0500000US20103","GEOID":"20103","NAME":"Leavenworth","NAMELSAD":"Leavenworth County","STUSPS":"KS","STATE_NAME":"Kansas","LSAD":"06","ALAND":1200222663,"AWATER":14334294},"id":"20103"},{"arcs":[[-187,-271,-231,-201]],"type":"Polygon","properties":{"STATEFP":"20","COUNTYFP":"207","COUNTYNS":"00485064","GEOIDFQ":"0500000US20207","GEOID":"20207","NAME":"Woodson","NAMELSAD":"Woodson County","STUSPS":"KS","STATE_NAME":"Kansas","LSAD":"06","ALAND":1289344336,"AWATER":19254559},"id":"20207"},{"arcs":[[-232,-270,-244,-266]],"type":"Polygon","properties":{"STATEFP":"20","COUNTYFP":"003","COUNTYNS":"00484971","GEOIDFQ":"0500000US20003","GEOID":"20003","NAME":"Anderson","NAMELSAD":"Anderson County","STUSPS":"KS","STATE_NAME":"Kansas","LSAD":"06","ALAND":1501263987,"AWATER":10599676},"id":"20003"},{"arcs":[[-38,-238,291,-135,-276,292,-240]],"type":"Polygon","properties":{"STATEFP":"20","COUNTYFP":"141","COUNTYNS":"00485034","GEOIDFQ":"0500000US20141","GEOID":"20141","NAME":"Osborne","NAMELSAD":"Osborne County","STUSPS":"KS","STATE_NAME":"Kansas","LSAD":"06","ALAND":2311604910,"AWATER":4806274},"id":"20141"},{"arcs":[[-24,-127,-229,-113,-262,-212,-268]],"type":"Polygon","properties":{"STATEFP":"20","COUNTYFP":"197","COUNTYNS":"00485059","GEOIDFQ":"0500000US20197","GEOID":"20197","NAME":"Wabaunsee","NAMELSAD":"Wabaunsee County","STUSPS":"KS","STATE_NAME":"Kansas","LSAD":"06","ALAND":2057320869,"AWATER":13845234},"id":"20197"},{"arcs":[[-30,-58,-184,-54,-227,293,294]],"type":"Polygon","properties":{"STATEFP":"20","COUNTYFP":"015","COUNTYNS":"00484977","GEOIDFQ":"0500000US20015","GEOID":"20015","NAME":"Butler","NAMELSAD":"Butler County","STUSPS":"KS","STATE_NAME":"Kansas","LSAD":"06","ALAND":3702946851,"AWATER":43541352},"id":"20015"},{"arcs":[[-161,-230,-219,-255,-290]],"type":"Polygon","properties":{"STATEFP":"20","COUNTYFP":"087","COUNTYNS":"00485008","GEOIDFQ":"0500000US20087","GEOID":"20087","NAME":"Jefferson","NAMELSAD":"Jefferson County","STUSPS":"KS","STATE_NAME":"Kansas","LSAD":"06","ALAND":1379494410,"AWATER":62293257},"id":"20087"},{"arcs":[[-10,-139,295,-257]],"type":"Polygon","properties":{"STATEFP":"20","COUNTYFP":"175","COUNTYNS":"00485050","GEOIDFQ":"0500000US20175","GEOID":"20175","NAME":"Seward","NAMELSAD":"Seward County","STUSPS":"KS","STATE_NAME":"Kansas","LSAD":"06","ALAND":1656693263,"AWATER":1961444},"id":"20175"},{"arcs":[[-2,-85,-282,296,-287,-94]],"type":"Polygon","properties":{"STATEFP":"20","COUNTYFP":"009","COUNTYNS":"00484974","GEOIDFQ":"0500000US20009","GEOID":"20009","NAME":"Barton","NAMELSAD":"Barton County","STUSPS":"KS","STATE_NAME":"Kansas","LSAD":"06","ALAND":2318705426,"AWATER":13926862},"id":"20009"},{"arcs":[[-179,297,-195,-289,-273]],"type":"Polygon","properties":{"STATEFP":"20","COUNTYFP":"169","COUNTYNS":"00485047","GEOIDFQ":"0500000US20169","GEOID":"20169","NAME":"Saline","NAMELSAD":"Saline County","STUSPS":"KS","STATE_NAME":"Kansas","LSAD":"06","ALAND":1865419242,"AWATER":2760902},"id":"20169"},{"arcs":[[-122,298,299,300,-128]],"type":"Polygon","properties":{"STATEFP":"20","COUNTYFP":"137","COUNTYNS":"00485032","GEOIDFQ":"0500000US20137","GEOID":"20137","NAME":"Norton","NAMELSAD":"Norton County","STUSPS":"KS","STATE_NAME":"Kansas","LSAD":"06","ALAND":2274122715,"AWATER":8421464},"id":"20137"},{"arcs":[[-174,-215,301,-294,-221]],"type":"Polygon","properties":{"STATEFP":"20","COUNTYFP":"173","COUNTYNS":"00485049","GEOIDFQ":"0500000US20173","GEOID":"20173","NAME":"Sedgwick","NAMELSAD":"Sedgwick County","STUSPS":"KS","STATE_NAME":"Kansas","LSAD":"06","ALAND":2582221896,"AWATER":31388803},"id":"20173"},{"arcs":[[-13,-48,-247,-190,-158,302,-120,-260]],"type":"Polygon","properties":{"STATEFP":"20","COUNTYFP":"063","COUNTYNS":"00485000","GEOIDFQ":"0500000US20063","GEOID":"20063","NAME":"Gove","NAMELSAD":"Gove County","STUSPS":"KS","STATE_NAME":"Kansas","LSAD":"06","ALAND":2775601941,"AWATER":245369},"id":"20063"},{"arcs":[[-241,-293,-275,-288,-297,-281]],"type":"Polygon","properties":{"STATEFP":"20","COUNTYFP":"167","COUNTYNS":"00485046","GEOIDFQ":"0500000US20167","GEOID":"20167","NAME":"Russell","NAMELSAD":"Russell County","STUSPS":"KS","STATE_NAME":"Kansas","LSAD":"06","ALAND":2295402851,"AWATER":34126776},"id":"20167"},{"arcs":[[303,-267,-243,-206]],"type":"Polygon","properties":{"STATEFP":"20","COUNTYFP":"121","COUNTYNS":"00485025","GEOIDFQ":"0500000US20121","GEOID":"20121","NAME":"Miami","NAMELSAD":"Miami County","STUSPS":"KS","STATE_NAME":"Kansas","LSAD":"06","ALAND":1491523011,"AWATER":37231299},"id":"20121"},{"arcs":[[-31,-295,-302,-214,-192]],"type":"Polygon","properties":{"STATEFP":"20","COUNTYFP":"079","COUNTYNS":"00485005","GEOIDFQ":"0500000US20079","GEOID":"20079","NAME":"Harvey","NAMELSAD":"Harvey County","STUSPS":"KS","STATE_NAME":"Kansas","LSAD":"06","ALAND":1397962400,"AWATER":2503283},"id":"20079"},{"arcs":[[-131,-292,-237,304,305,-224]],"type":"Polygon","properties":{"STATEFP":"20","COUNTYFP":"089","COUNTYNS":"00485009","GEOIDFQ":"0500000US20089","GEOID":"20089","NAME":"Jewell","NAMELSAD":"Jewell County","STUSPS":"KS","STATE_NAME":"Kansas","LSAD":"06","ALAND":2356813569,"AWATER":11367164},"id":"20089"},{"arcs":[[-18,-83,-170,-196,-106,-100]],"type":"Polygon","properties":{"STATEFP":"20","COUNTYFP":"083","COUNTYNS":"00485006","GEOIDFQ":"0500000US20083","GEOID":"20083","NAME":"Hodgeman","NAMELSAD":"Hodgeman County","STUSPS":"KS","STATE_NAME":"Kansas","LSAD":"06","ALAND":2227369157,"AWATER":826344},"id":"20083"},{"arcs":[[-103,306,-300,307,-156]],"type":"Polygon","properties":{"STATEFP":"20","COUNTYFP":"039","COUNTYNS":"00484989","GEOIDFQ":"0500000US20039","GEOID":"20039","NAME":"Decatur","NAMELSAD":"Decatur County","STUSPS":"KS","STATE_NAME":"Kansas","LSAD":"06","ALAND":2314199314,"AWATER":1631670},"id":"20039"},{"arcs":[[-5,-216,-172,-250,-73,-168]],"type":"Polygon","properties":{"STATEFP":"20","COUNTYFP":"151","COUNTYNS":"00485039","GEOIDFQ":"0500000US20151","GEOID":"20151","NAME":"Pratt","NAMELSAD":"Pratt County","STUSPS":"KS","STATE_NAME":"Kansas","LSAD":"06","ALAND":1903740938,"AWATER":1771939},"id":"20151"},{"arcs":[[-35,-66,-71,-246,-98]],"type":"Polygon","properties":{"STATEFP":"20","COUNTYFP":"093","COUNTYNS":"00485011","GEOIDFQ":"0500000US20093","GEOID":"20093","NAME":"Kearny","NAMELSAD":"Kearny County","STUSPS":"KS","STATE_NAME":"Kansas","LSAD":"06","ALAND":2254696663,"AWATER":1133601},"id":"20093"},{"arcs":[[-121,-303,-157,-308,-299]],"type":"Polygon","properties":{"STATEFP":"20","COUNTYFP":"179","COUNTYNS":"00485052","GEOIDFQ":"0500000US20179","GEOID":"20179","NAME":"Sheridan","NAMELSAD":"Sheridan County","STUSPS":"KS","STATE_NAME":"Kansas","LSAD":"06","ALAND":2320518305,"AWATER":647342},"id":"20179"},{"arcs":[[-27,-298,-178,-203,-269,-210]],"type":"Polygon","properties":{"STATEFP":"20","COUNTYFP":"041","COUNTYNS":"00484990","GEOIDFQ":"0500000US20041","GEOID":"20041","NAME":"Dickinson","NAMELSAD":"Dickinson County","STUSPS":"KS","STATE_NAME":"Kansas","LSAD":"06","ALAND":2193895344,"AWATER":12632459},"id":"20041"},{"arcs":[[-199,-225,-306,308]],"type":"Polygon","properties":{"STATEFP":"20","COUNTYFP":"157","COUNTYNS":"00485042","GEOIDFQ":"0500000US20157","GEOID":"20157","NAME":"Republic","NAMELSAD":"Republic County","STUSPS":"KS","STATE_NAME":"Kansas","LSAD":"06","ALAND":1857998448,"AWATER":7951910},"id":"20157"}]}}}