{"type":"Topology","arcs":[[[6696,3058],[68,-2],[97,53],[57,58],[4,24],[50,33],[-11,57],[64,47],[44,68],[-18,18],[79,59]],[[7130,3473],[45,-44],[65,-28],[46,-45],[36,0],[129,30],[240,44]],[[7691,3430],[26,-173]],[[7717,3257],[-50,-12],[-41,-68],[-19,19],[-28,-36],[-25,-5],[-77,-52],[-13,2],[-28,-64],[14,-14],[-56,-43],[-31,3],[5,-56],[-39,17],[3,-58],[-50,-21]],[[7282,2869],[-85,-104],[-123,-306]],[[7074,2459],[-39,19],[-13,-20],[5,-48],[-40,-14],[-93,44],[35,53],[-5,50],[30,26],[-5,28],[35,57],[-39,4],[-10,41],[14,84],[-25,16],[-54,-9],[-13,45],[-61,38]],[[6796,2873],[-4,59],[-59,25],[-46,55],[9,46]],[[7872,841],[81,66],[100,68],[18,91],[50,3],[24,-26],[126,121]],[[8271,1164],[91,-45],[24,-48],[69,21],[54,37],[36,-4],[103,-197],[26,-36],[26,4],[21,-35]],[[8721,861],[-24,-11],[18,-51],[4,-61],[-76,-48],[-20,-56],[-66,-26],[-3,-44],[-183,-317]],[[8371,247],[-12,0],[-101,4],[-230,24]],[[8028,275],[-43,21],[-3,122],[-34,41],[6,78],[23,66],[-39,117],[-57,61],[-9,60]],[[7854,4883],[26,33],[62,8],[87,52],[8,28],[57,5],[5,26]],[[8099,5035],[15,26],[35,-9],[59,47],[47,17],[25,34],[78,21]],[[8358,5171],[20,-237],[175,-148],[67,-121],[16,-42],[81,-28]],[[8717,4595],[-75,-97],[-45,-34],[-99,-108],[-61,-41]],[[8437,4315],[-92,-33],[-27,26],[-108,17]],[[8210,4325],[4,28],[-45,15],[-6,33],[30,62],[-77,35],[26,42],[-34,30],[-16,-27],[1,-44],[-45,13],[20,46],[-8,39],[-56,31],[6,73],[-78,-18],[28,62],[8,55],[-58,30],[-30,-21],[-28,31],[2,43]],[[7074,2459],[32,-12],[18,-34],[1,-44],[32,-56],[13,-61]],[[7170,2252],[-40,5],[-24,34],[-45,-65],[-64,13],[-32,23]],[[6965,2262],[-47,-22],[-42,27],[-18,-52],[-36,-30],[14,-34]],[[6836,2151],[-133,8],[-29,13],[-249,22]],[[6425,2194],[30,241],[98,93],[39,56],[-11,31],[50,23],[25,37],[38,9],[102,189]],[[9753,215],[-419,6]],[[9334,221],[-22,49],[-55,48],[-63,100],[-24,90],[-3,100],[-47,51],[8,56],[-18,20],[30,28],[39,125],[-10,41],[31,37],[-12,46],[23,32]],[[9211,1044],[38,37],[27,2],[49,-45],[74,10],[28,-17],[39,35],[2,28],[44,6],[58,-33]],[[9570,1067],[17,-53],[-5,-66],[26,-33],[9,-86],[37,-33],[29,-48],[47,-17],[29,-25],[27,-92],[15,-27],[2,-52],[142,-93]],[[9945,442],[-2,-16],[-136,-81],[42,-62],[13,-38],[-10,-34]],[[9852,211],[-99,4]],[[10466,2347],[29,99],[70,209]],[[10565,2655],[44,17],[5,-63],[62,27],[44,62],[4,38],[22,40],[53,21],[11,-18],[90,-41],[22,20],[121,-31]],[[11043,2727],[75,-58],[43,-2],[69,-58],[13,-29],[34,11],[54,43],[30,-52],[49,-54],[20,13],[30,-30],[-15,-50],[31,-23],[7,-40],[81,-37],[3,-21]],[[11567,2340],[-45,-12],[-99,19],[-20,32],[-90,-4],[2,-47],[-73,-95],[18,-122]],[[11260,2111],[-103,11],[-28,12],[-5,37],[-22,30],[-96,-104],[-57,-30],[-14,-19],[-38,5],[-26,-42],[-37,-9],[-23,-46],[-42,2],[-70,73],[-55,14],[-45,-65],[-60,-43],[-18,10]],[[10521,1947],[20,44],[-22,43],[12,63],[-2,62],[-19,97],[-27,23],[-17,68]],[[9945,442],[66,62],[19,68],[34,12],[23,57],[-4,29],[30,41],[75,13],[81,71],[16,36],[34,23],[36,4],[21,51],[87,39],[25,64],[-30,21],[-10,34]],[[10448,1067],[140,-40]],[[10588,1027],[26,-44],[-16,-33],[24,-24]],[[10622,926],[-13,-27],[6,-47],[21,-33],[-52,-97],[45,-56],[-26,-117],[36,-54],[36,-29],[-3,-76]],[[10672,390],[-57,12],[-67,-12],[-79,-54],[-65,-18],[-106,-77],[-27,-42],[-172,3],[-247,9]],[[10588,1027],[-24,139],[21,12],[-60,105],[11,50],[-11,23],[18,53],[-28,37],[0,113],[80,85],[-41,63],[36,11]],[[10590,1718],[43,37],[-6,47],[26,45],[52,-9],[23,37],[54,31],[19,-26],[62,-23],[-3,-27],[28,-25],[-12,-29],[35,-82],[23,10],[21,-35],[21,6],[23,-35],[43,-17],[61,-44],[5,-26],[-27,-24],[1,-36],[36,-24],[21,-46],[43,-15],[6,-73],[-20,-19],[-17,-67],[8,-30]],[[11159,1219],[-10,-36],[-74,-7],[-16,-40],[-36,-39],[-55,-39],[-56,-26],[-106,-35],[-31,-23],[10,-25],[-21,-35],[-101,-2],[-41,14]],[[10881,4238],[28,24],[56,0],[20,-13],[61,15],[29,21],[-16,38],[12,32],[-8,108],[43,74],[21,14],[28,97],[32,19]],[[11187,4667],[49,-15],[30,-27],[42,-6],[53,-39],[26,-3],[88,-105],[9,-23],[50,-37],[35,13],[61,-2],[166,-58]],[[11796,4365],[80,-27],[-17,-39],[-22,-237]],[[11837,4062],[-52,-36],[20,-19],[-72,-70],[-52,14],[-25,-31],[-47,-18]],[[11609,3902],[-31,-12],[-58,5],[-23,40],[-40,23],[-63,-13],[-49,31],[-28,49],[-46,13],[-80,75],[-80,-54],[-23,-49],[4,-27],[-41,-40]],[[11051,3943],[-33,-4],[-19,26],[-45,17],[-21,101],[-40,80],[-12,75]],[[3974,2081],[152,-23],[66,73],[103,-4],[22,10]],[[4317,2137],[8,-93],[-50,-35],[-24,-46],[28,-36],[33,7],[26,72],[30,25],[70,-17],[25,-23],[53,-85],[5,-109],[20,-28],[29,0],[14,-40],[41,2],[7,-38],[35,-30]],[[4667,1663],[-2,-65],[-25,-15],[-21,-41],[5,-40],[46,-58],[0,-61],[-77,-53]],[[4593,1330],[-61,11],[-134,-30]],[[4398,1311],[-113,-37],[-231,-10],[9,55],[-25,19]],[[4038,1338],[-37,10],[-7,73],[-49,13],[-30,49],[-7,52]],[[3908,1535],[37,53],[8,34],[-39,13],[-34,38],[-11,47],[-54,44],[0,42],[26,59],[-10,30],[57,-5],[26,80],[54,56],[6,55]],[[8639,3766],[8,31],[382,182]],[[9029,3979],[41,8],[34,-39],[7,-39],[-33,-47],[9,-74],[-19,-34],[33,-29],[59,-33],[26,5],[43,-26],[2,-20]],[[9231,3651],[6,-111],[-69,-43],[-2,-83],[-15,-43],[1,-61],[-27,-52],[17,-14]],[[9142,3244],[-47,10],[-34,-6],[30,-71],[-5,-21],[-42,-15],[-30,55],[-19,-5],[-25,-51]],[[8970,3140],[2,49],[-32,94],[-33,26],[-14,47],[-197,108],[-118,40]],[[8578,3504],[4,33],[57,229]],[[11043,2727],[-17,25],[26,44],[-32,31]],[[11020,2827],[2,31],[30,44],[-47,51],[78,68],[31,54],[52,5],[8,24],[106,75],[-32,67],[73,-6],[57,-47],[60,12],[31,-37]],[[11469,3168],[41,-56],[-15,-40],[69,-54],[4,-174],[13,-8]],[[11581,2836],[-9,-90],[6,-20],[58,-46],[12,-169],[24,-28],[-15,-117],[-49,-65]],[[11608,2301],[-28,7],[-13,32]],[[7717,3257],[25,-14],[24,57],[33,-16],[-1,-36],[32,-14],[70,19],[31,-10]],[[7931,3243],[36,-75],[16,-11],[-42,-409]],[[7941,2748],[-9,-110]],[[7932,2638],[-397,-1],[-94,48],[-52,0],[-58,51],[0,61],[-49,72]],[[10521,1947],[4,-41],[-11,-68],[50,-37],[-7,-30]],[[10557,1771],[-25,21],[-35,2],[-50,53],[-34,23],[-51,100],[-51,26],[-19,-43],[-69,5],[-117,23]],[[10106,1981],[-47,50],[-29,96],[-37,84],[-27,8],[-32,61],[-3,94]],[[9931,2374],[34,-33],[64,-39],[151,17],[-4,32],[22,30],[54,-31],[37,10],[41,58],[46,1],[6,-34],[66,-38],[18,0]],[[5202,2482],[42,40],[-11,42],[70,-23],[3,60],[52,16],[59,-60],[44,-16],[-4,-31],[63,2],[14,-25],[87,-9],[1,57],[85,2],[50,13]],[[5757,2550],[12,-21],[41,33],[35,-40],[51,-37],[92,-14],[50,17],[88,-137],[21,-68],[-27,-50],[34,-17]],[[6154,2216],[15,-107],[-25,-23],[-22,-43],[-13,-64],[-50,-14],[-32,10],[-62,-3],[-3,-22]],[[5962,1950],[-23,-8],[-35,18],[-32,-16],[-194,-15],[-260,-13]],[[5418,1916],[-31,97],[-218,75]],[[5169,2088],[-87,342],[63,56],[28,-52],[57,24],[-28,24]],[[7691,3430],[3,36],[32,21],[29,-1],[8,56],[44,40]],[[7807,3582],[30,8],[55,81],[-3,20],[26,82],[28,22]],[[7943,3795],[28,2],[70,-24],[17,-22],[87,-38],[36,8],[39,46]],[[8220,3767],[0,-47],[40,8],[26,-40],[-28,-30],[-6,-68],[30,-40],[-13,-37],[35,-18],[-2,-62],[38,-7]],[[8340,3426],[-153,-71],[-32,-3],[-12,25],[-42,12],[-70,-44],[-24,-69],[-76,-33]],[[8578,3504],[-87,-330]],[[8491,3174],[-97,-33],[-15,22],[26,40],[-12,34],[-51,-5],[-45,93],[42,21],[-40,35],[41,45]],[[8220,3767],[0,57],[244,126]],[[8464,3950],[20,-47],[102,10],[9,-81],[44,-66]],[[11469,3168],[37,39],[39,85],[-35,65],[-13,54]],[[11497,3411],[40,70],[31,15],[127,-53],[77,-23],[166,-119],[104,-56],[113,-31]],[[12155,3214],[-103,-63],[46,-68],[-52,-83],[37,-22],[-4,-58],[20,-26],[6,-50]],[[12105,2844],[-55,13],[-22,23],[-41,9],[-27,23],[-23,-10],[-45,26],[-7,-33],[-33,9],[-105,-38],[-44,-1],[-36,-47],[-21,-5],[-41,30],[-24,-7]],[[6696,3058],[-6,20],[-55,50],[-78,38],[-39,51],[21,47],[-5,42],[-25,7],[-18,55],[-42,8],[-46,-14],[8,62],[-11,51],[-55,17]],[[6345,3492],[43,28],[2,23],[63,49],[287,106],[271,-31],[224,104]],[[7235,3771],[-3,-26],[-67,-26],[-75,-194],[40,-52]],[[4667,1663],[24,24],[24,56],[32,9],[33,56],[27,72],[3,51],[28,16],[46,-19],[27,-51],[258,211]],[[5418,1916],[122,-351]],[[5540,1565],[-30,-39],[-89,0],[-9,30],[-42,57],[-77,-34],[-70,21],[-65,-3],[2,-86],[-100,-342]],[[5060,1169],[-299,132],[-168,29]],[[11608,2301],[-4,-13],[168,-32],[10,-66],[-17,-57],[43,-6],[50,41],[32,-21],[16,-108],[-17,-50],[16,-20],[12,-63],[-7,-20],[48,-16],[25,-37]],[[11983,1833],[-39,-32]],[[11944,1801],[-58,-19],[-62,-5],[-32,17],[-57,-30],[-39,-31],[-1,-24],[-59,-60],[-39,-8],[-47,-30],[-33,-38],[-12,33],[-28,19]],[[11477,1625],[-10,23],[-47,26],[-37,-3],[-23,37],[-5,40],[-55,-31],[-26,12],[-19,65],[30,122],[-3,50],[-22,145]],[[6239,3495],[91,12]],[[6330,3507],[15,-15]],[[6425,2194],[-271,22]],[[5757,2550],[93,202],[123,275]],[[5973,3027],[252,46],[55,133],[-41,289]],[[3908,1535],[-45,0],[-5,-41],[-21,-14],[-193,-15],[-64,-50],[-176,69],[-48,28],[-54,5]],[[3302,1517],[-31,21],[-27,47],[-40,28],[-66,17],[5,38],[-56,67],[17,28],[1,79],[-23,10],[17,52],[-41,5],[-6,-33],[-49,35],[32,49],[35,25]],[[3070,1985],[384,259],[166,58],[216,193]],[[3836,2495],[27,-55],[17,-75],[-21,-60],[19,-147],[37,-39],[59,-38]],[[11609,3902],[29,-42],[2,-55],[31,-50],[-49,-29],[-43,-51],[0,-31],[-105,-68],[-1,-25],[-34,-39]],[[11439,3512],[-45,-24],[-30,25],[-64,5],[-14,-14],[-65,-9],[-52,30],[-31,-5],[-47,38],[-3,39],[-78,36],[-6,23],[17,77],[-3,31]],[[11018,3764],[26,34],[46,5],[18,75],[-62,49],[5,16]],[[3302,1517],[-53,-297],[-39,-46]],[[3210,1174],[-55,-63],[-163,-56],[-33,22]],[[2959,1077],[-171,249],[-117,250],[-94,11]],[[2577,1587],[21,11],[-10,88],[65,36],[439,330]],[[3092,2052],[-22,-67]],[[11159,1219],[38,-1],[42,-39],[25,-7]],[[11264,1172],[-55,-68],[6,-41],[196,70],[27,-16],[28,35],[72,22],[46,31],[122,-96]],[[11706,1109],[23,-50],[-7,-63],[-30,-41],[-2,-35],[-20,-20],[-141,-61],[-49,-3],[-13,-20],[-36,17],[-80,-2],[-5,-32],[-46,-27],[5,-34],[-36,-58],[-24,-15],[9,-75],[-15,-18],[-101,-8],[-163,-60],[-34,-6],[-138,-57],[-17,-23],[-49,-22],[-65,-6]],[[4317,2137],[-9,106],[3,45],[94,165],[19,21]],[[4424,2474],[56,46],[101,116],[53,-11],[44,40],[49,15],[40,37],[43,20],[-86,81],[75,67]],[[4799,2885],[323,-176]],[[5122,2709],[-3,-100],[27,-35],[8,-39],[48,-53]],[[9029,3979],[-26,31],[-8,73],[-27,32],[-10,39]],[[8958,4154],[41,9],[82,-18],[16,36],[31,-23],[45,26],[19,38],[47,0],[153,138]],[[9392,4360],[48,-39],[89,-177],[35,-46],[67,-5],[7,-41],[45,-50],[46,-8],[41,13],[-1,-65]],[[9769,3942],[-21,-40],[-158,-139]],[[9590,3763],[-359,-112]],[[9392,4360],[161,204]],[[9553,4564],[50,-5],[110,-57],[53,15]],[[9766,4517],[54,-38],[48,-92],[29,-40],[62,-34],[20,-41],[40,-39],[-23,-47]],[[9996,4186],[-227,-244]],[[11018,3764],[-62,-53],[-68,-24],[-11,-32],[-48,2],[-42,-64],[-37,13],[-30,-32]],[[10720,3574],[-29,-8],[-23,-31],[-27,35],[23,22],[-58,21]],[[10606,3613],[62,68],[-98,21],[-1,63],[-25,9],[-58,61],[-31,-1],[-23,-42],[-26,13],[-12,99],[-26,27]],[[10368,3931],[35,14],[59,58],[37,6],[7,38],[55,41],[29,42],[11,100],[24,20],[-20,58],[31,24],[20,-11],[31,62]],[[10687,4383],[62,34],[24,-15],[19,-54],[51,-63],[-2,-24],[40,-23]],[[12257,1641],[-20,-15]],[[12237,1626],[-51,40],[-9,33],[-51,47],[-25,-6],[-51,-42],[-54,34],[6,32],[-58,37]],[[11983,1833],[30,49],[37,1],[4,34],[31,70],[-24,43],[21,24],[44,1],[70,153],[7,48],[-23,83],[-45,3],[5,55],[39,266],[-28,65],[29,20],[60,14]],[[12240,2762],[13,16],[62,6],[46,-32],[49,7],[18,-34],[44,21],[37,3],[40,43],[-46,34],[64,64],[75,3]],[[12642,2893],[30,-45],[35,-83],[42,-52],[26,-16],[29,11],[25,-20],[22,-64],[56,4],[43,-80],[43,1],[14,-39],[-16,-55],[50,17],[8,-17],[47,5],[16,-42],[62,2],[37,-9],[65,30],[4,-20],[-145,-134],[-129,-124],[-318,-292],[-31,-43],[-46,-37],[-171,-54],[-87,-39],[-37,-33],[-59,-24]],[[9334,221],[-60,0],[-317,9],[-175,1],[-143,7],[-268,9]],[[8721,861],[282,185],[103,29]],[[9106,1075],[-18,-32],[39,-14],[37,15],[47,0]],[[2872,3267],[39,54],[56,-10],[27,-47],[48,-56],[75,0],[42,33],[68,3],[40,13],[38,13],[21,-17],[0,-37],[-26,-56],[17,-62],[46,-8],[53,14],[44,62],[5,61],[-58,54],[-13,33],[39,65],[7,49],[45,-8],[7,-49],[36,-49],[70,-44],[25,11],[80,69],[66,9],[49,-17],[71,-61],[73,-32]],[[3962,3257],[-36,-182],[28,-10],[24,-73],[34,1],[-27,-53],[-54,-44],[-88,-11],[-40,-32],[0,-32],[-26,-62]],[[3777,2759],[-21,-31],[-91,-12],[-39,-40]],[[3626,2676],[-418,-22]],[[3208,2654],[-35,77],[6,16],[-8,115],[-30,91],[-31,-29],[-15,43],[-36,-11],[-187,311]],[[9766,4517],[17,57],[70,66]],[[9853,4640],[124,-83],[240,110],[139,50]],[[10356,4717],[24,-8],[6,-42],[35,-9],[20,-25],[29,-74],[-4,-63],[74,-33],[38,-3],[31,-30],[20,7],[58,-54]],[[10368,3931],[-25,-12],[-16,44],[-24,-9],[-23,39],[-10,47],[-45,41],[11,38],[-47,-7],[-11,45],[-43,21],[-46,-3],[-31,-23],[-18,43],[-44,-9]],[[2577,1587],[-25,-46],[-75,-24],[-12,-38],[-43,-16],[-16,49]],[[2406,1512],[-4,60],[-42,23],[42,85],[-40,125],[-85,103],[-45,42],[-20,62],[9,36],[-42,37],[-61,26]],[[2118,2111],[80,83],[54,28],[186,26],[70,18],[94,4],[24,30],[11,45]],[[2637,2345],[24,30],[24,-11],[23,35],[8,43],[30,-20],[-1,-56],[20,-42],[28,7],[30,-48],[38,3]],[[2861,2286],[-19,-35],[10,-92],[17,-39],[45,-24],[98,52],[5,-46],[-26,-19],[20,-40],[52,16],[29,-7]],[[9570,1067],[53,47],[35,1],[16,28],[29,-12],[99,-14],[41,43],[24,94],[29,-9],[60,52]],[[9956,1297],[26,-29],[39,2],[20,-40],[64,20],[19,-45],[52,24],[16,-44],[28,-27],[125,-73],[74,-25],[29,7]],[[7932,2638],[-17,-200]],[[7915,2438],[-7,-105],[-1,-189],[-52,-12]],[[7855,2132],[-25,11],[-71,81],[-25,-14],[-46,39],[-47,-39],[-45,-6],[-42,-57],[-45,-7],[-28,45],[-74,57],[-43,23],[-46,-13],[-34,20],[-43,1],[-71,-21]],[[8958,4154],[17,38],[-34,74],[-18,62],[6,43],[-46,78],[-65,42],[-6,50],[-31,35],[-24,66]],[[8757,4642],[63,35],[63,1],[16,79]],[[8899,4757],[41,-27],[44,19],[26,59],[22,-9],[340,50]],[[9372,4849],[3,-42],[73,-23]],[[9448,4784],[-3,-34],[-26,-16],[-9,-81],[39,9],[24,-59],[30,11],[42,-29],[8,-21]],[[5122,2709],[29,-16],[-97,320],[20,100],[19,16]],[[5093,3129],[30,0],[59,37],[11,21],[-3,91],[20,34],[95,-10],[40,21],[7,24],[-32,74],[1,139],[23,39],[36,2]],[[5380,3601],[184,-175],[249,-217],[59,-72],[101,-110]],[[11020,2827],[-34,15],[-10,54],[-39,6],[-43,32],[12,49],[-35,14],[-30,31],[-36,7],[-2,27],[-82,13],[-39,54],[-50,3],[-19,42]],[[10613,3174],[-2,67],[90,120],[19,213]],[[11439,3512],[-6,-37],[26,-50],[38,-14]],[[8479,3066],[37,29],[34,-4],[-2,-83],[114,-55],[11,-27],[36,-11],[-4,-35],[30,-16],[26,48],[52,47]],[[8813,2959],[54,-51],[-15,-30],[34,-33],[-3,-22],[55,-46],[20,-66],[42,-49],[7,-44],[27,-17],[3,-36],[38,-11],[10,-58],[32,-41],[6,-32]],[[9123,2423],[-22,-54],[9,-41],[-33,-59],[-126,31]],[[8951,2300],[-46,20],[-254,229],[-60,58],[-10,38]],[[8581,2645],[11,35],[-47,8],[-34,36],[-10,68],[-32,-11],[-37,13],[-2,34]],[[8430,2828],[26,29],[48,0],[-1,69],[-22,34],[18,54],[-20,52]],[[10613,3174],[-39,-24],[-16,-42],[-44,-28],[-68,-7],[-46,40],[-25,-24]],[[10375,3089],[-56,23],[-9,40],[-140,99],[-35,54]],[[10135,3305],[-12,49],[2,78],[26,60]],[[10151,3492],[33,20],[41,-9],[49,20],[52,38],[43,-3],[26,-30],[74,-2],[8,23],[-4,83],[133,-19]],[[9106,1075],[23,29],[-5,43],[53,21],[6,18],[-32,40],[26,38],[-12,64],[39,45],[29,4],[-10,49],[3,96]],[[9226,1522],[7,50],[29,14],[-22,43],[30,7],[17,90],[63,7],[3,88],[26,0],[40,45],[52,7],[19,40]],[[9490,1913],[16,33],[36,-17],[2,-43],[90,-86],[87,-41],[108,-7]],[[9829,1752],[6,-106],[-28,-54],[-22,-16],[36,-53],[40,-94],[38,-3],[32,20],[33,-35],[7,-29],[-44,-38],[29,-47]],[[698,1328],[50,72],[31,23],[38,54],[18,56],[30,44],[80,84],[51,30],[46,13],[70,-11]],[[1112,1693],[2,0],[205,-630]],[[1319,1063],[-39,-14],[-24,9],[-55,-21],[-59,-5],[-125,-50],[-55,21],[-47,-4],[-20,21],[-20,-46],[-24,15],[-29,50]],[[822,1039],[2,48],[-33,40],[-25,1],[-59,49],[-22,41],[-4,59],[17,51]],[[8491,3174],[25,-38],[-49,-29],[12,-41]],[[8430,2828],[-85,10],[-25,-29],[-335,-58],[-44,-3]],[[11187,4667],[34,61],[43,13],[34,41],[17,48],[38,49],[-17,36],[19,54],[27,14],[2,40],[51,60],[-24,39],[13,61]],[[11424,5183],[33,10],[56,-9],[64,40],[85,31],[26,-12],[17,-54],[-14,-89],[25,-48],[13,-54],[0,-59],[15,-60],[55,-56],[64,-28],[95,-3],[61,-50],[43,-71]],[[12062,4671],[-181,-167],[-14,-44],[-59,-51],[-12,-44]],[[5879,332],[-223,21],[-137,4]],[[5519,357],[-8,35],[4,133],[14,124]],[[5529,649],[249,225],[19,43],[45,49],[41,2],[63,48]],[[5946,1016],[16,-64],[28,16],[30,-42],[29,-18],[19,31],[34,-20],[13,-35],[-14,-52],[39,-58],[-18,-16],[55,-99],[7,-37],[50,-14],[34,-40],[10,-43]],[[6278,525],[-1,-16],[49,-126],[-41,-77]],[[6285,306],[-406,26]],[[9591,3153],[7,-67],[58,41],[45,-21],[26,12]],[[9727,3118],[16,26],[53,-10],[-1,-104],[90,-77],[61,-34],[81,30],[15,-45],[31,25],[46,1],[15,-37],[36,-21],[45,-7],[1,-29]],[[10216,2836],[-48,-4],[-54,-63],[-76,-58],[28,-62],[-42,0],[-47,-35],[2,-28],[-83,-154]],[[9896,2432],[-60,71],[-44,19],[-140,-42],[-79,6]],[[9573,2486],[-39,92],[-25,86],[54,44],[8,146],[18,58],[-1,42],[-44,20],[58,59],[-44,33],[-40,-18],[35,76],[38,29]],[[11837,4062],[55,-21],[68,21],[42,42],[113,12],[49,-13],[4,-33]],[[12168,4070],[-14,-29],[25,-40],[-2,-47],[-21,-60],[-48,-1],[3,-74],[28,-17],[62,-58],[3,-38],[57,-46],[22,-78],[23,-25],[20,-64],[44,0],[9,-35],[32,2],[-11,-60],[-45,-32]],[[12355,3368],[-65,41],[-54,-25],[-26,4],[-6,-58],[-17,-16],[-3,-73],[-29,-27]],[[10356,4717],[31,200],[-36,58]],[[10351,4975],[14,69],[18,31],[135,45],[50,10],[60,-30],[32,-34],[177,-39],[47,-30],[30,-35],[9,-50],[41,-29],[47,50],[37,24],[74,-27],[87,4],[33,30],[21,64],[35,42],[32,9],[55,35],[39,69]],[[4424,2474],[-33,23],[-67,-9],[-75,20],[-31,24],[-185,85],[-256,142]],[[3962,3257],[59,-46],[85,-67],[97,-18],[41,-58],[21,-69],[58,-3],[46,38],[23,60],[23,96],[-3,59],[57,57],[59,27]],[[4528,3333],[9,-28],[-15,-53],[41,6],[47,27],[29,-13],[10,-42],[24,-15],[-29,-98],[19,-16],[83,24],[20,-49],[44,-65],[-11,-126]],[[2406,1512],[-30,-39],[-12,-83],[-23,-31],[26,-59],[-19,-66],[31,-65],[-54,-42]],[[2325,1127],[-60,82],[-68,80],[-85,29],[-113,-32],[-39,-35],[-59,-29]],[[1901,1222],[-48,5],[-29,24],[-69,95]],[[1755,1346],[79,-24],[54,6],[52,14],[28,49],[2,32],[33,101],[-12,18],[-29,101],[-42,39],[-23,47],[-42,50],[-12,51],[8,34],[43,95],[18,110],[36,51],[71,34],[31,-4],[46,-44],[22,5]],[[6330,3507],[37,39],[17,91],[19,65],[-5,169],[15,44],[34,53],[48,43],[24,42],[5,59],[33,40],[46,12],[32,-5],[20,-31],[35,-10],[100,64],[50,66],[29,94],[1,38]],[[6870,4380],[296,-221]],[[7166,4159],[111,-50],[-33,-271]],[[7244,3838],[-9,-67]],[[7854,4883],[-164,-26]],[[7690,4857],[-75,-12],[-4,49],[-29,38],[2,22],[-176,229],[-6,24]],[[7402,5207],[49,13],[64,-3],[39,-20],[35,-60],[43,-35],[50,-7],[63,29],[69,63],[129,81]],[[7943,5268],[106,-192],[50,-41]],[[7915,2438],[46,14],[19,-41],[182,-4],[89,38]],[[8251,2445],[-17,-46],[-5,-143],[16,-93],[95,-85],[128,-71],[30,-140],[-32,-30],[14,-80],[-8,-33]],[[8472,1724],[-155,-147],[-160,-137]],[[8157,1440],[-27,-21],[-66,-12],[-28,25],[-127,170]],[[7909,1602],[-18,25],[-6,140],[-97,59],[-61,52],[-31,13]],[[7696,1891],[15,21],[44,107],[0,44],[44,31],[41,7],[15,31]],[[4528,3333],[93,11],[41,27],[81,95],[74,25],[31,-20],[27,-79],[51,-99],[34,-44],[23,-2],[56,46],[63,-6],[9,-36],[-31,-88],[13,-34]],[[7807,3582],[-229,121],[-334,135]],[[7166,4159],[41,33],[32,-15],[17,22],[54,13],[60,-12],[47,16],[73,112]],[[7490,4328],[498,-52]],[[7988,4276],[71,-8],[-73,-133],[-4,-114],[-11,-117],[7,-35],[-35,-74]],[[8717,4595],[40,47]],[[8464,3950],[-9,30],[-13,208],[-5,127]],[[4038,1338],[-59,-435],[-75,-567]],[[3904,336],[-533,-8],[-92,-3]],[[3279,325],[35,277],[3,286],[22,203],[-129,83]],[[7988,4276],[160,91],[24,-46],[38,4]],[[7872,841],[-95,-73],[-137,109],[-60,31],[-5,-19],[35,-38],[-2,-20]],[[7608,831],[-20,-7],[-34,23],[-3,38],[-47,47],[75,63]],[[7579,995],[46,167],[69,85],[134,215],[81,140]],[[8157,1440],[-10,-67],[2,-94],[73,-91],[49,-24]],[[9769,3942],[-1,-22],[40,-56],[42,-25],[88,-26],[106,-129],[33,-92],[78,-82],[-4,-18]],[[10135,3305],[-24,-24],[-53,-11],[-115,4],[-13,27],[-39,1],[-90,39],[-11,-7]],[[9790,3334],[-27,65],[-109,233],[-64,131]],[[4385,340],[-95,-2],[-386,-2]],[[4398,1311],[-9,-596],[14,-86],[-16,-46],[-2,-243]],[[2325,1127],[26,-41],[39,-35],[29,-45],[10,-67],[41,-78]],[[2470,861],[48,-142],[8,-55],[25,-83]],[[2551,581],[-220,7],[-435,1]],[[1896,589],[3,446]],[[1899,1035],[-2,137],[4,50]],[[8028,275],[-87,9],[-298,15],[-141,2],[-35,-2]],[[7467,299],[87,275],[54,257]],[[5540,1565],[206,-208],[44,12],[25,26],[41,16],[46,-63],[137,-36]],[[6039,1312],[-93,-296]],[[5529,649],[9,72],[-319,54],[-50,123]],[[5169,898],[-109,271]],[[7943,5268],[55,38],[103,-3],[80,41],[87,-23],[45,18],[-27,60],[7,48],[50,42]],[[8343,5489],[29,-23],[31,0],[18,-39],[157,-124]],[[8578,5303],[-211,-28],[-9,-104]],[[9829,1752],[15,19],[62,19],[20,44],[44,49],[72,57],[52,-3],[12,44]],[[10557,1771],[19,-4],[14,-49]],[[8472,1724],[287,273],[93,-63]],[[8852,1934],[99,-115],[147,-152],[108,-116],[20,-29]],[[1890,9],[-47,1],[-525,3]],[[1318,13],[1,419],[-6,170],[11,40]],[[1324,642],[1,404]],[[1325,1046],[180,-1],[17,-9],[207,2],[170,-3]],[[1896,589],[-6,-580]],[[8298,6066],[64,29],[51,67],[63,-22],[50,-77],[69,-29],[47,-40]],[[8642,5994],[35,-382],[10,-71],[-31,-180]],[[8656,5361],[-26,2],[-45,-30],[-7,-30]],[[8343,5489],[14,58],[-24,21],[-124,24],[-14,34],[15,30],[62,67],[9,27],[-12,43],[-71,101],[-33,51],[13,30],[50,28],[70,63]],[[8951,2300],[-99,-366]],[[8251,2445],[112,66],[104,34],[62,49],[52,12],[0,39]],[[8847,6042],[62,61],[44,-16],[22,-47],[5,-84],[40,-29],[106,-20],[46,-35],[27,-36],[29,-118],[54,-76],[39,-69],[5,-43]],[[9326,5530],[-272,-146],[-54,-13]],[[9000,5371],[-6,40],[-52,-8],[-21,74],[33,66],[10,57],[-43,96],[28,10],[36,70],[-41,37],[-40,18],[-28,39],[7,46],[-21,41],[7,28],[-22,57]],[[1112,1693],[12,3],[102,-39],[111,-49],[129,-104],[77,-10],[133,-62],[39,-32],[40,-54]],[[1325,1046],[-6,17]],[[3208,2654],[-127,-144],[-220,-224]],[[2637,2345],[-13,46],[-33,23],[-27,44],[-54,48],[-13,66],[-29,86],[0,57],[58,99],[107,73],[37,67],[25,74],[23,7],[68,-33],[28,-34],[27,5],[17,46],[49,29],[5,23],[-19,74],[-37,43],[-4,53],[20,26]],[[6870,4380],[34,107],[57,55],[107,18],[45,24],[56,99],[59,32]],[[7228,4715],[35,-15],[60,2],[113,-61]],[[7436,4641],[-56,-77],[25,-38],[11,-91],[74,-107]],[[9142,3244],[113,59],[19,-52],[42,-18],[26,-33],[32,-6],[31,20],[33,-37],[69,9],[21,-33],[48,18],[15,-18]],[[9573,2486],[-90,-3],[-53,-18],[-48,-79]],[[9382,2386],[-43,10],[-42,-6],[-25,-21],[-27,18],[-41,0],[-37,36],[-44,0]],[[8813,2959],[6,20],[46,17],[34,39],[25,3],[-40,87],[66,-1],[20,16]],[[5253,317],[-46,44],[-303,-8]],[[4904,353],[21,182],[20,66],[63,126],[23,80],[61,75],[77,16]],[[5519,357],[-168,4],[-98,-44]],[[12062,4671],[48,-49],[42,-23],[17,-34],[19,-89],[0,-96],[-8,-83],[37,-39],[8,-34],[-16,-30],[11,-85],[-20,-43],[-32,4]],[[7436,4641],[7,16],[53,-8],[56,70],[138,138]],[[6965,2262],[-2,-88],[186,-159],[82,-136],[67,-130],[-24,-63],[61,-2],[33,-67]],[[7368,1617],[-48,-56],[-94,-55],[-162,-82]],[[7064,1424],[-112,16],[-72,20],[-50,42],[-45,92]],[[6785,1594],[13,157],[-5,89],[-27,32],[21,138],[58,71],[-9,70]],[[7467,299],[-245,-17]],[[7222,282],[-106,168],[45,86],[-2,15],[-79,-6],[-43,101],[-50,-10],[-31,16],[-13,94]],[[6943,746],[26,12],[11,35],[-34,45],[24,27],[35,-42],[41,26],[52,12],[58,62],[39,103]],[[7195,1026],[384,-31]],[[9448,4784],[27,-10],[56,49],[41,57],[71,17],[47,-43],[56,22]],[[9746,4876],[40,-25],[13,-116],[54,-95]],[[1286,13],[-226,-1],[-268,3],[-319,8],[-80,-9],[-124,-10],[32,101],[5,40],[23,56],[13,75],[17,22],[67,16],[57,-89],[64,-67],[54,10],[24,25],[19,50],[9,64],[40,50]],[[693,357],[48,-4],[210,-132],[150,-1],[22,-30],[43,-4],[120,-173]],[[150,1],[-94,1],[-37,64],[-19,51],[8,39],[24,30],[44,9],[75,-21],[20,-28],[13,-70],[-34,-75]],[[3836,2495],[-38,45],[-118,10],[-32,17],[-30,62],[8,47]],[[8899,4757],[-42,236],[-56,344]],[[8801,5337],[199,34]],[[9326,5530],[2,-110]],[[9328,5420],[-9,-12],[19,-183],[34,-376]],[[6278,525],[297,230],[60,34],[58,12]],[[6693,801],[220,-20],[30,-35]],[[7222,282],[-91,-8],[-331,7],[-193,9],[-76,1],[-246,15]],[[7064,1424],[7,-98],[34,-139],[108,-124],[-18,-37]],[[6693,801],[-19,382],[-16,146],[6,96],[-28,0],[-9,66],[31,28],[26,45]],[[6684,1564],[101,30]],[[7368,1617],[62,73],[5,39],[36,12],[37,33],[86,6],[55,23],[14,56],[33,32]],[[1318,13],[-19,0],[-13,0]],[[693,357],[27,37],[-18,52],[-53,63],[3,54],[23,34],[31,14],[71,-19],[17,56],[-12,22]],[[782,670],[34,28],[74,-24],[-10,-33],[114,-3],[330,4]],[[12355,3368],[-8,-28],[25,-32],[62,-25],[52,-51],[0,-53],[14,-20],[28,-79],[39,-45],[62,-37],[8,-27],[37,-21],[-32,-57]],[[12240,2762],[-135,82]],[[8642,5994],[27,-3],[63,21],[37,40],[46,-17],[32,7]],[[8801,5337],[-114,-2],[-31,26]],[[3279,325],[-278,-8],[6,70],[-283,31],[-103,3]],[[2621,421],[-13,57],[-57,103]],[[2470,861],[270,100],[195,116],[24,0]],[[5662,3918],[74,-55],[30,-66],[-16,-67],[3,-43],[18,-60],[59,-40],[22,-26],[77,-42],[85,14],[42,-8],[43,-28],[51,-94],[28,10],[-2,39],[17,30],[46,13]],[[5380,3601],[68,12],[34,38],[-2,46],[-44,22],[-4,58],[55,10],[43,-46],[52,58],[61,-7],[34,45],[-12,18],[-67,16],[-20,23],[7,51],[28,13],[49,-40]],[[6039,1312],[69,-19],[31,265]],[[6139,1558],[112,-23],[150,-20],[86,6],[96,28],[101,15]],[[782,670],[-57,9],[-37,42],[7,76],[62,18],[35,93],[30,131]],[[9328,5420],[31,-51],[100,-25],[82,-36],[65,-21],[33,2],[14,-2],[115,39],[61,-8],[29,-28],[41,-8]],[[9899,5282],[-103,-266],[-50,-140]],[[2651,0],[-484,8],[-277,1]],[[2621,421],[45,-175],[22,-145],[-10,-62],[-27,-39]],[[4904,353],[-519,-13]],[[5962,1950],[190,-280],[-13,-112]],[[9899,5282],[78,-27],[22,-33],[10,-48],[33,-29],[67,-32],[20,-87],[17,-14],[73,-13],[27,-16],[59,-29],[46,21]],[[9790,3334],[-45,-30],[3,-42],[-27,-83],[-26,-17],[32,-44]],[[9931,2374],[-35,58]],[[10216,2836],[25,0]],[[10241,2836],[139,-88],[20,-27],[165,-66]],[[7228,4715],[30,52],[0,39],[-22,53],[-20,58],[2,112],[-29,53],[5,60],[28,47],[46,21],[66,-16],[68,13]],[[10241,2836],[134,253]],[[11477,1625],[-29,-43],[-37,-28],[4,-19],[-44,-97],[35,-82],[-29,-53],[-28,-25],[38,-41],[-5,-25],[-85,-58],[-33,18]],[[12237,1626],[-48,-31],[-71,-67],[-32,-5],[-123,-74],[0,-145],[-7,-37],[-31,-1],[-67,-77],[-71,-10],[-39,-47],[-42,-23]],[[9382,2386],[-7,-86],[25,-68],[53,-92],[-18,-74],[70,-64],[-15,-89]]],"transform":{"scale":[0.0005725323042168675,0.0004299784732647357],"translate":[-89.571241,36.4971306477427]},"objects":{"21":{"type":"GeometryCollection","geometries":[{"arcs":[[0,1,2,3,4,5,6]],"type":"Polygon","properties":{"STATEFP":"21","COUNTYFP":"179","COUNTYNS":"00516936","GEOIDFQ":"0500000US21179","GEOID":"21179","NAME":"Nelson","NAMELSAD":"Nelson County","STUSPS":"KY","STATE_NAME":"Kentucky","LSAD":"06","ALAND":1084391553,"AWATER":13960878},"id":"21179"},{"arcs":[[7,8,9,10,11]],"type":"Polygon","properties":{"STATEFP":"21","COUNTYFP":"231","COUNTYNS":"00516962","GEOIDFQ":"0500000US21231","GEOID":"21231","NAME":"Wayne","NAMELSAD":"Wayne County","STUSPS":"KY","STATE_NAME":"Kentucky","LSAD":"06","ALAND":1186326542,"AWATER":67647953},"id":"21231"},{"arcs":[[12,13,14,15,16,17]],"type":"Polygon","properties":{"STATEFP":"21","COUNTYFP":"187","COUNTYNS":"00516940","GEOIDFQ":"0500000US21187","GEOID":"21187","NAME":"Owen","NAMELSAD":"Owen County","STUSPS":"KY","STATE_NAME":"Kentucky","LSAD":"06","ALAND":907758019,"AWATER":9735471},"id":"21187"},{"arcs":[[-6,18,19,20,21,22]],"type":"Polygon","properties":{"STATEFP":"21","COUNTYFP":"123","COUNTYNS":"00516908","GEOIDFQ":"0500000US21123","GEOID":"21123","NAME":"Larue","NAMELSAD":"Larue County","STUSPS":"KY","STATE_NAME":"Kentucky","LSAD":"06","ALAND":676156383,"AWATER":6655794},"id":"21123"},{"arcs":[[23,24,25,26,27,28]],"type":"Polygon","properties":{"STATEFP":"21","COUNTYFP":"235","COUNTYNS":"00516964","GEOIDFQ":"0500000US21235","GEOID":"21235","NAME":"Whitley","NAMELSAD":"Whitley County","STUSPS":"KY","STATE_NAME":"Kentucky","LSAD":"06","ALAND":1134210833,"AWATER":18640395},"id":"21235"},{"arcs":[[29,30,31,32,33,34]],"type":"Polygon","properties":{"STATEFP":"21","COUNTYFP":"025","COUNTYNS":"00516859","GEOIDFQ":"0500000US21025","GEOID":"21025","NAME":"Breathitt","NAMELSAD":"Breathitt County","STUSPS":"KY","STATE_NAME":"Kentucky","LSAD":"06","ALAND":1275367043,"AWATER":7370267},"id":"21025"},{"arcs":[[-28,35,36,37,38,39]],"type":"Polygon","properties":{"STATEFP":"21","COUNTYFP":"013","COUNTYNS":"00516853","GEOIDFQ":"0500000US21013","GEOID":"21013","NAME":"Bell","NAMELSAD":"Bell County","STUSPS":"KY","STATE_NAME":"Kentucky","LSAD":"06","ALAND":929803431,"AWATER":5484276},"id":"21013"},{"arcs":[[-38,40,41,42]],"type":"Polygon","properties":{"STATEFP":"21","COUNTYFP":"131","COUNTYNS":"00516912","GEOIDFQ":"0500000US21131","GEOID":"21131","NAME":"Leslie","NAMELSAD":"Leslie County","STUSPS":"KY","STATE_NAME":"Kentucky","LSAD":"06","ALAND":1038270183,"AWATER":9125308},"id":"21131"},{"arcs":[[43,44,45,46,47,48]],"type":"Polygon","properties":{"STATEFP":"21","COUNTYFP":"043","COUNTYNS":"00516868","GEOIDFQ":"0500000US21043","GEOID":"21043","NAME":"Carter","NAMELSAD":"Carter County","STUSPS":"KY","STATE_NAME":"Kentucky","LSAD":"06","ALAND":1060593553,"AWATER":6782466},"id":"21043"},{"arcs":[[49,50,51,52,53,54,55]],"type":"Polygon","properties":{"STATEFP":"21","COUNTYFP":"177","COUNTYNS":"00516935","GEOIDFQ":"0500000US21177","GEOID":"21177","NAME":"Muhlenberg","NAMELSAD":"Muhlenberg County","STUSPS":"KY","STATE_NAME":"Kentucky","LSAD":"06","ALAND":1210250947,"AWATER":31389059},"id":"21177"},{"arcs":[[56,57,58,59,60,61]],"type":"Polygon","properties":{"STATEFP":"21","COUNTYFP":"067","COUNTYNS":"00516880","GEOIDFQ":"0500000US21067","GEOID":"21067","NAME":"Fayette","NAMELSAD":"Fayette County","STUSPS":"KY","STATE_NAME":"Kentucky","LSAD":"06","ALAND":735179657,"AWATER":4436384},"id":"21067"},{"arcs":[[-32,62,63,64,65,66]],"type":"Polygon","properties":{"STATEFP":"21","COUNTYFP":"153","COUNTYNS":"00516920","GEOIDFQ":"0500000US21153","GEOID":"21153","NAME":"Magoffin","NAMELSAD":"Magoffin County","STUSPS":"KY","STATE_NAME":"Kentucky","LSAD":"06","ALAND":798864850,"AWATER":1848998},"id":"21153"},{"arcs":[[-4,67,68,69,70]],"type":"Polygon","properties":{"STATEFP":"21","COUNTYFP":"229","COUNTYNS":"00516961","GEOIDFQ":"0500000US21229","GEOID":"21229","NAME":"Washington","NAMELSAD":"Washington County","STUSPS":"KY","STATE_NAME":"Kentucky","LSAD":"06","ALAND":769968120,"AWATER":10133566},"id":"21229"},{"arcs":[[-35,71,72,73,74]],"type":"Polygon","properties":{"STATEFP":"21","COUNTYFP":"189","COUNTYNS":"00516941","GEOIDFQ":"0500000US21189","GEOID":"21189","NAME":"Owsley","NAMELSAD":"Owsley County","STUSPS":"KY","STATE_NAME":"Kentucky","LSAD":"06","ALAND":511268800,"AWATER":2299985},"id":"21189"},{"arcs":[[75,76,77,78,79,80]],"type":"Polygon","properties":{"STATEFP":"21","COUNTYFP":"085","COUNTYNS":"00516889","GEOIDFQ":"0500000US21085","GEOID":"21085","NAME":"Grayson","NAMELSAD":"Grayson County","STUSPS":"KY","STATE_NAME":"Kentucky","LSAD":"06","ALAND":1293793032,"AWATER":29766717},"id":"21085"},{"arcs":[[-3,81,82,83,84,85,-68]],"type":"Polygon","properties":{"STATEFP":"21","COUNTYFP":"005","COUNTYNS":"00516849","GEOIDFQ":"0500000US21005","GEOID":"21005","NAME":"Anderson","NAMELSAD":"Anderson County","STUSPS":"KY","STATE_NAME":"Kentucky","LSAD":"06","ALAND":523850042,"AWATER":5244533},"id":"21005"},{"arcs":[[-62,86,87,-85,88,89]],"type":"Polygon","properties":{"STATEFP":"21","COUNTYFP":"239","COUNTYNS":"00516966","GEOIDFQ":"0500000US21239","GEOID":"21239","NAME":"Woodford","NAMELSAD":"Woodford County","STUSPS":"KY","STATE_NAME":"Kentucky","LSAD":"06","ALAND":490993055,"AWATER":6380990},"id":"21239"},{"arcs":[[-65,90,91,92,93]],"type":"Polygon","properties":{"STATEFP":"21","COUNTYFP":"115","COUNTYNS":"00516904","GEOIDFQ":"0500000US21115","GEOID":"21115","NAME":"Johnson","NAMELSAD":"Johnson County","STUSPS":"KY","STATE_NAME":"Kentucky","LSAD":"06","ALAND":678488580,"AWATER":5619568},"id":"21115"},{"arcs":[[-1,94,95,96]],"type":"Polygon","properties":{"STATEFP":"21","COUNTYFP":"029","COUNTYNS":"00516861","GEOIDFQ":"0500000US21029","GEOID":"21029","NAME":"Bullitt","NAMELSAD":"Bullitt County","STUSPS":"KY","STATE_NAME":"Kentucky","LSAD":"06","ALAND":769455529,"AWATER":8226035},"id":"21029"},{"arcs":[[-52,97,-80,98,99,100]],"type":"Polygon","properties":{"STATEFP":"21","COUNTYFP":"031","COUNTYNS":"00516862","GEOIDFQ":"0500000US21031","GEOID":"21031","NAME":"Butler","NAMELSAD":"Butler County","STUSPS":"KY","STATE_NAME":"Kentucky","LSAD":"06","ALAND":1103624033,"AWATER":13891042},"id":"21031"},{"arcs":[[-33,-67,101,102,103,104]],"type":"Polygon","properties":{"STATEFP":"21","COUNTYFP":"119","COUNTYNS":"00516906","GEOIDFQ":"0500000US21119","GEOID":"21119","NAME":"Knott","NAMELSAD":"Knott County","STUSPS":"KY","STATE_NAME":"Kentucky","LSAD":"06","ALAND":910442831,"AWATER":3438036},"id":"21119"},{"arcs":[[105,106,-95,-7,-23,107,-77,108,109]],"type":"Polygon","properties":{"STATEFP":"21","COUNTYFP":"093","COUNTYNS":"00516893","GEOIDFQ":"0500000US21093","GEOID":"21093","NAME":"Hardin","NAMELSAD":"Hardin County","STUSPS":"KY","STATE_NAME":"Kentucky","LSAD":"06","ALAND":1615916598,"AWATER":16098796},"id":"21093"},{"arcs":[[-56,110,111,112,113]],"type":"Polygon","properties":{"STATEFP":"21","COUNTYFP":"107","COUNTYNS":"00516900","GEOIDFQ":"0500000US21107","GEOID":"21107","NAME":"Hopkins","NAMELSAD":"Hopkins County","STUSPS":"KY","STATE_NAME":"Kentucky","LSAD":"06","ALAND":1404616084,"AWATER":31313308},"id":"21107"},{"arcs":[[-48,114,115,116]],"type":"Polygon","properties":{"STATEFP":"21","COUNTYFP":"063","COUNTYNS":"00516878","GEOIDFQ":"0500000US21063","GEOID":"21063","NAME":"Elliott","NAMELSAD":"Elliott County","STUSPS":"KY","STATE_NAME":"Kentucky","LSAD":"06","ALAND":606888298,"AWATER":2595857},"id":"21063"},{"arcs":[[-112,117,118,119,120,121]],"type":"Polygon","properties":{"STATEFP":"21","COUNTYFP":"033","COUNTYNS":"00516863","GEOIDFQ":"0500000US21033","GEOID":"21033","NAME":"Caldwell","NAMELSAD":"Caldwell County","STUSPS":"KY","STATE_NAME":"Kentucky","LSAD":"06","ALAND":893117876,"AWATER":8584485},"id":"21033"},{"arcs":[[-39,-43,122,123,124]],"type":"Polygon","properties":{"STATEFP":"21","COUNTYFP":"095","COUNTYNS":"00516894","GEOIDFQ":"0500000US21095","GEOID":"21095","NAME":"Harlan","NAMELSAD":"Harlan County","STUSPS":"KY","STATE_NAME":"Kentucky","LSAD":"06","ALAND":1206493474,"AWATER":6014134},"id":"21095"},{"arcs":[[-51,125,126,127,128,-81,-98]],"type":"Polygon","properties":{"STATEFP":"21","COUNTYFP":"183","COUNTYNS":"00516938","GEOIDFQ":"0500000US21183","GEOID":"21183","NAME":"Ohio","NAMELSAD":"Ohio County","STUSPS":"KY","STATE_NAME":"Kentucky","LSAD":"06","ALAND":1520571202,"AWATER":23650881},"id":"21183"},{"arcs":[[-58,129,130,131,132,133]],"type":"Polygon","properties":{"STATEFP":"21","COUNTYFP":"017","COUNTYNS":"00516855","GEOIDFQ":"0500000US21017","GEOID":"21017","NAME":"Bourbon","NAMELSAD":"Bourbon County","STUSPS":"KY","STATE_NAME":"Kentucky","LSAD":"06","ALAND":750448658,"AWATER":4820688},"id":"21017"},{"arcs":[[-132,134,135,136,137]],"type":"Polygon","properties":{"STATEFP":"21","COUNTYFP":"181","COUNTYNS":"00516937","GEOIDFQ":"0500000US21181","GEOID":"21181","NAME":"Nicholas","NAMELSAD":"Nicholas County","STUSPS":"KY","STATE_NAME":"Kentucky","LSAD":"06","ALAND":505839859,"AWATER":3936676},"id":"21181"},{"arcs":[[-49,-117,138,139,140,141,142]],"type":"Polygon","properties":{"STATEFP":"21","COUNTYFP":"205","COUNTYNS":"00516949","GEOIDFQ":"0500000US21205","GEOID":"21205","NAME":"Rowan","NAMELSAD":"Rowan County","STUSPS":"KY","STATE_NAME":"Kentucky","LSAD":"06","ALAND":724888660,"AWATER":16537402},"id":"21205"},{"arcs":[[143,144,-103,145,146,147]],"type":"Polygon","properties":{"STATEFP":"21","COUNTYFP":"195","COUNTYNS":"00516944","GEOIDFQ":"0500000US21195","GEOID":"21195","NAME":"Pike","NAMELSAD":"Pike County","STUSPS":"KY","STATE_NAME":"Kentucky","LSAD":"06","ALAND":2036305638,"AWATER":6073018},"id":"21195"},{"arcs":[[148,-10,149,150,-25]],"type":"Polygon","properties":{"STATEFP":"21","COUNTYFP":"147","COUNTYNS":"00516926","GEOIDFQ":"0500000US21147","GEOID":"21147","NAME":"McCreary","NAMELSAD":"McCreary County","STUSPS":"KY","STATE_NAME":"Kentucky","LSAD":"06","ALAND":1105170769,"AWATER":10976666},"id":"21147"},{"arcs":[[151,152,153,154,155]],"type":"Polygon","properties":{"STATEFP":"21","COUNTYFP":"101","COUNTYNS":"00516897","GEOIDFQ":"0500000US21101","GEOID":"21101","NAME":"Henderson","NAMELSAD":"Henderson County","STUSPS":"KY","STATE_NAME":"Kentucky","LSAD":"06","ALAND":1130170443,"AWATER":75605397},"id":"21101"},{"arcs":[[-137,156,157,158,-142,159]],"type":"Polygon","properties":{"STATEFP":"21","COUNTYFP":"069","COUNTYNS":"00516881","GEOIDFQ":"0500000US21069","GEOID":"21069","NAME":"Fleming","NAMELSAD":"Fleming County","STUSPS":"KY","STATE_NAME":"Kentucky","LSAD":"06","ALAND":903057248,"AWATER":6844691},"id":"21069"},{"arcs":[[-121,160,161,162,163,164]],"type":"Polygon","properties":{"STATEFP":"21","COUNTYFP":"055","COUNTYNS":"00516874","GEOIDFQ":"0500000US21055","GEOID":"21055","NAME":"Crittenden","NAMELSAD":"Crittenden County","STUSPS":"KY","STATE_NAME":"Kentucky","LSAD":"06","ALAND":931272390,"AWATER":30377986},"id":"21055"},{"arcs":[[-27,165,166,-36]],"type":"Polygon","properties":{"STATEFP":"21","COUNTYFP":"121","COUNTYNS":"00516907","GEOIDFQ":"0500000US21121","GEOID":"21121","NAME":"Knox","NAMELSAD":"Knox County","STUSPS":"KY","STATE_NAME":"Kentucky","LSAD":"06","ALAND":1000591256,"AWATER":3676007},"id":"21121"},{"arcs":[[-5,-71,167,168,169,-19]],"type":"Polygon","properties":{"STATEFP":"21","COUNTYFP":"155","COUNTYNS":"00516921","GEOIDFQ":"0500000US21155","GEOID":"21155","NAME":"Marion","NAMELSAD":"Marion County","STUSPS":"KY","STATE_NAME":"Kentucky","LSAD":"06","ALAND":889793043,"AWATER":8563275},"id":"21155"},{"arcs":[[-131,170,171,172,173,174,-135]],"type":"Polygon","properties":{"STATEFP":"21","COUNTYFP":"097","COUNTYNS":"00516895","GEOIDFQ":"0500000US21097","GEOID":"21097","NAME":"Harrison","NAMELSAD":"Harrison County","STUSPS":"KY","STATE_NAME":"Kentucky","LSAD":"06","ALAND":793722850,"AWATER":8855704},"id":"21097"},{"arcs":[[-76,-129,175,176,177,-109]],"type":"Polygon","properties":{"STATEFP":"21","COUNTYFP":"027","COUNTYNS":"00516860","GEOIDFQ":"0500000US21027","GEOID":"21027","NAME":"Breckinridge","NAMELSAD":"Breckinridge County","STUSPS":"KY","STATE_NAME":"Kentucky","LSAD":"06","ALAND":1475580266,"AWATER":41098834},"id":"21027"},{"arcs":[[-64,178,179,-139,-116,180,-91]],"type":"Polygon","properties":{"STATEFP":"21","COUNTYFP":"175","COUNTYNS":"00516934","GEOIDFQ":"0500000US21175","GEOID":"21175","NAME":"Morgan","NAMELSAD":"Morgan County","STUSPS":"KY","STATE_NAME":"Kentucky","LSAD":"06","ALAND":987053730,"AWATER":6950463},"id":"21175"},{"arcs":[[181,182,183,184,185,186]],"type":"Polygon","properties":{"STATEFP":"21","COUNTYFP":"079","COUNTYNS":"00516886","GEOIDFQ":"0500000US21079","GEOID":"21079","NAME":"Garrard","NAMELSAD":"Garrard County","STUSPS":"KY","STATE_NAME":"Kentucky","LSAD":"06","ALAND":595502287,"AWATER":10414786},"id":"21079"},{"arcs":[[-140,-180,187,188,189,190]],"type":"Polygon","properties":{"STATEFP":"21","COUNTYFP":"165","COUNTYNS":"00516929","GEOIDFQ":"0500000US21165","GEOID":"21165","NAME":"Menifee","NAMELSAD":"Menifee County","STUSPS":"KY","STATE_NAME":"Kentucky","LSAD":"06","ALAND":527162213,"AWATER":6205679},"id":"21165"},{"arcs":[[-26,-151,191,192,193,194,-166]],"type":"Polygon","properties":{"STATEFP":"21","COUNTYFP":"125","COUNTYNS":"00516909","GEOIDFQ":"0500000US21125","GEOID":"21125","NAME":"Laurel","NAMELSAD":"Laurel County","STUSPS":"KY","STATE_NAME":"Kentucky","LSAD":"06","ALAND":1123288308,"AWATER":25871310},"id":"21125"},{"arcs":[[195,196,197,198]],"type":"Polygon","properties":{"STATEFP":"21","COUNTYFP":"007","COUNTYNS":"00516850","GEOIDFQ":"0500000US21007","GEOID":"21007","NAME":"Ballard","NAMELSAD":"Ballard County","STUSPS":"KY","STATE_NAME":"Kentucky","LSAD":"06","ALAND":639972655,"AWATER":69636340},"id":"21007"},{"arcs":[[-69,-86,-88,199,-187,200]],"type":"Polygon","properties":{"STATEFP":"21","COUNTYFP":"167","COUNTYNS":"00516930","GEOIDFQ":"0500000US21167","GEOID":"21167","NAME":"Mercer","NAMELSAD":"Mercer County","STUSPS":"KY","STATE_NAME":"Kentucky","LSAD":"06","ALAND":645898188,"AWATER":10166125},"id":"21167"},{"arcs":[[-45,201,202,203]],"type":"Polygon","properties":{"STATEFP":"21","COUNTYFP":"089","COUNTYNS":"00516891","GEOIDFQ":"0500000US21089","GEOID":"21089","NAME":"Greenup","NAMELSAD":"Greenup County","STUSPS":"KY","STATE_NAME":"Kentucky","LSAD":"06","ALAND":892134450,"AWATER":25863972},"id":"21089"},{"arcs":[[204,205,206,207,208,209]],"type":"Polygon","properties":{"STATEFP":"21","COUNTYFP":"003","COUNTYNS":"00516848","GEOIDFQ":"0500000US21003","GEOID":"21003","NAME":"Allen","NAMELSAD":"Allen County","STUSPS":"KY","STATE_NAME":"Kentucky","LSAD":"06","ALAND":890240991,"AWATER":21079866},"id":"21003"},{"arcs":[[210,211,212,213,214]],"type":"Polygon","properties":{"STATEFP":"21","COUNTYFP":"065","COUNTYNS":"00516879","GEOIDFQ":"0500000US21065","GEOID":"21065","NAME":"Estill","NAMELSAD":"Estill County","STUSPS":"KY","STATE_NAME":"Kentucky","LSAD":"06","ALAND":655477008,"AWATER":6549172},"id":"21065"},{"arcs":[[-47,215,216,217,-92,-181,-115]],"type":"Polygon","properties":{"STATEFP":"21","COUNTYFP":"127","COUNTYNS":"00516910","GEOIDFQ":"0500000US21127","GEOID":"21127","NAME":"Lawrence","NAMELSAD":"Lawrence County","STUSPS":"KY","STATE_NAME":"Kentucky","LSAD":"06","ALAND":1076393644,"AWATER":11576697},"id":"21127"},{"arcs":[[-44,-143,-159,218,219,-202]],"type":"Polygon","properties":{"STATEFP":"21","COUNTYFP":"135","COUNTYNS":"00516914","GEOIDFQ":"0500000US21135","GEOID":"21135","NAME":"Lewis","NAMELSAD":"Lewis County","STUSPS":"KY","STATE_NAME":"Kentucky","LSAD":"06","ALAND":1250595455,"AWATER":31872267},"id":"21135"},{"arcs":[[-127,220,-153,221,222]],"type":"Polygon","properties":{"STATEFP":"21","COUNTYFP":"059","COUNTYNS":"00516876","GEOIDFQ":"0500000US21059","GEOID":"21059","NAME":"Daviess","NAMELSAD":"Daviess County","STUSPS":"KY","STATE_NAME":"Kentucky","LSAD":"06","ALAND":1187244308,"AWATER":46809288},"id":"21059"},{"arcs":[[-162,223,224,225,226]],"type":"Polygon","properties":{"STATEFP":"21","COUNTYFP":"139","COUNTYNS":"00516916","GEOIDFQ":"0500000US21139","GEOID":"21139","NAME":"Livingston","NAMELSAD":"Livingston County","STUSPS":"KY","STATE_NAME":"Kentucky","LSAD":"06","ALAND":810564949,"AWATER":75611589},"id":"21139"},{"arcs":[[227,228,229,230,-96,-107]],"type":"Polygon","properties":{"STATEFP":"21","COUNTYFP":"111","COUNTYNS":"00516902","GEOIDFQ":"0500000US21111","GEOID":"21111","NAME":"Jefferson","NAMELSAD":"Jefferson County","STUSPS":"KY","STATE_NAME":"Kentucky","LSAD":"06","ALAND":986370161,"AWATER":43411288},"id":"21111"},{"arcs":[[-13,231,232,233,234]],"type":"Polygon","properties":{"STATEFP":"21","COUNTYFP":"041","COUNTYNS":"00516867","GEOIDFQ":"0500000US21041","GEOID":"21041","NAME":"Carroll","NAMELSAD":"Carroll County","STUSPS":"KY","STATE_NAME":"Kentucky","LSAD":"06","ALAND":333331350,"AWATER":22186044},"id":"21041"},{"arcs":[[-169,235,236,237,238,239,240]],"type":"Polygon","properties":{"STATEFP":"21","COUNTYFP":"045","COUNTYNS":"00516869","GEOIDFQ":"0500000US21045","GEOID":"21045","NAME":"Casey","NAMELSAD":"Casey County","STUSPS":"KY","STATE_NAME":"Kentucky","LSAD":"06","ALAND":1150621984,"AWATER":3842017},"id":"21045"},{"arcs":[[-128,-223,241,-176]],"type":"Polygon","properties":{"STATEFP":"21","COUNTYFP":"091","COUNTYNS":"00516892","GEOIDFQ":"0500000US21091","GEOID":"21091","NAME":"Hancock","NAMELSAD":"Hancock County","STUSPS":"KY","STATE_NAME":"Kentucky","LSAD":"06","ALAND":486076267,"AWATER":29131626},"id":"21091"},{"arcs":[[-83,242,-230,243,244,245]],"type":"Polygon","properties":{"STATEFP":"21","COUNTYFP":"211","COUNTYNS":"00516952","GEOIDFQ":"0500000US21211","GEOID":"21211","NAME":"Shelby","NAMELSAD":"Shelby County","STUSPS":"KY","STATE_NAME":"Kentucky","LSAD":"06","ALAND":983664383,"AWATER":15198639},"id":"21211"},{"arcs":[[-16,246,-171,-130,-57,-90,247]],"type":"Polygon","properties":{"STATEFP":"21","COUNTYFP":"209","COUNTYNS":"00516951","GEOIDFQ":"0500000US21209","GEOID":"21209","NAME":"Scott","NAMELSAD":"Scott County","STUSPS":"KY","STATE_NAME":"Kentucky","LSAD":"06","ALAND":730879909,"AWATER":8341693},"id":"21209"},{"arcs":[[-55,248,249,250,-118,-111]],"type":"Polygon","properties":{"STATEFP":"21","COUNTYFP":"047","COUNTYNS":"00516870","GEOIDFQ":"0500000US21047","GEOID":"21047","NAME":"Christian","NAMELSAD":"Christian County","STUSPS":"KY","STATE_NAME":"Kentucky","LSAD":"06","ALAND":1859076770,"AWATER":16184736},"id":"21047"},{"arcs":[[-17,-248,-89,-84,-246,251]],"type":"Polygon","properties":{"STATEFP":"21","COUNTYFP":"073","COUNTYNS":"00516883","GEOIDFQ":"0500000US21073","GEOID":"21073","NAME":"Franklin","NAMELSAD":"Franklin County","STUSPS":"KY","STATE_NAME":"Kentucky","LSAD":"06","ALAND":538490301,"AWATER":10608228},"id":"21073"},{"arcs":[[-8,252,253,254,-239,255]],"type":"Polygon","properties":{"STATEFP":"21","COUNTYFP":"207","COUNTYNS":"00516950","GEOIDFQ":"0500000US21207","GEOID":"21207","NAME":"Russell","NAMELSAD":"Russell County","STUSPS":"KY","STATE_NAME":"Kentucky","LSAD":"06","ALAND":655941462,"AWATER":76703032},"id":"21207"},{"arcs":[[-133,256,-190,257,258]],"type":"Polygon","properties":{"STATEFP":"21","COUNTYFP":"173","COUNTYNS":"00516933","GEOIDFQ":"0500000US21173","GEOID":"21173","NAME":"Montgomery","NAMELSAD":"Montgomery County","STUSPS":"KY","STATE_NAME":"Kentucky","LSAD":"06","ALAND":511204132,"AWATER":3784712},"id":"21173"},{"arcs":[[-2,-97,-231,-243,-82]],"type":"Polygon","properties":{"STATEFP":"21","COUNTYFP":"215","COUNTYNS":"00516954","GEOIDFQ":"0500000US21215","GEOID":"21215","NAME":"Spencer","NAMELSAD":"Spencer County","STUSPS":"KY","STATE_NAME":"Kentucky","LSAD":"06","ALAND":483475401,"AWATER":12915177},"id":"21215"},{"arcs":[[259,-249,-54,260]],"type":"Polygon","properties":{"STATEFP":"21","COUNTYFP":"219","COUNTYNS":"00516956","GEOIDFQ":"0500000US21219","GEOID":"21219","NAME":"Todd","NAMELSAD":"Todd County","STUSPS":"KY","STATE_NAME":"Kentucky","LSAD":"06","ALAND":969997988,"AWATER":6572791},"id":"21219"},{"arcs":[[-225,261,262,263,264,265]],"type":"Polygon","properties":{"STATEFP":"21","COUNTYFP":"157","COUNTYNS":"00516922","GEOIDFQ":"0500000US21157","GEOID":"21157","NAME":"Marshall","NAMELSAD":"Marshall County","STUSPS":"KY","STATE_NAME":"Kentucky","LSAD":"06","ALAND":782502720,"AWATER":98534943},"id":"21157"},{"arcs":[[-12,266,267,-253]],"type":"Polygon","properties":{"STATEFP":"21","COUNTYFP":"053","COUNTYNS":"00516873","GEOIDFQ":"0500000US21053","GEOID":"21053","NAME":"Clinton","NAMELSAD":"Clinton County","STUSPS":"KY","STATE_NAME":"Kentucky","LSAD":"06","ALAND":510391739,"AWATER":21636754},"id":"21053"},{"arcs":[[-100,268,269,-207,270,271]],"type":"Polygon","properties":{"STATEFP":"21","COUNTYFP":"227","COUNTYNS":"00516960","GEOIDFQ":"0500000US21227","GEOID":"21227","NAME":"Warren","NAMELSAD":"Warren County","STUSPS":"KY","STATE_NAME":"Kentucky","LSAD":"06","ALAND":1403110074,"AWATER":15074949},"id":"21227"},{"arcs":[[-14,-235,272,273,274]],"type":"Polygon","properties":{"STATEFP":"21","COUNTYFP":"077","COUNTYNS":"00516885","GEOIDFQ":"0500000US21077","GEOID":"21077","NAME":"Gallatin","NAMELSAD":"Gallatin County","STUSPS":"KY","STATE_NAME":"Kentucky","LSAD":"06","ALAND":254548114,"AWATER":16451904},"id":"21077"},{"arcs":[[-37,-167,-195,275,-73,276,-41]],"type":"Polygon","properties":{"STATEFP":"21","COUNTYFP":"051","COUNTYNS":"00516872","GEOIDFQ":"0500000US21051","GEOID":"21051","NAME":"Clay","NAMELSAD":"Clay County","STUSPS":"KY","STATE_NAME":"Kentucky","LSAD":"06","ALAND":1215470278,"AWATER":4754889},"id":"21051"},{"arcs":[[-9,-256,-238,277,278,-192,-150]],"type":"Polygon","properties":{"STATEFP":"21","COUNTYFP":"199","COUNTYNS":"00516946","GEOIDFQ":"0500000US21199","GEOID":"21199","NAME":"Pulaski","NAMELSAD":"Pulaski County","STUSPS":"KY","STATE_NAME":"Kentucky","LSAD":"06","ALAND":1704486069,"AWATER":49335155},"id":"21199"},{"arcs":[[279,280,281,282,-265,283]],"type":"Polygon","properties":{"STATEFP":"21","COUNTYFP":"083","COUNTYNS":"00516888","GEOIDFQ":"0500000US21083","GEOID":"21083","NAME":"Graves","NAMELSAD":"Graves County","STUSPS":"KY","STATE_NAME":"Kentucky","LSAD":"06","ALAND":1429043468,"AWATER":13029522},"id":"21083"},{"arcs":[[284,285,286,-274,287]],"type":"Polygon","properties":{"STATEFP":"21","COUNTYFP":"015","COUNTYNS":"00516854","GEOIDFQ":"0500000US21015","GEOID":"21015","NAME":"Boone","NAMELSAD":"Boone County","STUSPS":"KY","STATE_NAME":"Kentucky","LSAD":"06","ALAND":637844400,"AWATER":26499419},"id":"21015"},{"arcs":[[-185,288,-278,-237,289]],"type":"Polygon","properties":{"STATEFP":"21","COUNTYFP":"137","COUNTYNS":"00516915","GEOIDFQ":"0500000US21137","GEOID":"21137","NAME":"Lincoln","NAMELSAD":"Lincoln County","STUSPS":"KY","STATE_NAME":"Kentucky","LSAD":"06","ALAND":862217028,"AWATER":9035755},"id":"21137"},{"arcs":[[-70,-201,-186,-290,-236,-168]],"type":"Polygon","properties":{"STATEFP":"21","COUNTYFP":"021","COUNTYNS":"00516857","GEOIDFQ":"0500000US21021","GEOID":"21021","NAME":"Boyle","NAMELSAD":"Boyle County","STUSPS":"KY","STATE_NAME":"Kentucky","LSAD":"06","ALAND":467067883,"AWATER":6486676},"id":"21021"},{"arcs":[[290,291,292]],"type":"Polygon","properties":{"STATEFP":"21","COUNTYFP":"037","COUNTYNS":"00516865","GEOIDFQ":"0500000US21037","GEOID":"21037","NAME":"Campbell","NAMELSAD":"Campbell County","STUSPS":"KY","STATE_NAME":"Kentucky","LSAD":"06","ALAND":391916805,"AWATER":20943965},"id":"21037"},{"arcs":[[-197,293,-226,-266,-283,294]],"type":"Polygon","properties":{"STATEFP":"21","COUNTYFP":"145","COUNTYNS":"00516925","GEOIDFQ":"0500000US21145","GEOID":"21145","NAME":"McCracken","NAMELSAD":"McCracken County","STUSPS":"KY","STATE_NAME":"Kentucky","LSAD":"06","ALAND":644378810,"AWATER":49575606},"id":"21145"},{"arcs":[[-156,295,-164,296]],"type":"Polygon","properties":{"STATEFP":"21","COUNTYFP":"225","COUNTYNS":"00516959","GEOIDFQ":"0500000US21225","GEOID":"21225","NAME":"Union","NAMELSAD":"Union County","STUSPS":"KY","STATE_NAME":"Kentucky","LSAD":"06","ALAND":888050072,"AWATER":52667331},"id":"21225"},{"arcs":[[-229,297,298,299,-244]],"type":"Polygon","properties":{"STATEFP":"21","COUNTYFP":"185","COUNTYNS":"00516939","GEOIDFQ":"0500000US21185","GEOID":"21185","NAME":"Oldham","NAMELSAD":"Oldham County","STUSPS":"KY","STATE_NAME":"Kentucky","LSAD":"06","ALAND":485089205,"AWATER":23440362},"id":"21185"},{"arcs":[[-138,-160,-141,-191,-257]],"type":"Polygon","properties":{"STATEFP":"21","COUNTYFP":"011","COUNTYNS":"00516852","GEOIDFQ":"0500000US21011","GEOID":"21011","NAME":"Bath","NAMELSAD":"Bath County","STUSPS":"KY","STATE_NAME":"Kentucky","LSAD":"06","ALAND":719997080,"AWATER":15570646},"id":"21011"},{"arcs":[[-60,300,-215,301,302,-183,303]],"type":"Polygon","properties":{"STATEFP":"21","COUNTYFP":"151","COUNTYNS":"00516919","GEOIDFQ":"0500000US21151","GEOID":"21151","NAME":"Madison","NAMELSAD":"Madison County","STUSPS":"KY","STATE_NAME":"Kentucky","LSAD":"06","ALAND":1134258368,"AWATER":13771489},"id":"21151"},{"arcs":[[304,305,-271,-206,306]],"type":"Polygon","properties":{"STATEFP":"21","COUNTYFP":"213","COUNTYNS":"00516953","GEOIDFQ":"0500000US21213","GEOID":"21213","NAME":"Simpson","NAMELSAD":"Simpson County","STUSPS":"KY","STATE_NAME":"Kentucky","LSAD":"06","ALAND":606536671,"AWATER":5905515},"id":"21213"},{"arcs":[[-46,-204,307,-216]],"type":"Polygon","properties":{"STATEFP":"21","COUNTYFP":"019","COUNTYNS":"00516856","GEOIDFQ":"0500000US21019","GEOID":"21019","NAME":"Boyd","NAMELSAD":"Boyd County","STUSPS":"KY","STATE_NAME":"Kentucky","LSAD":"06","ALAND":414051772,"AWATER":5571590},"id":"21019"},{"arcs":[[-18,-252,-245,-300,308,-232]],"type":"Polygon","properties":{"STATEFP":"21","COUNTYFP":"103","COUNTYNS":"00516898","GEOIDFQ":"0500000US21103","GEOID":"21103","NAME":"Henry","NAMELSAD":"Henry County","STUSPS":"KY","STATE_NAME":"Kentucky","LSAD":"06","ALAND":741386891,"AWATER":12616183},"id":"21103"},{"arcs":[[-21,309,310,311,312]],"type":"Polygon","properties":{"STATEFP":"21","COUNTYFP":"087","COUNTYNS":"00516890","GEOIDFQ":"0500000US21087","GEOID":"21087","NAME":"Green","NAMELSAD":"Green County","STUSPS":"KY","STATE_NAME":"Kentucky","LSAD":"06","ALAND":740640300,"AWATER":7328706},"id":"21087"},{"arcs":[[-254,-268,313,314,315,316]],"type":"Polygon","properties":{"STATEFP":"21","COUNTYFP":"057","COUNTYNS":"00516875","GEOIDFQ":"0500000US21057","GEOID":"21057","NAME":"Cumberland","NAMELSAD":"Cumberland County","STUSPS":"KY","STATE_NAME":"Kentucky","LSAD":"06","ALAND":790326358,"AWATER":14920717},"id":"21057"},{"arcs":[[-136,-175,317,318,-157]],"type":"Polygon","properties":{"STATEFP":"21","COUNTYFP":"201","COUNTYNS":"00516947","GEOIDFQ":"0500000US21201","GEOID":"21201","NAME":"Robertson","NAMELSAD":"Robertson County","STUSPS":"KY","STATE_NAME":"Kentucky","LSAD":"06","ALAND":257938638,"AWATER":1333016},"id":"21201"},{"arcs":[[[319,320]],[[321]]],"type":"MultiPolygon","properties":{"STATEFP":"21","COUNTYFP":"075","COUNTYNS":"00516884","GEOIDFQ":"0500000US21075","GEOID":"21075","NAME":"Fulton","NAMELSAD":"Fulton County","STUSPS":"KY","STATE_NAME":"Kentucky","LSAD":"06","ALAND":533361446,"AWATER":64081847},"id":"21075"},{"arcs":[[-50,-114,322,-154,-221,-126]],"type":"Polygon","properties":{"STATEFP":"21","COUNTYFP":"149","COUNTYNS":"00516927","GEOIDFQ":"0500000US21149","GEOID":"21149","NAME":"McLean","NAMELSAD":"McLean County","STUSPS":"KY","STATE_NAME":"Kentucky","LSAD":"06","ALAND":654037068,"AWATER":9610577},"id":"21149"},{"arcs":[[-173,323,324,-292,325,326]],"type":"Polygon","properties":{"STATEFP":"21","COUNTYFP":"191","COUNTYNS":"00516942","GEOIDFQ":"0500000US21191","GEOID":"21191","NAME":"Pendleton","NAMELSAD":"Pendleton County","STUSPS":"KY","STATE_NAME":"Kentucky","LSAD":"06","ALAND":717810240,"AWATER":12332855},"id":"21191"},{"arcs":[[-209,327,328,-315,329]],"type":"Polygon","properties":{"STATEFP":"21","COUNTYFP":"171","COUNTYNS":"00516932","GEOIDFQ":"0500000US21171","GEOID":"21171","NAME":"Monroe","NAMELSAD":"Monroe County","STUSPS":"KY","STATE_NAME":"Kentucky","LSAD":"06","ALAND":853335722,"AWATER":6686907},"id":"21171"},{"arcs":[[-312,330,-316,-329,331,332]],"type":"Polygon","properties":{"STATEFP":"21","COUNTYFP":"169","COUNTYNS":"00516931","GEOIDFQ":"0500000US21169","GEOID":"21169","NAME":"Metcalfe","NAMELSAD":"Metcalfe County","STUSPS":"KY","STATE_NAME":"Kentucky","LSAD":"06","ALAND":750193212,"AWATER":3985177},"id":"21169"},{"arcs":[[-240,-255,-317,-331,-311,333]],"type":"Polygon","properties":{"STATEFP":"21","COUNTYFP":"001","COUNTYNS":"00516847","GEOIDFQ":"0500000US21001","GEOID":"21001","NAME":"Adair","NAMELSAD":"Adair County","STUSPS":"KY","STATE_NAME":"Kentucky","LSAD":"06","ALAND":1049702547,"AWATER":18391917},"id":"21001"},{"arcs":[[334,-321,335,336,-281]],"type":"Polygon","properties":{"STATEFP":"21","COUNTYFP":"105","COUNTYNS":"00516899","GEOIDFQ":"0500000US21105","GEOID":"21105","NAME":"Hickman","NAMELSAD":"Hickman County","STUSPS":"KY","STATE_NAME":"Kentucky","LSAD":"06","ALAND":627634138,"AWATER":27735813},"id":"21105"},{"arcs":[[337,-147,338,-93,-218]],"type":"Polygon","properties":{"STATEFP":"21","COUNTYFP":"159","COUNTYNS":"00516923","GEOIDFQ":"0500000US21159","GEOID":"21159","NAME":"Martin","NAMELSAD":"Martin County","STUSPS":"KY","STATE_NAME":"Kentucky","LSAD":"06","ALAND":594775704,"AWATER":2561300},"id":"21159"},{"arcs":[[339,-293,-325,340,-286]],"type":"Polygon","properties":{"STATEFP":"21","COUNTYFP":"117","COUNTYNS":"00516905","GEOIDFQ":"0500000US21117","GEOID":"21117","NAME":"Kenton","NAMELSAD":"Kenton County","STUSPS":"KY","STATE_NAME":"Kentucky","LSAD":"06","ALAND":415369038,"AWATER":10186921},"id":"21117"},{"arcs":[[-15,-275,-287,-341,-324,-172,-247]],"type":"Polygon","properties":{"STATEFP":"21","COUNTYFP":"081","COUNTYNS":"00516887","GEOIDFQ":"0500000US21081","GEOID":"21081","NAME":"Grant","NAMELSAD":"Grant County","STUSPS":"KY","STATE_NAME":"Kentucky","LSAD":"06","ALAND":668154706,"AWATER":7246425},"id":"21081"},{"arcs":[[-119,-251,341,342,-263,343]],"type":"Polygon","properties":{"STATEFP":"21","COUNTYFP":"221","COUNTYNS":"00516957","GEOIDFQ":"0500000US21221","GEOID":"21221","NAME":"Trigg","NAMELSAD":"Trigg County","STUSPS":"KY","STATE_NAME":"Kentucky","LSAD":"06","ALAND":1143305435,"AWATER":103336732},"id":"21221"},{"arcs":[[344,-110,-178,345]],"type":"Polygon","properties":{"STATEFP":"21","COUNTYFP":"163","COUNTYNS":"00516928","GEOIDFQ":"0500000US21163","GEOID":"21163","NAME":"Meade","NAMELSAD":"Meade County","STUSPS":"KY","STATE_NAME":"Kentucky","LSAD":"06","ALAND":791150771,"AWATER":49053955},"id":"21163"},{"arcs":[[-208,-270,346,347,-332,-328]],"type":"Polygon","properties":{"STATEFP":"21","COUNTYFP":"009","COUNTYNS":"00516851","GEOIDFQ":"0500000US21009","GEOID":"21009","NAME":"Barren","NAMELSAD":"Barren County","STUSPS":"KY","STATE_NAME":"Kentucky","LSAD":"06","ALAND":1262269999,"AWATER":32723250},"id":"21009"},{"arcs":[[-198,-295,-282,-337,348]],"type":"Polygon","properties":{"STATEFP":"21","COUNTYFP":"039","COUNTYNS":"00516866","GEOIDFQ":"0500000US21039","GEOID":"21039","NAME":"Carlisle","NAMELSAD":"Carlisle County","STUSPS":"KY","STATE_NAME":"Kentucky","LSAD":"06","ALAND":490706561,"AWATER":24648733},"id":"21039"},{"arcs":[[-174,-327,349,350,-318]],"type":"Polygon","properties":{"STATEFP":"21","COUNTYFP":"023","COUNTYNS":"00516858","GEOIDFQ":"0500000US21023","GEOID":"21023","NAME":"Bracken","NAMELSAD":"Bracken County","STUSPS":"KY","STATE_NAME":"Kentucky","LSAD":"06","ALAND":524900458,"AWATER":16279751},"id":"21023"},{"arcs":[[351,-284,-264,-343,352]],"type":"Polygon","properties":{"STATEFP":"21","COUNTYFP":"035","COUNTYNS":"00516864","GEOIDFQ":"0500000US21035","GEOID":"21035","NAME":"Calloway","NAMELSAD":"Calloway County","STUSPS":"KY","STATE_NAME":"Kentucky","LSAD":"06","ALAND":996790181,"AWATER":66908708},"id":"21035"},{"arcs":[[353,-261,-53,-101,-272,-306]],"type":"Polygon","properties":{"STATEFP":"21","COUNTYFP":"141","COUNTYNS":"00516917","GEOIDFQ":"0500000US21141","GEOID":"21141","NAME":"Logan","NAMELSAD":"Logan County","STUSPS":"KY","STATE_NAME":"Kentucky","LSAD":"06","ALAND":1430248435,"AWATER":12454764},"id":"21141"},{"arcs":[[-79,354,-347,-269,-99]],"type":"Polygon","properties":{"STATEFP":"21","COUNTYFP":"061","COUNTYNS":"00516877","GEOIDFQ":"0500000US21061","GEOID":"21061","NAME":"Edmonson","NAMELSAD":"Edmonson County","STUSPS":"KY","STATE_NAME":"Kentucky","LSAD":"06","ALAND":784263758,"AWATER":13462746},"id":"21061"},{"arcs":[[-61,-304,-182,-200,-87]],"type":"Polygon","properties":{"STATEFP":"21","COUNTYFP":"113","COUNTYNS":"00516903","GEOIDFQ":"0500000US21113","GEOID":"21113","NAME":"Jessamine","NAMELSAD":"Jessamine County","STUSPS":"KY","STATE_NAME":"Kentucky","LSAD":"06","ALAND":445770304,"AWATER":6118343},"id":"21113"},{"arcs":[[-120,-344,-262,-224,-161]],"type":"Polygon","properties":{"STATEFP":"21","COUNTYFP":"143","COUNTYNS":"00516918","GEOIDFQ":"0500000US21143","GEOID":"21143","NAME":"Lyon","NAMELSAD":"Lyon County","STUSPS":"KY","STATE_NAME":"Kentucky","LSAD":"06","ALAND":553700578,"AWATER":110705475},"id":"21143"},{"arcs":[[-113,-122,-165,-296,-155,-323]],"type":"Polygon","properties":{"STATEFP":"21","COUNTYFP":"233","COUNTYNS":"00516963","GEOIDFQ":"0500000US21233","GEOID":"21233","NAME":"Webster","NAMELSAD":"Webster County","STUSPS":"KY","STATE_NAME":"Kentucky","LSAD":"06","ALAND":859945923,"AWATER":9397393},"id":"21233"},{"arcs":[[-158,-319,-351,355,-219]],"type":"Polygon","properties":{"STATEFP":"21","COUNTYFP":"161","COUNTYNS":"00516924","GEOIDFQ":"0500000US21161","GEOID":"21161","NAME":"Mason","NAMELSAD":"Mason County","STUSPS":"KY","STATE_NAME":"Kentucky","LSAD":"06","ALAND":621926399,"AWATER":16274513},"id":"21161"},{"arcs":[[-59,-134,-259,356,-211,-301]],"type":"Polygon","properties":{"STATEFP":"21","COUNTYFP":"049","COUNTYNS":"00516871","GEOIDFQ":"0500000US21049","GEOID":"21049","NAME":"Clark","NAMELSAD":"Clark County","STUSPS":"KY","STATE_NAME":"Kentucky","LSAD":"06","ALAND":653924828,"AWATER":6943411},"id":"21049"},{"arcs":[[-30,-75,357,-213,358,359]],"type":"Polygon","properties":{"STATEFP":"21","COUNTYFP":"129","COUNTYNS":"00516911","GEOIDFQ":"0500000US21129","GEOID":"21129","NAME":"Lee","NAMELSAD":"Lee County","STUSPS":"KY","STATE_NAME":"Kentucky","LSAD":"06","ALAND":540843065,"AWATER":6309608},"id":"21129"},{"arcs":[[-233,-309,-299,360]],"type":"Polygon","properties":{"STATEFP":"21","COUNTYFP":"223","COUNTYNS":"00516958","GEOIDFQ":"0500000US21223","GEOID":"21223","NAME":"Trimble","NAMELSAD":"Trimble County","STUSPS":"KY","STATE_NAME":"Kentucky","LSAD":"06","ALAND":382724388,"AWATER":21257028},"id":"21223"},{"arcs":[[-31,-360,361,-188,-179,-63]],"type":"Polygon","properties":{"STATEFP":"21","COUNTYFP":"237","COUNTYNS":"00516965","GEOIDFQ":"0500000US21237","GEOID":"21237","NAME":"Wolfe","NAMELSAD":"Wolfe County","STUSPS":"KY","STATE_NAME":"Kentucky","LSAD":"06","ALAND":575390049,"AWATER":1534248},"id":"21237"},{"arcs":[[-34,-105,362,-123,-42,-277,-72]],"type":"Polygon","properties":{"STATEFP":"21","COUNTYFP":"193","COUNTYNS":"00516943","GEOIDFQ":"0500000US21193","GEOID":"21193","NAME":"Perry","NAMELSAD":"Perry County","STUSPS":"KY","STATE_NAME":"Kentucky","LSAD":"06","ALAND":879880327,"AWATER":7473921},"id":"21193"},{"arcs":[[-22,-313,-333,-348,-355,-78,-108]],"type":"Polygon","properties":{"STATEFP":"21","COUNTYFP":"099","COUNTYNS":"00516896","GEOIDFQ":"0500000US21099","GEOID":"21099","NAME":"Hart","NAMELSAD":"Hart County","STUSPS":"KY","STATE_NAME":"Kentucky","LSAD":"06","ALAND":1068809185,"AWATER":13410821},"id":"21099"},{"arcs":[[-20,-170,-241,-334,-310]],"type":"Polygon","properties":{"STATEFP":"21","COUNTYFP":"217","COUNTYNS":"00516955","GEOIDFQ":"0500000US21217","GEOID":"21217","NAME":"Taylor","NAMELSAD":"Taylor County","STUSPS":"KY","STATE_NAME":"Kentucky","LSAD":"06","ALAND":690018323,"AWATER":26944696},"id":"21217"},{"arcs":[[363,-124,-363,-104,-145]],"type":"Polygon","properties":{"STATEFP":"21","COUNTYFP":"133","COUNTYNS":"00516913","GEOIDFQ":"0500000US21133","GEOID":"21133","NAME":"Letcher","NAMELSAD":"Letcher County","STUSPS":"KY","STATE_NAME":"Kentucky","LSAD":"06","ALAND":875245159,"AWATER":2846758},"id":"21133"},{"arcs":[[-66,-94,-339,-146,-102]],"type":"Polygon","properties":{"STATEFP":"21","COUNTYFP":"071","COUNTYNS":"00516882","GEOIDFQ":"0500000US21071","GEOID":"21071","NAME":"Floyd","NAMELSAD":"Floyd County","STUSPS":"KY","STATE_NAME":"Kentucky","LSAD":"06","ALAND":1018645948,"AWATER":6225826},"id":"21071"},{"arcs":[[-189,-362,-359,-212,-357,-258]],"type":"Polygon","properties":{"STATEFP":"21","COUNTYFP":"197","COUNTYNS":"00516945","GEOIDFQ":"0500000US21197","GEOID":"21197","NAME":"Powell","NAMELSAD":"Powell County","STUSPS":"KY","STATE_NAME":"Kentucky","LSAD":"06","ALAND":463508964,"AWATER":3003167},"id":"21197"},{"arcs":[[-184,-303,364,-193,-279,-289]],"type":"Polygon","properties":{"STATEFP":"21","COUNTYFP":"203","COUNTYNS":"00516948","GEOIDFQ":"0500000US21203","GEOID":"21203","NAME":"Rockcastle","NAMELSAD":"Rockcastle County","STUSPS":"KY","STATE_NAME":"Kentucky","LSAD":"06","ALAND":819904083,"AWATER":3961379},"id":"21203"},{"arcs":[[-74,-276,-194,-365,-302,-214,-358]],"type":"Polygon","properties":{"STATEFP":"21","COUNTYFP":"109","COUNTYNS":"00516901","GEOIDFQ":"0500000US21109","GEOID":"21109","NAME":"Jackson","NAMELSAD":"Jackson County","STUSPS":"KY","STATE_NAME":"Kentucky","LSAD":"06","ALAND":894134829,"AWATER":3328475},"id":"21109"}]}}}