{"type":"Topology","arcs":[[[3834,10043],[377,-1],[805,-4],[48,0]],[[5064,10038],[-16,-85],[-24,-14],[-45,-75],[7,-14],[-43,-69],[7,-27],[-33,-29],[-45,-4],[-63,-55],[-13,-73],[-34,-45],[3,-21],[-30,-38],[18,-26],[-3,-58],[-39,-67],[-21,-7],[-20,-43],[28,-15],[4,-38],[-30,-31]],[[4672,9204],[-18,-68],[-49,-71],[-66,5],[-56,-62],[-9,-66],[-59,-17],[-16,18],[-63,20],[-15,-39],[-38,-25],[-3,-62],[-52,10],[-41,53],[-20,-21],[-5,-49],[-25,-24]],[[4137,8806],[17,23],[-6,49],[-26,30],[-13,59],[-28,63],[34,54],[0,65],[-83,101],[-8,49],[-87,-13],[-33,29],[-22,-15],[-40,41]],[[3842,9341],[24,34],[-20,62],[20,81],[-26,65],[19,40],[-43,67],[-12,43],[14,27],[1,100],[-7,58],[22,125]],[[5869,3424],[26,41],[64,22],[69,-16],[56,-2],[37,14]],[[6121,3483],[39,-2],[79,-64],[11,-61],[25,-40],[53,7],[-11,-44],[44,-56],[37,4],[51,-86],[6,-41],[41,-34],[26,11],[23,43],[-11,21],[61,65],[30,-29]],[[6625,3177],[-20,-135]],[[6605,3042],[-531,-131],[-39,-68],[-54,-46]],[[5981,2797],[-41,-4],[-41,34],[-97,-21],[-37,28],[-28,-13],[0,-34],[-33,0]],[[5704,2787],[-1,112],[33,1],[-1,111],[32,18],[7,52],[99,336],[-4,7]],[[3555,4723],[218,3],[554,-4]],[[4327,4722],[33,-47],[-18,-45],[75,-63],[24,-62],[-3,-47],[47,-93],[2,-87],[-26,-23],[10,-64],[-27,-50],[7,-22],[-11,-101],[47,-104],[-6,-30],[-39,-25]],[[4442,3859],[4,-31],[34,-84],[27,3],[55,-125],[30,-17],[-260,-2],[-110,57],[-131,-55],[-56,38],[-25,-7],[-6,-63],[-14,-33]],[[3990,3540],[-53,7],[-18,-25],[-60,42],[-53,-43],[-4,-52],[-19,-24],[-91,-77]],[[3692,3368],[1,54],[-33,0],[0,72],[-33,0],[-2,214],[-131,0],[-1,107],[-483,1]],[[3010,3816],[18,26],[38,10],[10,73],[19,23],[67,12],[296,-1],[1,73],[98,0],[0,121],[15,19],[7,77],[54,43],[0,232],[-67,42],[-8,20],[-3,137]],[[4852,6948],[218,-2],[20,10],[86,-18],[-4,-36]],[[5172,6902],[-33,-54],[-6,-57],[9,-108],[-11,-59],[-39,-21],[-83,21],[-65,62],[-37,-45],[0,-38],[27,-39],[34,-24],[54,3],[67,24],[37,-18],[-8,-50],[-82,-74],[-57,-22],[-70,1],[-5,-117],[9,-96],[26,-59],[54,-61],[0,-60],[-13,-16],[-72,13],[-32,49],[-31,105],[-32,-23],[-26,-60],[18,-53],[37,-3],[2,-72],[76,-75],[2,-62],[-19,-40],[-68,-30],[-40,-4],[-123,15],[-32,-29],[19,-53],[37,-20],[46,-43],[23,-43],[-14,-68],[-48,-66],[-8,-49],[21,-31],[92,-84],[15,-40],[-9,-37],[-50,-54],[-91,-44]],[[4673,5094],[-49,-71]],[[4624,5023],[8,59]],[[4632,5082],[26,66],[-13,45],[-25,13],[-63,-14],[-52,13]],[[4505,5205],[26,84],[-12,37],[24,25],[-23,33],[-6,43],[37,70],[25,-2],[19,64],[-60,52],[-27,-24],[-32,11],[-39,45],[-37,0],[-65,37],[-9,36],[-36,36]],[[4290,5752],[21,28],[-34,36],[-41,25],[-10,34],[8,94],[35,53],[26,8],[44,-21],[38,10],[7,50],[-61,2],[-55,34],[-20,35],[-16,104],[16,74],[53,3],[33,-97],[3,-36],[50,-5],[35,-20],[54,-4],[28,18],[6,33],[-20,33],[-93,6],[-38,13],[-2,48],[44,55],[-5,39],[-65,59],[-26,43],[-1,48],[40,97],[59,43],[23,-11],[16,-53],[37,-21],[60,71],[-13,91],[22,57],[14,79],[27,21],[35,-35],[51,-1],[43,41],[23,40],[35,-15],[23,-49],[47,-33],[25,37],[-19,35]],[[5064,10038],[332,-2]],[[5396,10036],[-16,-41],[8,-35],[-22,-58],[-36,-12],[-26,-80],[-3,-102],[-42,-15],[-22,-75],[13,-34],[-9,-160],[-63,-124],[-5,-41],[-35,9],[-10,-28],[16,-63],[-22,-84],[10,-39],[-50,-17],[-37,-44]],[[5045,8993],[-293,1],[-1,209],[-79,1]],[[6132,2399],[195,5],[-1,35],[133,-61],[53,20],[18,-31],[48,-8]],[[6578,2359],[41,14],[45,-9],[114,5],[46,-20]],[[6824,2349],[27,-50],[33,1],[36,-44],[8,-85],[36,-44],[54,-46],[48,-5],[64,-37],[22,-55],[-2,-68],[30,-39],[229,-4]],[[7409,1873],[64,-3],[49,-18],[29,-64],[-11,-27],[2,-73],[16,-71],[-28,-51],[-39,-10],[-12,-26],[35,-24],[53,-103],[18,-59],[83,-39],[28,11],[62,-26],[22,-47],[32,-19],[-24,-87],[5,-45]],[[7793,1092],[-9,-43]],[[7784,1049],[9,-31]],[[7793,1018],[-15,-30],[7,-72],[36,-7],[-5,-34],[-27,-13],[-47,33],[-36,3],[-63,-77],[16,-63],[33,-25],[37,-52]],[[7729,681],[-52,-67],[3,-34]],[[7680,580],[-159,-128],[-31,-30],[-70,-39],[-49,23],[27,34],[-1,46],[-38,36],[-25,84],[15,54],[-34,28],[-60,147],[-28,6],[-43,40],[-19,40],[-44,-30],[8,-70],[-47,-1]],[[7082,820],[26,43],[13,52],[-19,53],[13,60],[-11,46],[-35,41],[-29,14],[-76,98],[-18,55],[-77,63],[-86,132],[-34,10],[-12,58],[-54,35],[-37,65],[-72,21],[-44,78],[-47,60],[-46,29],[-29,3],[-45,47],[-41,127],[-33,5],[-2,61],[-42,4],[0,-28],[-27,-45],[-79,-1],[4,-72],[-246,-4]],[[5897,1930],[49,74],[66,117],[45,93],[28,116],[48,0],[-1,69]],[[4031,2726],[32,85]],[[4063,2811],[86,0],[21,-38],[40,26],[111,-59],[38,57],[51,55],[14,47],[75,35],[45,-3],[49,-40],[38,8],[55,-90],[35,-10],[24,-85],[174,0],[29,20],[16,41],[230,2]],[[5194,2777],[194,1],[25,-48],[62,-35]],[[5475,2695],[-23,-60],[-45,-2],[8,-71]],[[5415,2562],[-421,-38]],[[4994,2524],[-296,-26],[-169,-245],[-252,-236],[-27,-28]],[[4250,1989],[-44,22],[-3,21],[47,57],[36,-10],[20,17],[6,44],[-15,71],[-62,-6],[-38,22],[-48,-11],[-16,-29],[-44,-6],[-67,41]],[[4022,2222],[-42,349],[51,155]],[[3906,1592],[52,62],[44,28],[34,-16],[49,6],[27,46],[44,21],[23,-23],[49,4],[82,-66],[76,-22],[30,-48],[56,-1],[7,-29],[46,-17],[-101,-76],[-17,-49],[11,-35],[-35,-18],[-33,11],[-35,-34],[-49,13],[-31,59],[-30,1],[-72,37],[-75,48],[-76,32],[-66,44],[-10,22]],[[1169,7178],[2,169],[32,44],[48,-34],[41,37],[44,-1]],[[1336,7393],[9,-83],[69,-22],[22,19],[42,-25],[30,20],[25,44],[28,-24],[2,170],[220,-1],[-64,92],[7,49],[32,49],[-15,58],[-36,50],[22,23],[-66,113]],[[1663,7925],[481,-1]],[[2144,7924],[28,-88],[39,-54],[-12,-38],[29,-49],[2,-40],[20,-66],[-33,-42],[35,-34],[-2,-102],[-32,-113],[-9,-102],[-78,12],[15,-69],[-23,-21],[8,-44],[-13,-47],[-28,-19],[-10,-53],[7,-58],[-10,-55]],[[2077,6842],[27,-18],[-9,-52],[68,-6],[9,-29],[39,-13],[-10,-80],[16,-18],[63,-10],[55,-39],[67,-7],[37,-49],[59,-48],[-8,-29],[82,-73]],[[2572,6371],[-83,-77],[0,-24],[-66,-52],[-35,-2],[1,-34],[-66,-18],[0,-36],[-48,-1],[1,-36],[-33,0],[0,-35],[-49,0],[0,-53],[-66,-1],[1,-52],[-67,0]],[[2062,5950],[-21,34],[-78,8],[-397,2]],[[1566,5994],[0,427],[-196,1],[-1,433],[-201,1],[1,322]],[[6121,3483],[-27,39],[-62,13],[-41,101],[-47,44],[18,30],[-35,60],[41,75],[5,30],[-25,34],[1,48],[16,65],[-29,18],[28,63],[48,32],[45,71],[27,26]],[[6084,4232],[667,2]],[[6751,4234],[0,-402],[33,-48],[6,-89],[63,-62],[-1,-35],[27,-19],[0,-55],[45,-14],[8,-31],[-22,-54],[6,-82],[-7,-28]],[[6909,3315],[-31,-64],[-14,-52],[-57,-66],[-31,-19],[-46,4],[-38,45],[-67,14]],[[4673,5094],[415,-1],[480,1]],[[5568,5094],[-8,-52],[-29,-39],[17,-61],[-41,-47],[2,-63],[-23,-2],[-2,-68],[-29,-95],[8,-38],[-24,-15],[4,-43],[-38,-38],[-14,-35],[-37,-26],[-11,-69],[-37,-27],[-8,-35],[20,-50],[-10,-48]],[[5308,4243],[-40,12]],[[5268,4255],[-19,28],[-24,127],[-18,44],[-36,48],[-32,-3],[-103,-53],[-71,13],[-45,-3],[-84,-23],[-35,11],[-46,37],[20,55],[53,13],[35,32],[46,173],[-11,71],[-55,64],[-36,7],[-90,-3],[1,-39],[73,-21],[25,-25],[14,-85],[-91,-7],[-43,-14],[-42,12],[-29,37],[2,86],[31,84],[-34,102]],[[4632,5082],[-13,26],[-61,37],[-34,-32],[-71,29]],[[4453,5142],[52,63]],[[1169,7178],[-280,2],[-570,-4],[-1,-2]],[[318,7174],[-6,45],[-38,45],[9,35],[-50,21],[-12,22],[-47,-3],[-40,28],[-14,45],[-66,99],[-4,22],[-49,25],[0,485]],[[1,8043],[178,-1],[104,76],[69,62],[24,97],[75,45],[7,45],[23,25],[47,17],[48,-9],[17,-37],[42,-23],[97,2],[39,-33],[17,-35],[45,-50],[-1,-79]],[[832,8145],[34,-44],[8,-35],[70,-33],[42,2],[23,-39],[2,-127],[-36,-49],[53,-49],[24,-56],[36,-9],[3,-68],[31,-16],[14,-46],[32,-43],[68,-3],[12,-24],[54,-40],[12,-64],[22,-9]],[[5869,3424],[-56,-14],[-83,12],[-44,-19],[-33,1],[-19,25]],[[5634,3429],[-23,39],[-78,19],[-55,-16],[-37,42],[15,44],[36,46],[30,62],[8,50],[-3,166],[-23,40],[-104,-44],[-35,33],[67,42],[6,43],[-47,48],[-75,1],[-18,52],[26,38],[18,54],[-10,44]],[[5332,4232],[16,71],[37,7],[10,42],[25,17],[784,36]],[[6204,4405],[9,-28],[-63,-53],[-66,-92]],[[3990,3540],[68,-21],[-4,-65],[-20,-23],[21,-41],[12,-76],[-52,-39],[33,-59],[31,-1],[-29,-61],[-37,-2],[-6,-70],[35,-11],[20,21],[56,2],[30,-50],[4,-31],[-56,-86],[-33,-116]],[[4031,2726],[-191,88],[-22,68],[-19,18],[-5,48],[-75,-30],[-145,66],[-47,-15],[-62,6],[-40,6],[-10,14]],[[3415,2995],[11,-5],[55,63],[6,99],[73,38],[0,38],[66,-2],[0,72],[33,-1],[-1,36],[34,0],[0,35]],[[2062,5950],[33,-35],[66,-1],[0,-19],[66,1],[33,-18],[0,-71],[33,0],[31,-36],[1,-52],[32,-2],[3,-594],[8,0],[0,-293]],[[2368,4830],[-1,-37],[-202,-1],[-98,4]],[[2067,4796],[-98,3],[-203,-4],[0,13],[-559,-1],[-110,-58],[-54,20],[-32,30],[-62,-5],[-8,-21]],[[941,4773],[-30,38],[48,32],[-17,40],[53,27],[9,32],[-11,51],[-73,44],[10,29],[-27,30],[24,32],[52,-12],[34,69],[-19,38],[24,25],[-26,32],[-39,10],[-13,46],[38,42],[-18,102],[30,70],[-37,3]],[[953,5553],[16,42],[-15,88],[31,35],[7,60],[174,0],[102,215],[298,1]],[[7348,5097],[447,2],[376,2],[209,1],[-14,-89],[-40,-56],[22,-61],[-23,-44],[-33,-10],[11,-75],[-32,-31],[1,-65],[-58,-83],[-36,-72],[14,-56],[-6,-42],[-34,-43],[19,-19],[-22,-73],[11,-11]],[[8160,4272],[-299,0],[-505,115]],[[7356,4387],[-14,132],[-24,24],[-7,46],[-28,30],[6,39],[-21,70],[-28,50],[-3,50],[-58,35],[-1,234]],[[7178,5097],[170,0]],[[7409,1873],[50,145],[58,132],[11,35],[-142,107],[-6,45],[-49,61],[-10,41],[-13,126],[2,197],[7,89],[31,184]],[[7348,3035],[76,30],[125,34]],[[7549,3099],[32,-30],[61,-31]],[[7642,3038],[-32,-471],[-30,-63],[3,-72],[67,-24],[63,25],[38,49],[86,-107]],[[7837,2375],[-38,-105],[-80,-60],[-6,-45],[22,-63],[-30,-32],[20,-46],[-3,-35],[52,-76],[21,-52],[27,-33],[26,-124],[29,-4],[13,-102],[-16,-77],[19,-38],[3,-182]],[[7896,1301],[-28,-22],[42,-47],[-30,-48],[-32,-22],[-13,-59],[-42,-11]],[[7784,1049],[38,-8],[35,40],[40,-42],[-11,-30],[-93,9]],[[7729,681],[31,-46],[-80,-55]],[[7770,668],[112,145],[63,12],[-6,-34],[-83,-56],[-86,-67]],[[3264,7059],[11,31],[33,22],[53,192],[0,77]],[[3361,7381],[596,0]],[[3957,7381],[0,-323],[-5,0],[0,-446],[1,-313],[0,-400]],[[3953,5899],[-57,42],[-61,-38],[-35,19]],[[3800,5922],[16,29],[-10,44],[-72,36],[-55,62],[-36,125],[13,29],[-69,26]],[[3587,6273],[-67,33],[-17,25],[-52,-21],[-31,26],[17,31],[-11,44],[-45,36],[7,37],[-22,24],[6,40],[-70,16],[-33,19],[-15,37],[31,21],[-29,58],[14,112],[-26,15],[8,43],[27,22],[-7,35],[26,30],[-34,103]],[[7642,3038],[50,-19],[82,-5],[72,20],[56,32],[138,56],[107,-22],[54,-24],[45,-48],[42,-3],[59,44],[51,-40],[66,35],[58,-39],[58,-11]],[[8580,3014],[-61,-90],[-46,-34],[-9,-73],[-69,-16],[-24,-39],[31,-60],[-32,-16],[-67,59],[-98,0],[-53,-61],[-27,-48]],[[8125,2636],[-43,-38],[-25,40],[-38,-8],[-27,-28],[-48,-16],[-44,31],[-28,-11],[-43,-107],[82,-52],[61,-1],[34,-21],[34,-70],[-14,-48]],[[8026,2307],[-13,-3],[-35,64],[-46,24],[-55,6],[-4,-38],[-36,15]],[[2572,6371],[39,-63],[-14,-102],[42,-7],[-20,-100],[45,-18],[25,-29],[52,6],[127,35],[515,133],[42,7],[162,40]],[[3800,5922],[-77,-72],[-41,-10],[-57,23],[-6,39],[-78,13],[-26,-27],[-2,-468],[34,-345],[16,-66],[-140,1]],[[3423,5010],[-97,-5],[-22,45],[-25,7],[-65,43],[-40,-21],[-9,-35],[-91,-58],[-39,-8],[3,-67],[-16,-39],[-42,-32],[-34,-6],[-49,22],[-31,-16],[-59,0]],[[2807,4840],[0,7],[-239,-1],[0,-18],[-200,2]],[[6751,4234],[3,34],[-3,396],[0,431]],[[6751,5095],[38,0],[389,2]],[[7356,4387],[10,-41],[-5,-70],[18,-50],[-15,-58],[16,-67],[-3,-40],[2,-538],[100,-125],[13,-56],[48,-133]],[[7540,3209],[-272,149],[-38,11],[-58,-6],[-45,-33],[-47,7],[-44,-15],[-127,-7]],[[6204,4405],[19,12],[-19,47],[11,51],[-3,71],[19,50],[-19,38],[7,45],[-31,37],[17,70],[-12,79],[-17,48],[36,52],[4,53],[33,36]],[[6249,5094],[502,1]],[[4994,2524],[0,-20],[119,-116],[18,-67],[54,-97],[-25,-125],[66,-42],[104,-4],[135,-39],[27,5],[67,-56],[91,-11],[42,-52],[24,-8]],[[5716,1892],[0,-106],[-10,-27],[44,-46]],[[5750,1713],[-105,-42],[-53,-42],[-38,37],[-54,-42],[-27,-36],[3,-35],[-24,-29],[-48,-14],[-22,-37],[12,-37],[-15,-87]],[[5379,1349],[-76,6],[-52,22],[-25,57],[-51,15],[-21,-16],[-68,13],[-6,52],[-42,15],[-91,-17],[-41,-22],[-40,89],[4,46],[-37,126],[-45,9],[-94,-27],[-21,32],[27,73],[-3,30],[15,90],[-21,52],[-88,13],[-79,-22],[-45,32],[-70,-12],[-118,-62],[-35,-30],[-52,20],[43,34],[3,22]],[[7082,820],[-2,112],[-53,47],[-30,50],[-39,-29],[17,-39],[-53,-73],[-51,32],[-52,-5],[-43,-44],[-44,69],[-40,-24],[-5,-37],[24,-42],[-10,-63],[-37,-76],[-46,-3],[-27,-103],[-51,5],[-36,-120],[-33,-22],[-23,48],[-25,-3],[-17,-42],[-36,1],[-48,-25],[-28,-34],[-2,-65],[-63,-4],[-30,20],[-32,79],[-41,40],[-20,50],[-34,14],[-83,93],[-46,-30],[-54,5],[-31,29],[-22,56],[-51,-65],[-59,20],[-68,70],[-166,16],[-142,70],[-91,117],[77,16],[40,56],[19,71],[47,21],[1,-34],[80,-125],[42,39],[17,-30],[-7,-72],[14,-63],[70,-15],[23,26],[-30,57],[27,61],[-27,86],[-34,9],[-20,40],[-32,6],[-41,30],[-3,34],[-38,19],[15,58],[-18,39],[-69,21],[-19,76],[-14,8]],[[5750,1713],[147,217]],[[6784,395],[156,-62],[-7,-18],[-108,46],[-41,34]],[[8160,4272],[32,-40],[10,-41],[-4,-69],[31,-92],[32,7],[-8,-54],[28,-10],[22,-72],[50,-44],[34,-13],[17,-35],[51,-45],[22,-112],[-10,-20],[42,-85],[9,-37],[54,-42],[6,-62],[-26,-17],[-15,-39],[31,-29],[0,-56],[30,-23],[-2,-49],[31,-28],[40,-74],[20,-15],[45,32],[37,-10],[-80,-40],[-5,-31],[-30,-24],[-74,11]],[[7549,3099],[4,34],[-13,76]],[[4137,8806],[-37,-33],[-40,-125],[-60,-69],[-40,-82],[-10,-105],[-20,-99],[-29,-50]],[[3901,8243],[-140,-1],[1,-45],[-90,0],[-33,45],[-277,1]],[[3362,8243],[0,107],[-201,215],[0,216]],[[3161,8781],[1,215]],[[3162,8996],[213,-1],[18,13],[47,-17],[95,32],[8,44],[157,121],[91,63],[51,90]],[[5850,7857],[-43,9]],[[5807,7866],[7,81],[15,43],[33,-30],[43,-1],[-18,-76],[-37,-26]],[[4985,8559],[-20,20],[0,52],[22,16],[-21,113],[34,116],[22,9]],[[5022,8885],[630,0],[49,42],[0,18],[73,0]],[[5774,8945],[-10,-38],[47,-39],[63,-25],[46,-30],[8,-52],[-26,-14],[-66,21],[-25,24],[-46,82],[-37,38],[-14,-58],[-30,-62],[1,-42],[40,-60],[83,-50],[45,-12],[69,42],[30,-9],[23,-33],[-15,-53],[-38,-20],[-20,-88],[34,-41],[144,-30],[29,37],[30,7],[-66,-133],[-61,-49],[-32,33],[-23,-1],[-14,-65],[27,-43],[-21,-22],[-7,-81],[-37,-37],[0,67],[-61,46],[-24,-1],[-29,-56],[-43,19],[-48,-45],[-31,8]],[[5669,8080],[6,69],[-25,25],[-96,-10],[-62,-30],[-38,-57],[-72,51],[-18,-24],[-62,-20],[-16,-25],[-334,1]],[[4952,8060],[-82,2],[-13,85],[-29,30],[28,21],[37,-15],[-11,94],[49,57],[63,8],[-17,93],[28,-11],[28,44],[-47,40],[-1,51]],[[3555,4723],[-49,-1],[-1,108],[-82,108],[0,72]],[[3953,5899],[12,-21],[-42,-85],[34,-17],[6,-44],[28,-23],[-13,-48],[41,-10],[35,50],[40,-18],[-22,83],[38,56],[35,5],[76,-40],[29,-40],[40,5]],[[4453,5142],[-46,-40],[-16,-41],[-42,-20],[4,-253],[-26,-66]],[[8125,2636],[26,-111],[19,-34],[33,-24],[57,0],[83,31],[35,29],[28,-25],[-63,-40],[5,-57],[77,-82],[77,-29],[60,1],[74,40],[11,24],[-3,69],[20,30],[1,41],[22,38],[-19,72],[172,116],[-10,56],[32,35],[46,-39],[51,-62],[77,45],[17,-42],[-45,-15],[-36,-29],[-41,16],[-25,-62],[47,-18],[-1,-41],[20,-27],[50,-21],[34,-33],[8,-87],[12,-35],[69,37],[33,35],[82,169],[56,7],[0,-46],[41,-17],[-34,-89],[-72,-9],[-70,-62],[6,-52],[44,-4],[95,14],[-45,-45],[-23,-44],[-33,35],[-42,-26],[-24,-72],[-26,65],[-83,-24],[8,-44],[33,11],[7,-42],[43,-60],[35,-4],[51,38],[2,-79],[-27,-20],[-54,52],[-120,25],[-13,-50],[-57,-72],[1,-69],[12,-37],[-37,-65],[18,-36],[-62,-12],[-10,53],[16,16],[-10,48],[-34,51],[-24,-5],[-53,21],[12,-60],[-25,-88],[39,-23],[12,-53],[-46,40],[-33,3]],[[8734,1777],[-48,30],[-111,38],[-63,70],[-46,18],[-15,54],[-26,36],[-28,11],[-115,-3],[-14,43],[-46,62],[-41,6],[-56,-20],[-20,6],[-17,50],[-33,43],[-29,86]],[[10046,2753],[29,-36],[43,-88],[18,-70],[14,-89],[-2,-111],[-28,-160],[-69,-152],[8,77],[41,79],[13,72],[-14,22],[23,37],[6,103],[-18,59],[4,72],[-25,97],[-43,88]],[[9130,2778],[46,15],[30,65],[200,130],[-54,-61],[-2,-51],[16,-68],[85,-26],[7,-43],[-21,-26],[-37,4],[-19,-17],[-49,15],[-1,48],[-28,18],[-43,-57],[-65,6],[-65,48]],[[4442,3859],[106,-1]],[[4548,3858],[31,-52],[21,-5],[67,-78],[1,-34],[22,-37],[-1,-89],[-37,-31],[43,-27],[-4,-60],[13,-49],[60,-81],[4,-49],[49,-38],[106,-4],[64,-27],[-28,-58],[35,-47],[7,-93],[13,-44],[-21,-42],[16,-27],[146,-1],[21,-19],[18,-89]],[[5415,2562],[14,-50],[35,-46],[-5,-28],[50,-60],[12,-86],[31,-38],[67,-24],[35,1],[41,-26],[35,-63],[-14,-69],[21,-43],[-12,-46],[-22,-8],[13,-84]],[[1,8043],[-1,483],[0,741],[1,463],[-1,341],[444,0]],[[444,10071],[7,-44],[-19,-30],[18,-68],[-24,-38],[42,-36],[-36,-73],[1,-44],[39,-39],[5,-48],[22,-32],[-33,-96],[39,-34],[-16,-59],[-62,-59],[-6,-46],[46,24],[30,-4],[10,-31],[-12,-83],[64,-20],[-42,-35],[50,-64],[-14,-63],[3,-42],[34,8],[-7,-50],[-37,-19],[11,-63],[22,-51],[95,-64],[-10,-22],[53,-101],[-34,-42],[23,-81],[33,39],[55,-32],[17,-78],[20,-33],[59,-1],[12,-51],[66,0],[32,-35],[26,-60],[-19,-38],[63,-19],[44,-70]],[[1114,8144],[-282,1]],[[860,5530],[-13,72],[15,46],[-37,22],[7,70],[-16,26],[-41,-1],[-31,26],[-14,37],[-40,31],[37,74],[-3,121],[-67,74],[24,53],[-23,31],[-34,1],[-54,38],[15,36],[28,13],[27,64],[-38,-4],[-19,34],[-74,-4],[-77,81],[-28,69],[-8,32],[40,43],[5,39],[-20,85],[43,46],[19,41],[-44,16],[7,42],[-44,56],[25,65],[-22,21],[-9,42],[-69,52],[-9,54]],[[953,5553],[-70,-49],[-23,26]],[[5045,8993],[28,-53],[-20,-43],[-31,-12]],[[4985,8559],[-308,0],[-45,-48],[-43,-5],[-36,-36],[-5,-61],[-52,-27],[-63,4],[-3,-76],[-23,-66],[9,-51],[-14,-45],[-84,-62],[-21,-80],[-103,-32],[-21,-41]],[[4173,7933],[-31,43],[-43,-9],[-35,22],[-53,-21],[-9,68],[-34,-7],[-12,27],[55,36],[-40,49],[-3,56],[13,44],[-80,2]],[[8734,1777],[-37,16],[-34,-11],[-22,-28],[-52,-18],[-23,19],[-51,-17],[47,-39],[49,-60],[-39,1],[-38,69],[-50,3],[7,-94],[41,-4],[16,-28],[-42,-27],[-41,-3],[14,-63],[72,-84],[60,-34],[77,11],[-4,-47],[63,-82],[10,-47],[28,-50],[-47,4],[11,-43],[51,-11],[82,48],[62,-34],[105,1],[46,-22],[42,-59],[35,-1],[24,41],[81,-53],[25,-67],[35,-46],[68,99],[36,-17],[33,-85],[48,-29],[21,-63],[28,-32],[-28,-51],[28,-48],[-13,-26],[98,-21],[88,53],[39,-71],[-24,-24],[-56,20],[-8,-35],[-56,2],[-61,-27],[28,-53],[62,-12],[50,4],[-53,-110],[-23,46],[-49,18],[-6,-58],[-19,-47],[-59,-8],[-2,-74],[-20,-47],[30,-74],[-147,76],[6,57],[-12,47],[-38,49],[-20,-4],[-15,-61],[-46,-12],[-63,-88],[-36,-34],[-86,-117],[-52,-61],[-27,4],[31,55],[6,40],[57,71],[37,71],[16,70],[46,-1],[30,77],[4,79],[12,32],[33,10],[-5,54],[10,34],[-36,62],[-46,7],[-19,-27],[5,-33],[-12,-70],[-36,-47],[-96,-15],[-53,51],[-38,92],[-70,82],[-105,52],[-134,43],[-35,39],[-31,52],[-62,-3],[-106,36],[-226,37],[34,89],[46,-4],[21,-62],[42,20],[18,34],[66,19],[72,3],[81,43],[46,-74],[54,24],[-26,77],[-55,24],[-63,-17],[-49,5],[-42,-10],[-100,3],[-3,21],[-41,32],[-47,-27],[-22,38],[-34,15],[16,76],[38,20],[-40,35],[-52,-11],[-2,-38],[-38,-50],[-14,26],[-55,8],[-29,-21],[-20,47],[-64,2]],[[8577,1487],[47,9],[18,20],[54,-3],[-48,-54],[-18,-40],[-28,24],[-25,44]],[[3010,3816],[-269,2]],[[2741,3818],[3,16]],[[2744,3834],[29,54],[-9,36],[28,15],[44,88],[-28,38],[-3,581],[2,194]],[[5268,4255],[41,-21],[-20,-42],[-88,-110],[0,-47],[-65,-2],[-32,-70],[1,-71],[-130,-1],[-7,-34]],[[4968,3857],[-80,-2],[-111,-34],[0,35],[-229,2]],[[1014,10069],[59,0],[489,-1]],[[1562,10068],[2,-745],[99,1],[2,-107],[17,-23],[-3,-194]],[[1679,9000],[20,-86],[-7,-18],[15,-97],[35,-82],[-3,-37],[-174,-1],[1,-109],[-264,0]],[[1302,8570],[-133,1],[0,215],[-10,0],[3,649],[-39,28],[-18,37],[28,46],[7,66],[-22,38],[32,18],[-50,74],[-11,40],[20,17],[-17,45],[-24,-14],[-50,79],[-12,81],[19,66],[-11,13]],[[3162,8996],[0,215],[-202,1],[0,122],[-55,-4],[-46,74],[-44,17],[-38,-7],[-46,16],[-172,1]],[[2559,9431],[2,628]],[[2561,10059],[429,-6],[545,-7],[299,-3],[0,0]],[[1663,7925],[-10,74],[-37,34],[3,74],[-9,34],[-404,0],[-13,-2]],[[1193,8139],[40,38],[2,84],[-37,46],[45,161],[-42,21],[6,55],[64,-8],[31,34]],[[1679,9000],[578,1]],[[2257,9001],[3,-323],[199,-1]],[[2459,8677],[5,-324],[1,-216],[-26,-48],[-26,-10],[-1,-68],[-36,-62],[9,-26]],[[2385,7923],[-241,1]],[[2741,3818],[23,-67],[44,-62],[-19,-104],[-37,-11],[-3,-87],[17,-41],[-20,-30],[13,-188],[-8,-28],[28,-42],[41,-29],[0,-48],[-40,-26],[8,-30],[-27,-28],[-9,-75],[15,-33],[-14,-29]],[[2753,2860],[-25,-51],[-69,-3],[-22,-28],[-101,-54]],[[2536,2724],[-39,5],[-141,-2],[-323,0]],[[2033,2727],[0,109],[211,0],[-30,69],[-5,47],[32,27],[-8,39],[-200,1],[-1,256],[-66,-1],[0,293],[-195,1],[0,57]],[[1771,3625],[0,51]],[[1771,3676],[128,2],[0,35],[99,-2],[464,-1],[3,125],[279,-1]],[[458,10071],[556,-2]],[[1193,8139],[-79,5]],[[444,10071],[14,0]],[[4852,6948],[-53,82],[-13,42],[20,61],[-3,88],[-10,51]],[[4793,7272],[12,25],[50,50],[36,4],[26,36],[-11,97],[4,40],[32,13],[2,49],[-25,26],[17,61],[0,50],[23,64],[-31,58],[3,72],[17,8],[4,135]],[[5669,8080],[-18,5],[-60,-40],[-20,-104],[23,-55],[100,-18],[58,22],[55,-24]],[[5850,7857],[1,-16],[-16,-39],[-80,-47],[2,-72],[-38,-4],[-31,24],[-27,45],[-40,9],[-25,-31],[32,-52],[97,-22],[38,-51],[-28,-41],[-53,-32],[-91,-11],[-46,-54],[-10,-62],[19,-48],[-34,-17],[-66,-80],[-26,-17],[-38,-18],[2,-28],[41,-44],[-32,-59],[-28,5],[-25,42],[-8,78],[-67,-13],[-34,-30],[-27,-107],[-12,-93],[77,0],[78,26],[44,-13],[-24,-52],[-82,10],[-92,-4],[-29,-37]],[[5568,5094],[225,-1],[456,1]],[[5332,4232],[-24,11]],[[4022,2222],[-26,-34],[16,-40],[-113,-54],[-93,-55],[-63,-49],[-55,-57],[-11,24],[37,27],[14,41],[-16,30],[-49,-32],[-27,-32],[-63,34],[-11,-19],[18,-50],[60,-62],[126,-3],[2,-15],[-63,-54],[-2,-21],[60,-125],[42,27],[49,-33],[-36,-62],[-49,10],[-83,-5],[-107,-44],[-107,-70],[-55,-14],[-77,-7],[-182,42],[-98,35],[-124,20],[-86,26],[-78,11]],[[2772,1612],[2,821],[-2,293],[-236,-2]],[[2753,2860],[85,12],[26,30],[66,-4],[29,-47],[97,-66],[85,-31],[97,42],[86,88],[16,48],[38,18],[37,45]],[[2385,7923],[172,-2],[805,-2]],[[3362,7919],[-1,-538]],[[3264,7059],[-499,1],[-3,-216],[-485,-3],[-200,1]],[[3362,7919],[0,324]],[[4173,7933],[0,-33],[49,-56],[-10,-28],[-58,-65],[-42,-5],[43,-76],[2,-48],[16,-36],[-15,-37],[24,-59]],[[4182,7490],[-28,-1],[1,-108],[-198,0]],[[398,1870],[-62,110],[-36,17],[-19,72],[-47,34],[-12,29],[12,54],[43,44],[90,70],[46,72],[27,65],[17,83],[41,89],[29,13],[32,48],[30,21],[5,33],[31,37]],[[625,2761],[371,-1],[407,1],[67,-2],[306,3],[1,-35],[256,0]],[[2772,1612],[-39,26],[-31,-7],[-174,70],[-41,31],[-30,5],[-305,166],[-60,30],[-192,72],[-218,62],[-143,18],[-64,-6],[-122,-32],[-86,10],[-157,7],[-75,-5],[-334,-52],[-112,-26],[-78,-31],[-67,-36],[-46,-44]],[[3161,8781],[-402,2],[2,-107],[-302,1]],[[2257,9001],[1,39],[27,16],[12,84],[-16,90],[54,75],[24,7],[1,119],[199,0]],[[6605,3042],[-22,-172],[-33,-6],[18,-107],[-53,-36],[42,-136],[3,-180],[18,-46]],[[6132,2399],[-1,75],[-49,-2],[0,107],[-67,-1],[-1,143],[-33,-1],[0,77]],[[5475,2695],[229,92]],[[5396,10036],[192,-2],[-14,-45],[-56,-61],[-21,-62],[0,-35],[31,-37],[72,-17],[29,13],[26,61],[-12,56],[13,27],[-9,39],[56,23],[39,-31],[12,-82],[30,-41],[1,-62],[-12,-31],[-68,-75],[-43,-8],[-33,-30],[-33,-75],[-5,-65],[15,-14],[-17,-71],[29,-24],[53,3],[121,-38],[-6,-61],[-33,-29],[-72,-42],[-38,-58],[-29,-24],[12,-90],[54,-47],[76,38],[58,16],[22,73],[24,25],[45,-60],[-4,-31],[-75,-83],[-52,-34]],[[1562,10068],[486,-2],[513,-7]],[[7348,3035],[-130,-33],[-45,-74],[-111,-91],[-84,-123],[-50,7],[-120,-47],[-23,-35],[1,-86],[33,0],[5,-204]],[[625,2761],[10,41],[-15,62],[42,46],[12,96],[-45,140],[27,87],[-6,53],[8,60],[-77,35],[-37,99],[15,77],[-3,39],[30,29]],[[586,3625],[496,-1],[-1,217],[198,-1],[-1,-216],[493,1]],[[5634,3429],[-328,-2],[-17,54],[-34,22],[-51,76],[-60,26],[0,34],[-114,164],[-14,-12],[-48,66]],[[4793,7272],[-42,0],[1,215],[-99,0],[-45,-111],[-23,-5],[-48,-69],[-50,-35],[-47,8],[-44,-7],[-39,25],[1,47],[-47,17],[-49,62],[-10,38],[-70,33]],[[2067,4796],[4,-113],[-4,-578],[-295,1],[-1,-430]],[[586,3625],[42,59],[40,26],[0,50],[-34,59],[18,73],[-51,49],[19,69],[-8,36],[28,33],[68,17],[-13,76],[4,39],[55,72],[32,7],[35,53],[18,58],[5,74],[32,39],[34,92],[42,79],[-11,88]]],"transform":{"scale":[0.0005148896545642058,0.00040589205692354285],"translate":[-94.0431469938267,28.93164]},"objects":{"22":{"type":"GeometryCollection","geometries":[{"arcs":[[0,1,2,3,4]],"type":"Polygon","properties":{"STATEFP":"22","COUNTYFP":"067","COUNTYNS":"00558097","GEOIDFQ":"0500000US22067","GEOID":"22067","NAME":"Morehouse","NAMELSAD":"Morehouse Parish","STUSPS":"LA","STATE_NAME":"Louisiana","LSAD":"15","ALAND":2058910720,"AWATER":28888045},"id":"22067"},{"arcs":[[5,6,7,8,9,10]],"type":"Polygon","properties":{"STATEFP":"22","COUNTYFP":"005","COUNTYNS":"00558403","GEOIDFQ":"0500000US22005","GEOID":"22005","NAME":"Ascension","NAMELSAD":"Ascension Parish","STUSPS":"LA","STATE_NAME":"Louisiana","LSAD":"15","ALAND":751104017,"AWATER":32882679},"id":"22005"},{"arcs":[[11,12,13,14,15,16]],"type":"Polygon","properties":{"STATEFP":"22","COUNTYFP":"097","COUNTYNS":"01629479","GEOIDFQ":"0500000US22097","GEOID":"22097","NAME":"St. Landry","NAMELSAD":"St. Landry Parish","STUSPS":"LA","STATE_NAME":"Louisiana","LSAD":"15","ALAND":2391536701,"AWATER":40700812},"id":"22097"},{"arcs":[[17,18,19,20,21,22,23]],"type":"Polygon","properties":{"STATEFP":"22","COUNTYFP":"029","COUNTYNS":"00558515","GEOIDFQ":"0500000US22029","GEOID":"22029","NAME":"Concordia","NAMELSAD":"Concordia Parish","STUSPS":"LA","STATE_NAME":"Louisiana","LSAD":"15","ALAND":1801869541,"AWATER":133813661},"id":"22029"},{"arcs":[[-2,24,25,26]],"type":"Polygon","properties":{"STATEFP":"22","COUNTYFP":"123","COUNTYNS":"00559578","GEOIDFQ":"0500000US22123","GEOID":"22123","NAME":"West Carroll","NAMELSAD":"West Carroll Parish","STUSPS":"LA","STATE_NAME":"Louisiana","LSAD":"15","ALAND":931582171,"AWATER":2386489},"id":"22123"},{"arcs":[[27,28,29,30,31,32,33,34,35,36,37]],"type":"Polygon","properties":{"STATEFP":"22","COUNTYFP":"057","COUNTYNS":"00558065","GEOIDFQ":"0500000US22057","GEOID":"22057","NAME":"Lafourche","NAMELSAD":"Lafourche Parish","STUSPS":"LA","STATE_NAME":"Louisiana","LSAD":"15","ALAND":2770498912,"AWATER":1032715970},"id":"22057"},{"arcs":[[[38,39,40,41,42,43,44,45]],[[46]]],"type":"MultiPolygon","properties":{"STATEFP":"22","COUNTYFP":"045","COUNTYNS":"00558576","GEOIDFQ":"0500000US22045","GEOID":"22045","NAME":"Iberia","NAMELSAD":"Iberia Parish","STUSPS":"LA","STATE_NAME":"Louisiana","LSAD":"15","ALAND":1488569316,"AWATER":1205961184},"id":"22045"},{"arcs":[[47,48,49,50,51,52,53,54]],"type":"Polygon","properties":{"STATEFP":"22","COUNTYFP":"069","COUNTYNS":"00558108","GEOIDFQ":"0500000US22069","GEOID":"22069","NAME":"Natchitoches","NAMELSAD":"Natchitoches Parish","STUSPS":"LA","STATE_NAME":"Louisiana","LSAD":"15","ALAND":3245276854,"AWATER":120549024},"id":"22069"},{"arcs":[[-7,55,56,57,58]],"type":"Polygon","properties":{"STATEFP":"22","COUNTYFP":"063","COUNTYNS":"00558083","GEOIDFQ":"0500000US22063","GEOID":"22063","NAME":"Livingston","NAMELSAD":"Livingston Parish","STUSPS":"LA","STATE_NAME":"Louisiana","LSAD":"15","ALAND":1678675963,"AWATER":112152143},"id":"22063"},{"arcs":[[[-20,59,60,61,62]],[[-22,63,64]]],"type":"MultiPolygon","properties":{"STATEFP":"22","COUNTYFP":"125","COUNTYNS":"00559584","GEOIDFQ":"0500000US22125","GEOID":"22125","NAME":"West Feliciana","NAMELSAD":"West Feliciana Parish","STUSPS":"LA","STATE_NAME":"Louisiana","LSAD":"15","ALAND":1044331367,"AWATER":59004828},"id":"22125"},{"arcs":[[-48,65,66,67,68]],"type":"Polygon","properties":{"STATEFP":"22","COUNTYFP":"031","COUNTYNS":"00558521","GEOIDFQ":"0500000US22031","GEOID":"22031","NAME":"De Soto","NAMELSAD":"De Soto Parish","STUSPS":"LA","STATE_NAME":"Louisiana","LSAD":"15","ALAND":2269995451,"AWATER":46986389},"id":"22031"},{"arcs":[[-6,69,70,71,72,-56]],"type":"Polygon","properties":{"STATEFP":"22","COUNTYFP":"033","COUNTYNS":"00558530","GEOIDFQ":"0500000US22033","GEOID":"22033","NAME":"East Baton Rouge","NAMELSAD":"East Baton Rouge Parish","STUSPS":"LA","STATE_NAME":"Louisiana","LSAD":"15","ALAND":1179721416,"AWATER":38467136},"id":"22033"},{"arcs":[[-15,73,-39,74,75]],"type":"Polygon","properties":{"STATEFP":"22","COUNTYFP":"055","COUNTYNS":"00558059","GEOIDFQ":"0500000US22055","GEOID":"22055","NAME":"Lafayette","NAMELSAD":"Lafayette Parish","STUSPS":"LA","STATE_NAME":"Louisiana","LSAD":"15","ALAND":696273651,"AWATER":1133087},"id":"22055"},{"arcs":[[-54,76,77,78,79,80]],"type":"Polygon","properties":{"STATEFP":"22","COUNTYFP":"115","COUNTYNS":"00559548","GEOIDFQ":"0500000US22115","GEOID":"22115","NAME":"Vernon","NAMELSAD":"Vernon Parish","STUSPS":"LA","STATE_NAME":"Louisiana","LSAD":"15","ALAND":3436209073,"AWATER":35117465},"id":"22115"},{"arcs":[[81,82,83,84]],"type":"Polygon","properties":{"STATEFP":"22","COUNTYFP":"117","COUNTYNS":"00559557","GEOIDFQ":"0500000US22117","GEOID":"22117","NAME":"Washington","NAMELSAD":"Washington Parish","STUSPS":"LA","STATE_NAME":"Louisiana","LSAD":"15","ALAND":1734352074,"AWATER":16140411},"id":"22117"},{"arcs":[[[-31,85,86,87,88,89,90]],[[-33,91]],[[-35,92]],[[93]]],"type":"MultiPolygon","properties":{"STATEFP":"22","COUNTYFP":"051","COUNTYNS":"00558027","GEOIDFQ":"0500000US22051","GEOID":"22051","NAME":"Jefferson","NAMELSAD":"Jefferson Parish","STUSPS":"LA","STATE_NAME":"Louisiana","LSAD":"15","ALAND":779233474,"AWATER":883630957},"id":"22051"},{"arcs":[[94,95,96,97,98,99]],"type":"Polygon","properties":{"STATEFP":"22","COUNTYFP":"059","COUNTYNS":"00558049","GEOIDFQ":"0500000US22059","GEOID":"22059","NAME":"LaSalle","NAMELSAD":"LaSalle Parish","STUSPS":"LA","STATE_NAME":"Louisiana","LSAD":"15","ALAND":1618363239,"AWATER":97655624},"id":"22059"},{"arcs":[[-89,100,101,102,103]],"type":"Polygon","properties":{"STATEFP":"22","COUNTYFP":"071","COUNTYNS":"00558113","GEOIDFQ":"0500000US22071","GEOID":"22071","NAME":"Orleans","NAMELSAD":"Orleans Parish","STUSPS":"LA","STATE_NAME":"Louisiana","LSAD":"15","ALAND":439205384,"AWATER":466898940},"id":"22071"},{"arcs":[[-53,104,-99,105,106,107,-77]],"type":"Polygon","properties":{"STATEFP":"22","COUNTYFP":"079","COUNTYNS":"00559460","GEOIDFQ":"0500000US22079","GEOID":"22079","NAME":"Rapides","NAMELSAD":"Rapides Parish","STUSPS":"LA","STATE_NAME":"Louisiana","LSAD":"15","ALAND":3429351470,"AWATER":96970265},"id":"22079"},{"arcs":[[-58,108,109,-84,110,111]],"type":"Polygon","properties":{"STATEFP":"22","COUNTYFP":"105","COUNTYNS":"00559500","GEOIDFQ":"0500000US22105","GEOID":"22105","NAME":"Tangipahoa","NAMELSAD":"Tangipahoa Parish","STUSPS":"LA","STATE_NAME":"Louisiana","LSAD":"15","ALAND":2049146774,"AWATER":136668419},"id":"22105"},{"arcs":[[-57,-73,112,113,-109]],"type":"Polygon","properties":{"STATEFP":"22","COUNTYFP":"091","COUNTYNS":"01629457","GEOIDFQ":"0500000US22091","GEOID":"22091","NAME":"St. Helena","NAMELSAD":"St. Helena Parish","STUSPS":"LA","STATE_NAME":"Louisiana","LSAD":"15","ALAND":1058078906,"AWATER":2796358},"id":"22091"},{"arcs":[[-44,114,115,116,117]],"type":"Polygon","properties":{"STATEFP":"22","COUNTYFP":"101","COUNTYNS":"01629492","GEOIDFQ":"0500000US22101","GEOID":"22101","NAME":"St. Mary","NAMELSAD":"St. Mary Parish","STUSPS":"LA","STATE_NAME":"Louisiana","LSAD":"15","ALAND":1446581822,"AWATER":1453489233},"id":"22101"},{"arcs":[[[-37,118,-117,119]],[[120]]],"type":"MultiPolygon","properties":{"STATEFP":"22","COUNTYFP":"109","COUNTYNS":"00559517","GEOIDFQ":"0500000US22109","GEOID":"22109","NAME":"Terrebonne","NAMELSAD":"Terrebonne Parish","STUSPS":"LA","STATE_NAME":"Louisiana","LSAD":"15","ALAND":3185387995,"AWATER":2207596953},"id":"22109"},{"arcs":[[-83,121,-101,-88,122,-111]],"type":"Polygon","properties":{"STATEFP":"22","COUNTYFP":"103","COUNTYNS":"01629503","GEOIDFQ":"0500000US22103","GEOID":"22103","NAME":"St. Tammany","NAMELSAD":"St. Tammany Parish","STUSPS":"LA","STATE_NAME":"Louisiana","LSAD":"15","ALAND":2189336604,"AWATER":648310301},"id":"22103"},{"arcs":[[-4,123,124,125,126,127]],"type":"Polygon","properties":{"STATEFP":"22","COUNTYFP":"073","COUNTYNS":"00558114","GEOIDFQ":"0500000US22073","GEOID":"22073","NAME":"Ouachita","NAMELSAD":"Ouachita Parish","STUSPS":"LA","STATE_NAME":"Louisiana","LSAD":"15","ALAND":1580268245,"AWATER":55857421},"id":"22073"},{"arcs":[[[128,129]],[[130,131,132,133,134]]],"type":"MultiPolygon","properties":{"STATEFP":"22","COUNTYFP":"065","COUNTYNS":"00558088","GEOIDFQ":"0500000US22065","GEOID":"22065","NAME":"Madison","NAMELSAD":"Madison Parish","STUSPS":"LA","STATE_NAME":"Louisiana","LSAD":"15","ALAND":1615854946,"AWATER":68460376},"id":"22065"},{"arcs":[[-12,135,-106,-98,136,-23,-65,137]],"type":"Polygon","properties":{"STATEFP":"22","COUNTYFP":"009","COUNTYNS":"00558424","GEOIDFQ":"0500000US22009","GEOID":"22009","NAME":"Avoyelles","NAMELSAD":"Avoyelles Parish","STUSPS":"LA","STATE_NAME":"Louisiana","LSAD":"15","ALAND":2153219966,"AWATER":88761321},"id":"22009"},{"arcs":[[[-103,138,139]],[[140]],[[141]]],"type":"MultiPolygon","properties":{"STATEFP":"22","COUNTYFP":"087","COUNTYNS":"01629542","GEOIDFQ":"0500000US22087","GEOID":"22087","NAME":"St. Bernard","NAMELSAD":"St. Bernard Parish","STUSPS":"LA","STATE_NAME":"Louisiana","LSAD":"15","ALAND":977793085,"AWATER":4604160977},"id":"22087"},{"arcs":[[[-14,142,143,-40,-74]],[[-43,144,-115]]],"type":"MultiPolygon","properties":{"STATEFP":"22","COUNTYFP":"099","COUNTYNS":"01629486","GEOIDFQ":"0500000US22099","GEOID":"22099","NAME":"St. Martin","NAMELSAD":"St. Martin Parish","STUSPS":"LA","STATE_NAME":"Louisiana","LSAD":"15","ALAND":1910243676,"AWATER":205089900},"id":"22099"},{"arcs":[[-68,145,146,147]],"type":"Polygon","properties":{"STATEFP":"22","COUNTYFP":"017","COUNTYNS":"00558458","GEOIDFQ":"0500000US22017","GEOID":"22017","NAME":"Caddo","NAMELSAD":"Caddo Parish","STUSPS":"LA","STATE_NAME":"Louisiana","LSAD":"15","ALAND":2277984211,"AWATER":148927901},"id":"22017"},{"arcs":[[148,-66,-55,-81,149]],"type":"Polygon","properties":{"STATEFP":"22","COUNTYFP":"085","COUNTYNS":"00559489","GEOIDFQ":"0500000US22085","GEOID":"22085","NAME":"Sabine","NAMELSAD":"Sabine Parish","STUSPS":"LA","STATE_NAME":"Louisiana","LSAD":"15","ALAND":2244564119,"AWATER":375297082},"id":"22085"},{"arcs":[[-3,-27,150,-131,151,152,-124]],"type":"Polygon","properties":{"STATEFP":"22","COUNTYFP":"083","COUNTYNS":"00559481","GEOIDFQ":"0500000US22083","GEOID":"22083","NAME":"Richland","NAMELSAD":"Richland Parish","STUSPS":"LA","STATE_NAME":"Louisiana","LSAD":"15","ALAND":1439031396,"AWATER":22771218},"id":"22083"},{"arcs":[[[-90,-104,-140,153]],[[154]]],"type":"MultiPolygon","properties":{"STATEFP":"22","COUNTYFP":"075","COUNTYNS":"00558125","GEOIDFQ":"0500000US22075","GEOID":"22075","NAME":"Plaquemines","NAMELSAD":"Plaquemines Parish","STUSPS":"LA","STATE_NAME":"Louisiana","LSAD":"15","ALAND":2021731566,"AWATER":4627380282},"id":"22075"},{"arcs":[[-17,155,156,157,-107,-136]],"type":"Polygon","properties":{"STATEFP":"22","COUNTYFP":"039","COUNTYNS":"00558551","GEOIDFQ":"0500000US22039","GEOID":"22039","NAME":"Evangeline","NAMELSAD":"Evangeline Parish","STUSPS":"LA","STATE_NAME":"Louisiana","LSAD":"15","ALAND":1715688314,"AWATER":44661244},"id":"22039"},{"arcs":[[-13,-138,-64,-21,-63,158,159,-143]],"type":"Polygon","properties":{"STATEFP":"22","COUNTYFP":"077","COUNTYNS":"00559449","GEOIDFQ":"0500000US22077","GEOID":"22077","NAME":"Pointe Coupee","NAMELSAD":"Pointe Coupee Parish","STUSPS":"LA","STATE_NAME":"Louisiana","LSAD":"15","ALAND":1438726036,"AWATER":90290883},"id":"22077"},{"arcs":[[160,161,162,163]],"type":"Polygon","properties":{"STATEFP":"22","COUNTYFP":"119","COUNTYNS":"00559567","GEOIDFQ":"0500000US22119","GEOID":"22119","NAME":"Webster","NAMELSAD":"Webster Parish","STUSPS":"LA","STATE_NAME":"Louisiana","LSAD":"15","ALAND":1536688185,"AWATER":55947134},"id":"22119"},{"arcs":[[-5,-128,164,165,166]],"type":"Polygon","properties":{"STATEFP":"22","COUNTYFP":"111","COUNTYNS":"00559528","GEOIDFQ":"0500000US22111","GEOID":"22111","NAME":"Union","NAMELSAD":"Union Parish","STUSPS":"LA","STATE_NAME":"Louisiana","LSAD":"15","ALAND":2271194917,"AWATER":73614581},"id":"22111"},{"arcs":[[-50,167,168,-163,169,170,171,172]],"type":"Polygon","properties":{"STATEFP":"22","COUNTYFP":"013","COUNTYNS":"00558445","GEOIDFQ":"0500000US22013","GEOID":"22013","NAME":"Bienville","NAMELSAD":"Bienville Parish","STUSPS":"LA","STATE_NAME":"Louisiana","LSAD":"15","ALAND":2101328094,"AWATER":28015283},"id":"22013"},{"arcs":[[-157,173,174,175,176,177,178]],"type":"Polygon","properties":{"STATEFP":"22","COUNTYFP":"053","COUNTYNS":"00558039","GEOIDFQ":"0500000US22053","GEOID":"22053","NAME":"Jefferson Davis","NAMELSAD":"Jefferson Davis Parish","STUSPS":"LA","STATE_NAME":"Louisiana","LSAD":"15","ALAND":1687430142,"AWATER":18666917},"id":"22053"},{"arcs":[[179,-164,-169,180,-147,181]],"type":"Polygon","properties":{"STATEFP":"22","COUNTYFP":"015","COUNTYNS":"00558453","GEOIDFQ":"0500000US22015","GEOID":"22015","NAME":"Bossier","NAMELSAD":"Bossier Parish","STUSPS":"LA","STATE_NAME":"Louisiana","LSAD":"15","ALAND":2174607055,"AWATER":70690676},"id":"22015"},{"arcs":[[-18,182,183,-134,184,-129,185]],"type":"Polygon","properties":{"STATEFP":"22","COUNTYFP":"107","COUNTYNS":"00559509","GEOIDFQ":"0500000US22107","GEOID":"22107","NAME":"Tensas","NAMELSAD":"Tensas Parish","STUSPS":"LA","STATE_NAME":"Louisiana","LSAD":"15","ALAND":1562545688,"AWATER":99432220},"id":"22107"},{"arcs":[[-61,186,-113,-72,187]],"type":"Polygon","properties":{"STATEFP":"22","COUNTYFP":"037","COUNTYNS":"00558542","GEOIDFQ":"0500000US22037","GEOID":"22037","NAME":"East Feliciana","NAMELSAD":"East Feliciana Parish","STUSPS":"LA","STATE_NAME":"Louisiana","LSAD":"15","ALAND":1174022929,"AWATER":6150607},"id":"22037"},{"arcs":[[-46,188,189,-175,190,-75]],"type":"Polygon","properties":{"STATEFP":"22","COUNTYFP":"113","COUNTYNS":"00559538","GEOIDFQ":"0500000US22113","GEOID":"22113","NAME":"Vermilion","NAMELSAD":"Vermilion Parish","STUSPS":"LA","STATE_NAME":"Louisiana","LSAD":"15","ALAND":3035623041,"AWATER":932156061},"id":"22113"},{"arcs":[[-51,-173,191,192,-95,193]],"type":"Polygon","properties":{"STATEFP":"22","COUNTYFP":"127","COUNTYNS":"00559594","GEOIDFQ":"0500000US22127","GEOID":"22127","NAME":"Winn","NAMELSAD":"Winn Parish","STUSPS":"LA","STATE_NAME":"Louisiana","LSAD":"15","ALAND":2460497670,"AWATER":17449604},"id":"22127"},{"arcs":[[-96,-193,194,-125,-153,195,196]],"type":"Polygon","properties":{"STATEFP":"22","COUNTYFP":"021","COUNTYNS":"00558477","GEOIDFQ":"0500000US22021","GEOID":"22021","NAME":"Caldwell","NAMELSAD":"Caldwell Parish","STUSPS":"LA","STATE_NAME":"Louisiana","LSAD":"15","ALAND":1372098437,"AWATER":29104196},"id":"22021"},{"arcs":[[197,198,-176,-190,199]],"type":"Polygon","properties":{"STATEFP":"22","COUNTYFP":"023","COUNTYNS":"00558488","GEOIDFQ":"0500000US22023","GEOID":"22023","NAME":"Cameron","NAMELSAD":"Cameron Parish","STUSPS":"LA","STATE_NAME":"Louisiana","LSAD":"15","ALAND":3327198789,"AWATER":1688891186},"id":"22023"},{"arcs":[[-127,200,-171,201,-165]],"type":"Polygon","properties":{"STATEFP":"22","COUNTYFP":"061","COUNTYNS":"00558077","GEOIDFQ":"0500000US22061","GEOID":"22061","NAME":"Lincoln","NAMELSAD":"Lincoln Parish","STUSPS":"LA","STATE_NAME":"Louisiana","LSAD":"15","ALAND":1221532395,"AWATER":1897706},"id":"22061"},{"arcs":[[-9,202,-28,203]],"type":"Polygon","properties":{"STATEFP":"22","COUNTYFP":"093","COUNTYNS":"01629464","GEOIDFQ":"0500000US22093","GEOID":"22093","NAME":"St. James","NAMELSAD":"St. James Parish","STUSPS":"LA","STATE_NAME":"Louisiana","LSAD":"15","ALAND":616057911,"AWATER":38773983},"id":"22093"},{"arcs":[[-10,-204,-38,-120,-116,-145,-42,204]],"type":"Polygon","properties":{"STATEFP":"22","COUNTYFP":"007","COUNTYNS":"00558414","GEOIDFQ":"0500000US22007","GEOID":"22007","NAME":"Assumption","NAMELSAD":"Assumption Parish","STUSPS":"LA","STATE_NAME":"Louisiana","LSAD":"15","ALAND":891003472,"AWATER":67111377},"id":"22007"},{"arcs":[[-26,205,-132,-151]],"type":"Polygon","properties":{"STATEFP":"22","COUNTYFP":"035","COUNTYNS":"00558534","GEOIDFQ":"0500000US22035","GEOID":"22035","NAME":"East Carroll","NAMELSAD":"East Carroll Parish","STUSPS":"LA","STATE_NAME":"Louisiana","LSAD":"15","ALAND":1090984474,"AWATER":55519699},"id":"22035"},{"arcs":[[-162,206,-166,-202,-170]],"type":"Polygon","properties":{"STATEFP":"22","COUNTYFP":"027","COUNTYNS":"00558505","GEOIDFQ":"0500000US22027","GEOID":"22027","NAME":"Claiborne","NAMELSAD":"Claiborne Parish","STUSPS":"LA","STATE_NAME":"Louisiana","LSAD":"15","ALAND":1954908518,"AWATER":32473223},"id":"22027"},{"arcs":[[-8,-59,-112,-123,-87,207,-29,-203]],"type":"Polygon","properties":{"STATEFP":"22","COUNTYFP":"095","COUNTYNS":"01629472","GEOIDFQ":"0500000US22095","GEOID":"22095","NAME":"St. John the Baptist","NAMELSAD":"St. John the Baptist Parish","STUSPS":"LA","STATE_NAME":"Louisiana","LSAD":"15","ALAND":555484724,"AWATER":506440075},"id":"22095"},{"arcs":[[208,209,-177,-199]],"type":"Polygon","properties":{"STATEFP":"22","COUNTYFP":"019","COUNTYNS":"00558468","GEOIDFQ":"0500000US22019","GEOID":"22019","NAME":"Calcasieu","NAMELSAD":"Calcasieu Parish","STUSPS":"LA","STATE_NAME":"Louisiana","LSAD":"15","ALAND":2756236675,"AWATER":77635805},"id":"22019"},{"arcs":[[-16,-76,-191,-174,-156]],"type":"Polygon","properties":{"STATEFP":"22","COUNTYFP":"001","COUNTYNS":"00558389","GEOIDFQ":"0500000US22001","GEOID":"22001","NAME":"Acadia","NAMELSAD":"Acadia Parish","STUSPS":"LA","STATE_NAME":"Louisiana","LSAD":"15","ALAND":1697073812,"AWATER":5934788},"id":"22001"},{"arcs":[[-49,-69,-148,-181,-168]],"type":"Polygon","properties":{"STATEFP":"22","COUNTYFP":"081","COUNTYNS":"00559472","GEOIDFQ":"0500000US22081","GEOID":"22081","NAME":"Red River","NAMELSAD":"Red River Parish","STUSPS":"LA","STATE_NAME":"Louisiana","LSAD":"15","ALAND":1007453088,"AWATER":34259705},"id":"22081"},{"arcs":[[-30,-208,-86]],"type":"Polygon","properties":{"STATEFP":"22","COUNTYFP":"089","COUNTYNS":"01629449","GEOIDFQ":"0500000US22089","GEOID":"22089","NAME":"St. Charles","NAMELSAD":"St. Charles Parish","STUSPS":"LA","STATE_NAME":"Louisiana","LSAD":"15","ALAND":719347896,"AWATER":308635082},"id":"22089"},{"arcs":[[-126,-195,-192,-172,-201]],"type":"Polygon","properties":{"STATEFP":"22","COUNTYFP":"049","COUNTYNS":"00558592","GEOIDFQ":"0500000US22049","GEOID":"22049","NAME":"Jackson","NAMELSAD":"Jackson Parish","STUSPS":"LA","STATE_NAME":"Louisiana","LSAD":"15","ALAND":1475399185,"AWATER":27929700},"id":"22049"},{"arcs":[[-62,-188,-71,210,-159]],"type":"Polygon","properties":{"STATEFP":"22","COUNTYFP":"121","COUNTYNS":"00559570","GEOIDFQ":"0500000US22121","GEOID":"22121","NAME":"West Baton Rouge","NAMELSAD":"West Baton Rouge Parish","STUSPS":"LA","STATE_NAME":"Louisiana","LSAD":"15","ALAND":498174686,"AWATER":29604698},"id":"22121"},{"arcs":[[-135,-184,211,-196,-152]],"type":"Polygon","properties":{"STATEFP":"22","COUNTYFP":"041","COUNTYNS":"00558557","GEOIDFQ":"0500000US22041","GEOID":"22041","NAME":"Franklin","NAMELSAD":"Franklin Parish","STUSPS":"LA","STATE_NAME":"Louisiana","LSAD":"15","ALAND":1616925547,"AWATER":28050179},"id":"22041"},{"arcs":[[-24,-137,-97,-197,-212,-183]],"type":"Polygon","properties":{"STATEFP":"22","COUNTYFP":"025","COUNTYNS":"00558495","GEOIDFQ":"0500000US22025","GEOID":"22025","NAME":"Catahoula","NAMELSAD":"Catahoula Parish","STUSPS":"LA","STATE_NAME":"Louisiana","LSAD":"15","ALAND":1836953697,"AWATER":78178418},"id":"22025"},{"arcs":[[-11,-205,-41,-144,-160,-211,-70]],"type":"Polygon","properties":{"STATEFP":"22","COUNTYFP":"047","COUNTYNS":"00558582","GEOIDFQ":"0500000US22047","GEOID":"22047","NAME":"Iberville","NAMELSAD":"Iberville Parish","STUSPS":"LA","STATE_NAME":"Louisiana","LSAD":"15","ALAND":1598734777,"AWATER":92400695},"id":"22047"},{"arcs":[[-79,212,-178,-210,213]],"type":"Polygon","properties":{"STATEFP":"22","COUNTYFP":"011","COUNTYNS":"00558436","GEOIDFQ":"0500000US22011","GEOID":"22011","NAME":"Beauregard","NAMELSAD":"Beauregard Parish","STUSPS":"LA","STATE_NAME":"Louisiana","LSAD":"15","ALAND":2997854115,"AWATER":21942931},"id":"22011"},{"arcs":[[-52,-194,-100,-105]],"type":"Polygon","properties":{"STATEFP":"22","COUNTYFP":"043","COUNTYNS":"00558567","GEOIDFQ":"0500000US22043","GEOID":"22043","NAME":"Grant","NAMELSAD":"Grant Parish","STUSPS":"LA","STATE_NAME":"Louisiana","LSAD":"15","ALAND":1667305572,"AWATER":54548379},"id":"22043"},{"arcs":[[-78,-108,-158,-179,-213]],"type":"Polygon","properties":{"STATEFP":"22","COUNTYFP":"003","COUNTYNS":"00558397","GEOIDFQ":"0500000US22003","GEOID":"22003","NAME":"Allen","NAMELSAD":"Allen Parish","STUSPS":"LA","STATE_NAME":"Louisiana","LSAD":"15","ALAND":1973790915,"AWATER":10455560},"id":"22003"}]}}}