{"type":"Topology","arcs":[[[454,3890],[101,-453],[-80,-8],[35,-156],[15,2],[41,-152],[8,-188],[281,111],[191,-295],[-72,-29],[491,-73],[-16,-51],[16,-62],[55,-3],[22,-78]],[[1542,2455],[-65,-32],[-8,-45],[25,-91],[-110,-271],[-16,4],[-276,-264],[10,-50]],[[1102,1706],[-53,17],[-64,-63],[-52,18],[-40,27],[-33,55],[17,45],[-5,23],[34,37],[-21,48],[-47,37],[-130,-65],[-7,9],[-223,-109],[-67,32],[0,-62],[19,-18],[102,-17],[19,-15],[121,-122],[-58,-28],[32,-31],[-51,-38],[6,-32],[-20,-30],[-29,5],[-37,-32],[34,-73]],[[549,1324],[-30,-11],[-76,3],[-37,-9],[-35,11],[-59,-18],[-26,-18],[-55,-9],[-58,12]],[[173,1285],[-7,218],[-15,310],[-17,337],[-4,98],[-26,381],[-8,171],[-24,333],[-27,280],[-32,425],[-13,103],[45,14],[49,-6],[43,16],[7,46],[35,-23],[61,12],[13,-24],[50,-24],[10,-28],[-17,-29],[42,-37],[0,-25],[25,-16],[51,-10],[15,60],[25,23]],[[1935,6166],[551,1]],[[2486,6167],[4,-316],[-24,0],[7,-732],[82,12],[67,-210],[-79,-18],[-33,56],[-31,-21],[38,-48],[-22,-30],[14,-32],[-38,-61],[9,-18],[-125,-8],[-28,-50],[7,-29],[26,-11],[9,-31],[56,-23],[19,-28],[38,-11],[40,-52],[-35,-45],[15,-17],[-34,-44],[-89,-43],[93,-287],[52,-152],[-7,-34],[38,-107],[-7,-7],[59,-190],[17,2],[45,-158],[192,25],[37,21],[-8,29],[263,35]],[[3153,3534],[136,-465],[-9,-1],[35,-151]],[[3315,2917],[-110,-13],[-30,62],[-71,7],[-28,-13],[5,-25],[-35,-24],[-5,-31],[-100,-14]],[[2941,2866],[3,44],[-24,4],[-273,-35],[8,-49],[90,-80],[-25,-44],[7,-22],[-30,-21],[-249,37],[-62,17],[-31,-54],[-46,7],[-4,38],[-60,32],[-141,-18]],[[2104,2722],[-30,65],[-22,23],[-2,35],[-66,-6],[-31,140],[23,3],[-4,51],[-23,-2],[-32,136],[-177,-24],[-40,160],[76,9],[-26,102],[-63,216],[-246,-32],[-26,93],[-103,-10],[2,-9],[-100,-15],[-76,277],[-107,369],[24,3],[-86,271]],[[969,4577],[48,-3],[110,70],[50,-3],[70,27],[22,52],[-33,22],[1,25],[-20,33],[38,7],[15,35],[52,29],[31,29],[66,13],[40,22],[56,54],[-18,37],[42,35],[-65,40],[-54,-3],[-8,27],[13,33],[-27,36],[69,57],[-49,16],[10,39],[21,19],[63,28],[28,57],[-97,86],[40,35],[41,97],[32,42],[46,16],[-3,55],[65,49],[43,-1],[108,91],[59,8],[61,278]],[[3315,2917],[113,13],[39,-150],[173,27],[458,75],[40,-32]],[[4138,2850],[-12,-35],[-45,-68],[4,-21],[39,-30],[15,-32],[31,-17],[-14,-26],[7,-50]],[[4163,2571],[-23,-50],[-37,-26],[7,-41],[-97,-53],[-23,40],[-45,10],[-19,-31],[-33,-15],[-81,-14],[24,-41],[60,-76],[-11,-56],[-47,-51],[-27,5],[-18,-41],[-43,-44]],[[3750,2087],[-27,18],[-143,-7],[-269,192],[-141,-99],[-88,61],[-27,-27]],[[3055,2225],[-177,27]],[[2878,2252],[111,212],[90,-12],[43,153],[-81,12],[44,157],[-123,11],[32,45],[-60,7],[7,29]],[[3907,2149],[26,33],[47,37],[-17,71],[15,24],[71,-6],[1,-35],[-49,-33],[-16,-43],[24,-13],[-30,-43],[-20,-49],[-26,56],[-26,1]],[[549,1324],[31,-38],[60,-5],[37,17],[68,-18],[23,4],[35,-63],[-29,-78],[18,-21],[35,9],[64,-13],[33,-17],[50,50],[168,-129],[-62,-62],[253,-125]],[[1333,835],[-58,-70],[4,-46],[19,-25],[64,3],[-3,-24],[-42,-7],[-27,-21],[-7,-28],[-86,-39],[21,-49],[-103,-33],[-20,8],[-62,-5],[-32,-13],[-50,-46],[-57,-108],[33,-48],[-33,-57],[-46,-45],[-28,-76],[-52,-56],[-19,-32],[-56,-18],[-4,27],[-58,-2],[-33,10],[-22,24],[-94,51],[-26,43],[19,48],[12,71],[-2,41],[-38,8],[-8,20],[-70,32],[-27,23],[-36,61],[-38,30],[-55,11],[-31,57],[-5,67],[47,42],[1,50],[-16,34],[28,57],[-15,39],[21,18],[-40,34],[-6,96],[-24,293]],[[454,3890],[41,45],[11,32],[-23,26],[17,23],[7,49],[-36,42],[81,54],[47,-5],[47,-51],[32,-15],[63,7],[49,-31],[49,51],[-6,28],[-43,40],[-44,14],[-31,39],[-47,27],[13,52],[42,51],[-2,22],[54,45],[26,35],[46,9],[50,31],[72,67]],[[2104,2722],[5,-12],[-47,-52],[-158,25],[-4,-31],[-54,-73],[67,-38],[-13,-40],[-159,4]],[[1741,2505],[-131,-16],[-68,-34]],[[3055,2225],[-50,-6],[-26,-18],[19,-52],[-16,-39],[30,-62],[54,-14],[-5,-14],[62,-10],[63,7],[62,-134],[0,-64],[39,-56],[0,-21],[-50,-13],[-46,-71],[-20,25],[-33,-11],[-8,-31]],[[3130,1641],[-29,-36],[-28,14],[-70,-12],[-45,-136],[-36,-34],[-38,-72],[-19,12],[-22,57],[-44,5],[9,-33],[-13,-46],[-43,13],[-53,28],[-16,-36],[-67,-2],[8,-30],[-14,-50],[-59,34],[-9,26],[19,55],[-41,-3]],[[2520,1395],[-37,-3],[-12,41],[-26,30],[66,59],[-25,8],[3,69],[36,62],[-207,34],[42,29],[14,50],[-6,29],[21,21],[30,70]],[[2419,1894],[185,-29],[-16,184],[28,92],[187,-33],[48,34],[27,110]],[[2486,6167],[621,-2],[1021,-1],[-1,-310],[4,0]],[[4131,5854],[-2,-318],[-2,-84],[-10,-846],[-240,-39],[15,-42],[-2,-99],[-24,-122],[196,26],[48,-149],[100,-355],[-191,-27],[45,-144],[-232,-29],[-258,-37],[-421,-55]],[[2520,1395],[-6,-60],[-16,-18],[-13,-50],[-35,-22],[-24,-45],[-145,-45],[-44,10],[17,32],[-24,31],[-47,31]],[[2183,1259],[0,19],[32,51],[-9,60],[-37,23],[3,25],[52,71],[14,45],[-32,15],[-67,-55],[-41,-17],[-37,19],[-40,-14],[-58,47],[-22,7],[-26,52]],[[1915,1607],[-30,32],[34,17],[-10,27],[19,43],[40,142]],[[1968,1868],[196,-29],[36,80],[42,25],[167,-25],[10,-25]],[[4138,2850],[33,9],[47,-43],[51,-7],[31,62],[66,45],[80,-31],[55,65],[313,39],[-102,382],[229,29],[-39,151],[231,29],[-61,213],[454,55]],[[5526,3848],[38,-126],[95,-395],[-224,-29],[41,-157],[46,-155],[41,-153],[34,4],[41,-148],[-43,-5],[47,-152],[26,-8],[-9,-43]],[[5659,2481],[-19,-23],[38,-87],[24,-21],[-46,-26],[-37,47],[-28,-21],[9,-23],[-25,-32],[-32,-17],[5,-25],[-44,-14],[-16,21],[-3,72],[-31,-3],[-33,26],[5,26],[-18,51],[8,39],[-44,18],[-4,24],[-35,7],[-19,-45],[-34,9],[-22,78],[-17,1],[-13,-47],[-46,-37],[-92,-1],[24,-36],[-32,-3],[-45,22],[-12,-22],[-44,8],[-25,-41],[37,-15],[64,39],[32,-20],[48,12],[38,-12],[14,-42],[44,-33],[34,-7],[41,-72],[-26,-67],[-65,-30],[-128,-6],[-47,2],[46,-46],[7,-27],[-35,-32],[-53,-9],[-22,25],[-97,29],[-48,79],[0,24],[35,17],[-10,40],[38,33],[-3,22],[76,28],[-22,50],[-27,22],[-55,-59],[-32,-5],[-5,30],[12,49],[3,65],[-76,20],[-2,-38],[18,-38],[-23,-12],[23,-35],[-26,-28],[-26,72],[-23,-54],[-27,-2],[-25,-26],[-49,9],[-21,-16],[38,-69],[-32,-39],[-2,-44],[51,-29],[31,-56],[-54,-28],[-52,19],[-48,36],[-52,20],[-104,18],[-14,22],[-78,43],[-41,-7],[-60,-38],[-59,8],[3,39],[29,69],[-19,13],[6,77],[28,17],[4,25],[39,63],[-14,47],[-30,23]],[[5125,2104],[44,-2],[14,-29],[-43,-12],[-19,11],[4,32]],[[4941,1854],[46,21],[36,-33],[-12,-14],[-57,10],[-13,16]],[[4793,2254],[12,23],[44,26],[21,-26],[-57,-57],[-20,34]],[[4712,1920],[91,66],[28,-41],[51,14],[45,-36],[-17,-24],[-84,-45],[-31,36],[-5,32],[-41,-15],[-37,13]],[[4659,2235],[17,44],[4,39],[32,3],[41,-110],[-85,7],[-9,17]],[[4292,2041],[60,18],[2,24],[34,31],[30,10],[43,-11],[54,-34],[12,-38],[69,-30],[1,-25],[-28,-11],[-62,-2],[-51,-46],[-48,-10],[-75,9],[-23,24],[14,50],[-32,41]],[[4269,2177],[7,13],[83,-28],[-13,-37],[-77,52]],[[3750,2087],[-21,-27],[-5,-33],[-30,-12],[4,-44],[-30,-13],[-14,-33],[9,-39],[-11,-33],[-34,2],[-9,-27],[14,-32],[76,21],[6,-32],[-75,-67],[-62,-38],[27,-40],[-40,5],[-76,-20],[-14,-46],[-35,-31],[-128,-49],[-11,15],[23,37],[-38,25],[-68,23],[6,-35],[-77,-13],[63,49],[-70,41]],[[4402,1783],[75,14],[14,20],[38,-16],[1,-72],[-22,-57],[-27,16],[-61,-8],[19,84],[-37,19]],[[3963,1819],[5,28],[39,23],[48,-25],[70,21],[31,-11],[62,-67],[-5,-25],[-73,-56],[-54,14],[-47,-15],[-18,76],[-58,37]],[[3904,1848],[51,63],[53,21],[75,41],[39,3],[22,-63],[-31,1],[-100,-37],[-16,17],[-61,-24],[-32,-22]],[[1741,2505],[53,-182],[-39,-4],[-13,-23],[48,-54],[7,-31],[44,-37],[-2,-162],[28,-26],[122,-19],[-9,-24],[-36,-16],[-16,-48],[40,-11]],[[1915,1607],[-85,-86],[-21,9],[-43,-44],[-148,69],[-6,11],[-210,150],[-88,-90],[-58,29],[-12,-23],[-142,74]],[[2183,1259],[-26,-10],[-55,21],[-45,-20],[-29,-33],[-41,-17],[-89,8],[44,34],[47,73],[72,68],[4,15],[-79,-8],[-44,12],[-45,-42],[-92,-33],[-76,-37],[-31,-34],[-61,-4],[-20,-35],[7,-21],[-105,-99],[19,-45],[29,-16],[7,-30],[25,-17],[-18,-46],[26,-19],[11,-37],[-48,-2],[-38,-22],[-52,19],[-48,-21],[-28,-27],[-26,10],[-45,-9]],[[1725,1172],[23,31],[52,5],[-36,-44],[-39,8]],[[5526,3848],[210,27],[-49,147],[16,3],[-164,503]],[[5539,4528],[442,70]],[[5981,4598],[67,-4],[64,-23],[5,24],[33,5],[68,-88],[54,-31],[13,21],[56,-34],[34,1],[52,-20],[28,4],[85,-18],[25,25],[55,6],[47,-37],[16,-59],[-21,-16],[15,-62],[-46,-11],[-25,16],[-67,-53],[32,-31],[18,-65],[20,-2],[63,-57],[10,-28],[-14,-52],[-30,-25],[-28,-52],[-52,-34],[23,-11],[24,-54],[43,-30],[22,-44],[50,-43],[-8,-31],[45,-14],[48,-39],[59,3],[36,45],[22,56],[34,4],[45,-18],[35,-30],[43,13],[84,-18],[83,-85],[39,-77],[-49,-21],[65,-47],[25,-51],[25,-25],[39,-82],[34,-24],[55,-24],[-19,-36],[27,-63],[-30,-20],[37,-64],[-91,-70],[-55,6],[-31,-52],[-35,1],[-22,-45],[-26,-26],[-37,-15],[-29,-42],[-58,-12],[-5,-30],[-82,-15],[-20,7],[8,43],[-58,-3],[14,-58],[-41,-12],[-9,43],[-28,22],[-1,81],[-92,-14],[-45,-18],[-7,-41],[24,-5],[22,-40],[-11,-27],[-38,-18],[-30,-35],[-44,33],[-35,-23],[-59,19],[-45,45],[-69,-18],[-33,-30],[10,-17],[-34,-68],[27,-37],[-9,-13],[-161,-11],[-36,23],[-43,-9],[-3,-43],[-27,-28],[-55,7],[-2,59],[-27,31],[-27,-2],[-11,-44],[-41,2],[-49,62],[-54,-70],[17,-41],[-22,-39],[-44,-3],[6,-34],[-10,-50],[-23,-50],[-25,66],[8,33],[-48,-5],[13,-25],[-5,-40],[-42,29],[-7,45],[-43,34]],[[6862,2723],[42,17],[38,-9],[-25,-30],[-39,-3],[-16,25]],[[6422,2546],[63,4],[34,-29],[-59,-40],[-4,39],[-34,26]],[[6317,2541],[34,2],[41,-32],[19,-59],[-29,-16],[-32,65],[-7,33],[-26,7]],[[5853,2432],[23,15],[23,-53],[-28,-2],[-18,40]],[[4131,5854],[227,0],[1,-23],[471,-1],[-2,-306],[1,-289],[9,-13],[1,-146],[7,-14],[2,-160],[-2,-164],[-5,0],[-5,-318],[34,-10],[287,44],[-5,11],[387,63]],[[1935,6166],[48,214],[326,315],[460,439],[232,219],[391,368],[34,-10],[50,5],[102,-25],[28,-20],[49,-13],[30,16],[37,-9],[15,-23],[-35,-64],[0,-110],[24,-123],[112,-44],[35,-26],[34,2],[64,-38],[81,6],[93,47],[87,12],[85,33],[76,3],[22,-10],[94,14],[35,26],[-10,18],[37,31],[45,-9],[65,24],[79,2],[30,-22],[54,-6],[22,11],[61,-2],[12,16],[-14,47],[11,36],[42,25],[46,5],[54,-7],[30,8],[35,-14],[55,4],[22,-18],[128,-40],[28,-45],[99,-42],[38,-28],[84,-38],[48,-43],[68,-24],[2,-23],[44,-50],[31,-12],[37,-41],[2,-26],[179,-73],[3,-329],[-1,-151],[2,-338],[7,-289],[5,-277],[2,-590],[6,-16],[50,-29],[-32,-33],[-66,-28],[26,-55],[63,-49],[-85,-35],[-13,-64],[49,-63],[-51,-4],[12,-58],[-4,-28]]],"transform":{"scale":[0.0005481270349613023,0.0005698563657557312],"translate":[-71.083924,43.059825]},"objects":{"23":{"type":"GeometryCollection","geometries":[{"arcs":[[0,1,2,3,4]],"type":"Polygon","properties":{"STATEFP":"23","COUNTYFP":"017","COUNTYNS":"00581294","GEOIDFQ":"0500000US23017","GEOID":"23017","NAME":"Oxford","NAMELSAD":"Oxford County","STUSPS":"ME","STATE_NAME":"Maine","LSAD":"06","ALAND":5379296165,"AWATER":255883190},"id":"23017"},{"arcs":[[5,6,7,8,9,10,11]],"type":"Polygon","properties":{"STATEFP":"23","COUNTYFP":"025","COUNTYNS":"00581298","GEOIDFQ":"0500000US23025","GEOID":"23025","NAME":"Somerset","NAMELSAD":"Somerset County","STUSPS":"ME","STATE_NAME":"Maine","LSAD":"06","ALAND":10163862548,"AWATER":437891943},"id":"23025"},{"arcs":[[[-9,12,13,14,15,16,17]],[[18]]],"type":"MultiPolygon","properties":{"STATEFP":"23","COUNTYFP":"027","COUNTYNS":"00581299","GEOIDFQ":"0500000US23027","GEOID":"23027","NAME":"Waldo","NAMELSAD":"Waldo County","STUSPS":"ME","STATE_NAME":"Maine","LSAD":"06","ALAND":1891279830,"AWATER":347573350},"id":"23027"},{"arcs":[[-4,19,20]],"type":"Polygon","properties":{"STATEFP":"23","COUNTYFP":"031","COUNTYNS":"00581301","GEOIDFQ":"0500000US23031","GEOID":"23031","NAME":"York","NAMELSAD":"York County","STUSPS":"ME","STATE_NAME":"Maine","LSAD":"06","ALAND":2567179271,"AWATER":721359671},"id":"23031"},{"arcs":[[-1,21,-11,22,23]],"type":"Polygon","properties":{"STATEFP":"23","COUNTYFP":"007","COUNTYNS":"00581289","GEOIDFQ":"0500000US23007","GEOID":"23007","NAME":"Franklin","NAMELSAD":"Franklin County","STUSPS":"ME","STATE_NAME":"Maine","LSAD":"06","ALAND":4395228224,"AWATER":121283104},"id":"23007"},{"arcs":[[-17,24,25,26,27]],"type":"Polygon","properties":{"STATEFP":"23","COUNTYFP":"015","COUNTYNS":"00581293","GEOIDFQ":"0500000US23015","GEOID":"23015","NAME":"Lincoln","NAMELSAD":"Lincoln County","STUSPS":"ME","STATE_NAME":"Maine","LSAD":"06","ALAND":1180688989,"AWATER":631299424},"id":"23015"},{"arcs":[[-7,28,29]],"type":"Polygon","properties":{"STATEFP":"23","COUNTYFP":"021","COUNTYNS":"00581296","GEOIDFQ":"0500000US23021","GEOID":"23021","NAME":"Piscataquis","NAMELSAD":"Piscataquis County","STUSPS":"ME","STATE_NAME":"Maine","LSAD":"06","ALAND":10258545851,"AWATER":1080517301},"id":"23021"},{"arcs":[[-27,30,31,32,33]],"type":"Polygon","properties":{"STATEFP":"23","COUNTYFP":"023","COUNTYNS":"00581297","GEOIDFQ":"0500000US23023","GEOID":"23023","NAME":"Sagadahoc","NAMELSAD":"Sagadahoc County","STUSPS":"ME","STATE_NAME":"Maine","LSAD":"06","ALAND":657801810,"AWATER":300571247},"id":"23023"},{"arcs":[[[-14,34,35,36]],[[37]],[[38]],[[39]],[[40]],[[41]],[[42]],[[43]]],"type":"MultiPolygon","properties":{"STATEFP":"23","COUNTYFP":"009","COUNTYNS":"00581290","GEOIDFQ":"0500000US23009","GEOID":"23009","NAME":"Hancock","NAMELSAD":"Hancock County","STUSPS":"ME","STATE_NAME":"Maine","LSAD":"06","ALAND":4110783582,"AWATER":1962555507},"id":"23009"},{"arcs":[[[-16,44,-25]],[[45]],[[46]],[[47]]],"type":"MultiPolygon","properties":{"STATEFP":"23","COUNTYFP":"013","COUNTYNS":"00581292","GEOIDFQ":"0500000US23013","GEOID":"23013","NAME":"Knox","NAMELSAD":"Knox County","STUSPS":"ME","STATE_NAME":"Maine","LSAD":"06","ALAND":945092552,"AWATER":1987486329},"id":"23013"},{"arcs":[[-2,-24,48,-33,49]],"type":"Polygon","properties":{"STATEFP":"23","COUNTYFP":"001","COUNTYNS":"00581286","GEOIDFQ":"0500000US23001","GEOID":"23001","NAME":"Androscoggin","NAMELSAD":"Androscoggin County","STUSPS":"ME","STATE_NAME":"Maine","LSAD":"06","ALAND":1212001626,"AWATER":75535494},"id":"23001"},{"arcs":[[-10,-18,-28,-34,-49,-23]],"type":"Polygon","properties":{"STATEFP":"23","COUNTYFP":"011","COUNTYNS":"00581291","GEOIDFQ":"0500000US23011","GEOID":"23011","NAME":"Kennebec","NAMELSAD":"Kennebec County","STUSPS":"ME","STATE_NAME":"Maine","LSAD":"06","ALAND":2246831970,"AWATER":216698656},"id":"23011"},{"arcs":[[[-3,-50,-32,50,-20]],[[51]]],"type":"MultiPolygon","properties":{"STATEFP":"23","COUNTYFP":"005","COUNTYNS":"00581288","GEOIDFQ":"0500000US23005","GEOID":"23005","NAME":"Cumberland","NAMELSAD":"Cumberland County","STUSPS":"ME","STATE_NAME":"Maine","LSAD":"06","ALAND":2165829179,"AWATER":987382750},"id":"23005"},{"arcs":[[[-36,52,53,54]],[[55]],[[56]],[[57]],[[58]]],"type":"MultiPolygon","properties":{"STATEFP":"23","COUNTYFP":"029","COUNTYNS":"00581300","GEOIDFQ":"0500000US23029","GEOID":"23029","NAME":"Washington","NAMELSAD":"Washington County","STUSPS":"ME","STATE_NAME":"Maine","LSAD":"06","ALAND":6637430073,"AWATER":1799648496},"id":"23029"},{"arcs":[[-8,-30,59,-53,-35,-13]],"type":"Polygon","properties":{"STATEFP":"23","COUNTYFP":"019","COUNTYNS":"00581295","GEOIDFQ":"0500000US23019","GEOID":"23019","NAME":"Penobscot","NAMELSAD":"Penobscot County","STUSPS":"ME","STATE_NAME":"Maine","LSAD":"06","ALAND":8798667188,"AWATER":414015631},"id":"23019"},{"arcs":[[-6,60,-54,-60,-29]],"type":"Polygon","properties":{"STATEFP":"23","COUNTYFP":"003","COUNTYNS":"00581287","GEOIDFQ":"0500000US23003","GEOID":"23003","NAME":"Aroostook","NAMELSAD":"Aroostook County","STUSPS":"ME","STATE_NAME":"Maine","LSAD":"06","ALAND":17278380231,"AWATER":404860899},"id":"23003"}]}}}