{"type":"Topology","arcs":[[[3877,4475],[19,0],[465,0]],[[4361,4475],[-16,-25],[15,-34],[-48,-3],[16,-43],[-53,-31],[-18,-58],[-38,-28],[-16,-46],[94,-26],[40,-45],[57,-12],[59,-72],[-3,-37],[36,-6],[87,-101],[-21,-32],[3,-46],[-59,-102],[-21,-113],[-20,-49]],[[4455,3566],[-1,-1]],[[4454,3565],[-437,-262],[-120,-68]],[[3897,3235],[-3,20],[-51,47],[-108,48],[-34,48],[-11,50],[-95,-9],[-67,20],[-50,33]],[[3478,3492],[7,50],[42,77],[22,71],[6,86],[40,74],[-13,79],[18,71],[30,30],[53,197],[77,29],[72,111],[-20,31],[65,77]],[[21,4477],[162,1],[666,4],[225,0]],[[1074,4482],[-267,-604]],[[807,3878],[-54,-42],[-64,-82],[1,-30],[-41,-8],[-68,-72],[-23,8],[-33,-62],[-33,3],[-34,-22],[-9,-42],[-34,-26],[-20,-13],[-16,-59],[-47,12],[-57,-27],[-18,-38],[-48,-15],[-27,-25],[-61,-84],[-87,-60],[-33,5],[-1,184],[6,159],[4,465],[7,0],[4,470]],[[6312,2311],[16,37],[45,7],[12,34],[115,7],[-23,78],[36,76],[60,-11],[223,-54]],[[6796,2485],[10,-51],[-13,-34],[23,-43],[29,-15],[-7,-54],[45,-31],[14,-28],[-68,-47],[-33,-44],[-28,3],[-30,-39],[-38,-23],[6,-47],[-36,-17],[76,-80],[8,-30],[50,-26]],[[6804,1879],[-24,-64],[-49,-57],[3,-45],[-19,-37],[-71,-49]],[[6644,1627],[-46,54],[-1,24],[-52,27],[-16,28],[-48,-12],[-40,44],[-24,-5],[-17,52],[-41,45],[-69,15],[-49,76],[1,60],[44,-21],[18,27],[-71,51],[-24,-58],[-29,-30],[-49,-1],[-5,64],[-28,-10],[-40,-106],[23,-34],[-35,-33],[-12,40],[15,75],[-8,66],[15,59],[48,60],[2,41],[21,37],[62,48],[45,-75],[25,10],[34,-40],[-10,-46],[89,-82],[15,32],[-34,25],[-38,65],[17,66],[-20,46]],[[5949,2108],[35,19],[17,-68],[-27,-9],[-25,58]],[[5404,1446],[43,-64],[-5,-21],[57,-54],[32,-47],[85,-46],[20,-27],[37,6],[63,-62],[57,-118]],[[5793,1013],[-10,-20],[34,-56],[58,0],[12,26],[52,9],[40,-23],[-37,-52],[-10,-47],[27,-103],[125,-197],[-40,-55],[18,-41],[4,-68],[15,-56],[-59,8],[-76,124],[-56,7],[-31,75],[-3,61],[-59,-18],[16,-35],[-16,-50],[-22,-8],[-40,57],[-74,35],[-24,85],[-72,67],[-81,28],[-28,-1],[-100,39],[-40,-19],[-23,32],[-39,-59],[-50,15],[1,36],[-53,27],[6,57],[-44,65],[-19,77],[15,33],[-39,20]],[[5071,1088],[-4,26],[-41,30],[-1,30],[45,40],[54,72],[87,183],[12,10],[111,-8],[22,-31],[48,6]],[[4361,4475],[419,-1],[407,3]],[[5187,4477],[-133,-470],[-25,-122],[-26,-19],[2,-71],[-24,-29],[25,-42],[-19,-87],[17,-80]],[[5004,3557],[-66,1],[-33,18],[-106,9],[-64,-27],[-44,23],[-110,23],[-63,-22],[-31,-29],[-32,13]],[[6239,4478],[12,0]],[[6251,4478],[40,-87],[97,-91],[28,-75],[23,-16],[90,-128],[24,-44]],[[6553,4037],[-38,-17],[-52,-119],[47,-32],[51,-2],[23,-63],[-41,-32],[-15,21],[-110,-99],[-24,2],[-73,-95],[-71,-39],[-31,23],[-7,43],[21,71],[35,45],[-44,24],[-14,-58],[-44,-100],[39,-84],[-62,-51],[-18,30],[9,49],[-29,13],[13,57],[-17,28],[-89,3]],[[6012,3655],[-43,87],[2,51],[-24,48],[-56,34],[-31,59],[-101,55],[-41,1],[-41,48],[0,44],[-63,131],[-9,265]],[[5605,4478],[634,0]],[[7443,898],[477,29],[16,57],[63,46],[31,57],[-43,68],[24,55],[-46,118]],[[7965,1328],[561,-2],[-11,-90],[-34,-148],[-25,-77],[-34,-32],[-107,-315],[-39,-144],[-28,-75],[-94,-172],[-297,-33],[-436,-48]],[[7421,192],[-14,58],[-47,30],[-11,30],[75,33],[26,51],[53,-18],[23,47],[46,-1],[4,49],[-17,35],[-47,49],[9,26],[39,29],[11,40],[-78,111],[-37,64],[-13,73]],[[4613,1958],[63,10],[23,40],[2,147],[2,16],[249,251],[-179,180]],[[4773,2602],[31,29],[-9,38],[198,344]],[[4993,3013],[37,-47],[55,-22]],[[5085,2944],[25,-33],[-8,-51],[53,-17],[22,-40],[31,-3],[55,-29],[6,-41],[89,-82],[15,-147],[40,-50],[-13,-71],[-30,-41],[-15,-56],[7,-35],[-31,-24],[-4,-80],[54,-80]],[[5381,2064],[-30,-94],[7,-50],[21,-23],[-23,-38],[31,-12],[-19,-61],[40,-47],[-16,-92],[16,-69],[-6,-42]],[[5402,1536],[-125,57],[-14,145],[-21,7],[-200,96],[-80,-18],[-68,8],[-50,16],[-102,-31],[-19,-37],[-41,-32],[-55,182],[-14,29]],[[5404,1446],[22,67],[-24,23]],[[5381,2064],[50,39],[71,7],[1,-100],[13,-15],[154,2],[14,-22]],[[5684,1975],[-7,-85],[14,-81],[26,-75],[-10,-63],[2,-152],[44,-114],[148,-170],[25,-50],[40,-20],[-10,-62],[-62,-95],[-101,5]],[[5004,3557],[14,-45],[41,-36],[59,4],[55,-12],[30,-43],[-30,-75],[82,-55],[23,-30],[82,-46]],[[5360,3219],[-48,-77],[-47,-9],[-67,-84],[-17,-50],[-62,-17],[-34,-38]],[[4993,3013],[-53,-10],[-25,28],[-38,-21],[-13,37],[-39,13],[5,28],[-47,13],[-21,38],[-2,62],[-44,34],[-24,43],[-71,55],[-93,21],[-19,59],[-58,52],[-31,62],[34,38]],[[7421,192],[-46,-68],[-19,-18],[-62,18],[-48,28],[-41,-37],[-33,31],[-58,-8],[-66,-65],[-28,-38],[-53,-31],[-62,-4],[6,91],[55,5],[-13,54],[-43,-1],[9,48],[54,106],[27,-28],[73,63],[9,22],[-84,26],[-51,-33],[-9,52],[38,61],[35,23],[-1,31],[58,35],[-55,25],[-44,-25],[-41,19],[-46,-14],[-62,-45],[-43,32],[33,124],[104,41],[46,-7],[68,37],[19,25],[-73,25],[64,42],[43,7]],[[7081,841],[38,29],[22,41],[68,-2],[26,-40],[41,-5],[35,69],[36,15],[96,-50]],[[6711,91],[-101,0],[-7,91],[17,104],[65,11],[52,-79],[-25,-49],[-1,-78]],[[6595,440],[61,30],[28,-37],[-66,-23],[-23,30]],[[1074,4482],[231,0],[520,-1],[301,0],[73,0]],[[2199,4481],[49,-58],[-1,-46],[-43,-69],[12,-41]],[[2216,4267],[-34,10],[-21,-35],[-39,-10],[9,-35],[-81,40],[0,-52],[44,-32],[-20,-29],[-68,31],[-21,-42],[71,-61],[-64,-29],[-35,-53],[-66,5],[-35,15],[-86,-13],[-50,31],[-59,19],[-66,-11],[-62,26],[-10,19],[-58,27],[-17,56],[-24,-18],[-41,20],[-1,53],[66,12],[-28,31],[-56,-11],[-46,14],[11,-51],[-58,-45],[9,-70],[-33,17],[-70,-111],[-35,-25],[-45,-65],[-33,-1],[-40,-78],[-4,-35],[-148,68],[-26,38],[-39,-9]],[[4773,2602],[-73,74],[-152,-151],[0,0],[-51,74],[-98,7],[-46,11],[-45,28],[-21,49],[22,44],[-94,65],[-67,28],[-23,13],[-67,-4],[-93,14],[-75,23],[-45,82],[-56,23],[-23,69],[20,61],[22,28],[37,9],[24,56],[28,30]],[[6717,3618],[51,0],[108,-25],[101,0],[61,41],[109,-9]],[[7147,3625],[13,-200],[8,-126]],[[7168,3299],[-79,-12],[-133,48],[-37,-29],[-106,-26],[-57,19],[-33,-17],[-44,0],[-88,-72],[-24,-45],[43,-28],[7,-37],[-75,-46],[13,-34],[-37,-17],[-44,-49],[-33,-7]],[[6441,2947],[-66,18],[-66,-65],[-23,-80],[26,-99],[-16,-11],[-63,50],[22,79],[-9,97],[-22,47],[5,29],[-60,39],[3,48],[45,83],[55,146],[83,105],[-12,47],[49,42],[51,-8],[2,49],[42,49],[92,-1],[76,-25],[62,32]],[[5187,4477],[418,1]],[[6012,3655],[38,-41],[-14,-37],[23,-85],[-43,-20],[-72,-74],[-4,-48],[-39,-47],[-53,20],[-15,-17],[55,-41],[9,-32],[-36,-43],[-20,40],[-32,-31],[-62,-10],[-3,62],[-62,33]],[[5682,3284],[0,327],[-349,0],[0,-233],[178,-101]],[[5511,3277],[-36,-34],[-41,18],[-74,-42]],[[5959,3302],[55,34],[17,-27],[-45,-31],[-27,24]],[[5071,1088],[-43,-58],[35,-40],[33,-104],[-24,-44],[-33,32],[-83,48],[-33,6],[5,51],[-16,29],[-71,46],[-31,53],[-9,80],[-54,125],[-47,-2],[-67,-50],[-30,-42],[-62,7],[-25,-46],[-82,-58],[-54,-22],[-82,57],[-29,76],[16,43],[-33,127],[20,76],[50,98],[32,8],[98,128],[41,-3],[63,45],[-28,28],[-11,37],[7,59],[20,30],[69,50]],[[6251,4478],[188,1],[666,1],[0,-159],[15,-268],[27,-428]],[[6717,3618],[-8,25],[-69,2],[-4,43],[50,29],[18,39],[29,12],[30,69],[-63,7],[37,157],[35,17],[-15,53],[43,58],[-20,29],[-29,-54],[-51,-25],[-13,-36],[-59,17],[-75,-23]],[[6312,2311],[9,117],[-13,2],[-9,119],[-82,-9],[-42,4],[-57,-50],[-27,3],[-45,-28],[17,-118],[-62,-35],[-22,13],[20,46],[-2,83],[7,79],[16,45],[56,95],[8,68],[43,-9],[8,-38],[31,-53],[64,-5],[11,-18],[69,-1],[74,66],[1,26],[-28,54],[5,67],[32,16],[47,97]],[[7168,3299],[16,-255]],[[7184,3044],[-84,-26],[-84,-61],[-25,-57],[-2,-35],[-52,-59],[-28,-73],[-75,-68],[-16,-79],[-25,-31],[3,-70]],[[7081,841],[-40,15],[-45,-11],[-12,-23],[-61,-9],[-23,-39],[-41,86],[30,56],[3,37],[33,70],[50,51],[14,38],[-30,37]],[[6959,1149],[47,12],[-21,39],[11,53],[32,4],[17,31],[-32,30],[38,38],[-13,44],[113,63],[38,78],[25,0],[58,57]],[[7272,1598],[16,-250],[256,-11],[252,-7],[169,-2]],[[5682,3284],[-45,43],[-64,9],[40,-50],[2,-41],[60,-42]],[[5675,3203],[-32,-26],[-64,26],[-68,74]],[[7184,3044],[48,-778],[29,-483]],[[7261,1783],[-13,26],[-67,63],[-47,16],[-48,-3],[-3,49],[-73,19],[-62,-24],[-51,13],[-15,-29],[-78,-34]],[[7261,1783],[11,-185]],[[6959,1149],[-15,-60],[-76,-31],[-3,-40],[-26,-14],[-26,-68],[1,-57],[-28,-18],[11,-65],[-62,77],[-40,66],[-12,42],[83,26],[6,51],[-23,56],[-36,9],[-34,-14],[-13,-76],[-54,-37],[-9,-35],[44,-56],[-33,-99],[-27,-33],[-39,67],[2,30],[-34,28],[-37,55],[-24,-43],[-44,3],[31,62],[-59,15],[5,36],[-39,73],[-61,46],[-38,-32],[42,-68],[-19,-60],[30,-33],[10,-22],[45,-3],[-7,-49],[35,-54],[70,-15],[-27,-27],[-60,39],[-27,40],[-9,33],[-30,53],[-45,40],[-6,76],[-32,47],[-55,45],[-9,83],[-98,165],[20,27],[46,20],[65,-9],[35,65],[52,20],[-90,27],[-44,66],[46,42],[-24,63],[77,39],[1,-26],[67,-15],[51,42],[23,-32],[-8,-31],[31,-16],[22,25],[52,-57],[53,7],[83,-59],[28,26]],[[6529,611],[14,32],[62,69],[44,-54],[-25,-37],[20,-32],[-43,-17],[-18,53],[-31,-26],[-23,12]],[[5675,3203],[14,-74],[72,-50],[33,-7],[77,-56],[-4,-52],[22,-85],[-33,-60],[65,-49],[20,-51],[-37,-27],[-63,-17],[-7,-43],[-50,10],[10,-62],[40,-38],[-37,-74],[-38,40],[-10,-45],[8,-61],[-88,-82],[41,1],[48,-33],[-15,-60],[-52,-49],[-28,-50],[-39,-18],[4,-57],[25,-42],[28,2],[3,-39]],[[3478,3492],[-39,-13],[-43,6],[-69,32],[19,48],[-15,62],[33,23],[-32,88],[-76,19],[12,41],[-18,105],[-57,12],[-78,58],[3,42],[-42,43],[15,28],[70,2],[24,67],[-16,37],[-91,24],[-6,-46],[-67,19],[-30,-44],[-45,54],[-28,-23],[-66,11],[-22,39],[-26,40],[-79,82],[-59,33],[-122,33],[-22,-1],[-38,-46],[-47,-1],[7,-34],[-59,-56],[-24,-52],[-31,4],[-98,39]],[[2199,4481],[468,-1],[431,0],[289,-3],[490,-2]]],"transform":{"scale":[0.000520608960825709,0.0004029641886958275],"translate":[-79.487651,37.916848]},"objects":{"24":{"type":"GeometryCollection","geometries":[{"arcs":[[0,1,2,3,4,5]],"type":"Polygon","properties":{"STATEFP":"24","COUNTYFP":"021","COUNTYNS":"01711211","GEOIDFQ":"0500000US24021","GEOID":"24021","NAME":"Frederick","NAMELSAD":"Frederick County","STUSPS":"MD","STATE_NAME":"Maryland","LSAD":"06","ALAND":1711005007,"AWATER":17630724},"id":"24021"},{"arcs":[[6,7,8]],"type":"Polygon","properties":{"STATEFP":"24","COUNTYFP":"023","COUNTYNS":"01711058","GEOIDFQ":"0500000US24023","GEOID":"24023","NAME":"Garrett","NAMELSAD":"Garrett County","STUSPS":"MD","STATE_NAME":"Maryland","LSAD":"06","ALAND":1681102437,"AWATER":22498419},"id":"24023"},{"arcs":[[[9,10,11,12]],[[13]]],"type":"MultiPolygon","properties":{"STATEFP":"24","COUNTYFP":"041","COUNTYNS":"00592947","GEOIDFQ":"0500000US24041","GEOID":"24041","NAME":"Talbot","NAMELSAD":"Talbot County","STUSPS":"MD","STATE_NAME":"Maryland","LSAD":"06","ALAND":695556087,"AWATER":539368999},"id":"24041"},{"arcs":[[14,15,16]],"type":"Polygon","properties":{"STATEFP":"24","COUNTYFP":"037","COUNTYNS":"01697853","GEOIDFQ":"0500000US24037","GEOID":"24037","NAME":"St. Mary's","NAMELSAD":"St. Mary's County","STUSPS":"MD","STATE_NAME":"Maryland","LSAD":"06","ALAND":928740405,"AWATER":1050662096},"id":"24037"},{"arcs":[[-2,17,18,19]],"type":"Polygon","properties":{"STATEFP":"24","COUNTYFP":"013","COUNTYNS":"01696228","GEOIDFQ":"0500000US24013","GEOID":"24013","NAME":"Carroll","NAMELSAD":"Carroll County","STUSPS":"MD","STATE_NAME":"Maryland","LSAD":"06","ALAND":1159317315,"AWATER":13111616},"id":"24013"},{"arcs":[[20,21,22,23,24]],"type":"Polygon","properties":{"STATEFP":"24","COUNTYFP":"025","COUNTYNS":"01698178","GEOIDFQ":"0500000US24025","GEOID":"24025","NAME":"Harford","NAMELSAD":"Harford County","STUSPS":"MD","STATE_NAME":"Maryland","LSAD":"06","ALAND":1132149300,"AWATER":231888421},"id":"24025"},{"arcs":[[25,26,27]],"type":"Polygon","properties":{"STATEFP":"24","COUNTYFP":"047","COUNTYNS":"01668802","GEOIDFQ":"0500000US24047","GEOID":"24047","NAME":"Worcester","NAMELSAD":"Worcester County","STUSPS":"MD","STATE_NAME":"Maryland","LSAD":"06","ALAND":1212887631,"AWATER":586799918},"id":"24047"},{"arcs":[[28,29,30,31,32,33]],"type":"Polygon","properties":{"STATEFP":"24","COUNTYFP":"033","COUNTYNS":"01714670","GEOIDFQ":"0500000US24033","GEOID":"24033","NAME":"Prince George's","NAMELSAD":"Prince George's County","STUSPS":"MD","STATE_NAME":"Maryland","LSAD":"06","ALAND":1249930975,"AWATER":42051952},"id":"24033"},{"arcs":[[-15,34,-33,35,36]],"type":"Polygon","properties":{"STATEFP":"24","COUNTYFP":"009","COUNTYNS":"01676636","GEOIDFQ":"0500000US24009","GEOID":"24009","NAME":"Calvert","NAMELSAD":"Calvert County","STUSPS":"MD","STATE_NAME":"Maryland","LSAD":"06","ALAND":552158538,"AWATER":341580670},"id":"24009"},{"arcs":[[-3,-20,37,38,-31,39]],"type":"Polygon","properties":{"STATEFP":"24","COUNTYFP":"027","COUNTYNS":"01709077","GEOIDFQ":"0500000US24027","GEOID":"24027","NAME":"Howard","NAMELSAD":"Howard County","STUSPS":"MD","STATE_NAME":"Maryland","LSAD":"06","ALAND":649957173,"AWATER":6336170},"id":"24027"},{"arcs":[[[-28,40,41]],[[42]],[[43]]],"type":"MultiPolygon","properties":{"STATEFP":"24","COUNTYFP":"039","COUNTYNS":"00596907","GEOIDFQ":"0500000US24039","GEOID":"24039","NAME":"Somerset","NAMELSAD":"Somerset County","STUSPS":"MD","STATE_NAME":"Maryland","LSAD":"06","ALAND":828145291,"AWATER":752652883},"id":"24039"},{"arcs":[[-8,44,45,46]],"type":"Polygon","properties":{"STATEFP":"24","COUNTYFP":"001","COUNTYNS":"01713506","GEOIDFQ":"0500000US24001","GEOID":"24001","NAME":"Allegany","NAMELSAD":"Allegany County","STUSPS":"MD","STATE_NAME":"Maryland","LSAD":"06","ALAND":1093489850,"AWATER":14710960},"id":"24001"},{"arcs":[[-4,-40,-30,47]],"type":"Polygon","properties":{"STATEFP":"24","COUNTYFP":"031","COUNTYNS":"01712500","GEOIDFQ":"0500000US24031","GEOID":"24031","NAME":"Montgomery","NAMELSAD":"Montgomery County","STUSPS":"MD","STATE_NAME":"Maryland","LSAD":"06","ALAND":1277231475,"AWATER":35632833},"id":"24031"},{"arcs":[[48,49,50,51]],"type":"Polygon","properties":{"STATEFP":"24","COUNTYFP":"029","COUNTYNS":"00593907","GEOIDFQ":"0500000US24029","GEOID":"24029","NAME":"Kent","NAMELSAD":"Kent County","STUSPS":"MD","STATE_NAME":"Maryland","LSAD":"06","ALAND":717268761,"AWATER":353549972},"id":"24029"},{"arcs":[[[-19,52,-24,53,54,55,-38]],[[56]]],"type":"MultiPolygon","properties":{"STATEFP":"24","COUNTYFP":"005","COUNTYNS":"01695314","GEOIDFQ":"0500000US24005","GEOID":"24005","NAME":"Baltimore","NAMELSAD":"Baltimore County","STUSPS":"MD","STATE_NAME":"Maryland","LSAD":"06","ALAND":1549741639,"AWATER":215956834},"id":"24005"},{"arcs":[[-17,57,-34,-35]],"type":"Polygon","properties":{"STATEFP":"24","COUNTYFP":"017","COUNTYNS":"01676992","GEOIDFQ":"0500000US24017","GEOID":"24017","NAME":"Charles","NAMELSAD":"Charles County","STUSPS":"MD","STATE_NAME":"Maryland","LSAD":"06","ALAND":1185745250,"AWATER":479451412},"id":"24017"},{"arcs":[[-22,58,-49,59]],"type":"Polygon","properties":{"STATEFP":"24","COUNTYFP":"015","COUNTYNS":"00596115","GEOIDFQ":"0500000US24015","GEOID":"24015","NAME":"Cecil","NAMELSAD":"Cecil County","STUSPS":"MD","STATE_NAME":"Maryland","LSAD":"06","ALAND":896912539,"AWATER":185281256},"id":"24015"},{"arcs":[[-10,60,-51,61,62]],"type":"Polygon","properties":{"STATEFP":"24","COUNTYFP":"035","COUNTYNS":"00596089","GEOIDFQ":"0500000US24035","GEOID":"24035","NAME":"Queen Anne's","NAMELSAD":"Queen Anne's County","STUSPS":"MD","STATE_NAME":"Maryland","LSAD":"06","ALAND":962618584,"AWATER":360075353},"id":"24035"},{"arcs":[[-26,-42,63,64,65]],"type":"Polygon","properties":{"STATEFP":"24","COUNTYFP":"045","COUNTYNS":"01668606","GEOIDFQ":"0500000US24045","GEOID":"24045","NAME":"Wicomico","NAMELSAD":"Wicomico County","STUSPS":"MD","STATE_NAME":"Maryland","LSAD":"06","ALAND":969751190,"AWATER":66780622},"id":"24045"},{"arcs":[[-55,66,67]],"type":"Polygon","properties":{"STATEFP":"24","COUNTYFP":"510","COUNTYNS":"01702381","GEOIDFQ":"0500000US24510","GEOID":"24510","NAME":"Baltimore","NAMELSAD":"Baltimore city","STUSPS":"MD","STATE_NAME":"Maryland","LSAD":"25","ALAND":209649327,"AWATER":28758743},"id":"24510"},{"arcs":[[-11,-63,68,69]],"type":"Polygon","properties":{"STATEFP":"24","COUNTYFP":"011","COUNTYNS":"00595737","GEOIDFQ":"0500000US24011","GEOID":"24011","NAME":"Caroline","NAMELSAD":"Caroline County","STUSPS":"MD","STATE_NAME":"Maryland","LSAD":"06","ALAND":827350253,"AWATER":16777065},"id":"24011"},{"arcs":[[[-12,-70,70,-65,71]],[[72]]],"type":"MultiPolygon","properties":{"STATEFP":"24","COUNTYFP":"019","COUNTYNS":"00596495","GEOIDFQ":"0500000US24019","GEOID":"24019","NAME":"Dorchester","NAMELSAD":"Dorchester County","STUSPS":"MD","STATE_NAME":"Maryland","LSAD":"06","ALAND":1400573754,"AWATER":1145353067},"id":"24019"},{"arcs":[[-32,-39,-56,-68,73,-36]],"type":"Polygon","properties":{"STATEFP":"24","COUNTYFP":"003","COUNTYNS":"01710958","GEOIDFQ":"0500000US24003","GEOID":"24003","NAME":"Anne Arundel","NAMELSAD":"Anne Arundel County","STUSPS":"MD","STATE_NAME":"Maryland","LSAD":"06","ALAND":1074347711,"AWATER":448050691},"id":"24003"},{"arcs":[[-6,74,-46,75]],"type":"Polygon","properties":{"STATEFP":"24","COUNTYFP":"043","COUNTYNS":"01714220","GEOIDFQ":"0500000US24043","GEOID":"24043","NAME":"Washington","NAMELSAD":"Washington County","STUSPS":"MD","STATE_NAME":"Maryland","LSAD":"06","ALAND":1185668214,"AWATER":24811082},"id":"24043"}]}}}