{"type":"Topology","arcs":[[[4169,2423],[68,-40]],[[4237,2383],[-12,-61],[-59,-52],[-22,29],[-19,62],[13,50],[31,12]],[[3653,2575],[53,51],[27,-19],[-54,-98],[-38,4]],[[3641,2513],[-22,25],[34,37]],[[3154,2166],[22,3],[31,40],[65,9],[-3,23],[93,29],[-9,31],[32,46],[-5,37],[46,-2],[-8,53],[-33,99],[93,36],[64,-22],[36,-69],[22,-15]],[[3600,2464],[51,-66],[24,-45],[52,28],[31,51],[55,5],[25,31]],[[3838,2468],[-2,36],[67,-78],[35,-9],[38,26],[64,-22]],[[4040,2421],[-38,-29],[27,-65],[-15,-159],[-242,-146]],[[3772,2022],[-441,-260],[-27,-1]],[[3304,1761],[0,80],[-181,-4]],[[3123,1837],[0,180],[-5,55],[36,34],[0,60]],[[4452,1131],[34,70],[-18,37],[104,56],[44,57]],[[4616,1351],[31,-47],[71,-70],[111,-46],[8,-40],[82,-56],[35,20],[108,-4],[15,46],[38,37],[116,40],[30,-3],[90,33],[61,34],[33,50],[-8,161],[13,24],[-37,22],[17,23],[-49,57],[-26,-16],[-24,47],[-1,99],[-9,63],[-19,49],[-42,44],[-51,26],[-49,-29],[-34,-46],[-15,36],[-42,42],[31,35],[57,9],[114,-35],[51,-31],[38,-33],[39,-54],[73,-160],[28,-90],[36,-156],[11,-85],[15,-160],[0,-78],[-8,-70],[-16,-33],[-36,-124],[-39,-21],[34,100],[-41,51],[-51,1],[-93,-11],[-80,-30],[-85,-6],[-78,-45],[-34,-42],[-11,52],[-25,5],[-40,-22],[-34,25],[-34,-12],[-15,-36],[-48,-22],[-57,-3],[-37,-79],[-50,-47],[-55,-12],[-28,11],[-135,-31],[-35,-55],[-18,42],[21,40],[1,36],[18,43],[-16,52],[19,46],[-16,50],[26,7],[-4,73],[-15,33],[39,16],[-34,40]],[[3641,2513],[-41,-49]],[[3154,2166],[-30,23],[-15,53],[-118,16],[-30,53],[24,97],[47,21],[27,-13],[52,24],[30,88],[0,47],[-100,-9],[-53,-36],[-63,91],[28,48],[43,40],[-38,25],[70,34],[25,128],[-27,19],[45,108],[-11,54],[-65,17],[-22,-16],[-39,21],[-25,-29],[0,-38],[-67,15],[22,191],[-172,77],[0,-17],[-108,3],[-21,-10],[1,97],[-61,68],[-2,18]],[[2501,3474],[237,-10],[702,-24],[60,93]],[[3500,3533],[27,-155],[-28,-32],[131,-96],[36,-8],[21,-33],[118,17],[39,-49],[-36,-27],[-21,-43],[-7,-59],[53,-11],[10,-46],[-30,-70],[44,-76]],[[3857,2845],[8,-15],[-31,-86],[-58,-102],[-41,-15],[-37,50],[-73,-55],[28,-47]],[[4237,2383],[29,4],[4,-36],[46,-57],[27,-16],[-9,-46],[52,-122],[33,-58],[37,-47],[-11,-29],[5,-71],[-39,-21],[3,-58],[-44,2],[-5,-62],[27,-19],[54,-70],[60,-20],[38,22],[62,-56],[-4,-45],[22,-42],[10,-73],[-27,-80],[9,-32]],[[4452,1131],[-21,-10],[-97,53],[-15,-31],[22,-50],[-54,-50],[-32,-92],[-11,22],[-50,18],[7,-40],[-9,-39],[-51,9]],[[4141,921],[-4,38],[-64,272],[-28,-5],[-26,78],[-163,-29],[18,49],[-34,40],[98,105],[-34,151],[-23,35],[-61,55],[-48,312]],[[4040,2421],[37,-46],[2,54],[19,41],[30,-41],[41,-6]],[[4141,921],[-19,-16],[12,-62],[-14,-28],[-25,104],[-90,-34],[5,-45],[-16,-40],[5,-67],[-21,-45],[-50,-5],[-6,-44],[-30,7],[-59,-34],[-46,27],[-77,-27],[-17,223],[-14,31],[12,129],[-98,36],[-45,83],[-57,99],[-88,56],[-15,10],[-30,100],[20,93],[-7,85],[-67,-12],[0,216]],[[754,3544],[144,-5],[188,-6],[545,-23],[273,-12]],[[1904,3498],[17,-111],[66,-28],[7,-56],[-5,-54],[-42,-11],[-19,-25],[9,-59],[-23,4],[11,-104],[38,-47],[-72,-80],[12,-90],[-35,-49],[-13,-50],[0,-131]],[[1855,2607],[-20,-55],[-47,-24],[10,57],[-24,109],[0,54],[-13,41],[-169,-32],[-10,62],[-142,-26],[-64,-18],[-127,-22],[5,111],[-88,-16],[-1,35],[-23,14],[-152,41],[-7,54],[8,43],[-10,37],[-153,35]],[[828,3107],[38,201],[-18,61],[-20,-15],[-32,30],[64,40],[8,35],[-75,-9],[-40,3],[1,91]],[[3500,3533],[15,14],[34,10],[66,-22],[-7,126],[32,42],[51,30],[106,-36],[31,101],[21,24],[100,23],[56,37],[69,-5],[58,-51],[49,27],[-1,-51],[14,-84],[6,-78],[19,-82],[32,-85],[-6,-47],[49,-23],[22,-35],[61,-25],[43,51],[42,30],[24,-8],[-5,-60],[40,-4],[-11,-59],[-42,-42],[-5,-39],[-70,-16],[-46,-50],[-46,6],[-58,-37],[-27,12],[-32,-24],[-54,-7],[-17,-14],[-5,-63],[29,-2],[-3,-56],[-50,-36],[-23,-42],[-43,14],[-68,-55]],[[3950,2842],[-25,-29],[-45,8],[-23,24]],[[4197,520],[35,46],[84,59],[-6,-38],[-52,-69],[-35,-26],[-26,28]],[[4147,258],[42,20],[45,-19],[22,13],[44,69],[14,36],[30,26],[18,59],[45,20],[19,43],[27,4],[60,47],[18,-62],[45,31],[15,-38],[-3,-52],[12,-36],[63,-36],[25,-40],[30,30],[-2,30],[35,28],[6,-57],[-3,-101],[-23,-15],[-180,6],[-174,-13],[-66,-19],[-48,-42],[-17,-41],[-41,31],[-58,78]],[[4047,455],[33,4],[29,23],[23,-23],[-35,-25],[-48,-1],[-2,22]],[[828,3107],[10,-37],[-67,-378],[-84,22],[-4,-20],[9,-122],[49,-46],[48,8]],[[789,2534],[-6,-145],[-48,-254],[-56,11],[16,-70],[-19,-18],[0,-39],[29,-87],[2,-41]],[[707,1891],[-590,25],[-85,-2],[-15,0],[-17,86],[101,419],[141,580],[136,556],[376,-11]],[[3950,2842],[-38,-86],[28,-52],[-1,-31],[-42,2],[-12,-60],[-47,39],[-18,-17],[55,-35],[-52,-43],[0,-47],[15,-44]],[[1855,2607],[47,19],[15,-118],[99,23],[-8,-130],[-8,-26]],[[2000,2375],[-77,-19],[-102,-40],[-44,-41],[7,-30],[-55,-11],[-13,109],[-295,-48],[-16,6],[-31,50],[39,82],[-22,38],[-34,-29],[-34,-109],[-21,-26],[-32,-8],[6,-70],[-146,38],[-17,42],[-2,46],[-32,19],[-68,-11],[-23,-56],[-62,53],[49,62],[-7,159],[-16,19],[-91,7],[-72,-73]],[[3123,1837],[-46,-5],[-370,-12],[-52,-4],[-2,36],[-408,9],[-113,7]],[[2132,1868],[1,310],[-99,-19],[-2,18],[-99,53],[2,44],[65,101]],[[1904,3498],[550,-22],[47,-2]],[[2025,1870],[-502,7],[-70,-9],[-191,15],[-87,-15],[-23,-64],[-78,-13],[5,92],[-78,2],[-294,6]],[[2132,1868],[-107,2]],[[5087,112],[35,-23],[27,11],[11,33],[97,-1],[66,12],[56,53],[23,42],[17,70],[93,-213],[-6,-55],[-16,-21],[-63,-20],[-59,14],[-102,-4],[-80,36],[-79,46],[-20,20]],[[5020,171],[48,-10],[-2,-42],[-46,52]]],"transform":{"scale":[0.0006436082344480414,0.00042416924265842353],"translate":[-73.508142,41.237964]},"objects":{"25":{"type":"GeometryCollection","geometries":[{"arcs":[[[0,1]],[[2,3]],[[4,5,6,7,8,9,10]]],"type":"MultiPolygon","properties":{"STATEFP":"25","COUNTYFP":"021","COUNTYNS":"00606937","GEOIDFQ":"0500000US25021","GEOID":"25021","NAME":"Norfolk","NAMELSAD":"Norfolk County","STUSPS":"MA","STATE_NAME":"Massachusetts","LSAD":"06","ALAND":1025902546,"AWATER":124954020},"id":"25021"},{"arcs":[[11,12]],"type":"Polygon","properties":{"STATEFP":"25","COUNTYFP":"001","COUNTYNS":"00606927","GEOIDFQ":"0500000US25001","GEOID":"25001","NAME":"Barnstable","NAMELSAD":"Barnstable County","STUSPS":"MA","STATE_NAME":"Massachusetts","LSAD":"06","ALAND":1020933685,"AWATER":2360402326},"id":"25001"},{"arcs":[[-4,13,-5,14,15,16,17]],"type":"Polygon","properties":{"STATEFP":"25","COUNTYFP":"017","COUNTYNS":"00606935","GEOIDFQ":"0500000US25017","GEOID":"25017","NAME":"Middlesex","NAMELSAD":"Middlesex County","STUSPS":"MA","STATE_NAME":"Massachusetts","LSAD":"06","ALAND":2118363247,"AWATER":75219797},"id":"25017"},{"arcs":[[-2,18,-12,19,20,-8,21]],"type":"Polygon","properties":{"STATEFP":"25","COUNTYFP":"023","COUNTYNS":"00606938","GEOIDFQ":"0500000US25023","GEOID":"25023","NAME":"Plymouth","NAMELSAD":"Plymouth County","STUSPS":"MA","STATE_NAME":"Massachusetts","LSAD":"06","ALAND":1705561190,"AWATER":1126065460},"id":"25023"},{"arcs":[[-9,-21,22]],"type":"Polygon","properties":{"STATEFP":"25","COUNTYFP":"005","COUNTYNS":"00606929","GEOIDFQ":"0500000US25005","GEOID":"25005","NAME":"Bristol","NAMELSAD":"Bristol County","STUSPS":"MA","STATE_NAME":"Massachusetts","LSAD":"06","ALAND":1432569117,"AWATER":357437771},"id":"25005"},{"arcs":[[23,24,25,26]],"type":"Polygon","properties":{"STATEFP":"25","COUNTYFP":"011","COUNTYNS":"00606932","GEOIDFQ":"0500000US25011","GEOID":"25011","NAME":"Franklin","NAMELSAD":"Franklin County","STUSPS":"MA","STATE_NAME":"Massachusetts","LSAD":"06","ALAND":1810943456,"AWATER":65594687},"id":"25011"},{"arcs":[[-17,27,28]],"type":"Polygon","properties":{"STATEFP":"25","COUNTYFP":"009","COUNTYNS":"00606931","GEOIDFQ":"0500000US25009","GEOID":"25009","NAME":"Essex","NAMELSAD":"Essex County","STUSPS":"MA","STATE_NAME":"Massachusetts","LSAD":"06","ALAND":1275604953,"AWATER":870173087},"id":"25009"},{"arcs":[[[29]],[[30]],[[31]]],"type":"MultiPolygon","properties":{"STATEFP":"25","COUNTYFP":"007","COUNTYNS":"00606930","GEOIDFQ":"0500000US25007","GEOID":"25007","NAME":"Dukes","NAMELSAD":"Dukes County","STUSPS":"MA","STATE_NAME":"Massachusetts","LSAD":"06","ALAND":267293162,"AWATER":1004291251},"id":"25007"},{"arcs":[[-27,32,33,34]],"type":"Polygon","properties":{"STATEFP":"25","COUNTYFP":"003","COUNTYNS":"00606928","GEOIDFQ":"0500000US25003","GEOID":"25003","NAME":"Berkshire","NAMELSAD":"Berkshire County","STUSPS":"MA","STATE_NAME":"Massachusetts","LSAD":"06","ALAND":2400592149,"AWATER":50709117},"id":"25003"},{"arcs":[[-3,-18,-29,35,-6,-14]],"type":"Polygon","properties":{"STATEFP":"25","COUNTYFP":"025","COUNTYNS":"00606939","GEOIDFQ":"0500000US25025","GEOID":"25025","NAME":"Suffolk","NAMELSAD":"Suffolk County","STUSPS":"MA","STATE_NAME":"Massachusetts","LSAD":"06","ALAND":150885677,"AWATER":160490902},"id":"25025"},{"arcs":[[-26,36,37,-33]],"type":"Polygon","properties":{"STATEFP":"25","COUNTYFP":"015","COUNTYNS":"00606934","GEOIDFQ":"0500000US25015","GEOID":"25015","NAME":"Hampshire","NAMELSAD":"Hampshire County","STUSPS":"MA","STATE_NAME":"Massachusetts","LSAD":"06","ALAND":1365533877,"AWATER":46625893},"id":"25015"},{"arcs":[[-11,38,39,-37,-25,40,-15]],"type":"Polygon","properties":{"STATEFP":"25","COUNTYFP":"027","COUNTYNS":"00606940","GEOIDFQ":"0500000US25027","GEOID":"25027","NAME":"Worcester","NAMELSAD":"Worcester County","STUSPS":"MA","STATE_NAME":"Massachusetts","LSAD":"06","ALAND":3912616783,"AWATER":177370102},"id":"25027"},{"arcs":[[41,-34,-38,-40,42]],"type":"Polygon","properties":{"STATEFP":"25","COUNTYFP":"013","COUNTYNS":"00606933","GEOIDFQ":"0500000US25013","GEOID":"25013","NAME":"Hampden","NAMELSAD":"Hampden County","STUSPS":"MA","STATE_NAME":"Massachusetts","LSAD":"06","ALAND":1598038069,"AWATER":44414582},"id":"25013"},{"arcs":[[[43]],[[44]]],"type":"MultiPolygon","properties":{"STATEFP":"25","COUNTYFP":"019","COUNTYNS":"00606936","GEOIDFQ":"0500000US25019","GEOID":"25019","NAME":"Nantucket","NAMELSAD":"Nantucket County","STUSPS":"MA","STATE_NAME":"Massachusetts","LSAD":"06","ALAND":119637317,"AWATER":666826385},"id":"25019"}]}}}