{"type":"Topology","arcs":[[[6400,6542],[2,-241],[1,-377],[-3,-179]],[[6400,5745],[-262,3],[1,-30],[-44,1],[-18,26],[-4,33],[-26,39],[-57,2],[1,49]],[[5991,5868],[59,-8],[34,16],[29,-4],[80,39],[4,26],[-11,20],[-64,12],[-23,-4],[-42,13],[-29,26],[-35,48],[-24,93],[-5,47],[9,27],[20,23],[21,46],[15,17],[52,19],[80,92],[3,31],[-21,26],[-42,22],[83,-3],[21,-16],[30,15],[47,-18],[33,0],[22,12],[10,22],[-14,26],[21,11],[24,-10],[22,8]],[[7479,618],[264,5]],[[7743,623],[133,3],[0,9],[141,2],[21,-29],[22,-4],[50,-51]],[[8110,553],[35,-36],[-30,-7],[-1,-30],[-46,-36],[-14,-55],[-43,7],[-21,-17],[-13,-31],[-13,-55],[-32,-4],[-14,-12],[-29,-62],[-34,-28],[-5,-36],[4,-50],[-44,-3],[27,-39],[-346,-15]],[[7491,44],[-5,156],[-7,418]],[[8354,2331],[182,7],[215,9],[158,8]],[[8909,2355],[10,-41],[9,-65],[67,-137],[2,-38],[13,-26],[-17,-40],[-30,-41],[-17,-62],[2,-46],[-16,-80],[17,-76],[-18,-44],[0,-25],[-31,-86],[1,-43],[-17,-51],[-26,-22],[-35,-42],[-5,-18],[-24,-10],[-21,15],[-27,3],[-15,15],[4,35],[-22,11],[-27,-18],[-13,19],[29,13],[4,27],[21,15],[14,29],[24,-14],[8,38],[-13,16],[-27,5],[-29,18],[-23,-5]],[[8681,1584],[-26,31],[-11,306],[-69,-3],[-207,-3]],[[8368,1915],[-6,222],[-8,194]],[[2895,6437],[168,1],[0,281],[89,0],[1,140]],[[3153,6859],[280,-1]],[[3433,6858],[1,-138],[47,-1],[0,-230],[-2,-325],[71,-2]],[[3550,6162],[-27,-79],[-24,-49],[-27,-37],[8,-27],[-11,-24],[-25,-17],[-4,-20],[-34,-36],[-4,-32],[-16,-11],[-38,-82],[-27,-33],[-81,-122],[-27,-16],[-41,-54],[-11,-58],[20,-31],[-44,18],[-34,3],[-25,58],[-27,17],[-31,36],[-7,33],[17,18],[2,38],[15,11],[6,41],[21,52],[44,66],[-12,48],[-40,33],[-28,-20],[-39,-45],[-41,6],[-48,-2],[-6,-11],[-53,28],[29,41],[11,34],[-13,40],[32,34],[22,13],[23,58],[-11,21],[-1,40],[-33,34],[4,15],[36,-11],[25,64],[-40,58],[-15,14],[1,25],[47,17],[-7,22],[-24,21],[-4,17],[-38,18]],[[7743,623],[-7,352],[-7,207]],[[7729,1182],[144,6],[383,13]],[[8256,1201],[240,6]],[[8496,1207],[-21,-85],[-30,-32],[-10,-25],[-40,-36],[-32,-12],[-43,-5],[-42,-20],[-40,-47],[-30,-78],[-9,-102],[17,-79],[-15,-56],[-33,0],[-33,-20],[4,-53],[-29,-4]],[[4930,3389],[212,-3],[154,3],[170,-1]],[[5466,3388],[-1,-253],[1,-302]],[[5466,2833],[-1,-278]],[[5465,2555],[-256,-2]],[[5209,2553],[-280,1],[0,278]],[[4929,2832],[0,464],[1,93]],[[3153,6859],[1,416],[-564,0]],[[2590,7275],[1,277]],[[2591,7552],[0,414],[140,1],[1,137],[-60,1],[0,233]],[[2672,8338],[51,-9],[48,5],[66,0],[26,-26],[32,-14],[33,12],[39,-18],[6,-21],[40,-3],[16,-63],[37,2],[22,16],[8,-32],[39,-8],[42,-60],[14,-70],[11,-16],[54,-48],[1,-23],[24,-46],[40,-19],[4,-33],[37,-39],[21,2],[30,-15],[-8,-18],[19,-40],[-20,-20],[39,-48],[55,-18],[58,-6],[64,4],[35,21],[41,-16],[20,1]],[[3716,7672],[1,-537]],[[3717,7135],[-141,0],[-2,-278],[-141,1]],[[6000,3946],[266,-5]],[[6266,3941],[274,-1]],[[6540,3940],[2,-274],[0,-278]],[[6542,3388],[-316,-2],[-227,0]],[[5999,3386],[1,560]],[[0,7786],[99,68],[27,-9],[46,25],[114,43],[71,15],[82,30],[48,47],[74,55],[39,45]],[[600,8105],[24,0],[-1,-276],[140,-1],[0,-139],[422,1],[0,-276],[421,-2]],[[1606,7412],[1,-375]],[[1607,7037],[-114,66],[-38,9],[-417,115],[-488,133],[-215,60],[2,35],[-17,21],[-27,59],[-6,41],[-17,9],[-43,98],[-55,4],[-20,24],[-35,-5],[4,37],[-24,23],[-21,-21],[-48,-12],[-28,53]],[[6982,6857],[114,0],[0,-5]],[[7096,6852],[-53,-12],[-22,13],[-20,-15],[-19,19]],[[6560,6582],[18,10],[41,-18],[32,5],[85,-39],[31,2],[57,-28],[-15,-34],[-25,-16],[-3,-18],[-29,-12],[-91,27],[-9,27],[-47,57],[-36,20],[-9,17]],[[6502,6838],[13,10],[24,-19],[-26,-19],[-11,28]],[[6491,6662],[5,33],[28,-10],[22,-40],[-19,-11],[-36,28]],[[5125,7272],[330,1],[376,0]],[[5831,7273],[140,1],[1,-140],[175,1],[316,-2],[352,1],[1,-139],[139,0],[0,-138],[19,0]],[[6974,6857],[-12,-13],[-46,18],[17,-33],[-40,-22],[-70,6],[2,-28],[-52,6],[-22,23],[4,26],[24,20],[-48,32],[-35,-10],[11,-30],[-25,-7],[-8,29],[-28,-5],[0,-34],[-21,-3],[2,35],[-16,51],[-21,15],[-48,-6],[-57,38],[-34,-28],[-6,-29],[9,-18],[-11,-32],[-41,-39],[-11,-31],[17,-35],[-13,-11],[34,-102],[-58,-10],[-39,25],[-12,19],[-20,-4],[-20,22],[-1,25],[-21,8],[-34,35],[-28,3],[-32,56],[-69,72],[-58,27],[-44,7],[-41,30],[-36,2],[-20,23],[-29,-13],[-24,11],[-36,3],[-75,44],[-34,3],[-27,-26],[-12,29],[-41,13],[-35,-18],[-47,10],[-24,-9],[-50,-49],[-10,-22],[-26,-22],[-23,-44],[-37,-40],[-9,-24],[-42,-10],[-79,16],[-57,17],[-28,-24],[-26,6]],[[5125,6831],[0,212],[0,229]],[[6266,3941],[-2,208],[-3,209],[5,143]],[[6266,4501],[429,-1],[112,-6]],[[6807,4494],[3,-554]],[[6810,3940],[-270,0]],[[3115,9147],[30,14],[30,-7],[-3,-22],[-57,15]],[[2466,8800],[-80,-1],[-1,138],[-239,0]],[[2146,8937],[38,44],[21,42],[39,47],[58,36],[57,20],[42,29],[44,9],[36,35],[36,13],[103,16],[48,3],[8,10],[115,6],[41,-4],[26,-15],[36,9],[52,0],[50,-21],[46,-33],[4,-61],[-34,7],[-28,-19],[-37,-3],[-17,-12],[-47,17],[-29,0],[-84,-13],[-6,-39],[27,-33],[-34,-15],[-54,-42],[-43,-13],[-47,-59],[-23,-10],[-22,-32],[-33,-32],[-52,-9],[-17,-15]],[[1300,9871],[44,16],[4,49],[47,39],[94,52],[114,55],[111,43],[2,9],[65,36],[22,0],[43,17],[16,28],[63,32],[36,24],[11,25],[59,30],[40,12],[35,20],[25,-15],[27,5],[21,18],[39,5],[28,13],[3,-32],[-29,-25],[-136,-98],[-11,-14],[2,-36],[-13,-14],[-94,-68],[-55,-26],[-83,-26],[-47,-24],[-21,2],[-81,-35],[0,-11],[-88,-45],[2,-28],[27,7],[30,-7],[-29,-28],[-52,-24],[-25,-4],[-89,-43],[-43,-8],[-35,15],[-6,24],[-41,6],[10,40],[-42,-11]],[[2591,7552],[-281,0],[-353,1]],[[1957,7553],[1,483],[0,207],[143,0],[-1,139],[114,0]],[[2214,8382],[-28,-84],[-7,-96],[22,-60],[-22,-10],[-19,-37],[21,-15],[34,21],[19,49],[59,72],[-10,21],[43,8],[47,53],[54,41],[20,22],[51,23],[10,14],[51,23],[-6,-37],[-42,-40],[3,-23],[65,9],[64,15],[29,-13]],[[7358,5605],[145,5],[107,-1],[161,4],[142,0]],[[7913,5613],[21,-35],[2,-20],[43,-43],[16,-31],[2,-41],[-6,-32],[4,-45],[41,-11],[16,-35],[-86,30],[-30,32],[1,22],[-25,1],[-55,-35],[-19,-35],[-11,-59],[21,-24],[2,-46],[21,-41],[23,-13],[7,-20],[37,-25],[57,-19],[-7,-32]],[[7988,5056],[-230,2],[-271,-5],[-137,0]],[[7350,5053],[-2,278],[11,0],[-3,206],[2,68]],[[7824,3250],[25,43],[15,46],[40,56],[12,53],[34,9],[34,41],[-5,31],[57,61],[18,54],[126,20],[43,27],[38,-6],[23,8],[17,21],[18,43],[41,5],[24,26],[25,-5],[20,10],[32,-13],[29,-25],[69,-20],[54,-38],[33,-36],[41,-95],[20,-31],[5,-42],[26,-21],[20,-53],[25,-88],[-5,-38],[10,-32],[4,-72]],[[8792,3189],[-170,-8],[-405,-16]],[[8217,3165],[-200,-8],[-192,-5],[-1,98]],[[5181,4922],[196,1]],[[5377,4923],[15,-13],[32,-2],[23,83],[12,12],[22,61],[18,16],[-8,69],[22,70],[0,22],[33,26],[18,2],[11,-42],[-16,-5],[-13,-56],[3,-41],[-13,-47],[0,-26],[-45,-35],[-18,-25],[-4,-50],[-19,-43],[25,-18],[30,-2],[23,29],[-3,34],[12,27],[31,20],[32,69]],[[5600,5058],[69,0],[7,-49],[30,-2],[18,-25]],[[5724,4982],[0,-342],[-1,-137]],[[5723,4503],[-251,-1],[-294,2]],[[5178,4504],[0,256],[3,162]],[[7358,5605],[-148,-5],[-263,0]],[[6947,5600],[-3,133],[2,184],[-5,366],[53,1]],[[6994,6284],[85,-103],[7,-59],[29,-45],[41,-13],[37,12],[44,-7],[19,5],[70,-15],[55,-60],[56,-44],[43,-22],[32,-5],[30,17],[19,-27],[43,-23],[35,-29],[55,-17],[12,-11],[38,17],[49,-30],[17,-22],[31,-10],[34,-47],[45,-32],[-11,-28],[-29,7],[14,-50],[19,-30]],[[8681,1584],[-23,-7],[-38,-30],[-37,-14],[-23,-23],[-8,-40],[31,-17],[13,-55],[-45,0],[-27,-15],[-33,-60],[-11,-75],[16,-41]],[[8256,1201],[-18,565],[-4,141]],[[8234,1907],[89,3],[45,5]],[[3716,7672],[44,33],[59,17],[4,13],[50,-12],[14,-16],[25,-76],[38,-4],[22,-12],[16,-35],[42,-5],[25,6],[14,46],[17,18],[38,3],[57,-64],[39,10],[18,-23],[-11,-15],[28,-17],[62,90],[35,44],[22,8],[42,39],[31,44],[26,-8],[106,49],[182,122],[30,24],[26,6],[21,-25],[36,-3],[57,19],[48,10],[18,-5],[78,26],[50,6]],[[5125,7985],[0,-297]],[[5125,7688],[-422,1],[-141,1],[0,-278],[-282,2],[0,-279]],[[4280,7135],[-249,0],[-314,0]],[[4175,7753],[34,25],[29,0],[30,-42],[-3,-27],[-20,-49],[45,-18],[-18,-31],[-20,-3],[-22,25],[-13,-32],[-18,9],[3,70],[-19,18],[-8,55]],[[6807,4494],[205,1],[340,2]],[[7352,4497],[3,-139],[1,-186],[-1,-230]],[[7355,3942],[-318,0]],[[7037,3942],[-227,-2]],[[6272,2830],[268,0]],[[6540,2830],[268,0]],[[6808,2830],[0,-278],[2,-262]],[[6810,2290],[0,-17]],[[6810,2273],[-384,0],[-144,2]],[[6282,2275],[2,277],[-12,0],[0,278]],[[5181,4922],[-137,6],[-155,-1]],[[4889,4927],[-4,27],[13,40],[-7,104],[7,33],[26,15],[25,-19],[32,-5],[14,10],[15,38],[40,62],[45,-17],[25,-30],[37,2],[33,15],[33,53],[-2,43],[19,20],[25,53],[32,16],[35,43],[6,37],[22,48],[44,66],[35,-10],[51,48],[16,-34],[-6,-19],[-43,-36],[-34,-9],[-16,-35],[18,-58],[21,-40],[-19,-34],[-3,-37],[-41,-45],[-15,-30],[22,-13],[23,30],[11,-7],[-6,-68],[4,-22],[-26,-4],[-24,-62],[-7,-83],[21,-50],[-9,-40]],[[5103,5993],[37,-12],[22,-26],[6,-24],[-17,-23],[-37,54],[-11,31]],[[4900,5505],[23,32],[62,-13],[14,-21],[-8,-82],[8,-39],[-25,-13],[-47,58],[-20,16],[-7,62]],[[4798,5305],[20,46],[22,9],[37,-15],[-19,-26],[7,-27],[-44,-15],[-22,10],[-1,18]],[[6400,5745],[-2,-140]],[[6398,5605],[-1,-139],[-138,3]],[[6259,5469],[-136,3],[-276,-1],[1,140],[-187,3]],[[5661,5614],[4,50],[15,51],[34,26],[43,51],[33,-5],[79,74],[13,-3],[61,21],[48,-11]],[[5654,6525],[33,35],[9,-33],[-22,-15],[-20,13]],[[5502,6562],[4,44],[38,-14],[24,-20],[4,-42],[-70,32]],[[5394,6244],[7,37],[18,25],[-5,38],[5,29],[36,47],[11,38],[-7,37],[28,-11],[41,6],[-7,-30],[16,-17],[6,-44],[-14,-28],[18,-46],[3,-50],[-5,-21],[-39,-26],[-16,-26],[-24,-5],[-27,12],[-38,5],[-7,30]],[[5310,6463],[22,14],[31,-11],[-1,-39],[-29,-32],[-20,3],[12,35],[-15,30]],[[2590,7275],[-1,-277],[1,-242]],[[2590,6756],[-35,25],[-63,17],[-33,-1],[-14,24],[-52,-18],[-32,14],[-67,51],[-41,-26],[-47,38],[-32,-13],[-12,6],[-14,39],[-35,-9],[-28,3],[-26,-17],[-17,18],[-14,-46],[-53,0],[-22,43],[-64,21],[-47,-17],[-64,21],[-13,16],[-93,54],[-65,38]],[[1606,7412],[0,140]],[[1606,7552],[351,1]],[[5465,2555],[282,0],[0,-280]],[[5747,2275],[1,-386],[2,-172]],[[5750,1717],[-265,-3]],[[5485,1714],[-267,0]],[[5218,1714],[0,230],[-6,223],[-3,246]],[[5209,2413],[0,140]],[[6015,1718],[267,0]],[[6282,1718],[264,-1]],[[6546,1717],[0,-208],[2,-348]],[[6548,1161],[-133,-1]],[[6415,1160],[-209,1],[-188,-1]],[[6018,1160],[-3,172],[-1,247],[1,139]],[[5747,2275],[267,2],[268,-2]],[[6282,2275],[-1,-280],[1,-277]],[[6015,1718],[-265,-1]],[[5466,2833],[228,0],[309,-3]],[[6003,2830],[269,0]],[[5218,1714],[-103,-1],[-184,2],[-193,-2]],[[4738,1713],[-2,141],[-6,101],[-12,111],[-32,152],[-19,56]],[[4667,2274],[142,-2],[268,3],[-1,139],[133,-1]],[[6398,5605],[161,-3],[253,-2]],[[6812,5600],[-3,-252],[-3,-162],[0,-136]],[[6806,5050],[-175,4],[-361,1]],[[6270,5055],[-2,186],[0,89],[-9,0],[0,139]],[[5238,1158],[249,2]],[[5487,1160],[275,-3]],[[5762,1157],[2,-278],[4,-279]],[[5768,600],[-528,-3]],[[5240,597],[-4,280],[2,281]],[[6000,3946],[-278,1]],[[5722,3947],[-4,417],[5,139]],[[5723,4503],[271,-3],[272,1]],[[7046,1728],[265,6]],[[7311,1734],[132,1],[134,3]],[[7577,1738],[6,-190],[19,-373]],[[7602,1175],[-113,-3],[-202,-8],[-210,1]],[[7077,1165],[-11,0]],[[7066,1165],[-1,194],[-11,244],[-8,125]],[[5125,6831],[-33,-3],[-28,-24],[-8,-31],[-82,30],[-71,21],[-69,1],[-45,-17],[-37,14],[-27,-7],[-11,-18],[-25,3],[-26,-9],[-12,-28],[-23,-7],[-20,-25],[-12,-59],[9,-23],[-25,-36],[4,-18],[-28,-53],[-23,13],[-38,-10],[-13,-45],[-27,-6]],[[4455,6494],[1,221],[-35,0],[1,280],[-1,139],[-141,1]],[[5125,7688],[0,-416]],[[4719,102],[2,176],[1,322]],[[4722,600],[324,-3],[194,0]],[[5240,597],[3,-276],[0,-157],[-29,-34],[-6,-29]],[[5208,101],[-305,2],[-184,-1]],[[6540,2830],[0,255],[2,303]],[[6542,3388],[269,-3],[1,24],[224,-4]],[[7036,3405],[0,-318],[-1,-93]],[[7035,2994],[-3,-139],[-224,0],[0,-25]],[[5877,102],[-107,0]],[[5770,102],[0,232],[-2,266]],[[5768,600],[274,2],[252,0]],[[6294,602],[2,-279],[-1,-221]],[[6295,102],[-166,-1],[-252,1]],[[5178,4504],[-182,0],[-287,8]],[[4709,4512],[16,80],[-6,42],[-21,52],[-17,59],[3,36],[27,31],[59,20],[29,22],[38,-7],[35,23],[13,26],[4,31]],[[4719,102],[-336,-1],[-338,2],[53,39],[105,88],[17,25],[53,58],[45,81],[32,102],[42,86],[35,93],[21,26],[70,99],[45,75]],[[4563,875],[158,0],[1,-275]],[[4455,6494],[-28,-13],[-19,5],[-34,-10],[-6,-61],[-41,12],[-13,-29],[-7,-52],[-22,7],[-18,-16],[12,-68],[-38,-2],[-41,29],[-10,32],[-19,5],[-4,43],[45,12],[12,17],[-7,30],[23,11],[28,43],[-4,35],[49,3],[9,35],[17,6],[9,44],[31,34],[-8,52],[-28,22],[-25,-5],[-19,-31],[-17,-1],[-22,-26],[1,-26],[-33,-15],[-79,23],[-12,26],[-44,-7],[-1,-31],[11,-47],[-12,-27],[-21,-2],[-21,-60],[-27,-31],[3,-27],[-27,-15],[-42,-2],[-18,-20],[-25,9],[-12,-28],[-36,34],[10,80],[-15,87],[-19,29],[65,77],[0,33],[-34,13],[-33,-58],[-16,-15],[26,-19],[-46,-22],[-20,-35],[-8,-86],[8,-35],[-27,-47],[-22,-15],[0,-18],[-35,-9],[-39,-25],[-34,-51],[-48,-92],[-28,-41]],[[4229,6207],[17,9],[21,-18],[0,-37],[-24,-8],[-14,54]],[[4183,6251],[11,18],[26,-14],[-24,-20],[-13,16]],[[4091,6085],[29,3],[0,-39],[-25,15],[-4,21]],[[7729,1182],[-127,-7]],[[7577,1738],[-3,141],[264,8],[2,6]],[[7840,1893],[166,5],[228,9]],[[7350,5053],[0,-216],[2,-340]],[[6807,4494],[-2,348],[1,208]],[[6806,5050],[134,2],[136,-2],[274,3]],[[6294,602],[132,-4]],[[6426,598],[389,5]],[[6815,603],[2,-334],[2,-252]],[[6819,17],[-45,-1],[-394,-13],[-63,-3],[0,102],[-22,0]],[[5485,1714],[2,-283],[0,-271]],[[5238,1158],[-278,-2],[-295,0]],[[4665,1156],[18,55],[12,58],[7,80],[17,88],[-4,68],[14,37],[12,78],[-3,93]],[[4563,875],[41,87],[35,97],[26,97]],[[6546,1717],[269,0],[0,9]],[[6815,1726],[231,2]],[[7066,1165],[-252,0],[0,-4],[-266,0]],[[7491,44],[-132,-6],[-286,-11],[-254,-10]],[[6815,603],[207,1],[54,-4]],[[7076,600],[139,4],[0,7],[264,7]],[[8354,2331],[-5,209],[-133,-2],[-2,70]],[[8214,2608],[19,0],[-6,278],[-6,139],[-4,140]],[[8792,3189],[7,-138],[17,-97],[23,-85],[30,-93],[-1,-55],[7,-23],[-4,-56],[7,-17],[9,-180],[16,-46],[6,-44]],[[6400,6542],[18,-35],[39,-16],[55,-37],[64,-36],[59,-42],[50,-44],[71,-6],[3,26],[42,-22],[52,14],[66,-31],[62,-16],[13,-13]],[[6947,5600],[-135,0]],[[7077,1165],[0,-279],[-4,-130],[3,-156]],[[6426,598],[-3,142],[-6,141],[-2,279]],[[6266,4501],[2,322],[2,93],[0,139]],[[4930,3389],[-2,278],[1,117],[-5,167]],[[4924,3951],[116,-4],[134,-1]],[[5174,3946],[289,1]],[[5463,3947],[3,-397],[0,-162]],[[600,8105],[40,47],[68,37],[78,20],[52,4],[68,-22],[20,11],[92,25],[47,-7],[64,10],[71,31],[22,16],[55,27],[63,37],[29,29],[32,52],[35,34],[27,15],[14,-13],[48,4],[39,20],[14,-12],[33,5],[41,27],[19,28]],[[1671,8530],[1,-426],[77,0],[0,-137],[-141,1],[-1,-139],[-1,-277]],[[5762,1157],[256,3]],[[6810,2273],[1,-121],[3,-259],[1,-167]],[[7036,3405],[1,273]],[[7037,3678],[136,1],[1,-138],[153,-1]],[[7327,3540],[-17,-82],[3,-67],[-9,-64],[-31,-26],[20,-73],[29,-60],[24,-24],[40,-25],[14,10],[31,-15],[2,-14],[50,-11],[39,-17],[40,-46]],[[7562,3026],[1,-176]],[[7563,2850],[-134,1],[1,69],[-263,3],[1,69],[-133,2]],[[7311,1734],[-5,140],[-2,141],[0,282]],[[7304,2297],[-3,140],[266,2]],[[7567,2439],[264,2]],[[7831,2441],[2,-276],[7,-272]],[[8214,2608],[-263,-8],[3,-139],[-123,-4],[0,-16]],[[7567,2439],[0,167],[-3,1],[-1,243]],[[7562,3026],[36,2],[48,54],[62,80],[34,55],[18,14],[30,-31],[34,50]],[[6003,2830],[-3,416],[-1,140]],[[5770,102],[-414,-1],[-148,0]],[[5178,4504],[-3,-220],[-1,-338]],[[4924,3951],[-249,13],[-140,5]],[[4535,3969],[36,62],[15,52],[19,21],[30,72],[36,60],[23,120],[-4,50],[3,50],[16,56]],[[7355,3942],[172,0],[187,3]],[[7714,3945],[-5,-94],[-22,-30],[-2,-26],[12,-33],[-34,11],[-42,-4],[-36,-27],[-11,-20],[10,-48],[-19,-3],[-48,21],[-26,-31],[-58,17],[-38,-11],[-15,-38],[-16,-6],[-17,-61],[-20,-22]],[[7037,3678],[0,264]],[[7352,4497],[375,4],[264,0]],[[7991,4501],[1,-40],[-10,-67],[7,-60],[-15,-55],[2,-51],[-9,-15],[-27,2],[-57,-61],[-21,-48],[-14,15],[-38,10],[-33,-10],[-32,-41],[-13,-33],[-7,-60],[-11,-42]],[[7988,5056],[23,-47],[8,-33],[-3,-34],[6,-35],[-3,-46],[23,-36],[-15,-91],[-23,-44],[-9,-55],[2,-56],[7,-29],[-13,-49]],[[7304,2297],[-137,-2],[-132,-5],[-225,0]],[[5724,4982],[18,18],[-12,44],[40,14],[226,-2],[274,-1]],[[5722,3947],[-259,0]],[[5999,3386],[-100,-1],[-433,3]],[[5600,5058],[34,65],[19,49],[23,116],[-7,24],[2,43],[15,37],[3,69],[-17,64],[-2,46],[-9,43]],[[4930,3389],[-135,0],[-307,6]],[[4488,3395],[-3,58],[-13,54],[-3,45],[-14,49],[-3,36],[-44,81],[-14,58],[16,28],[60,49],[37,52],[28,64]],[[4667,2274],[-29,76],[-110,240],[-36,94],[-38,156]],[[4454,2840],[72,0],[191,-5],[212,-3]],[[5125,7985],[79,-15],[90,-6],[52,5],[92,-9],[97,2],[155,65],[59,33],[61,26],[21,3]],[[5831,8089],[-2,-155],[0,-522],[2,-139]],[[2466,8800],[-13,-22],[-4,-45],[12,-20],[-56,-12],[-18,-64],[-59,-35],[-20,-91],[-40,-55],[-49,-24],[-5,-50]],[[1671,8530],[22,45],[3,23],[25,43],[49,22],[27,36],[36,22],[32,9],[36,47],[33,30],[52,34],[32,6],[14,14],[40,9],[74,67]],[[4454,2840],[-29,90],[-38,77],[-20,65],[0,66],[10,30],[77,110],[18,40],[16,77]],[[2895,6437],[-38,52],[-23,-2],[-32,11],[-20,-6],[-45,21],[-8,41],[-73,-24],[-40,8],[-16,29],[-24,9],[-5,22],[64,65],[7,18],[-35,14],[-6,26],[14,26],[-25,9]],[[6982,6857],[-8,0]],[[5831,8089],[90,15],[85,-11],[52,4],[44,17],[49,-5],[-61,-63],[-22,-50],[-9,-116],[0,-69],[9,-62],[-29,-16],[-2,-29],[24,-43],[21,-13],[57,-5],[29,15],[18,-26],[33,-7],[36,7],[25,-37],[24,-4],[54,15],[52,24],[51,31],[27,-9],[26,4],[36,-53],[-6,-28],[9,-30],[61,10],[51,40],[19,-22],[20,13],[-1,42],[20,35],[28,19],[29,-3],[23,16],[37,-2],[54,-24],[44,13],[32,53],[36,10],[19,-21],[54,5],[20,-42],[-39,-137],[8,-74],[37,-80],[-15,-11],[4,-75],[20,-19],[-11,-24],[-33,-19],[-21,0],[-23,26],[-37,2],[-5,-25],[-26,-18],[-24,-3],[-17,-27],[24,-41],[34,-20],[28,5],[30,25],[27,-5],[64,-52],[32,0],[35,-19],[-45,-49],[-1,-17],[28,-29],[21,-34],[26,-13],[25,-29],[50,4],[2,-15],[30,-15],[15,-40],[-30,-30],[-64,2],[-44,-15],[-70,17],[-16,-3],[-22,22]],[[7479,6963],[26,22],[18,-18],[-29,-25],[-15,21]],[[7356,6842],[17,50],[26,32],[12,-26],[31,-43],[29,24],[16,42],[32,-2],[12,18],[63,32],[-7,29],[-25,4],[-36,18],[14,23],[22,4],[44,-6],[40,3],[37,-21],[51,-65],[7,-43],[39,-42],[20,7],[17,-24],[-30,-39],[-14,-52],[-18,-15],[-84,11],[-20,31],[-41,2],[-34,-16],[-60,3],[-18,28],[-22,-10],[-11,-25],[-34,27],[-31,5],[-30,15],[-14,21]]],"transform":{"scale":[0.0008884197558268602,0.0006254677388289679],"translate":[-90.418136,41.696118]},"objects":{"26":{"type":"GeometryCollection","geometries":[{"arcs":[[0,1,2]],"type":"Polygon","properties":{"STATEFP":"26","COUNTYFP":"047","COUNTYNS":"01622966","GEOIDFQ":"0500000US26047","GEOID":"26047","NAME":"Emmet","NAMELSAD":"Emmet County","STUSPS":"MI","STATE_NAME":"Michigan","LSAD":"06","ALAND":1210937841,"AWATER":1073422145},"id":"26047"},{"arcs":[[3,4,5,6]],"type":"Polygon","properties":{"STATEFP":"26","COUNTYFP":"115","COUNTYNS":"01623000","GEOIDFQ":"0500000US26115","GEOID":"26115","NAME":"Monroe","NAMELSAD":"Monroe County","STUSPS":"MI","STATE_NAME":"Michigan","LSAD":"06","ALAND":1422829735,"AWATER":338191910},"id":"26115"},{"arcs":[[7,8,9,10]],"type":"Polygon","properties":{"STATEFP":"26","COUNTYFP":"147","COUNTYNS":"01625033","GEOIDFQ":"0500000US26147","GEOID":"26147","NAME":"St. Clair","NAMELSAD":"St. Clair County","STUSPS":"MI","STATE_NAME":"Michigan","LSAD":"06","ALAND":1868733017,"AWATER":297782416},"id":"26147"},{"arcs":[[11,12,13,14]],"type":"Polygon","properties":{"STATEFP":"26","COUNTYFP":"109","COUNTYNS":"01622997","GEOIDFQ":"0500000US26109","GEOID":"26109","NAME":"Menominee","NAMELSAD":"Menominee County","STUSPS":"MI","STATE_NAME":"Michigan","LSAD":"06","ALAND":2704053650,"AWATER":761798350},"id":"26109"},{"arcs":[[-5,15,16,17,18]],"type":"Polygon","properties":{"STATEFP":"26","COUNTYFP":"163","COUNTYNS":"01623022","GEOIDFQ":"0500000US26163","GEOID":"26163","NAME":"Wayne","NAMELSAD":"Wayne County","STUSPS":"MI","STATE_NAME":"Michigan","LSAD":"06","ALAND":1584666038,"AWATER":156818731},"id":"26163"},{"arcs":[[19,20,21,22,23,24]],"type":"Polygon","properties":{"STATEFP":"26","COUNTYFP":"123","COUNTYNS":"01623004","GEOIDFQ":"0500000US26123","GEOID":"26123","NAME":"Newaygo","NAMELSAD":"Newaygo County","STUSPS":"MI","STATE_NAME":"Michigan","LSAD":"06","ALAND":2172706353,"AWATER":59083043},"id":"26123"},{"arcs":[[-13,25,26,27,28,29,30]],"type":"Polygon","properties":{"STATEFP":"26","COUNTYFP":"103","COUNTYNS":"01622994","GEOIDFQ":"0500000US26103","GEOID":"26103","NAME":"Marquette","NAMELSAD":"Marquette County","STUSPS":"MI","STATE_NAME":"Michigan","LSAD":"06","ALAND":4685471876,"AWATER":4185286890},"id":"26103"},{"arcs":[[31,32,33,34,35]],"type":"Polygon","properties":{"STATEFP":"26","COUNTYFP":"035","COUNTYNS":"01622960","GEOIDFQ":"0500000US26035","GEOID":"26035","NAME":"Clare","NAMELSAD":"Clare County","STUSPS":"MI","STATE_NAME":"Michigan","LSAD":"06","ALAND":1461704503,"AWATER":28496223},"id":"26035"},{"arcs":[[36,37,38,39]],"type":"Polygon","properties":{"STATEFP":"26","COUNTYFP":"053","COUNTYNS":"01622969","GEOIDFQ":"0500000US26053","GEOID":"26053","NAME":"Gogebic","NAMELSAD":"Gogebic County","STUSPS":"MI","STATE_NAME":"Michigan","LSAD":"06","ALAND":2854517946,"AWATER":970153215},"id":"26053"},{"arcs":[[[40,41]],[[42]],[[43]],[[44]],[[45,46,47,48]]],"type":"MultiPolygon","properties":{"STATEFP":"26","COUNTYFP":"097","COUNTYNS":"01622991","GEOIDFQ":"0500000US26097","GEOID":"26097","NAME":"Mackinac","NAMELSAD":"Mackinac County","STUSPS":"MI","STATE_NAME":"Michigan","LSAD":"06","ALAND":2646654802,"AWATER":2793754479},"id":"26097"},{"arcs":[[-33,49,50,51,52]],"type":"Polygon","properties":{"STATEFP":"26","COUNTYFP":"143","COUNTYNS":"01623014","GEOIDFQ":"0500000US26143","GEOID":"26143","NAME":"Roscommon","NAMELSAD":"Roscommon County","STUSPS":"MI","STATE_NAME":"Michigan","LSAD":"06","ALAND":1346526238,"AWATER":155723123},"id":"26143"},{"arcs":[[[53]],[[54,55]],[[56]]],"type":"MultiPolygon","properties":{"STATEFP":"26","COUNTYFP":"083","COUNTYNS":"01622984","GEOIDFQ":"0500000US26083","GEOID":"26083","NAME":"Keweenaw","NAMELSAD":"Keweenaw County","STUSPS":"MI","STATE_NAME":"Michigan","LSAD":"06","ALAND":1398883239,"AWATER":14053673396},"id":"26083"},{"arcs":[[-28,57,58,59]],"type":"Polygon","properties":{"STATEFP":"26","COUNTYFP":"013","COUNTYNS":"01622949","GEOIDFQ":"0500000US26013","GEOID":"26013","NAME":"Baraga","NAMELSAD":"Baraga County","STUSPS":"MI","STATE_NAME":"Michigan","LSAD":"06","ALAND":2326915096,"AWATER":441618700},"id":"26013"},{"arcs":[[60,61,62,63]],"type":"Polygon","properties":{"STATEFP":"26","COUNTYFP":"007","COUNTYNS":"01622946","GEOIDFQ":"0500000US26007","GEOID":"26007","NAME":"Alpena","NAMELSAD":"Alpena County","STUSPS":"MI","STATE_NAME":"Michigan","LSAD":"06","ALAND":1481211836,"AWATER":2908626559},"id":"26007"},{"arcs":[[64,65,66]],"type":"Polygon","properties":{"STATEFP":"26","COUNTYFP":"063","COUNTYNS":"01622974","GEOIDFQ":"0500000US26063","GEOID":"26063","NAME":"Huron","NAMELSAD":"Huron County","STUSPS":"MI","STATE_NAME":"Michigan","LSAD":"06","ALAND":2165015628,"AWATER":3369278562},"id":"26063"},{"arcs":[[67,68,69,70,71,72]],"type":"Polygon","properties":{"STATEFP":"26","COUNTYFP":"055","COUNTYNS":"01622970","GEOIDFQ":"0500000US26055","GEOID":"26055","NAME":"Grand Traverse","NAMELSAD":"Grand Traverse County","STUSPS":"MI","STATE_NAME":"Michigan","LSAD":"06","ALAND":1202625100,"AWATER":354771223},"id":"26055"},{"arcs":[[-61,73,74,75]],"type":"Polygon","properties":{"STATEFP":"26","COUNTYFP":"141","COUNTYNS":"01623013","GEOIDFQ":"0500000US26141","GEOID":"26141","NAME":"Presque Isle","NAMELSAD":"Presque Isle County","STUSPS":"MI","STATE_NAME":"Michigan","LSAD":"06","ALAND":1706073139,"AWATER":4957323625},"id":"26141"},{"arcs":[[-10,76,-18,77,78]],"type":"Polygon","properties":{"STATEFP":"26","COUNTYFP":"099","COUNTYNS":"01622992","GEOIDFQ":"0500000US26099","GEOID":"26099","NAME":"Macomb","NAMELSAD":"Macomb County","STUSPS":"MI","STATE_NAME":"Michigan","LSAD":"06","ALAND":1241523996,"AWATER":237154364},"id":"26099"},{"arcs":[[[-30,79,80,81,82]],[[83]]],"type":"MultiPolygon","properties":{"STATEFP":"26","COUNTYFP":"003","COUNTYNS":"01622944","GEOIDFQ":"0500000US26003","GEOID":"26003","NAME":"Alger","NAMELSAD":"Alger County","STUSPS":"MI","STATE_NAME":"Michigan","LSAD":"06","ALAND":2369943232,"AWATER":10703502027},"id":"26003"},{"arcs":[[-52,84,85,86,87]],"type":"Polygon","properties":{"STATEFP":"26","COUNTYFP":"129","COUNTYNS":"01623007","GEOIDFQ":"0500000US26129","GEOID":"26129","NAME":"Ogemaw","NAMELSAD":"Ogemaw County","STUSPS":"MI","STATE_NAME":"Michigan","LSAD":"06","ALAND":1459473476,"AWATER":29634442},"id":"26129"},{"arcs":[[88,89,90,91,92,93]],"type":"Polygon","properties":{"STATEFP":"26","COUNTYFP":"057","COUNTYNS":"01622971","GEOIDFQ":"0500000US26057","GEOID":"26057","NAME":"Gratiot","NAMELSAD":"Gratiot County","STUSPS":"MI","STATE_NAME":"Michigan","LSAD":"06","ALAND":1472101758,"AWATER":8366304},"id":"26057"},{"arcs":[[[-68,94,95]],[[96]],[[97]],[[98]]],"type":"MultiPolygon","properties":{"STATEFP":"26","COUNTYFP":"089","COUNTYNS":"01622987","GEOIDFQ":"0500000US26089","GEOID":"26089","NAME":"Leelanau","NAMELSAD":"Leelanau County","STUSPS":"MI","STATE_NAME":"Michigan","LSAD":"06","ALAND":899244068,"AWATER":5659103150},"id":"26089"},{"arcs":[[[-2,99,100,101,102]],[[103]],[[104]],[[105]],[[106]]],"type":"MultiPolygon","properties":{"STATEFP":"26","COUNTYFP":"029","COUNTYNS":"01622957","GEOIDFQ":"0500000US26029","GEOID":"26029","NAME":"Charlevoix","NAMELSAD":"Charlevoix County","STUSPS":"MI","STATE_NAME":"Michigan","LSAD":"06","ALAND":1078288794,"AWATER":2522931117},"id":"26029"},{"arcs":[[-27,107,108,-39,109,110,-58]],"type":"Polygon","properties":{"STATEFP":"26","COUNTYFP":"071","COUNTYNS":"01622978","GEOIDFQ":"0500000US26071","GEOID":"26071","NAME":"Iron","NAMELSAD":"Iron County","STUSPS":"MI","STATE_NAME":"Michigan","LSAD":"06","ALAND":3020226160,"AWATER":116769814},"id":"26071"},{"arcs":[[-23,111,112,113,114,115,116]],"type":"Polygon","properties":{"STATEFP":"26","COUNTYFP":"081","COUNTYNS":"01622983","GEOIDFQ":"0500000US26081","GEOID":"26081","NAME":"Kent","NAMELSAD":"Kent County","STUSPS":"MI","STATE_NAME":"Michigan","LSAD":"06","ALAND":2200312475,"AWATER":58007407},"id":"26081"},{"arcs":[[117,118,119,120,121,122]],"type":"Polygon","properties":{"STATEFP":"26","COUNTYFP":"045","COUNTYNS":"01622965","GEOIDFQ":"0500000US26045","GEOID":"26045","NAME":"Eaton","NAMELSAD":"Eaton County","STUSPS":"MI","STATE_NAME":"Michigan","LSAD":"06","ALAND":1489785883,"AWATER":10939432},"id":"26045"},{"arcs":[[-113,123,124,-118,125]],"type":"Polygon","properties":{"STATEFP":"26","COUNTYFP":"067","COUNTYNS":"01622976","GEOIDFQ":"0500000US26067","GEOID":"26067","NAME":"Ionia","NAMELSAD":"Ionia County","STUSPS":"MI","STATE_NAME":"Michigan","LSAD":"06","ALAND":1479710875,"AWATER":22590324},"id":"26067"},{"arcs":[[-22,126,127,-94,-124,-112]],"type":"Polygon","properties":{"STATEFP":"26","COUNTYFP":"117","COUNTYNS":"01623001","GEOIDFQ":"0500000US26117","GEOID":"26117","NAME":"Montcalm","NAMELSAD":"Montcalm County","STUSPS":"MI","STATE_NAME":"Michigan","LSAD":"06","ALAND":1826793472,"AWATER":39944686},"id":"26117"},{"arcs":[[-116,128,129,130]],"type":"Polygon","properties":{"STATEFP":"26","COUNTYFP":"139","COUNTYNS":"01623012","GEOIDFQ":"0500000US26139","GEOID":"26139","NAME":"Ottawa","NAMELSAD":"Ottawa County","STUSPS":"MI","STATE_NAME":"Michigan","LSAD":"06","ALAND":1459509499,"AWATER":2765823898},"id":"26139"},{"arcs":[[-101,131,132,133,134]],"type":"Polygon","properties":{"STATEFP":"26","COUNTYFP":"137","COUNTYNS":"01623011","GEOIDFQ":"0500000US26137","GEOID":"26137","NAME":"Otsego","NAMELSAD":"Otsego County","STUSPS":"MI","STATE_NAME":"Michigan","LSAD":"06","ALAND":1333860410,"AWATER":29050564},"id":"26137"},{"arcs":[[135,136,137,138,139]],"type":"Polygon","properties":{"STATEFP":"26","COUNTYFP":"077","COUNTYNS":"01622981","GEOIDFQ":"0500000US26077","GEOID":"26077","NAME":"Kalamazoo","NAMELSAD":"Kalamazoo County","STUSPS":"MI","STATE_NAME":"Michigan","LSAD":"06","ALAND":1455466318,"AWATER":47506806},"id":"26077"},{"arcs":[[-32,140,141,142,-50]],"type":"Polygon","properties":{"STATEFP":"26","COUNTYFP":"113","COUNTYNS":"01622999","GEOIDFQ":"0500000US26113","GEOID":"26113","NAME":"Missaukee","NAMELSAD":"Missaukee County","STUSPS":"MI","STATE_NAME":"Michigan","LSAD":"06","ALAND":1462810808,"AWATER":23571639},"id":"26113"},{"arcs":[[143,144,145,146,147,148]],"type":"Polygon","properties":{"STATEFP":"26","COUNTYFP":"093","COUNTYNS":"01622989","GEOIDFQ":"0500000US26093","GEOID":"26093","NAME":"Livingston","NAMELSAD":"Livingston County","STUSPS":"MI","STATE_NAME":"Michigan","LSAD":"06","ALAND":1464094017,"AWATER":52100268},"id":"26093"},{"arcs":[[-49,149,150,-82,151]],"type":"Polygon","properties":{"STATEFP":"26","COUNTYFP":"153","COUNTYNS":"01623017","GEOIDFQ":"0500000US26153","GEOID":"26153","NAME":"Schoolcraft","NAMELSAD":"Schoolcraft County","STUSPS":"MI","STATE_NAME":"Michigan","LSAD":"06","ALAND":3035145673,"AWATER":1844210517},"id":"26153"},{"arcs":[[152,153,154,155]],"type":"Polygon","properties":{"STATEFP":"26","COUNTYFP":"027","COUNTYNS":"01622956","GEOIDFQ":"0500000US26027","GEOID":"26027","NAME":"Cass","NAMELSAD":"Cass County","STUSPS":"MI","STATE_NAME":"Michigan","LSAD":"06","ALAND":1269428348,"AWATER":47086607},"id":"26027"},{"arcs":[[-90,156,157,158,159]],"type":"Polygon","properties":{"STATEFP":"26","COUNTYFP":"111","COUNTYNS":"01622998","GEOIDFQ":"0500000US26111","GEOID":"26111","NAME":"Midland","NAMELSAD":"Midland County","STUSPS":"MI","STATE_NAME":"Michigan","LSAD":"06","ALAND":1342738433,"AWATER":24953314},"id":"26111"},{"arcs":[[160,161,162,163,164]],"type":"Polygon","properties":{"STATEFP":"26","COUNTYFP":"023","COUNTYNS":"01622954","GEOIDFQ":"0500000US26023","GEOID":"26023","NAME":"Branch","NAMELSAD":"Branch County","STUSPS":"MI","STATE_NAME":"Michigan","LSAD":"06","ALAND":1311598417,"AWATER":34427277},"id":"26023"},{"arcs":[[-73,165,166,-95]],"type":"Polygon","properties":{"STATEFP":"26","COUNTYFP":"019","COUNTYNS":"01622952","GEOIDFQ":"0500000US26019","GEOID":"26019","NAME":"Benzie","NAMELSAD":"Benzie County","STUSPS":"MI","STATE_NAME":"Michigan","LSAD":"06","ALAND":828011952,"AWATER":1398248181},"id":"26019"},{"arcs":[[-153,167,168]],"type":"Polygon","properties":{"STATEFP":"26","COUNTYFP":"021","COUNTYNS":"01622953","GEOIDFQ":"0500000US26021","GEOID":"26021","NAME":"Berrien","NAMELSAD":"Berrien County","STUSPS":"MI","STATE_NAME":"Michigan","LSAD":"06","ALAND":1470711038,"AWATER":2625282548},"id":"26021"},{"arcs":[[[-14,-31,-83,-151,169]],[[170]],[[171]],[[172]]],"type":"MultiPolygon","properties":{"STATEFP":"26","COUNTYFP":"041","COUNTYNS":"01622963","GEOIDFQ":"0500000US26041","GEOID":"26041","NAME":"Delta","NAMELSAD":"Delta County","STUSPS":"MI","STATE_NAME":"Michigan","LSAD":"06","ALAND":3033120259,"AWATER":2124407010},"id":"26041"},{"arcs":[[-17,173,-146,174,175,-78]],"type":"Polygon","properties":{"STATEFP":"26","COUNTYFP":"125","COUNTYNS":"01623005","GEOIDFQ":"0500000US26125","GEOID":"26125","NAME":"Oakland","NAMELSAD":"Oakland County","STUSPS":"MI","STATE_NAME":"Michigan","LSAD":"06","ALAND":2246622091,"AWATER":103110913},"id":"26125"},{"arcs":[[176,-85,177,178]],"type":"Polygon","properties":{"STATEFP":"26","COUNTYFP":"135","COUNTYNS":"01623010","GEOIDFQ":"0500000US26135","GEOID":"26135","NAME":"Oscoda","NAMELSAD":"Oscoda County","STUSPS":"MI","STATE_NAME":"Michigan","LSAD":"06","ALAND":1465088041,"AWATER":15136485},"id":"26135"},{"arcs":[[-164,179,180,181,182]],"type":"Polygon","properties":{"STATEFP":"26","COUNTYFP":"059","COUNTYNS":"01622972","GEOIDFQ":"0500000US26059","GEOID":"26059","NAME":"Hillsdale","NAMELSAD":"Hillsdale County","STUSPS":"MI","STATE_NAME":"Michigan","LSAD":"06","ALAND":1549244317,"AWATER":22901955},"id":"26059"},{"arcs":[[-115,183,-136,184,185,-129]],"type":"Polygon","properties":{"STATEFP":"26","COUNTYFP":"005","COUNTYNS":"01622945","GEOIDFQ":"0500000US26005","GEOID":"26005","NAME":"Allegan","NAMELSAD":"Allegan County","STUSPS":"MI","STATE_NAME":"Michigan","LSAD":"06","ALAND":2137854635,"AWATER":2610343990},"id":"26005"},{"arcs":[[-140,-154,-169,186,-185]],"type":"Polygon","properties":{"STATEFP":"26","COUNTYFP":"159","COUNTYNS":"01623020","GEOIDFQ":"0500000US26159","GEOID":"26159","NAME":"Van Buren","NAMELSAD":"Van Buren County","STUSPS":"MI","STATE_NAME":"Michigan","LSAD":"06","ALAND":1574188228,"AWATER":1248649349},"id":"26159"},{"arcs":[[-120,187,188,-149,189]],"type":"Polygon","properties":{"STATEFP":"26","COUNTYFP":"065","COUNTYNS":"01622975","GEOIDFQ":"0500000US26065","GEOID":"26065","NAME":"Ingham","NAMELSAD":"Ingham County","STUSPS":"MI","STATE_NAME":"Michigan","LSAD":"06","ALAND":1440243333,"AWATER":11999081},"id":"26065"},{"arcs":[[-7,190,-182,191,192]],"type":"Polygon","properties":{"STATEFP":"26","COUNTYFP":"091","COUNTYNS":"01622988","GEOIDFQ":"0500000US26091","GEOID":"26091","NAME":"Lenawee","NAMELSAD":"Lenawee County","STUSPS":"MI","STATE_NAME":"Michigan","LSAD":"06","ALAND":1941592912,"AWATER":30430814},"id":"26091"},{"arcs":[[-8,193,194,-66,195]],"type":"Polygon","properties":{"STATEFP":"26","COUNTYFP":"151","COUNTYNS":"01623016","GEOIDFQ":"0500000US26151","GEOID":"26151","NAME":"Sanilac","NAMELSAD":"Sanilac County","STUSPS":"MI","STATE_NAME":"Michigan","LSAD":"06","ALAND":2493048507,"AWATER":1624879475},"id":"26151"},{"arcs":[[-1,196,-75,197,-132,-100]],"type":"Polygon","properties":{"STATEFP":"26","COUNTYFP":"031","COUNTYNS":"01622958","GEOIDFQ":"0500000US26031","GEOID":"26031","NAME":"Cheboygan","NAMELSAD":"Cheboygan County","STUSPS":"MI","STATE_NAME":"Michigan","LSAD":"06","ALAND":1852576279,"AWATER":440595150},"id":"26031"},{"arcs":[[-121,-190,-148,198,-192,-181,199]],"type":"Polygon","properties":{"STATEFP":"26","COUNTYFP":"075","COUNTYNS":"01622980","GEOIDFQ":"0500000US26075","GEOID":"26075","NAME":"Jackson","NAMELSAD":"Jackson County","STUSPS":"MI","STATE_NAME":"Michigan","LSAD":"06","ALAND":1817926244,"AWATER":55912045},"id":"26075"},{"arcs":[[-51,200,-134,-178]],"type":"Polygon","properties":{"STATEFP":"26","COUNTYFP":"039","COUNTYNS":"01622962","GEOIDFQ":"0500000US26039","GEOID":"26039","NAME":"Crawford","NAMELSAD":"Crawford County","STUSPS":"MI","STATE_NAME":"Michigan","LSAD":"06","ALAND":1441115025,"AWATER":17880688},"id":"26039"},{"arcs":[[-20,201,202,203,204]],"type":"Polygon","properties":{"STATEFP":"26","COUNTYFP":"085","COUNTYNS":"01622985","GEOIDFQ":"0500000US26085","GEOID":"26085","NAME":"Lake","NAMELSAD":"Lake County","STUSPS":"MI","STATE_NAME":"Michigan","LSAD":"06","ALAND":1470063806,"AWATER":17480501},"id":"26085"},{"arcs":[[-38,205,206,-110]],"type":"Polygon","properties":{"STATEFP":"26","COUNTYFP":"131","COUNTYNS":"01623008","GEOIDFQ":"0500000US26131","GEOID":"26131","NAME":"Ontonagon","NAMELSAD":"Ontonagon County","STUSPS":"MI","STATE_NAME":"Michigan","LSAD":"06","ALAND":3395416359,"AWATER":6292279244},"id":"26131"},{"arcs":[[-122,-200,-180,-163,-138,207]],"type":"Polygon","properties":{"STATEFP":"26","COUNTYFP":"025","COUNTYNS":"01622955","GEOIDFQ":"0500000US26025","GEOID":"26025","NAME":"Calhoun","NAMELSAD":"Calhoun County","STUSPS":"MI","STATE_NAME":"Michigan","LSAD":"06","ALAND":1829201516,"AWATER":31257733},"id":"26025"},{"arcs":[[-114,-126,-123,-208,-137,-184]],"type":"Polygon","properties":{"STATEFP":"26","COUNTYFP":"015","COUNTYNS":"01622950","GEOIDFQ":"0500000US26015","GEOID":"26015","NAME":"Barry","NAMELSAD":"Barry County","STUSPS":"MI","STATE_NAME":"Michigan","LSAD":"06","ALAND":1432533269,"AWATER":61999481},"id":"26015"},{"arcs":[[-93,208,-188,-119,-125]],"type":"Polygon","properties":{"STATEFP":"26","COUNTYFP":"037","COUNTYNS":"01622961","GEOIDFQ":"0500000US26037","GEOID":"26037","NAME":"Clinton","NAMELSAD":"Clinton County","STUSPS":"MI","STATE_NAME":"Michigan","LSAD":"06","ALAND":1469427627,"AWATER":18687990},"id":"26037"},{"arcs":[[-159,209,210,211,212,213]],"type":"Polygon","properties":{"STATEFP":"26","COUNTYFP":"017","COUNTYNS":"01622951","GEOIDFQ":"0500000US26017","GEOID":"26017","NAME":"Bay","NAMELSAD":"Bay County","STUSPS":"MI","STATE_NAME":"Michigan","LSAD":"06","ALAND":1145835301,"AWATER":487713013},"id":"26017"},{"arcs":[[-145,214,215,216,217,-175]],"type":"Polygon","properties":{"STATEFP":"26","COUNTYFP":"049","COUNTYNS":"01622967","GEOIDFQ":"0500000US26049","GEOID":"26049","NAME":"Genesee","NAMELSAD":"Genesee County","STUSPS":"MI","STATE_NAME":"Michigan","LSAD":"06","ALAND":1649682298,"AWATER":32740388},"id":"26049"},{"arcs":[[-64,-179,-133,-198,-74]],"type":"Polygon","properties":{"STATEFP":"26","COUNTYFP":"119","COUNTYNS":"01623002","GEOIDFQ":"0500000US26119","GEOID":"26119","NAME":"Montmorency","NAMELSAD":"Montmorency County","STUSPS":"MI","STATE_NAME":"Michigan","LSAD":"06","ALAND":1415881029,"AWATER":41352700},"id":"26119"},{"arcs":[[-4,-193,-199,-147,-174,-16]],"type":"Polygon","properties":{"STATEFP":"26","COUNTYFP":"161","COUNTYNS":"01623021","GEOIDFQ":"0500000US26161","GEOID":"26161","NAME":"Washtenaw","NAMELSAD":"Washtenaw County","STUSPS":"MI","STATE_NAME":"Michigan","LSAD":"06","ALAND":1828571110,"AWATER":42491927},"id":"26161"},{"arcs":[[-67,-195,218,-217,219,-213,220]],"type":"Polygon","properties":{"STATEFP":"26","COUNTYFP":"157","COUNTYNS":"01623019","GEOIDFQ":"0500000US26157","GEOID":"26157","NAME":"Tuscola","NAMELSAD":"Tuscola County","STUSPS":"MI","STATE_NAME":"Michigan","LSAD":"06","ALAND":2084685619,"AWATER":282332293},"id":"26157"},{"arcs":[[-35,-157,-89,-128,221]],"type":"Polygon","properties":{"STATEFP":"26","COUNTYFP":"073","COUNTYNS":"01622979","GEOIDFQ":"0500000US26073","GEOID":"26073","NAME":"Isabella","NAMELSAD":"Isabella County","STUSPS":"MI","STATE_NAME":"Michigan","LSAD":"06","ALAND":1483287228,"AWATER":12943517},"id":"26073"},{"arcs":[[-139,-162,222,-155]],"type":"Polygon","properties":{"STATEFP":"26","COUNTYFP":"149","COUNTYNS":"01625034","GEOIDFQ":"0500000US26149","GEOID":"26149","NAME":"St. Joseph","NAMELSAD":"St. Joseph County","STUSPS":"MI","STATE_NAME":"Michigan","LSAD":"06","ALAND":1296649450,"AWATER":52802551},"id":"26149"},{"arcs":[[-166,223,-203,224,225]],"type":"Polygon","properties":{"STATEFP":"26","COUNTYFP":"101","COUNTYNS":"01622993","GEOIDFQ":"0500000US26101","GEOID":"26101","NAME":"Manistee","NAMELSAD":"Manistee County","STUSPS":"MI","STATE_NAME":"Michigan","LSAD":"06","ALAND":1404616368,"AWATER":1912438857},"id":"26101"},{"arcs":[[-87,226,227,-211,228]],"type":"Polygon","properties":{"STATEFP":"26","COUNTYFP":"011","COUNTYNS":"01622948","GEOIDFQ":"0500000US26011","GEOID":"26011","NAME":"Arenac","NAMELSAD":"Arenac County","STUSPS":"MI","STATE_NAME":"Michigan","LSAD":"06","ALAND":940627659,"AWATER":822313309},"id":"26011"},{"arcs":[[-86,229,230,-227]],"type":"Polygon","properties":{"STATEFP":"26","COUNTYFP":"069","COUNTYNS":"01622977","GEOIDFQ":"0500000US26069","GEOID":"26069","NAME":"Iosco","NAMELSAD":"Iosco County","STUSPS":"MI","STATE_NAME":"Michigan","LSAD":"06","ALAND":1423138613,"AWATER":3472103968},"id":"26069"},{"arcs":[[-63,231,-230,-177]],"type":"Polygon","properties":{"STATEFP":"26","COUNTYFP":"001","COUNTYNS":"01622943","GEOIDFQ":"0500000US26001","GEOID":"26001","NAME":"Alcona","NAMELSAD":"Alcona County","STUSPS":"MI","STATE_NAME":"Michigan","LSAD":"06","ALAND":1747349242,"AWATER":2890404966},"id":"26001"},{"arcs":[[-34,-53,-88,-229,-210,-158]],"type":"Polygon","properties":{"STATEFP":"26","COUNTYFP":"051","COUNTYNS":"01622968","GEOIDFQ":"0500000US26051","GEOID":"26051","NAME":"Gladwin","NAMELSAD":"Gladwin County","STUSPS":"MI","STATE_NAME":"Michigan","LSAD":"06","ALAND":1299622802,"AWATER":36674665},"id":"26051"},{"arcs":[[-91,-160,-214,-220,-216,232]],"type":"Polygon","properties":{"STATEFP":"26","COUNTYFP":"145","COUNTYNS":"01623015","GEOIDFQ":"0500000US26145","GEOID":"26145","NAME":"Saginaw","NAMELSAD":"Saginaw County","STUSPS":"MI","STATE_NAME":"Michigan","LSAD":"06","ALAND":2074080705,"AWATER":39260622},"id":"26145"},{"arcs":[[-71,233,-201,-143]],"type":"Polygon","properties":{"STATEFP":"26","COUNTYFP":"079","COUNTYNS":"01622982","GEOIDFQ":"0500000US26079","GEOID":"26079","NAME":"Kalkaska","NAMELSAD":"Kalkaska County","STUSPS":"MI","STATE_NAME":"Michigan","LSAD":"06","ALAND":1449729129,"AWATER":28020186},"id":"26079"},{"arcs":[[-72,-142,234,-204,-224]],"type":"Polygon","properties":{"STATEFP":"26","COUNTYFP":"165","COUNTYNS":"01623023","GEOIDFQ":"0500000US26165","GEOID":"26165","NAME":"Wexford","NAMELSAD":"Wexford County","STUSPS":"MI","STATE_NAME":"Michigan","LSAD":"06","ALAND":1463146657,"AWATER":27184070},"id":"26165"},{"arcs":[[-36,235,-205,-235,-141]],"type":"Polygon","properties":{"STATEFP":"26","COUNTYFP":"133","COUNTYNS":"01623009","GEOIDFQ":"0500000US26133","GEOID":"26133","NAME":"Osceola","NAMELSAD":"Osceola County","STUSPS":"MI","STATE_NAME":"Michigan","LSAD":"06","ALAND":1466687419,"AWATER":17412099},"id":"26133"},{"arcs":[[-70,236,-102,-135,-234]],"type":"Polygon","properties":{"STATEFP":"26","COUNTYFP":"009","COUNTYNS":"01622947","GEOIDFQ":"0500000US26009","GEOID":"26009","NAME":"Antrim","NAMELSAD":"Antrim County","STUSPS":"MI","STATE_NAME":"Michigan","LSAD":"06","ALAND":1232031503,"AWATER":326507945},"id":"26009"},{"arcs":[[-92,-233,-215,-144,-189,-209]],"type":"Polygon","properties":{"STATEFP":"26","COUNTYFP":"155","COUNTYNS":"01623018","GEOIDFQ":"0500000US26155","GEOID":"26155","NAME":"Shiawassee","NAMELSAD":"Shiawassee County","STUSPS":"MI","STATE_NAME":"Michigan","LSAD":"06","ALAND":1375610928,"AWATER":25420651},"id":"26155"},{"arcs":[[-202,237,238,-225]],"type":"Polygon","properties":{"STATEFP":"26","COUNTYFP":"105","COUNTYNS":"01622995","GEOIDFQ":"0500000US26105","GEOID":"26105","NAME":"Mason","NAMELSAD":"Mason County","STUSPS":"MI","STATE_NAME":"Michigan","LSAD":"06","ALAND":1281963204,"AWATER":1935616622},"id":"26105"},{"arcs":[[-21,-236,-222,-127]],"type":"Polygon","properties":{"STATEFP":"26","COUNTYFP":"107","COUNTYNS":"01622996","GEOIDFQ":"0500000US26107","GEOID":"26107","NAME":"Mecosta","NAMELSAD":"Mecosta County","STUSPS":"MI","STATE_NAME":"Michigan","LSAD":"06","ALAND":1437849493,"AWATER":41659795},"id":"26107"},{"arcs":[[-24,-117,-131,239,240]],"type":"Polygon","properties":{"STATEFP":"26","COUNTYFP":"121","COUNTYNS":"01623003","GEOIDFQ":"0500000US26121","GEOID":"26121","NAME":"Muskegon","NAMELSAD":"Muskegon County","STUSPS":"MI","STATE_NAME":"Michigan","LSAD":"06","ALAND":1305149763,"AWATER":2476294663},"id":"26121"},{"arcs":[[-46,-152,-81,241,242]],"type":"Polygon","properties":{"STATEFP":"26","COUNTYFP":"095","COUNTYNS":"01622990","GEOIDFQ":"0500000US26095","GEOID":"26095","NAME":"Luce","NAMELSAD":"Luce County","STUSPS":"MI","STATE_NAME":"Michigan","LSAD":"06","ALAND":2328593561,"AWATER":2624711552},"id":"26095"},{"arcs":[[-55,243,-59,-111,-207,244]],"type":"Polygon","properties":{"STATEFP":"26","COUNTYFP":"061","COUNTYNS":"01622973","GEOIDFQ":"0500000US26061","GEOID":"26061","NAME":"Houghton","NAMELSAD":"Houghton County","STUSPS":"MI","STATE_NAME":"Michigan","LSAD":"06","ALAND":2613563872,"AWATER":1275349279},"id":"26061"},{"arcs":[[-25,-241,245,-238]],"type":"Polygon","properties":{"STATEFP":"26","COUNTYFP":"127","COUNTYNS":"01623006","GEOIDFQ":"0500000US26127","GEOID":"26127","NAME":"Oceana","NAMELSAD":"Oceana County","STUSPS":"MI","STATE_NAME":"Michigan","LSAD":"06","ALAND":1393687026,"AWATER":1988708845},"id":"26127"},{"arcs":[[-12,246,-108,-26]],"type":"Polygon","properties":{"STATEFP":"26","COUNTYFP":"043","COUNTYNS":"01622964","GEOIDFQ":"0500000US26043","GEOID":"26043","NAME":"Dickinson","NAMELSAD":"Dickinson County","STUSPS":"MI","STATE_NAME":"Michigan","LSAD":"06","ALAND":1970851991,"AWATER":40499097},"id":"26043"},{"arcs":[[-11,-79,-176,-218,-219,-194]],"type":"Polygon","properties":{"STATEFP":"26","COUNTYFP":"087","COUNTYNS":"01622986","GEOIDFQ":"0500000US26087","GEOID":"26087","NAME":"Lapeer","NAMELSAD":"Lapeer County","STUSPS":"MI","STATE_NAME":"Michigan","LSAD":"06","ALAND":1676952447,"AWATER":39806093},"id":"26087"},{"arcs":[[[-41,247,-47,-243,248]],[[249]],[[250]]],"type":"MultiPolygon","properties":{"STATEFP":"26","COUNTYFP":"033","COUNTYNS":"01622959","GEOIDFQ":"0500000US26033","GEOID":"26033","NAME":"Chippewa","NAMELSAD":"Chippewa County","STUSPS":"MI","STATE_NAME":"Michigan","LSAD":"06","ALAND":4036535199,"AWATER":2952484224},"id":"26033"}]}}}