{"type":"Topology","arcs":[[[411,4183],[308,1],[149,0]],[[868,4184],[1,-466],[14,0],[-1,-232]],[[882,3486],[-1,-116]],[[881,3370],[-281,0]],[[600,3370],[18,58],[2,25],[-13,65],[-10,20],[0,39],[-11,11],[7,26],[-8,13],[-6,64],[4,20],[-4,70],[-40,44],[-20,17],[-25,63],[-23,24],[5,34],[-12,9],[-11,39],[4,13],[-14,52],[3,34],[-37,58],[2,15]],[[2222,4415],[115,0],[2,231],[-5,0],[0,462],[-7,1],[1,116]],[[2328,5225],[230,2],[0,45]],[[2558,5272],[22,-23],[35,-4],[24,-12],[190,87],[34,-17],[17,-40],[30,-40],[-12,-8],[-1,-39],[15,-29],[47,-18],[28,-28],[6,-15],[32,-5],[16,20],[25,3],[11,-12],[31,-9],[15,7],[8,-45],[-18,-32],[-4,-25],[11,-20],[20,-8],[-1,-242]],[[3139,4718],[0,-304]],[[3139,4414],[-212,1],[-302,2],[-3,-116],[0,-116],[14,-1],[2,-301],[1,-155],[-13,-16]],[[2626,3712],[-17,30],[-64,43],[-94,-39],[-20,5],[-26,24],[-36,8],[-26,24]],[[2343,3807],[-10,5],[-53,0],[-8,22]],[[2272,3834],[-43,34],[1,140],[-2,175],[-5,0],[-1,232]],[[2228,1279],[142,-1]],[[2370,1278],[338,1],[287,0]],[[2995,1279],[5,-18],[-18,-62],[-12,-17],[15,-60],[-13,-43],[-28,-15],[-7,-23],[-14,-18],[2,-34]],[[2925,989],[-5,-41],[12,-53],[-35,-9],[-38,-2],[-37,25],[-16,19],[-27,2],[-47,22],[-24,4],[-36,33],[-26,5],[-16,18],[-31,10]],[[2599,1022],[-37,12],[-45,79],[-27,27],[-50,16],[-49,29],[-23,-2],[-17,17],[-22,-4],[-23,42],[-29,10],[-21,22],[-12,-9],[-16,18]],[[2228,1279],[-27,20],[-12,19],[-38,17]],[[2151,1335],[-12,22],[-82,25],[-27,18],[-15,-6],[-16,19],[-39,23],[-19,-3],[-5,18],[-40,30],[-4,10],[-32,12],[-56,57],[-18,-10],[-20,3],[-20,19],[-2,21],[-41,9]],[[1703,1602],[-16,6],[-28,37],[-30,17],[-15,-3],[-23,15]],[[1591,1674],[0,185],[213,1]],[[1804,1860],[204,0],[240,1]],[[2248,1861],[232,0]],[[2480,1861],[4,0],[0,-234]],[[2484,1627],[-119,-1],[0,-232],[5,-1],[0,-115]],[[712,2364],[32,-3],[13,-13],[26,5],[42,-14],[41,-4],[6,-31],[48,-4],[18,-20],[28,-17],[31,0],[31,-22]],[[1028,2241],[10,-10],[51,-23]],[[1089,2208],[11,-21],[23,-23],[17,-29],[78,-81],[21,-18],[10,-21],[33,-28],[0,-23],[18,-27],[44,-4],[17,-13]],[[1361,1920],[0,-60],[-100,0],[-2,-115],[-221,-1],[-325,1]],[[713,1745],[0,230],[-1,389]],[[2151,1335],[-1,-289],[-218,-1],[-2,-116]],[[1930,929],[-320,2]],[[1610,931],[-119,-1]],[[1491,930],[0,311],[-1,152]],[[1490,1393],[212,0],[1,209]],[[1490,1393],[-9,1],[1,117],[-241,1],[-203,-1]],[[1038,1511],[-203,1],[-122,0]],[[713,1512],[0,233]],[[1361,1920],[16,-20],[1,-21],[42,-2],[28,-40],[7,5],[30,-47],[21,-5],[15,-21],[15,-5],[41,-44],[-24,-5],[32,-25],[6,-16]],[[68,6740],[20,10],[-9,22],[7,41],[27,43],[13,38],[-2,29],[-17,28],[1,13],[-21,35],[4,17],[-18,35],[-1,46],[-17,18],[4,34],[-6,30],[-17,10],[8,19],[-16,11],[-8,40],[-16,20],[-4,47],[9,24],[270,-1],[237,0],[239,0]],[[755,7349],[1,-378],[15,0],[-1,-132],[1,-98]],[[771,6741],[-92,-2],[-383,0],[-228,1]],[[2558,5272],[3,189],[-3,19],[-3,157],[1,170]],[[2556,5807],[241,1],[164,2],[177,-2],[1,70],[46,-2],[138,1],[97,-4],[349,-4]],[[3769,5869],[-3,-114],[2,-115],[18,0],[-2,-82],[0,-153],[-4,-116],[-1,-77],[4,-38],[-1,-351],[9,0],[0,-110]],[[3791,4713],[-122,-2],[-113,4],[-232,2],[-74,-1],[-111,2]],[[411,4183],[-12,0],[-1,32],[13,54],[5,39],[-5,25],[8,34],[-19,13],[1,42],[17,65],[-4,18],[21,76],[-30,1],[-26,65],[-12,44],[14,47],[-6,13],[7,31],[0,41],[-14,54],[-7,1]],[[361,4878],[136,1],[220,0],[229,0]],[[946,4879],[1,-232],[18,0],[0,-86],[-3,-145],[2,-116]],[[964,4300],[2,-116],[-98,0]],[[712,932],[189,1],[150,-1]],[[1051,932],[14,-1]],[[1065,931],[-1,-464]],[[1064,467],[-164,0],[-188,1]],[[712,468],[0,464]],[[2925,989],[221,0],[0,-58]],[[3146,931],[0,-199],[0,-266]],[[3146,466],[-434,0]],[[2712,466],[-111,0]],[[2601,466],[0,348]],[[2601,814],[0,117],[-2,91]],[[2892,2571],[19,-24],[38,-8],[27,-29],[25,10],[36,-31],[21,-32],[31,-5],[26,-32],[29,-17],[59,0],[17,10],[12,-12],[83,-6],[17,11],[8,-43],[29,-28]],[[3369,2335],[0,-19],[-19,0],[-46,-32],[-42,1],[-17,-21],[18,-26],[-8,-21],[-33,-12],[-33,-47],[-17,-45],[-21,1],[-4,-29],[-1,-110]],[[3146,1975],[-222,2]],[[2924,1977],[-221,1]],[[2703,1978],[1,250],[-1,97],[-4,59]],[[2699,2384],[4,30],[56,17],[19,-23],[15,3],[37,32],[16,21],[38,103],[8,4]],[[4931,6284],[76,-5],[9,-37],[-3,-25],[9,-14],[-12,-36],[31,-10],[22,3],[12,-17],[46,7],[17,-12],[-5,-59],[8,-7],[71,32],[35,1],[18,-27],[35,12],[19,16],[73,6],[36,14],[33,25],[69,62],[21,22],[29,20],[46,10]],[[5626,6265],[0,-166],[7,0],[-2,-235],[5,0],[-2,-382],[0,-184]],[[5634,5298],[-20,-11],[-46,-56],[-30,-21],[-30,-33],[-20,-41],[-20,-18],[-39,-61],[-22,-12],[-47,-48],[-37,-52],[-64,-54],[-17,-27],[-23,-20],[-23,-7],[-13,-20],[-48,-20],[-19,-36],[-8,2],[-36,-39],[-56,-40],[-29,-30],[-40,-53],[-12,-4]],[[4935,4597],[0,230],[2,0],[0,348],[2,47],[-1,258],[-5,87],[-3,202],[2,117],[-2,215],[1,183]],[[2601,814],[-335,0],[-110,-1]],[[2156,813],[-218,0],[-1,116],[-7,0]],[[83,6245],[232,0],[354,1]],[[669,6246],[0,-204],[16,0],[0,-77]],[[685,5965],[1,-156],[117,0],[1,-116],[135,-1],[331,2],[0,117],[116,0],[0,117]],[[1386,5928],[115,-3]],[[1501,5925],[3,-348],[23,0],[0,-232]],[[1527,5345],[-179,-1],[-287,0]],[[1061,5344],[-116,1],[-271,-1],[-321,0]],[[353,5344],[-19,40],[18,31],[-17,18],[14,18],[-3,42],[-17,24],[-10,33],[0,25],[-9,4],[-21,64],[-12,19],[-2,39],[-19,11],[-2,23],[-19,16],[-2,36],[-22,53],[-14,3],[-4,30],[7,33],[-33,36],[-7,23],[8,32],[-10,14],[-10,73],[-21,24],[-1,20],[-27,63],[-15,16],[-1,38]],[[1739,7348],[151,0],[0,239],[0,276],[24,-20],[62,-22],[40,5],[23,16],[29,2],[93,-61],[35,-5],[-9,-35],[26,-107],[-1,-22],[23,-103],[20,-29],[29,-133],[31,-155],[-8,-40],[7,-18],[-17,-21],[9,-20],[0,-37],[39,-35],[9,-19],[20,-5],[27,-26],[31,-3],[15,-18],[78,-13],[20,11]],[[2545,6950],[2,-147],[-1,-130],[1,-169]],[[2547,6504],[-237,0],[-472,-2],[-1,233],[-118,0]],[[1719,6735],[-1,231],[230,0],[-2,277],[-42,-34],[-89,-18],[-47,22],[-32,50],[7,14],[-10,49],[6,22]],[[3769,5869],[0,116],[-6,19],[-2,100],[-7,0],[-1,233],[3,0],[1,223],[2,36],[3,256]],[[3762,6852],[94,-5],[31,9],[0,-30],[19,-2],[183,-90],[63,9],[21,-4],[9,-40],[-11,-18],[-56,-6],[-12,-43],[22,-26],[29,-9],[73,5],[35,10],[27,0],[28,-39],[18,-6],[0,-18],[-19,-39],[6,-27],[35,-62],[14,-13],[43,-100],[14,13],[35,14],[31,5],[6,16],[-15,12],[-10,31],[12,73],[24,16],[50,-13],[26,8],[14,16],[17,-10],[55,-3],[25,7],[8,-32],[14,-12],[28,-6],[-11,-32],[6,-43],[47,-18],[-3,-25],[58,6],[23,-25],[3,-16],[44,6],[16,-12]],[[4935,4597],[-43,-20],[-37,-27],[-29,-29],[-64,-45],[-12,-14],[-43,-26],[-15,-19],[-29,-22],[16,-40],[45,-64],[11,-6],[-17,3],[-51,54],[-24,-1],[-20,-12],[-7,-31],[-39,2],[-15,-20],[26,-17],[-26,-34],[-6,-19],[-49,1],[-23,17]],[[4484,4228],[-9,4],[0,130],[-20,1],[-267,2],[-56,4],[-116,-4],[-230,0]],[[3786,4365],[5,348]],[[882,3486],[336,0],[113,-1]],[[1331,3485],[0,-232],[10,0],[0,-233]],[[1341,3020],[-224,0],[-225,0]],[[892,3020],[1,234],[-12,0],[0,116]],[[2626,3712],[0,-11],[-27,-34],[-16,-8],[-6,-35],[27,-42],[-8,-31],[274,-1],[237,0]],[[3107,3550],[0,-231],[38,-1],[0,-98],[5,-117]],[[3150,3103],[-158,3],[-377,-3],[17,-25],[57,-37]],[[2689,3041],[-152,0],[-185,-2]],[[2352,3039],[0,212],[-5,1],[1,151],[0,315],[-5,1],[0,88]],[[70,6738],[-2,2]],[[771,6741],[138,1],[219,-3],[158,-4],[197,-2]],[[1483,6733],[1,-9],[0,-222],[7,0],[0,-258]],[[1491,6244],[-215,-1],[-252,0],[-138,4],[-217,-1]],[[83,6245],[5,27],[15,32],[-14,6],[-4,32],[18,10],[-1,51],[-11,27],[11,35],[-27,34],[15,9],[-16,21],[23,28],[-11,15],[2,27],[12,29],[-13,4],[-14,25],[23,14],[-16,13],[-10,54]],[[1089,2208],[347,-1],[258,2],[112,0]],[[1806,2209],[-2,-349]],[[361,4878],[14,6],[1,26],[-11,54],[2,32],[-11,46],[2,27],[11,18],[-8,46],[-11,25],[11,51],[-20,22],[0,31],[9,52],[-10,18],[13,12]],[[1061,5344],[1,-288],[0,-176]],[[1062,4880],[-116,-1]],[[1075,467],[272,-1],[263,0]],[[1610,466],[9,0]],[[1619,466],[0,-116],[-2,-185],[0,-164]],[[1617,1],[-155,0],[-213,0],[-175,0]],[[1074,1],[0,117],[1,349]],[[3369,2335],[9,-2]],[[3378,2333],[24,-26],[14,0],[41,-16],[12,-21],[33,-26],[15,-5],[11,-20],[32,-22],[15,-38],[15,-16],[-7,-60],[2,-31],[51,1]],[[3636,2053],[17,0],[1,-111],[7,-15],[-1,-43],[20,-28]],[[3680,1856],[-19,-31],[-11,-34],[-36,-38],[-27,-7],[-21,-16],[-23,-4]],[[3543,1726],[-46,-7],[-4,15],[-51,19],[-14,-11],[-58,3]],[[3370,1745],[0,115],[-225,-1],[1,116]],[[3543,1726],[1,-98],[9,0],[0,-117],[37,1],[-3,-116]],[[3587,1396],[-220,-1]],[[3367,1395],[-350,0]],[[3017,1395],[17,30],[-3,33],[31,21],[5,18],[17,-2],[19,20],[22,-6],[21,16]],[[3146,1525],[27,7],[15,24],[22,8],[20,30],[34,2],[18,18],[-12,40],[20,22],[26,53],[36,15],[18,1]],[[2699,2384],[-111,-1],[0,58],[-233,-1],[-111,1]],[[2244,2441],[0,116],[-223,-1],[-111,0]],[[1910,2556],[0,231],[-8,0],[0,232]],[[1902,3019],[0,19]],[[1902,3038],[267,2],[183,-1]],[[2689,3041],[11,-44],[20,-16],[25,-39],[11,-44],[-6,-29],[1,-36],[10,-25],[20,-15],[9,-31],[10,-10]],[[2800,2752],[9,-57],[-2,-31],[38,-35],[-3,-19],[50,-39]],[[3824,1859],[32,0],[0,311],[-33,1]],[[3823,2171],[1,231]],[[3824,2402],[249,-2]],[[4073,2400],[-14,-22],[8,-23],[-8,-16],[8,-42],[-6,-12],[-8,-19],[13,-29],[1,-42],[6,-45],[-42,-39],[-10,-19],[5,-19],[29,-30],[-6,-36],[2,-39],[13,-22],[4,-25],[-8,-39],[-14,-20],[10,-23],[-5,-18],[4,-28],[-22,-72],[-14,-25],[2,-31]],[[4021,1665],[-21,6],[-27,-3],[-25,35],[-27,1],[-11,8],[-35,-14],[-20,7],[-18,-5],[-15,20],[16,38],[-7,29],[3,29],[-10,43]],[[2601,466],[-440,0]],[[2161,466],[-4,0]],[[2157,466],[-1,347]],[[4342,447],[0,19],[217,-1],[118,0]],[[4677,465],[316,-1]],[[4993,464],[0,-231],[0,-231]],[[4993,2],[-317,0],[-334,-1]],[[4342,1],[-1,233],[1,213]],[[2712,466],[-1,-136],[0,-329]],[[2711,1],[-177,0],[-373,1]],[[2161,2],[0,464]],[[1501,5925],[0,116]],[[1501,6041],[320,-1],[-15,-20],[-24,-61],[-3,-57],[19,-38],[29,-16],[26,-5],[0,-266],[8,0],[2,-348]],[[1863,5229],[0,-117],[12,0],[1,-231]],[[1876,4881],[-209,-2],[-138,1]],[[1529,4880],[1,329],[-3,136]],[[3150,3103],[4,-350]],[[3154,2753],[-94,1],[-260,-2]],[[1902,3038],[1,213],[-7,0],[1,233]],[[1897,3484],[0,234],[-8,0],[-1,116]],[[1888,3834],[294,-1],[90,1]],[[3451,3547],[135,7],[207,-1]],[[3793,3553],[-1,-237],[-80,0],[1,-335]],[[3713,2981],[-224,0],[-113,5]],[[3376,2986],[-4,194],[0,137],[78,-1],[1,231]],[[4342,447],[-218,0],[0,20]],[[4124,467],[10,0],[0,188],[-1,275]],[[4133,930],[116,-1]],[[4249,929],[210,-1],[0,-115],[217,-2]],[[4676,811],[1,-346]],[[1064,467],[11,0]],[[1074,1],[-362,0],[0,467],[0,0]],[[4124,467],[-324,-1]],[[3800,466],[0,466]],[[3800,932],[5,0]],[[3805,932],[203,0],[125,-2]],[[3805,932],[1,367]],[[3806,1299],[0,55],[50,8],[42,-10],[17,8],[0,35],[115,-1],[0,116],[55,0],[0,112]],[[4085,1622],[28,-26],[33,-41],[29,-19],[10,-13],[0,-32],[47,-16],[26,-48],[21,10],[33,-9],[40,-21],[20,11],[61,-5],[29,-21],[12,-33],[1,-22],[23,-35],[31,-26]],[[4529,1276],[-171,1],[0,-116],[-109,0],[0,-232]],[[3793,3553],[0,232],[-1,116]],[[3792,3901],[233,-1],[458,-1]],[[4483,3899],[-1,-348],[0,-111],[-31,-10],[-14,-31],[0,-20],[-17,-20],[-53,18],[-19,-14],[-21,-54],[-24,-1],[-28,12],[-25,-22],[-2,-21],[-80,-26],[-61,-50],[-24,-36],[-5,-28],[-24,-27],[7,-21],[-19,-38],[-5,-25],[-23,-27],[-35,-20]],[[3979,2979],[-5,1],[-261,1]],[[3139,4414],[-2,-285],[-31,-7],[0,-107],[2,-93],[-1,-242],[13,-14]],[[3120,3666],[-13,0],[0,-116]],[[2248,1861],[1,233],[0,230],[-6,0],[1,117]],[[2703,1978],[-111,-1],[-111,1],[-1,-117]],[[1888,3834],[0,349],[-7,0],[0,117]],[[1881,4300],[0,116]],[[1881,4416],[114,1],[227,-2]],[[892,3020],[1,-233]],[[893,2787],[-234,0],[-294,1]],[[365,2788],[-20,27],[15,52],[73,57],[9,15],[71,44],[18,20],[25,55],[11,8],[30,42],[5,23],[4,93],[6,31],[-6,37],[-6,78]],[[2157,466],[-292,-1],[-246,1]],[[1610,466],[0,465]],[[685,5965],[225,-1],[359,2],[117,0],[0,-38]],[[3786,4365],[-3,-120],[2,-111],[6,-19],[1,-214]],[[3451,3547],[1,123],[-94,1],[-238,-5]],[[3800,466],[-3,0]],[[3797,466],[-324,0]],[[3473,466],[1,232],[-1,233]],[[3473,931],[327,1]],[[1529,4880],[-287,-2],[-180,2]],[[964,4300],[101,0],[321,-3],[248,1],[247,2]],[[1897,3484],[-227,1],[-339,0]],[[1341,3020],[0,-233],[10,0],[1,-231]],[[1352,2556],[-336,-1]],[[1016,2555],[-112,1],[0,231],[-11,0]],[[1910,2556],[-112,0]],[[1798,2556],[-223,-1],[-223,1]],[[1341,3020],[219,-1],[342,0]],[[4993,464],[297,0],[107,1]],[[5397,465],[20,-74],[17,-23],[-13,-66],[-9,-21],[-3,-73],[7,-10],[-5,-43],[34,-45],[-1,-23],[-10,-21],[10,-33],[14,-15],[0,-16],[-357,0],[-108,0]],[[2484,1627],[0,-116],[221,0],[0,117],[221,0]],[[2926,1628],[110,-1],[0,-58],[110,0],[0,-44]],[[3017,1395],[22,-33],[-4,-29],[-25,-47],[-15,-7]],[[3367,1395],[-1,-464]],[[3366,931],[-220,0]],[[3713,2981],[0,-230],[109,-2],[2,-194]],[[3824,2555],[-130,3],[-167,0],[-147,1]],[[3380,2559],[-1,193]],[[3379,2752],[-3,234]],[[2924,1977],[3,-116],[-1,-233]],[[3366,931],[107,0]],[[3473,466],[-219,0]],[[3254,466],[-108,0]],[[712,2364],[0,39],[-16,38],[-17,41],[-29,25],[-22,7],[-65,36],[-57,3],[-11,10],[-35,53],[-31,86],[-26,39],[-38,47]],[[1016,2555],[-1,-17],[1,-213],[13,0],[-1,-84]],[[3154,2753],[225,-1]],[[3380,2559],[-2,-226]],[[2556,5807],[1,233],[-6,0],[1,115],[-2,349],[-3,0]],[[2545,6950],[13,13],[25,2],[42,-12],[31,9],[40,-15],[12,-20],[-3,-27],[9,-14],[79,-10],[60,-3],[23,4],[33,-7],[20,3],[49,-12],[99,-6],[20,-28],[15,-52],[-12,-53],[22,-19],[77,2],[13,-4],[45,3],[17,19],[14,-13],[15,10],[43,0],[43,16],[29,6],[10,22],[-7,40],[24,2],[27,20],[12,-7],[36,12],[7,20],[84,21],[43,0],[27,-26],[81,6]],[[3587,1396],[0,-96],[137,-1],[82,0]],[[3636,2053],[0,118],[187,0]],[[3824,1859],[-13,10],[-16,28],[-70,1],[-23,-36],[-22,-6]],[[1491,6244],[1,-203],[9,0]],[[1038,1511],[0,-115],[12,-1],[1,-463]],[[712,932],[1,463],[0,117]],[[1881,4416],[1,232],[-7,0],[1,233]],[[1863,5229],[357,-4],[108,0]],[[2161,2],[-55,0],[-428,-1],[-61,0]],[[755,7349],[181,0],[398,0],[405,-1]],[[1719,6735],[-236,-2]],[[3824,2555],[0,-153]],[[4877,927],[26,-20],[11,-19],[60,-39],[19,-3],[18,-16],[3,-22],[23,-9],[34,-46],[33,-21],[23,-27],[21,-2],[47,-9],[24,-14],[37,-9],[14,-23],[17,-27],[18,-13],[19,-26],[7,-24],[33,-38],[9,-28],[24,-27]],[[4676,811],[1,116],[200,0]],[[4484,4228],[0,-52],[-1,-277]],[[1798,2556],[0,-232],[8,0],[0,-115]],[[3979,2979],[-18,-15],[-9,-70],[-8,-28],[4,-46],[-1,-46],[12,-11],[43,-9],[48,9],[40,-35],[0,-36],[22,-28],[20,-39],[25,-13],[5,-17],[-3,-58],[-13,-6],[-13,-28],[-23,-25],[5,-24],[-10,-20],[-32,-34]],[[1065,931],[426,-1]],[[4021,1665],[64,-43]],[[3391,0],[-137,0]],[[3254,0],[0,466]],[[3797,466],[0,-466]],[[3797,0],[-192,0],[-214,0]],[[4673,1213],[27,-8],[14,-17],[71,-39],[31,-34],[11,-30],[-6,-33],[22,-18],[7,-36],[-4,-15],[16,-46],[15,-10]],[[4529,1276],[24,-21],[83,-22],[37,-20]],[[5626,6265],[50,42],[47,14],[36,21],[9,-11],[33,2],[6,-87],[25,5],[7,-51],[18,-21],[14,-34],[18,-5],[91,12],[13,11],[46,12],[18,-33],[63,4],[17,13],[27,-14],[32,9],[19,-16],[40,4],[29,12],[15,-8],[59,12],[83,5],[37,-10],[62,-26],[27,-48],[1,-28],[86,-54],[24,-2],[37,19],[23,18],[34,12],[31,-1],[29,-21],[11,6],[58,1],[28,-10],[18,-26],[-31,-6],[-14,19],[-47,-39],[-25,-34],[-31,-30],[-51,-34],[-71,-24],[-10,-8],[-32,-5],[-9,-18],[-41,-26],[-89,-27],[-41,-22],[-43,-3],[-21,-20],[-40,-2],[-22,-6],[-80,-35],[-38,-6],[-46,-12],[-4,-9],[-86,-29],[-13,-17],[-31,-13],[-78,-46],[-52,-25],[-122,-90],[-61,-57],[-19,-13],[-65,-58]],[[4342,1],[-95,0],[-427,-1],[-23,0]],[[3254,0],[-292,1],[-251,0]]],"transform":{"scale":[0.0011031708651216361,0.0007484406714994274],"translate":[-97.238387,43.499369]},"objects":{"27":{"type":"GeometryCollection","geometries":[{"arcs":[[0,1,2,3,4]],"type":"Polygon","properties":{"STATEFP":"27","COUNTYFP":"167","COUNTYNS":"00659528","GEOIDFQ":"0500000US27167","GEOID":"27167","NAME":"Wilkin","NAMELSAD":"Wilkin County","STUSPS":"MN","STATE_NAME":"Minnesota","LSAD":"06","ALAND":1945179854,"AWATER":480470},"id":"27167"},{"arcs":[[5,6,7,8,9,10,11,12]],"type":"Polygon","properties":{"STATEFP":"27","COUNTYFP":"021","COUNTYNS":"00659456","GEOIDFQ":"0500000US27021","GEOID":"27021","NAME":"Cass","NAMELSAD":"Cass County","STUSPS":"MN","STATE_NAME":"Minnesota","LSAD":"06","ALAND":5235620200,"AWATER":1016539421},"id":"27021"},{"arcs":[[13,14,15,16,17]],"type":"Polygon","properties":{"STATEFP":"27","COUNTYFP":"103","COUNTYNS":"00659497","GEOIDFQ":"0500000US27103","GEOID":"27103","NAME":"Nicollet","NAMELSAD":"Nicollet County","STUSPS":"MN","STATE_NAME":"Minnesota","LSAD":"06","ALAND":1161618791,"AWATER":47471117},"id":"27103"},{"arcs":[[-14,18,19,20,21,22,23,24,25]],"type":"Polygon","properties":{"STATEFP":"27","COUNTYFP":"129","COUNTYNS":"00659510","GEOIDFQ":"0500000US27129","GEOID":"27129","NAME":"Renville","NAMELSAD":"Renville County","STUSPS":"MN","STATE_NAME":"Minnesota","LSAD":"06","ALAND":2545689669,"AWATER":10873495},"id":"27129"},{"arcs":[[26,27,28,29,30]],"type":"Polygon","properties":{"STATEFP":"27","COUNTYFP":"073","COUNTYNS":"00659482","GEOIDFQ":"0500000US27073","GEOID":"27073","NAME":"Lac qui Parle","NAMELSAD":"Lac qui Parle County","STUSPS":"MN","STATE_NAME":"Minnesota","LSAD":"06","ALAND":1981394646,"AWATER":33647010},"id":"27073"},{"arcs":[[-20,31,32,33,34,35]],"type":"Polygon","properties":{"STATEFP":"27","COUNTYFP":"127","COUNTYNS":"00659509","GEOIDFQ":"0500000US27127","GEOID":"27127","NAME":"Redwood","NAMELSAD":"Redwood County","STUSPS":"MN","STATE_NAME":"Minnesota","LSAD":"06","ALAND":2275493116,"AWATER":8220947},"id":"27127"},{"arcs":[[-21,-36,36,37,38,-30,39]],"type":"Polygon","properties":{"STATEFP":"27","COUNTYFP":"173","COUNTYNS":"00659531","GEOIDFQ":"0500000US27173","GEOID":"27173","NAME":"Yellow Medicine","NAMELSAD":"Yellow Medicine County","STUSPS":"MN","STATE_NAME":"Minnesota","LSAD":"06","ALAND":1966063007,"AWATER":10687957},"id":"27173"},{"arcs":[[40,41,42]],"type":"Polygon","properties":{"STATEFP":"27","COUNTYFP":"069","COUNTYNS":"00659480","GEOIDFQ":"0500000US27069","GEOID":"27069","NAME":"Kittson","NAMELSAD":"Kittson County","STUSPS":"MN","STATE_NAME":"Minnesota","LSAD":"06","ALAND":2846395547,"AWATER":12419291},"id":"27069"},{"arcs":[[-8,43,44,45,46]],"type":"Polygon","properties":{"STATEFP":"27","COUNTYFP":"061","COUNTYNS":"00659476","GEOIDFQ":"0500000US27061","GEOID":"27061","NAME":"Itasca","NAMELSAD":"Itasca County","STUSPS":"MN","STATE_NAME":"Minnesota","LSAD":"06","ALAND":6908725842,"AWATER":674212531},"id":"27061"},{"arcs":[[-1,47,48,49,50]],"type":"Polygon","properties":{"STATEFP":"27","COUNTYFP":"027","COUNTYNS":"00659459","GEOIDFQ":"0500000US27027","GEOID":"27027","NAME":"Clay","NAMELSAD":"Clay County","STUSPS":"MN","STATE_NAME":"Minnesota","LSAD":"06","ALAND":2706993087,"AWATER":19303395},"id":"27027"},{"arcs":[[51,52,53,54,55]],"type":"Polygon","properties":{"STATEFP":"27","COUNTYFP":"117","COUNTYNS":"00659504","GEOIDFQ":"0500000US27117","GEOID":"27117","NAME":"Pipestone","NAMELSAD":"Pipestone County","STUSPS":"MN","STATE_NAME":"Minnesota","LSAD":"06","ALAND":1204482545,"AWATER":2346477},"id":"27117"},{"arcs":[[-17,56,57,58,59,60,61]],"type":"Polygon","properties":{"STATEFP":"27","COUNTYFP":"013","COUNTYNS":"00659452","GEOIDFQ":"0500000US27013","GEOID":"27013","NAME":"Blue Earth","NAMELSAD":"Blue Earth County","STUSPS":"MN","STATE_NAME":"Minnesota","LSAD":"06","ALAND":1936887872,"AWATER":45959531},"id":"27013"},{"arcs":[[62,63,64,65,66,67]],"type":"Polygon","properties":{"STATEFP":"27","COUNTYFP":"171","COUNTYNS":"00659530","GEOIDFQ":"0500000US27171","GEOID":"27171","NAME":"Wright","NAMELSAD":"Wright County","STUSPS":"MN","STATE_NAME":"Minnesota","LSAD":"06","ALAND":1712394935,"AWATER":137860633},"id":"27171"},{"arcs":[[68,69,70,71]],"type":"Polygon","properties":{"STATEFP":"27","COUNTYFP":"075","COUNTYNS":"00659484","GEOIDFQ":"0500000US27075","GEOID":"27075","NAME":"Lake","NAMELSAD":"Lake County","STUSPS":"MN","STATE_NAME":"Minnesota","LSAD":"06","ALAND":5462563493,"AWATER":2283905085},"id":"27075"},{"arcs":[[-18,-62,72,73,-32,-19]],"type":"Polygon","properties":{"STATEFP":"27","COUNTYFP":"015","COUNTYNS":"00659453","GEOIDFQ":"0500000US27015","GEOID":"27015","NAME":"Brown","NAMELSAD":"Brown County","STUSPS":"MN","STATE_NAME":"Minnesota","LSAD":"06","ALAND":1582765966,"AWATER":18533954},"id":"27015"},{"arcs":[[74,75,76,77,78,79,80,81]],"type":"Polygon","properties":{"STATEFP":"27","COUNTYFP":"119","COUNTYNS":"00659505","GEOIDFQ":"0500000US27119","GEOID":"27119","NAME":"Polk","NAMELSAD":"Polk County","STUSPS":"MN","STATE_NAME":"Minnesota","LSAD":"06","ALAND":5104857036,"AWATER":69398570},"id":"27119"},{"arcs":[[82,83,84,85]],"type":"Polygon","properties":{"STATEFP":"27","COUNTYFP":"077","COUNTYNS":"00659483","GEOIDFQ":"0500000US27077","GEOID":"27077","NAME":"Lake of the Woods","NAMELSAD":"Lake of the Woods County","STUSPS":"MN","STATE_NAME":"Minnesota","LSAD":"06","ALAND":3360906038,"AWATER":1248825401},"id":"27077"},{"arcs":[[-46,86,87,-72,88,89,90]],"type":"Polygon","properties":{"STATEFP":"27","COUNTYFP":"137","COUNTYNS":"00662850","GEOIDFQ":"0500000US27137","GEOID":"27137","NAME":"St. Louis","NAMELSAD":"St. Louis County","STUSPS":"MN","STATE_NAME":"Minnesota","LSAD":"06","ALAND":16182559692,"AWATER":1586163737},"id":"27137"},{"arcs":[[-3,91,92,93,94]],"type":"Polygon","properties":{"STATEFP":"27","COUNTYFP":"051","COUNTYNS":"00659471","GEOIDFQ":"0500000US27051","GEOID":"27051","NAME":"Grant","NAMELSAD":"Grant County","STUSPS":"MN","STATE_NAME":"Minnesota","LSAD":"06","ALAND":1418795387,"AWATER":71705190},"id":"27051"},{"arcs":[[-11,95,96,97,98,99]],"type":"Polygon","properties":{"STATEFP":"27","COUNTYFP":"097","COUNTYNS":"00659494","GEOIDFQ":"0500000US27097","GEOID":"27097","NAME":"Morrison","NAMELSAD":"Morrison County","STUSPS":"MN","STATE_NAME":"Minnesota","LSAD":"06","ALAND":2913996432,"AWATER":73259804},"id":"27097"},{"arcs":[[100,-43,101,102,103,-75,104]],"type":"Polygon","properties":{"STATEFP":"27","COUNTYFP":"089","COUNTYNS":"00659489","GEOIDFQ":"0500000US27089","GEOID":"27089","NAME":"Marshall","NAMELSAD":"Marshall County","STUSPS":"MN","STATE_NAME":"Minnesota","LSAD":"06","ALAND":4597384256,"AWATER":98012343},"id":"27089"},{"arcs":[[-22,-40,-29,105,106]],"type":"Polygon","properties":{"STATEFP":"27","COUNTYFP":"023","COUNTYNS":"00659457","GEOIDFQ":"0500000US27023","GEOID":"27023","NAME":"Chippewa","NAMELSAD":"Chippewa County","STUSPS":"MN","STATE_NAME":"Minnesota","LSAD":"06","ALAND":1505366473,"AWATER":17238346},"id":"27023"},{"arcs":[[-49,107,-81,108,109]],"type":"Polygon","properties":{"STATEFP":"27","COUNTYFP":"107","COUNTYNS":"00659499","GEOIDFQ":"0500000US27107","GEOID":"27107","NAME":"Norman","NAMELSAD":"Norman County","STUSPS":"MN","STATE_NAME":"Minnesota","LSAD":"06","ALAND":2260512784,"AWATER":10208059},"id":"27107"},{"arcs":[[110,111,112,113,114]],"type":"Polygon","properties":{"STATEFP":"27","COUNTYFP":"105","COUNTYNS":"00659498","GEOIDFQ":"0500000US27105","GEOID":"27105","NAME":"Nobles","NAMELSAD":"Nobles County","STUSPS":"MN","STATE_NAME":"Minnesota","LSAD":"06","ALAND":1852143781,"AWATER":19253010},"id":"27105"},{"arcs":[[-64,115,116,117,118,119,120]],"type":"Polygon","properties":{"STATEFP":"27","COUNTYFP":"053","COUNTYNS":"00659472","GEOIDFQ":"0500000US27053","GEOID":"27053","NAME":"Hennepin","NAMELSAD":"Hennepin County","STUSPS":"MN","STATE_NAME":"Minnesota","LSAD":"06","ALAND":1434903969,"AWATER":136569191},"id":"27053"},{"arcs":[[-120,121,122,123,124,125]],"type":"Polygon","properties":{"STATEFP":"27","COUNTYFP":"139","COUNTYNS":"00659514","GEOIDFQ":"0500000US27139","GEOID":"27139","NAME":"Scott","NAMELSAD":"Scott County","STUSPS":"MN","STATE_NAME":"Minnesota","LSAD":"06","ALAND":922246232,"AWATER":31664237},"id":"27139"},{"arcs":[[-68,126,127,128,129,130,-99,131,132]],"type":"Polygon","properties":{"STATEFP":"27","COUNTYFP":"145","COUNTYNS":"00659517","GEOIDFQ":"0500000US27145","GEOID":"27145","NAME":"Stearns","NAMELSAD":"Stearns County","STUSPS":"MN","STATE_NAME":"Minnesota","LSAD":"06","ALAND":3478049992,"AWATER":121771861},"id":"27145"},{"arcs":[[133,134,135,136,137]],"type":"Polygon","properties":{"STATEFP":"27","COUNTYFP":"163","COUNTYNS":"00659526","GEOIDFQ":"0500000US27163","GEOID":"27163","NAME":"Washington","NAMELSAD":"Washington County","STUSPS":"MN","STATE_NAME":"Minnesota","LSAD":"06","ALAND":996530238,"AWATER":99839105},"id":"27163"},{"arcs":[[-61,138,139,140,-73]],"type":"Polygon","properties":{"STATEFP":"27","COUNTYFP":"165","COUNTYNS":"00659527","GEOIDFQ":"0500000US27165","GEOID":"27165","NAME":"Watonwan","NAMELSAD":"Watonwan County","STUSPS":"MN","STATE_NAME":"Minnesota","LSAD":"06","ALAND":1126508578,"AWATER":12387925},"id":"27165"},{"arcs":[[141,142,143,144,145]],"type":"Polygon","properties":{"STATEFP":"27","COUNTYFP":"045","COUNTYNS":"00659468","GEOIDFQ":"0500000US27045","GEOID":"27045","NAME":"Fillmore","NAMELSAD":"Fillmore County","STUSPS":"MN","STATE_NAME":"Minnesota","LSAD":"06","ALAND":2230843173,"AWATER":2055817},"id":"27045"},{"arcs":[[-60,146,147,148,-139]],"type":"Polygon","properties":{"STATEFP":"27","COUNTYFP":"091","COUNTYNS":"00659490","GEOIDFQ":"0500000US27091","GEOID":"27091","NAME":"Martin","NAMELSAD":"Martin County","STUSPS":"MN","STATE_NAME":"Minnesota","LSAD":"06","ALAND":1844941482,"AWATER":44656001},"id":"27091"},{"arcs":[[-79,149,150,151,152,153]],"type":"Polygon","properties":{"STATEFP":"27","COUNTYFP":"029","COUNTYNS":"00659460","GEOIDFQ":"0500000US27029","GEOID":"27029","NAME":"Clearwater","NAMELSAD":"Clearwater County","STUSPS":"MN","STATE_NAME":"Minnesota","LSAD":"06","ALAND":2587406736,"AWATER":80628707},"id":"27029"},{"arcs":[[-98,154,155,-132]],"type":"Polygon","properties":{"STATEFP":"27","COUNTYFP":"009","COUNTYNS":"00659450","GEOIDFQ":"0500000US27009","GEOID":"27009","NAME":"Benton","NAMELSAD":"Benton County","STUSPS":"MN","STATE_NAME":"Minnesota","LSAD":"06","ALAND":1057499875,"AWATER":12286827},"id":"27009"},{"arcs":[[-12,-100,-131,156,157,158]],"type":"Polygon","properties":{"STATEFP":"27","COUNTYFP":"153","COUNTYNS":"00659521","GEOIDFQ":"0500000US27153","GEOID":"27153","NAME":"Todd","NAMELSAD":"Todd County","STUSPS":"MN","STATE_NAME":"Minnesota","LSAD":"06","ALAND":2447791827,"AWATER":89136463},"id":"27153"},{"arcs":[[159,160,161,162]],"type":"Polygon","properties":{"STATEFP":"27","COUNTYFP":"065","COUNTYNS":"00659478","GEOIDFQ":"0500000US27065","GEOID":"27065","NAME":"Kanabec","NAMELSAD":"Kanabec County","STUSPS":"MN","STATE_NAME":"Minnesota","LSAD":"06","ALAND":1350978243,"AWATER":31236792},"id":"27065"},{"arcs":[[-142,163,164,165,166,167]],"type":"Polygon","properties":{"STATEFP":"27","COUNTYFP":"109","COUNTYNS":"00659500","GEOIDFQ":"0500000US27109","GEOID":"27109","NAME":"Olmsted","NAMELSAD":"Olmsted County","STUSPS":"MN","STATE_NAME":"Minnesota","LSAD":"06","ALAND":1692581253,"AWATER":3225617},"id":"27109"},{"arcs":[[-55,168,-115,169]],"type":"Polygon","properties":{"STATEFP":"27","COUNTYFP":"133","COUNTYNS":"00659512","GEOIDFQ":"0500000US27133","GEOID":"27133","NAME":"Rock","NAMELSAD":"Rock County","STUSPS":"MN","STATE_NAME":"Minnesota","LSAD":"06","ALAND":1249562282,"AWATER":698231},"id":"27133"},{"arcs":[[-165,170,171,172,173]],"type":"Polygon","properties":{"STATEFP":"27","COUNTYFP":"039","COUNTYNS":"00659465","GEOIDFQ":"0500000US27039","GEOID":"27039","NAME":"Dodge","NAMELSAD":"Dodge County","STUSPS":"MN","STATE_NAME":"Minnesota","LSAD":"06","ALAND":1138031332,"AWATER":804838},"id":"27039"},{"arcs":[[-166,-174,174,175,176,177]],"type":"Polygon","properties":{"STATEFP":"27","COUNTYFP":"049","COUNTYNS":"00659470","GEOIDFQ":"0500000US27049","GEOID":"27049","NAME":"Goodhue","NAMELSAD":"Goodhue County","STUSPS":"MN","STATE_NAME":"Minnesota","LSAD":"06","ALAND":1959952819,"AWATER":59111961},"id":"27049"},{"arcs":[[-161,178,179,180,181]],"type":"Polygon","properties":{"STATEFP":"27","COUNTYFP":"115","COUNTYNS":"00659503","GEOIDFQ":"0500000US27115","GEOID":"27115","NAME":"Pine","NAMELSAD":"Pine County","STUSPS":"MN","STATE_NAME":"Minnesota","LSAD":"06","ALAND":3655334315,"AWATER":60281284},"id":"27115"},{"arcs":[[-10,182,183,-96]],"type":"Polygon","properties":{"STATEFP":"27","COUNTYFP":"035","COUNTYNS":"00659463","GEOIDFQ":"0500000US27035","GEOID":"27035","NAME":"Crow Wing","NAMELSAD":"Crow Wing County","STUSPS":"MN","STATE_NAME":"Minnesota","LSAD":"06","ALAND":2585977373,"AWATER":409725046},"id":"27035"},{"arcs":[[-24,184,-127,-67,185]],"type":"Polygon","properties":{"STATEFP":"27","COUNTYFP":"093","COUNTYNS":"00659492","GEOIDFQ":"0500000US27093","GEOID":"27093","NAME":"Meeker","NAMELSAD":"Meeker County","STUSPS":"MN","STATE_NAME":"Minnesota","LSAD":"06","ALAND":1574629063,"AWATER":94913811},"id":"27093"},{"arcs":[[-13,-159,186,187,188]],"type":"Polygon","properties":{"STATEFP":"27","COUNTYFP":"159","COUNTYNS":"00659524","GEOIDFQ":"0500000US27159","GEOID":"27159","NAME":"Wadena","NAMELSAD":"Wadena County","STUSPS":"MN","STATE_NAME":"Minnesota","LSAD":"06","ALAND":1389132783,"AWATER":18009881},"id":"27159"},{"arcs":[[-4,-95,189,190,191]],"type":"Polygon","properties":{"STATEFP":"27","COUNTYFP":"155","COUNTYNS":"00659522","GEOIDFQ":"0500000US27155","GEOID":"27155","NAME":"Traverse","NAMELSAD":"Traverse County","STUSPS":"MN","STATE_NAME":"Minnesota","LSAD":"06","ALAND":1486320978,"AWATER":31025234},"id":"27155"},{"arcs":[[-33,-74,-141,192,-112,193]],"type":"Polygon","properties":{"STATEFP":"27","COUNTYFP":"033","COUNTYNS":"00659462","GEOIDFQ":"0500000US27033","GEOID":"27033","NAME":"Cottonwood","NAMELSAD":"Cottonwood County","STUSPS":"MN","STATE_NAME":"Minnesota","LSAD":"06","ALAND":1657522355,"AWATER":22249931},"id":"27033"},{"arcs":[[-77,194]],"type":"Polygon","properties":{"STATEFP":"27","COUNTYFP":"125","COUNTYNS":"00659508","GEOIDFQ":"0500000US27125","GEOID":"27125","NAME":"Red Lake","NAMELSAD":"Red Lake County","STUSPS":"MN","STATE_NAME":"Minnesota","LSAD":"06","ALAND":1119930078,"AWATER":227116},"id":"27125"},{"arcs":[[-9,-47,-91,195,-179,-160,196,-183]],"type":"Polygon","properties":{"STATEFP":"27","COUNTYFP":"001","COUNTYNS":"00663198","GEOIDFQ":"0500000US27001","GEOID":"27001","NAME":"Aitkin","NAMELSAD":"Aitkin County","STUSPS":"MN","STATE_NAME":"Minnesota","LSAD":"06","ALAND":4717189396,"AWATER":449252847},"id":"27001"},{"arcs":[[-172,197,198,199,200]],"type":"Polygon","properties":{"STATEFP":"27","COUNTYFP":"147","COUNTYNS":"00659518","GEOIDFQ":"0500000US27147","GEOID":"27147","NAME":"Steele","NAMELSAD":"Steele County","STUSPS":"MN","STATE_NAME":"Minnesota","LSAD":"06","ALAND":1112626770,"AWATER":6972355},"id":"27147"},{"arcs":[[-80,-154,201,-109]],"type":"Polygon","properties":{"STATEFP":"27","COUNTYFP":"087","COUNTYNS":"00659488","GEOIDFQ":"0500000US27087","GEOID":"27087","NAME":"Mahnomen","NAMELSAD":"Mahnomen County","STUSPS":"MN","STATE_NAME":"Minnesota","LSAD":"06","ALAND":1444868079,"AWATER":64851527},"id":"27087"},{"arcs":[[-2,-51,202,-187,-158,203,-92]],"type":"Polygon","properties":{"STATEFP":"27","COUNTYFP":"111","COUNTYNS":"00659501","GEOIDFQ":"0500000US27111","GEOID":"27111","NAME":"Otter Tail","NAMELSAD":"Otter Tail County","STUSPS":"MN","STATE_NAME":"Minnesota","LSAD":"06","ALAND":5106514368,"AWATER":654466895},"id":"27111"},{"arcs":[[-94,204,205,206,-190]],"type":"Polygon","properties":{"STATEFP":"27","COUNTYFP":"149","COUNTYNS":"00659519","GEOIDFQ":"0500000US27149","GEOID":"27149","NAME":"Stevens","NAMELSAD":"Stevens County","STUSPS":"MN","STATE_NAME":"Minnesota","LSAD":"06","ALAND":1459877117,"AWATER":30336107},"id":"27149"},{"arcs":[[-129,207,208,-205,209]],"type":"Polygon","properties":{"STATEFP":"27","COUNTYFP":"121","COUNTYNS":"00659506","GEOIDFQ":"0500000US27121","GEOID":"27121","NAME":"Pope","NAMELSAD":"Pope County","STUSPS":"MN","STATE_NAME":"Minnesota","LSAD":"06","ALAND":1747100283,"AWATER":109705987},"id":"27121"},{"arcs":[[-144,210,211]],"type":"Polygon","properties":{"STATEFP":"27","COUNTYFP":"055","COUNTYNS":"00659473","GEOIDFQ":"0500000US27055","GEOID":"27055","NAME":"Houston","NAMELSAD":"Houston County","STUSPS":"MN","STATE_NAME":"Minnesota","LSAD":"06","ALAND":1429972098,"AWATER":43308599},"id":"27055"},{"arcs":[[-15,-26,212,213,-125,214]],"type":"Polygon","properties":{"STATEFP":"27","COUNTYFP":"143","COUNTYNS":"00659516","GEOIDFQ":"0500000US27143","GEOID":"27143","NAME":"Sibley","NAMELSAD":"Sibley County","STUSPS":"MN","STATE_NAME":"Minnesota","LSAD":"06","ALAND":1525416531,"AWATER":30163153},"id":"27143"},{"arcs":[[-16,-215,-124,215,216,-57]],"type":"Polygon","properties":{"STATEFP":"27","COUNTYFP":"079","COUNTYNS":"00659485","GEOIDFQ":"0500000US27079","GEOID":"27079","NAME":"Le Sueur","NAMELSAD":"Le Sueur County","STUSPS":"MN","STATE_NAME":"Minnesota","LSAD":"06","ALAND":1162271393,"AWATER":65211958},"id":"27079"},{"arcs":[[-162,217,218,219,220]],"type":"Polygon","properties":{"STATEFP":"27","COUNTYFP":"059","COUNTYNS":"00659475","GEOIDFQ":"0500000US27059","GEOID":"27059","NAME":"Isanti","NAMELSAD":"Isanti County","STUSPS":"MN","STATE_NAME":"Minnesota","LSAD":"06","ALAND":1128667914,"AWATER":41203726},"id":"27059"},{"arcs":[[-25,-186,-66,221,-213]],"type":"Polygon","properties":{"STATEFP":"27","COUNTYFP":"085","COUNTYNS":"00659491","GEOIDFQ":"0500000US27085","GEOID":"27085","NAME":"McLeod","NAMELSAD":"McLeod County","STUSPS":"MN","STATE_NAME":"Minnesota","LSAD":"06","ALAND":1273004674,"AWATER":36432587},"id":"27085"},{"arcs":[[-58,-217,222,-200,223,224]],"type":"Polygon","properties":{"STATEFP":"27","COUNTYFP":"161","COUNTYNS":"00659525","GEOIDFQ":"0500000US27161","GEOID":"27161","NAME":"Waseca","NAMELSAD":"Waseca County","STUSPS":"MN","STATE_NAME":"Minnesota","LSAD":"06","ALAND":1096500987,"AWATER":24893713},"id":"27161"},{"arcs":[[-27,225,-191,-207,226]],"type":"Polygon","properties":{"STATEFP":"27","COUNTYFP":"011","COUNTYNS":"00659451","GEOIDFQ":"0500000US27011","GEOID":"27011","NAME":"Big Stone","NAMELSAD":"Big Stone County","STUSPS":"MN","STATE_NAME":"Minnesota","LSAD":"06","ALAND":1292738453,"AWATER":74945833},"id":"27011"},{"arcs":[[-63,-133,-156,227,-220,228,-116]],"type":"Polygon","properties":{"STATEFP":"27","COUNTYFP":"141","COUNTYNS":"00659515","GEOIDFQ":"0500000US27141","GEOID":"27141","NAME":"Sherburne","NAMELSAD":"Sherburne County","STUSPS":"MN","STATE_NAME":"Minnesota","LSAD":"06","ALAND":1121327974,"AWATER":47057605},"id":"27141"},{"arcs":[[-45,229,-84,230,-87]],"type":"Polygon","properties":{"STATEFP":"27","COUNTYFP":"071","COUNTYNS":"00659481","GEOIDFQ":"0500000US27071","GEOID":"27071","NAME":"Koochiching","NAMELSAD":"Koochiching County","STUSPS":"MN","STATE_NAME":"Minnesota","LSAD":"06","ALAND":8041150642,"AWATER":132757147},"id":"27071"},{"arcs":[[-123,231,-175,-173,-201,-223,-216]],"type":"Polygon","properties":{"STATEFP":"27","COUNTYFP":"131","COUNTYNS":"00659511","GEOIDFQ":"0500000US27131","GEOID":"27131","NAME":"Rice","NAMELSAD":"Rice County","STUSPS":"MN","STATE_NAME":"Minnesota","LSAD":"06","ALAND":1284114077,"AWATER":52069008},"id":"27131"},{"arcs":[[-118,232,-134,233]],"type":"Polygon","properties":{"STATEFP":"27","COUNTYFP":"123","COUNTYNS":"00659507","GEOIDFQ":"0500000US27123","GEOID":"27123","NAME":"Ramsey","NAMELSAD":"Ramsey County","STUSPS":"MN","STATE_NAME":"Minnesota","LSAD":"06","ALAND":394349490,"AWATER":45983124},"id":"27123"},{"arcs":[[-76,-104,234,-150,-78,-195]],"type":"Polygon","properties":{"STATEFP":"27","COUNTYFP":"113","COUNTYNS":"00659502","GEOIDFQ":"0500000US27113","GEOID":"27113","NAME":"Pennington","NAMELSAD":"Pennington County","STUSPS":"MN","STATE_NAME":"Minnesota","LSAD":"06","ALAND":1596779064,"AWATER":4338967},"id":"27113"},{"arcs":[[-38,235,-52,236]],"type":"Polygon","properties":{"STATEFP":"27","COUNTYFP":"081","COUNTYNS":"00659486","GEOIDFQ":"0500000US27081","GEOID":"27081","NAME":"Lincoln","NAMELSAD":"Lincoln County","STUSPS":"MN","STATE_NAME":"Minnesota","LSAD":"06","ALAND":1390269927,"AWATER":30162958},"id":"27081"},{"arcs":[[-6,-189,237,-152,238]],"type":"Polygon","properties":{"STATEFP":"27","COUNTYFP":"057","COUNTYNS":"00659474","GEOIDFQ":"0500000US27057","GEOID":"27057","NAME":"Hubbard","NAMELSAD":"Hubbard County","STUSPS":"MN","STATE_NAME":"Minnesota","LSAD":"06","ALAND":2398400426,"AWATER":190290481},"id":"27057"},{"arcs":[[-113,-193,-140,-149,239]],"type":"Polygon","properties":{"STATEFP":"27","COUNTYFP":"063","COUNTYNS":"00659477","GEOIDFQ":"0500000US27063","GEOID":"27063","NAME":"Jackson","NAMELSAD":"Jackson County","STUSPS":"MN","STATE_NAME":"Minnesota","LSAD":"06","ALAND":1820690110,"AWATER":42120424},"id":"27063"},{"arcs":[[-42,240,-86,241,-102]],"type":"Polygon","properties":{"STATEFP":"27","COUNTYFP":"135","COUNTYNS":"00659513","GEOIDFQ":"0500000US27135","GEOID":"27135","NAME":"Roseau","NAMELSAD":"Roseau County","STUSPS":"MN","STATE_NAME":"Minnesota","LSAD":"06","ALAND":4329782687,"AWATER":16924039},"id":"27135"},{"arcs":[[-117,-229,-219,242,-135,-233]],"type":"Polygon","properties":{"STATEFP":"27","COUNTYFP":"003","COUNTYNS":"00659447","GEOIDFQ":"0500000US27003","GEOID":"27003","NAME":"Anoka","NAMELSAD":"Anoka County","STUSPS":"MN","STATE_NAME":"Minnesota","LSAD":"06","ALAND":1092908310,"AWATER":62437384},"id":"27003"},{"arcs":[[243,-211,-143,-168,244]],"type":"Polygon","properties":{"STATEFP":"27","COUNTYFP":"169","COUNTYNS":"00659529","GEOIDFQ":"0500000US27169","GEOID":"27169","NAME":"Winona","NAMELSAD":"Winona County","STUSPS":"MN","STATE_NAME":"Minnesota","LSAD":"06","ALAND":1621827302,"AWATER":40014767},"id":"27169"},{"arcs":[[-7,-239,-151,-235,-103,-242,-85,-230,-44]],"type":"Polygon","properties":{"STATEFP":"27","COUNTYFP":"007","COUNTYNS":"00659449","GEOIDFQ":"0500000US27007","GEOID":"27007","NAME":"Beltrami","NAMELSAD":"Beltrami County","STUSPS":"MN","STATE_NAME":"Minnesota","LSAD":"06","ALAND":6486994931,"AWATER":1425755984},"id":"27007"},{"arcs":[[-93,-204,-157,-130,-210]],"type":"Polygon","properties":{"STATEFP":"27","COUNTYFP":"041","COUNTYNS":"00659466","GEOIDFQ":"0500000US27041","GEOID":"27041","NAME":"Douglas","NAMELSAD":"Douglas County","STUSPS":"MN","STATE_NAME":"Minnesota","LSAD":"06","ALAND":1649517469,"AWATER":215735302},"id":"27041"},{"arcs":[[-90,245,-180,-196]],"type":"Polygon","properties":{"STATEFP":"27","COUNTYFP":"017","COUNTYNS":"00659454","GEOIDFQ":"0500000US27017","GEOID":"27017","NAME":"Carlton","NAMELSAD":"Carlton County","STUSPS":"MN","STATE_NAME":"Minnesota","LSAD":"06","ALAND":2230484011,"AWATER":36163386},"id":"27017"},{"arcs":[[-28,-227,-206,-209,246,-106]],"type":"Polygon","properties":{"STATEFP":"27","COUNTYFP":"151","COUNTYNS":"00659520","GEOIDFQ":"0500000US27151","GEOID":"27151","NAME":"Swift","NAMELSAD":"Swift County","STUSPS":"MN","STATE_NAME":"Minnesota","LSAD":"06","ALAND":1921812427,"AWATER":26245338},"id":"27151"},{"arcs":[[-136,-243,-218,-182,247]],"type":"Polygon","properties":{"STATEFP":"27","COUNTYFP":"025","COUNTYNS":"00659458","GEOIDFQ":"0500000US27025","GEOID":"27025","NAME":"Chisago","NAMELSAD":"Chisago County","STUSPS":"MN","STATE_NAME":"Minnesota","LSAD":"06","ALAND":1074593338,"AWATER":71175128},"id":"27025"},{"arcs":[[-34,-194,-111,-169,-54,248]],"type":"Polygon","properties":{"STATEFP":"27","COUNTYFP":"101","COUNTYNS":"00659496","GEOIDFQ":"0500000US27101","GEOID":"27101","NAME":"Murray","NAMELSAD":"Murray County","STUSPS":"MN","STATE_NAME":"Minnesota","LSAD":"06","ALAND":1825079952,"AWATER":38432251},"id":"27101"},{"arcs":[[-119,-234,-138,249,-176,-232,-122]],"type":"Polygon","properties":{"STATEFP":"27","COUNTYFP":"037","COUNTYNS":"00659464","GEOIDFQ":"0500000US27037","GEOID":"27037","NAME":"Dakota","NAMELSAD":"Dakota County","STUSPS":"MN","STATE_NAME":"Minnesota","LSAD":"06","ALAND":1457019679,"AWATER":62992340},"id":"27037"},{"arcs":[[250,251,-224,-199,252,253]],"type":"Polygon","properties":{"STATEFP":"27","COUNTYFP":"047","COUNTYNS":"00659469","GEOIDFQ":"0500000US27047","GEOID":"27047","NAME":"Freeborn","NAMELSAD":"Freeborn County","STUSPS":"MN","STATE_NAME":"Minnesota","LSAD":"06","ALAND":1831759024,"AWATER":39302650},"id":"27047"},{"arcs":[[-65,-121,-126,-214,-222]],"type":"Polygon","properties":{"STATEFP":"27","COUNTYFP":"019","COUNTYNS":"00659455","GEOIDFQ":"0500000US27019","GEOID":"27019","NAME":"Carver","NAMELSAD":"Carver County","STUSPS":"MN","STATE_NAME":"Minnesota","LSAD":"06","ALAND":916540479,"AWATER":57072215},"id":"27019"},{"arcs":[[-35,-249,-53,-236,-37]],"type":"Polygon","properties":{"STATEFP":"27","COUNTYFP":"083","COUNTYNS":"00659487","GEOIDFQ":"0500000US27083","GEOID":"27083","NAME":"Lyon","NAMELSAD":"Lyon County","STUSPS":"MN","STATE_NAME":"Minnesota","LSAD":"06","ALAND":1850315166,"AWATER":18794793},"id":"27083"},{"arcs":[[-23,-107,-247,-208,-128,-185]],"type":"Polygon","properties":{"STATEFP":"27","COUNTYFP":"067","COUNTYNS":"00659479","GEOIDFQ":"0500000US27067","GEOID":"27067","NAME":"Kandiyohi","NAMELSAD":"Kandiyohi County","STUSPS":"MN","STATE_NAME":"Minnesota","LSAD":"06","ALAND":2065133185,"AWATER":168416374},"id":"27067"},{"arcs":[[-97,-184,-197,-163,-221,-228,-155]],"type":"Polygon","properties":{"STATEFP":"27","COUNTYFP":"095","COUNTYNS":"00659493","GEOIDFQ":"0500000US27095","GEOID":"27095","NAME":"Mille Lacs","NAMELSAD":"Mille Lacs County","STUSPS":"MN","STATE_NAME":"Minnesota","LSAD":"06","ALAND":1482242164,"AWATER":282956280},"id":"27095"},{"arcs":[[254,-245,-167,-178,255]],"type":"Polygon","properties":{"STATEFP":"27","COUNTYFP":"157","COUNTYNS":"00659523","GEOIDFQ":"0500000US27157","GEOID":"27157","NAME":"Wabasha","NAMELSAD":"Wabasha County","STUSPS":"MN","STATE_NAME":"Minnesota","LSAD":"06","ALAND":1354471944,"AWATER":68766266},"id":"27157"},{"arcs":[[-50,-110,-202,-153,-238,-188,-203]],"type":"Polygon","properties":{"STATEFP":"27","COUNTYFP":"005","COUNTYNS":"00659448","GEOIDFQ":"0500000US27005","GEOID":"27005","NAME":"Becker","NAMELSAD":"Becker County","STUSPS":"MN","STATE_NAME":"Minnesota","LSAD":"06","ALAND":3405929566,"AWATER":336989905},"id":"27005"},{"arcs":[[-70,256]],"type":"Polygon","properties":{"STATEFP":"27","COUNTYFP":"031","COUNTYNS":"00659461","GEOIDFQ":"0500000US27031","GEOID":"27031","NAME":"Cook","NAMELSAD":"Cook County","STUSPS":"MN","STATE_NAME":"Minnesota","LSAD":"06","ALAND":3762226757,"AWATER":4887833556},"id":"27031"},{"arcs":[[-146,257,-253,-198,-171,-164]],"type":"Polygon","properties":{"STATEFP":"27","COUNTYFP":"099","COUNTYNS":"00659495","GEOIDFQ":"0500000US27099","GEOID":"27099","NAME":"Mower","NAMELSAD":"Mower County","STUSPS":"MN","STATE_NAME":"Minnesota","LSAD":"06","ALAND":1842188281,"AWATER":617123},"id":"27099"},{"arcs":[[-59,-225,-252,258,-147]],"type":"Polygon","properties":{"STATEFP":"27","COUNTYFP":"043","COUNTYNS":"00659467","GEOIDFQ":"0500000US27043","GEOID":"27043","NAME":"Faribault","NAMELSAD":"Faribault County","STUSPS":"MN","STATE_NAME":"Minnesota","LSAD":"06","ALAND":1845313173,"AWATER":24410687},"id":"27043"}]}}}