{"type":"Topology","arcs":[[[1241,4816],[214,1],[-1,91],[136,0]],[[1590,4908],[-1,-96],[54,-50],[3,15],[38,-1],[15,21],[-5,37],[17,9],[24,34],[16,-10]],[[1751,4867],[1,-257],[-22,-9],[-11,-30],[-18,19],[-18,-6],[2,-24],[-46,-3],[-21,-11],[3,-56],[19,-19],[32,2],[15,-21],[-3,-24],[24,-17]],[[1708,4411],[-113,-2],[-1,-134],[-274,-1]],[[1320,4274],[-1,271],[-58,0]],[[1261,4545],[21,1],[8,28],[-25,10],[0,26],[14,16],[3,64],[7,20],[-31,16],[-39,32],[2,49],[20,9]],[[3949,5185],[85,0],[38,24],[36,8],[57,26],[29,-24],[-15,54],[29,63],[-23,17],[-10,45],[-18,11]],[[4157,5409],[21,16],[97,23],[24,-4],[11,27],[37,-7],[53,51],[6,41],[102,0]],[[4508,5556],[-34,-329],[-39,-383]],[[4435,4844],[-184,0],[-301,-2]],[[3950,4842],[-1,343]],[[1751,4867],[18,23],[35,2],[16,32],[-21,35],[-30,2],[1,17],[189,-63]],[[1959,4915],[377,-126],[185,-60]],[[2521,4729],[-14,-28],[-22,-4],[2,-31],[-24,-23],[-3,-54],[-34,-16],[-8,-48],[5,-30],[-19,-6],[3,-29],[-28,-32],[-41,-63],[0,-32],[-15,-26],[1,-21],[-78,-60],[-11,-19]],[[2235,4207],[-493,204],[-34,0]],[[2235,4207],[-20,-21],[-19,-50],[-29,-11],[-5,-52],[-24,-71],[-24,-26],[-25,-3],[-31,-45],[-48,-3],[-56,-31],[-26,-23],[-32,-6],[-8,12],[-48,-17],[-19,5],[-8,-23],[-35,-7],[-15,-38],[-18,-15],[-60,-17],[-31,-33],[-31,17],[-29,-18]],[[1594,3731],[-20,-41],[-22,-6],[-28,-32],[-27,-6],[-26,-22],[-14,3]],[[1457,3627],[-1,38],[-45,0],[0,22],[-87,0],[-2,69],[-46,-1],[0,46],[-40,0]],[[1236,3801],[30,10],[6,23],[-34,10],[-6,24]],[[1232,3868],[32,43],[6,-29],[14,-11],[25,17],[1,22],[-38,27],[-27,2],[-38,34],[17,44],[16,-15],[32,10],[5,18],[-24,19],[-9,34],[19,21],[-31,9],[-13,-14],[-35,6],[0,34],[70,67],[66,68]],[[1594,3731],[0,-133],[273,-2],[0,-136],[236,-1]],[[2103,3459],[-39,-16],[-6,-35],[-41,-58],[-29,-9],[-14,-27],[3,-32],[-25,2],[-34,-55],[1,-33],[25,-20],[5,-26],[-41,-33],[-43,-14],[4,-25],[-7,-27],[9,-25],[-7,-29],[23,-12],[-2,-71]],[[1885,2914],[-309,0],[-254,0],[-83,-2]],[[1239,2912],[-10,165],[-4,110]],[[1225,3187],[2,26],[19,59],[19,28],[-9,42],[1,36],[28,8],[73,-21],[-10,55],[11,5],[18,42],[34,61],[-17,22],[-4,36],[23,24],[44,17]],[[3062,1137],[269,0]],[[3331,1137],[335,2]],[[3666,1139],[1,-273]],[[3667,866],[0,-91]],[[3667,775],[-247,-1],[-224,0],[0,-46],[-134,1]],[[3062,729],[0,408]],[[1925,7083],[15,6],[31,48],[48,2],[16,-10],[13,-33],[56,-7],[17,-25],[29,-7],[64,29],[37,1],[-1,17],[38,21],[23,33],[245,-1]],[[2556,7157],[1,-135],[71,0],[1,-204]],[[2629,6818],[-70,-1]],[[2559,6817],[-286,0],[-346,1]],[[1927,6818],[-17,29],[-38,31],[0,52],[31,32],[-11,40],[6,27],[-15,19],[24,32],[18,3]],[[2103,3459],[-13,28],[7,25],[39,13],[21,46],[24,21],[18,-3],[15,24],[26,-11],[27,34],[18,4],[44,45],[11,29],[20,-3],[14,34],[28,16],[32,-17],[23,12],[19,-5]],[[2476,3751],[14,-67],[57,-298],[0,-204]],[[2547,3182],[-1,-136],[1,-136]],[[2547,2910],[-201,0],[-73,3],[-388,1]],[[2648,1954],[89,0]],[[2737,1954],[179,0]],[[2916,1954],[1,-136],[136,0],[-1,-329],[0,-195]],[[3052,1294],[-101,-1],[0,-43],[-68,1],[1,29],[-34,0],[0,23],[-67,0],[0,-22],[-135,1]],[[2648,1282],[0,437],[0,235]],[[2235,4207],[167,0],[-1,9],[146,0]],[[2547,4216],[0,-391]],[[2547,3825],[-38,-32],[-33,-42]],[[3047,7503],[204,1],[240,0]],[[3491,7504],[-1,-212],[-23,0],[0,-68],[-70,0],[0,-338]],[[3397,6886],[-208,-1],[-1,-22]],[[3188,6863],[-69,-1],[-1,408],[-71,0],[0,233]],[[4435,4844],[-48,-463],[-10,-97]],[[4377,4284],[-398,-3],[-217,-1]],[[3762,4280],[-2,254],[1,307]],[[3761,4841],[189,1]],[[2556,7157],[-1,348]],[[2555,7505],[106,0],[277,-3],[109,1]],[[3188,6863],[0,-137]],[[3188,6726],[-62,31],[-53,14],[-45,2],[-4,-11],[-48,11],[-24,-10],[-42,21],[-27,33],[-254,1]],[[3062,729],[-269,1],[0,-205],[-68,0],[0,-23],[-68,1],[0,-69],[-57,1]],[[2600,435],[-34,29],[-12,22],[-23,8],[-34,28],[-15,45],[-19,7],[5,34],[-22,-4],[-21,57],[3,44],[-7,26],[-22,25],[-7,7],[15,46],[-13,12],[23,28],[4,27],[-9,35],[24,45],[40,53],[-1,41],[22,19],[-7,48],[22,6],[16,28],[-16,39],[28,36],[10,55]],[[2550,1281],[98,1]],[[3052,1294],[11,-15],[-1,-142]],[[23,1277],[61,28],[35,33],[6,24],[-11,25],[-62,53],[-15,20],[6,31],[32,41],[10,44]],[[85,1576],[19,52],[20,17],[26,4],[14,-12],[1,-25],[42,16],[25,22],[2,33],[-26,25],[22,9],[15,26],[1,33],[59,-7],[14,13],[34,5],[41,27],[20,-6],[17,17],[33,15],[27,-5],[14,17],[20,-13],[42,18],[22,-26],[49,-15],[18,2]],[[656,1818],[16,2],[15,-26],[31,-18],[22,2]],[[740,1778],[9,-5],[11,-45],[27,-11],[-1,-441]],[[786,1276],[-153,0],[-328,0],[-282,1]],[[1885,2914],[-23,-29],[33,-66],[34,-37],[7,-33],[31,-21],[-3,-41],[33,-18],[17,-56],[-31,-25],[27,-34],[-20,-30],[13,-16],[40,0],[-2,-31],[-13,-26]],[[2028,2451],[-12,5],[-70,-38],[-61,-12],[-20,-10]],[[1865,2396],[-18,-21],[-28,-7],[-132,1],[0,-23],[-45,0],[-1,23],[-196,-3],[-231,0]],[[1214,2366],[1,137]],[[1215,2503],[4,68],[22,23],[0,148],[3,59],[-5,111]],[[1261,4545],[-211,-2],[-71,4],[0,-140]],[[979,4407],[-67,4],[-266,2]],[[646,4413],[6,13],[48,29],[1,40],[-34,28],[-30,10],[-38,33],[-1,21],[25,29],[31,-1],[13,-16],[67,0],[18,10],[8,51],[-5,32],[-22,45],[19,3],[47,46],[9,37],[-31,20],[-25,-22],[-14,-49],[-19,6],[-23,35],[4,19],[-22,30],[0,77],[28,23],[26,36],[28,25],[29,40],[0,28],[-17,14],[-31,-20],[-7,-55],[-19,-22],[-37,-21],[-32,0],[-33,15],[-24,22],[13,23],[30,-2],[50,15],[26,30],[-3,34],[-14,21],[-39,25],[-20,-16],[9,-55],[-16,-17],[-33,-11],[-37,8],[4,28],[31,18],[30,61],[-44,34]],[[576,5220],[443,2],[160,-2]],[[1179,5220],[4,-130],[-5,0],[1,-274],[62,0]],[[2521,4729],[6,22],[41,46],[17,43],[74,0]],[[2659,4840],[254,1]],[[2913,4841],[182,-1],[-2,-275]],[[3093,4565],[-2,-277]],[[3091,4288],[-544,-2],[0,-70]],[[1925,7083],[-3,75],[0,137],[-136,0]],[[1786,7295],[-17,16],[79,35],[20,25],[-4,61],[-33,16],[-33,28],[-16,29],[366,-1],[242,-1],[165,2]],[[1438,6770],[34,25],[2,28],[-44,53],[-23,43],[5,34],[24,39],[-1,42],[32,-7],[8,-18],[-20,-48],[10,-23],[40,-1],[64,61],[8,22],[-15,33],[-56,-15],[-21,1],[-52,26],[11,38],[24,2],[8,26],[-11,44],[9,19],[26,10],[37,-46],[-2,-24],[-39,-40],[21,-13],[44,1],[35,24],[-6,25],[-31,59],[9,30],[19,13],[-38,67],[11,34],[18,9],[34,-14],[9,-25],[-27,-41],[15,-23],[41,2],[60,25],[32,25],[25,-22],[19,25]],[[1927,6818],[0,-68]],[[1927,6750],[-140,-2],[3,-133],[-129,-1]],[[1661,6614],[-223,156]],[[3086,3185],[542,1]],[[3628,3186],[0,-213],[4,-407]],[[3632,2566],[-43,-3]],[[3589,2563],[-225,-16],[-269,-19]],[[3095,2528],[-1,112],[-5,17],[-2,180],[-1,348]],[[1236,3801],[-8,-76],[-55,7],[-123,1],[-1,-207],[-26,-3],[-18,12],[-32,-6],[-10,10],[-33,-10],[-16,-52],[-1,256],[-105,1]],[[808,3734],[52,53],[2,20],[-30,37],[-17,-16],[-15,-45],[-39,-10],[-52,-25],[-37,30],[-8,57],[20,15],[25,37],[49,26],[23,19],[4,38],[-82,24],[-36,-2],[-20,15],[11,46],[-10,8],[4,42],[22,47],[23,19],[29,5],[46,47],[9,20],[-1,39],[-21,26],[-8,52],[-26,20],[-39,-15],[7,-24],[-10,-18],[9,-35],[-18,-38],[-20,-9],[-49,11],[-21,24],[0,21],[15,39],[37,39],[10,29],[0,11]],[[979,4407],[1,-99],[-35,-92],[0,-36],[-31,-37],[-2,-274],[320,-1]],[[85,1576],[-16,27],[-31,27],[-25,13],[-13,33],[22,19],[83,-10],[28,3],[46,19],[13,25],[-1,39],[-52,48],[-1,45],[-25,2],[-13,34],[18,38],[22,14],[21,-66],[22,-31],[49,-9],[8,10],[1,39],[-37,38],[-18,37],[-6,61],[3,74],[48,-1],[39,15],[56,46],[5,32],[-25,11],[-46,-15],[-37,-2],[-23,15],[-18,25],[0,24],[25,29],[45,-39],[56,-14],[27,14],[7,37],[-6,68],[4,36],[22,34],[21,24],[62,2]],[[445,2446],[15,-60],[20,-30],[-9,-30],[41,-14],[-3,-26],[24,-5],[24,-22],[105,1],[0,-31]],[[662,2229],[-4,-377],[-2,-34]],[[2839,6206],[350,-1]],[[3189,6205],[1,-136],[139,0]],[[3329,6069],[2,-242],[0,-166],[-69,-1],[-2,-114]],[[3260,5546],[0,-25],[-418,-1]],[[2842,5520],[0,227]],[[2842,5747],[-1,317],[-2,142]],[[4120,6679],[128,0],[154,-3]],[[4402,6676],[229,0]],[[4631,6676],[-23,-222],[-40,-366]],[[4568,6088],[-450,4]],[[4118,6092],[-1,384],[3,4],[0,199]],[[2913,4841],[0,229],[10,10],[46,-5],[2,16],[38,21]],[[3009,5112],[28,18],[25,-3],[28,42],[78,34],[20,-3],[86,25],[123,1]],[[3397,5226],[0,-385]],[[3397,4841],[-27,0],[0,-137],[-139,-1],[-1,-138],[-137,0]],[[2547,3182],[38,3],[432,-1],[69,1]],[[3095,2528],[-113,-8]],[[2982,2520],[-333,-26]],[[2649,2494],[-2,5],[0,359],[-10,52],[-90,0]],[[1214,2366],[0,-136]],[[1214,2230],[-183,-1],[-369,0]],[[445,2446],[56,-6],[17,33],[-31,8],[-53,-16],[-52,0],[8,59],[18,67],[24,19],[45,8],[6,-49],[17,-27],[19,-3],[22,37],[-28,28],[-2,18],[26,11]],[[537,2633],[201,-6],[110,-6],[227,-56],[2,-34],[-16,-29],[154,1]],[[3666,1139],[67,-1],[0,136]],[[3733,1274],[107,0],[170,2],[264,-1]],[[4274,1275],[18,-409]],[[4292,866],[-77,-1],[-482,-2],[-66,3]],[[1846,1279],[-116,-1],[-265,-1]],[[1465,1277],[-1,349],[0,196]],[[1464,1822],[381,2]],[[1845,1824],[0,-272],[1,-273]],[[4708,7344],[-27,-262],[-29,-222],[-21,-184]],[[4402,6676],[-2,182],[0,250],[-24,0],[0,23],[-22,0]],[[4354,7131],[0,154],[2,220]],[[4356,7505],[217,0],[31,-51],[29,-63],[24,-23],[51,-24]],[[3329,6069],[417,1]],[[3746,6070],[140,0]],[[3886,6070],[-2,-61],[0,-350]],[[3884,5659],[-49,0],[-230,2],[-1,-90],[-136,-1],[0,-23]],[[3468,5547],[-208,-1]],[[2550,1281],[-143,0]],[[2407,1281],[0,113],[-113,0],[-11,23],[0,34],[-11,34],[-90,-1],[0,67],[-34,1],[0,90],[-12,0],[0,159]],[[2136,1801],[0,92],[86,0],[22,-7]],[[2244,1886],[180,0],[-2,68],[226,0]],[[556,5270],[12,10],[71,1],[46,34],[11,28],[-12,29],[-60,41],[-39,6],[-22,22],[-2,21],[26,25],[67,9],[35,-46],[56,-30],[72,21],[8,13],[-22,43],[-17,13],[-39,-13],[-36,-3],[-42,41],[19,80],[34,-17],[73,10],[37,-21],[32,6],[13,37],[-19,15],[-57,22],[-28,46],[0,42],[47,40],[32,52],[-17,18],[-73,17],[-15,16],[-1,42],[10,27],[45,-25],[40,17],[25,-58],[38,-7],[13,28],[-23,27],[-12,35],[39,11],[51,-8],[31,6],[13,22],[0,30],[21,35],[-8,18],[-22,8],[-37,-7],[-45,40],[-2,2]],[[923,6141],[232,1],[162,-3],[-1,-205],[4,0]],[[1320,5934],[-3,-411],[1,-168],[-139,0],[0,-135]],[[576,5220],[-20,50]],[[4157,5409],[19,46],[-291,0],[-1,204]],[[3886,6070],[0,23],[232,-1]],[[4568,6088],[-5,-44],[-55,-488]],[[3748,7505],[48,0],[429,1],[109,-1],[22,0]],[[4354,7131],[-293,1],[-175,1]],[[3886,7133],[-45,0],[0,159],[-94,0],[1,213]],[[2547,3825],[0,-89],[130,-1],[410,0]],[[3087,3735],[-1,-550]],[[3949,5185],[0,91],[-58,-9],[-24,9],[-332,-2],[-46,-3]],[[3489,5271],[0,114],[-21,0],[0,162]],[[3331,1137],[-1,141],[-10,0],[1,383],[-1,293]],[[3320,1954],[269,-1]],[[3589,1953],[134,1]],[[3723,1954],[1,-274],[0,-402],[9,-4]],[[1593,5931],[0,136]],[[1593,6067],[302,-1],[115,1],[0,136]],[[2010,6203],[235,-1],[35,8]],[[2280,6210],[8,-37],[-1,-243],[1,-135]],[[2288,5795],[-1,-116],[-68,0],[-1,-22],[-185,1],[-24,-2],[0,-136]],[[2009,5520],[-111,0],[-25,24],[-17,-11],[-22,-51],[-43,3],[-17,41],[26,39],[59,19],[60,-5],[25,9],[19,34],[-15,34],[-356,4]],[[1592,5660],[1,271]],[[1320,5934],[273,-3]],[[1592,5660],[0,-161],[-1,-173],[-1,-418]],[[3188,6726],[0,-181]],[[3188,6545],[1,-340]],[[2839,6206],[0,45],[-280,3]],[[2559,6254],[2,226],[-3,132],[1,205]],[[4323,3737],[-20,-201],[-23,-219],[-13,-126]],[[4267,3191],[-382,-4],[-257,-1]],[[3628,3186],[-2,264],[-1,257],[2,29]],[[3627,3736],[213,-1],[483,2]],[[1865,2396],[2,-572]],[[1867,1824],[-22,0]],[[1464,1822],[-113,0]],[[1351,1822],[0,409],[-137,-1]],[[3062,729],[-1,-229],[1,-200]],[[3062,300],[-16,-6],[-33,-40],[8,-15],[35,15],[17,-8],[14,-29],[-10,-26],[-50,-30],[-26,-26],[-36,-14],[-13,-20],[5,-24],[-38,-40],[3,-21],[-44,5],[-23,-18],[-40,11],[-25,6],[-31,-20],[-14,9],[-27,47],[-21,18],[1,31],[-21,14],[1,36],[-21,18],[10,25],[18,11],[-5,39],[-36,27],[-7,23],[-28,54],[6,12],[-15,71]],[[2649,2494],[-135,-9]],[[2514,2485],[-291,-20]],[[2223,2465],[-195,-14]],[[3762,4280],[-135,1]],[[3627,4281],[-21,-12],[-46,0],[0,11],[-70,0],[0,8],[-399,0]],[[3397,4841],[364,0]],[[923,6141],[-2,24],[64,47],[21,-8],[45,-33],[32,-3],[38,38],[-12,33],[-50,6],[-44,-7],[-36,21],[-26,34],[7,42],[30,-1],[8,-23],[25,-20],[33,-8],[22,7],[-1,35],[9,56],[22,10],[68,-17],[37,30],[2,36],[-43,56],[-1,16],[26,15],[39,-11],[55,16],[-19,-76],[20,-15],[27,15],[-12,52],[34,52],[37,2],[36,29],[11,34],[-20,73],[15,59],[18,13]],[[1661,6614],[1,-253],[-69,2],[0,-296]],[[3091,4288],[2,-553]],[[3093,3735],[-6,0]],[[4377,4284],[-27,-282],[-27,-265]],[[3627,3736],[-1,280],[1,265]],[[2659,4840],[-1,182],[-92,0],[0,23],[-92,-1],[-1,312],[-1,94]],[[2472,5450],[222,2],[149,-1]],[[2843,5451],[0,-339],[166,0]],[[1351,1822],[-113,1],[-350,-2],[-6,-18],[-40,16],[-14,-18],[-77,-14],[-11,-9]],[[3746,6070],[-1,307],[0,145]],[[3745,6522],[0,46],[47,-1],[0,158],[70,0],[1,22]],[[3863,6747],[257,0],[0,-68]],[[3863,6747],[1,136]],[[3864,6883],[23,0],[-1,250]],[[3627,3736],[-534,-1]],[[3397,6886],[467,-3]],[[3745,6522],[-137,0],[0,23],[-154,1],[-266,-1]],[[3397,5226],[0,45],[92,0]],[[1465,1277],[-26,0],[-343,0],[-310,-1]],[[3667,775],[1,-403],[17,1]],[[3685,373],[15,-21],[-3,-22],[-80,3],[-65,-4],[-60,-11],[-82,-22],[-144,-61],[-112,-40],[-26,-3],[-1,38],[31,20],[-38,41],[-23,14],[-35,-5]],[[3340,79],[70,-2],[-9,-26],[-34,3],[-27,25]],[[4292,866],[11,-300],[12,-271],[-23,-18],[-50,-5],[-5,-39],[-35,-18],[-32,3],[-30,35],[-70,5],[-5,31],[-37,-15],[-9,26],[-26,-20],[-34,3],[-49,-28],[-37,-2],[-24,8],[-84,73],[-41,23],[-22,32],[-17,-16]],[[3825,99],[46,4],[20,9],[77,-28],[79,-13],[0,-7],[-91,13],[-65,22],[-50,-8],[-16,8]],[[2916,1954],[69,0]],[[2985,1954],[335,0]],[[2407,1281],[-256,-2],[-305,0]],[[1867,1824],[179,1],[23,-12],[12,-23],[39,0],[16,11]],[[2223,2465],[-2,-373],[23,0],[0,-206]],[[2843,5451],[-1,69]],[[1927,6750],[2,-133],[-1,-133],[5,-61],[79,-55],[-2,-165]],[[1959,4915],[-1,130],[49,-1],[1,67],[48,-1],[-1,226],[-9,40],[9,36],[-34,38]],[[2021,5450],[196,-1],[255,1]],[[4211,2671],[12,-306],[6,-118],[13,-290]],[[4242,1957],[-121,-2],[-276,-2],[-122,1]],[[3589,1953],[0,304],[0,306]],[[3632,2566],[195,15],[187,33],[197,57]],[[2985,1954],[-3,566]],[[3491,7504],[257,1]],[[2559,6254],[0,-46],[-279,2]],[[2842,5747],[-346,0],[-1,46],[-207,2]],[[2021,5450],[-13,0],[1,70]],[[4267,3191],[-10,-85],[-46,-435]],[[2737,1954],[0,124],[-14,5],[-7,34],[-45,32],[-48,9],[-59,38],[-24,33],[-27,-1],[1,257]],[[4242,1957],[24,-501],[8,-181]],[[1225,3187],[-32,-45],[-26,-6],[-23,-27],[31,-19],[-11,-14],[-54,-24],[-37,32],[-3,-48],[-49,-21],[-33,27],[-13,-38],[2,-41],[-54,4],[-6,24],[-38,-4],[-54,27]],[[825,3014],[0,10],[25,17],[12,48],[-29,1],[-22,18],[-11,-26],[-5,-52],[-37,15],[-39,-14],[-69,12],[-15,35],[14,65],[40,26],[13,-4],[20,-4],[33,28],[30,-12],[19,35],[16,1],[42,-29],[1,-42],[24,23],[5,51],[14,14],[-18,28],[9,40],[16,1],[22,-21],[42,31],[45,85],[-21,-5],[-19,-24],[-98,20],[-24,25],[14,56],[26,12],[10,35],[-16,20],[-20,6],[-47,-27],[-31,8],[-56,31],[-28,38],[-1,27],[21,39],[10,37],[25,-24],[31,-52],[17,-15],[45,-13],[18,8],[-5,33],[-32,19],[-43,16],[-32,24],[7,25],[35,21]],[[537,2633],[18,11],[45,51],[23,11],[-13,30],[7,39],[31,34],[62,7],[37,21],[18,26],[-26,32],[-65,14],[-22,33],[17,19],[27,-5],[19,-29],[20,-15],[26,3],[-1,45],[55,29],[10,25]]],"transform":{"scale":[0.0007553396346644014,0.0006415827925272053],"translate":[-91.654027,30.180297]},"objects":{"28":{"type":"GeometryCollection","geometries":[{"arcs":[[0,1,2,3,4,5]],"type":"Polygon","properties":{"STATEFP":"28","COUNTYFP":"053","COUNTYNS":"00695750","GEOIDFQ":"0500000US28053","GEOID":"28053","NAME":"Humphreys","NAMELSAD":"Humphreys County","STUSPS":"MS","STATE_NAME":"Mississippi","LSAD":"06","ALAND":1084258532,"AWATER":32631415},"id":"28053"},{"arcs":[[6,7,8,9,10]],"type":"Polygon","properties":{"STATEFP":"28","COUNTYFP":"087","COUNTYNS":"00695767","GEOIDFQ":"0500000US28087","GEOID":"28087","NAME":"Lowndes","NAMELSAD":"Lowndes County","STUSPS":"MS","STATE_NAME":"Mississippi","LSAD":"06","ALAND":1310710305,"AWATER":28522280},"id":"28087"},{"arcs":[[-3,11,12,13,14]],"type":"Polygon","properties":{"STATEFP":"28","COUNTYFP":"051","COUNTYNS":"00695749","GEOIDFQ":"0500000US28051","GEOID":"28051","NAME":"Holmes","NAMELSAD":"Holmes County","STUSPS":"MS","STATE_NAME":"Mississippi","LSAD":"06","ALAND":1959776819,"AWATER":20568825},"id":"28051"},{"arcs":[[-4,-15,15,16,17,18,19]],"type":"Polygon","properties":{"STATEFP":"28","COUNTYFP":"163","COUNTYNS":"00695802","GEOIDFQ":"0500000US28163","GEOID":"28163","NAME":"Yazoo","NAMELSAD":"Yazoo County","STUSPS":"MS","STATE_NAME":"Mississippi","LSAD":"06","ALAND":2388847342,"AWATER":30612555},"id":"28163"},{"arcs":[[-17,20,21,22,23,24]],"type":"Polygon","properties":{"STATEFP":"28","COUNTYFP":"049","COUNTYNS":"00695748","GEOIDFQ":"0500000US28049","GEOID":"28049","NAME":"Hinds","NAMELSAD":"Hinds County","STUSPS":"MS","STATE_NAME":"Mississippi","LSAD":"06","ALAND":2252888300,"AWATER":19259532},"id":"28049"},{"arcs":[[25,26,27,28,29,30]],"type":"Polygon","properties":{"STATEFP":"28","COUNTYFP":"131","COUNTYNS":"00695786","GEOIDFQ":"0500000US28131","GEOID":"28131","NAME":"Stone","NAMELSAD":"Stone County","STUSPS":"MS","STATE_NAME":"Mississippi","LSAD":"06","ALAND":1153800118,"AWATER":6712351},"id":"28131"},{"arcs":[[31,32,33,34,35]],"type":"Polygon","properties":{"STATEFP":"28","COUNTYFP":"137","COUNTYNS":"00695789","GEOIDFQ":"0500000US28137","GEOID":"28137","NAME":"Tate","NAMELSAD":"Tate County","STUSPS":"MS","STATE_NAME":"Mississippi","LSAD":"06","ALAND":1048332524,"AWATER":16090911},"id":"28137"},{"arcs":[[-22,36,37,38,39]],"type":"Polygon","properties":{"STATEFP":"28","COUNTYFP":"121","COUNTYNS":"00695781","GEOIDFQ":"0500000US28121","GEOID":"28121","NAME":"Rankin","NAMELSAD":"Rankin County","STUSPS":"MS","STATE_NAME":"Mississippi","LSAD":"06","ALAND":2008538427,"AWATER":79213730},"id":"28121"},{"arcs":[[40,41,42,43,44]],"type":"Polygon","properties":{"STATEFP":"28","COUNTYFP":"073","COUNTYNS":"00695760","GEOIDFQ":"0500000US28073","GEOID":"28073","NAME":"Lamar","NAMELSAD":"Lamar County","STUSPS":"MS","STATE_NAME":"Mississippi","LSAD":"06","ALAND":1286109797,"AWATER":8871408},"id":"28073"},{"arcs":[[-16,45,46,47,-37,-21]],"type":"Polygon","properties":{"STATEFP":"28","COUNTYFP":"089","COUNTYNS":"00695768","GEOIDFQ":"0500000US28089","GEOID":"28089","NAME":"Madison","NAMELSAD":"Madison County","STUSPS":"MS","STATE_NAME":"Mississippi","LSAD":"06","ALAND":1849800819,"AWATER":72075390},"id":"28089"},{"arcs":[[48,49,50,51]],"type":"Polygon","properties":{"STATEFP":"28","COUNTYFP":"009","COUNTYNS":"00695729","GEOIDFQ":"0500000US28009","GEOID":"28009","NAME":"Benton","NAMELSAD":"Benton County","STUSPS":"MS","STATE_NAME":"Mississippi","LSAD":"06","ALAND":1053131428,"AWATER":5279184},"id":"28009"},{"arcs":[[-10,52,53,54,55]],"type":"Polygon","properties":{"STATEFP":"28","COUNTYFP":"103","COUNTYNS":"00695774","GEOIDFQ":"0500000US28103","GEOID":"28103","NAME":"Noxubee","NAMELSAD":"Noxubee County","STUSPS":"MS","STATE_NAME":"Mississippi","LSAD":"06","ALAND":1800976502,"AWATER":12497508},"id":"28103"},{"arcs":[[-33,56,57,-52,58,59]],"type":"Polygon","properties":{"STATEFP":"28","COUNTYFP":"093","COUNTYNS":"00695770","GEOIDFQ":"0500000US28093","GEOID":"28093","NAME":"Marshall","NAMELSAD":"Marshall County","STUSPS":"MS","STATE_NAME":"Mississippi","LSAD":"06","ALAND":1829027817,"AWATER":9173803},"id":"28093"},{"arcs":[[-31,60,61,62,-44,63]],"type":"Polygon","properties":{"STATEFP":"28","COUNTYFP":"109","COUNTYNS":"00695777","GEOIDFQ":"0500000US28109","GEOID":"28109","NAME":"Pearl River","NAMELSAD":"Pearl River County","STUSPS":"MS","STATE_NAME":"Mississippi","LSAD":"06","ALAND":2101794952,"AWATER":20295312},"id":"28109"},{"arcs":[[64,65,66,67,68]],"type":"Polygon","properties":{"STATEFP":"28","COUNTYFP":"157","COUNTYNS":"00695799","GEOIDFQ":"0500000US28157","GEOID":"28157","NAME":"Wilkinson","NAMELSAD":"Wilkinson County","STUSPS":"MS","STATE_NAME":"Mississippi","LSAD":"06","ALAND":1756043890,"AWATER":25262385},"id":"28157"},{"arcs":[[-23,69,70,71,72,73]],"type":"Polygon","properties":{"STATEFP":"28","COUNTYFP":"029","COUNTYNS":"00695739","GEOIDFQ":"0500000US28029","GEOID":"28029","NAME":"Copiah","NAMELSAD":"Copiah County","STUSPS":"MS","STATE_NAME":"Mississippi","LSAD":"06","ALAND":2013158774,"AWATER":5644780},"id":"28029"},{"arcs":[[-6,74,75,76,77,78]],"type":"Polygon","properties":{"STATEFP":"28","COUNTYFP":"151","COUNTYNS":"00695796","GEOIDFQ":"0500000US28151","GEOID":"28151","NAME":"Washington","NAMELSAD":"Washington County","STUSPS":"MS","STATE_NAME":"Mississippi","LSAD":"06","ALAND":1875531293,"AWATER":93803301},"id":"28151"},{"arcs":[[-14,79,80,81,82,83,-46]],"type":"Polygon","properties":{"STATEFP":"28","COUNTYFP":"007","COUNTYNS":"00695728","GEOIDFQ":"0500000US28007","GEOID":"28007","NAME":"Attala","NAMELSAD":"Attala County","STUSPS":"MS","STATE_NAME":"Mississippi","LSAD":"06","ALAND":1903529298,"AWATER":4425860},"id":"28007"},{"arcs":[[-32,84,85,-57]],"type":"Polygon","properties":{"STATEFP":"28","COUNTYFP":"033","COUNTYNS":"00695741","GEOIDFQ":"0500000US28033","GEOID":"28033","NAME":"DeSoto","NAMELSAD":"DeSoto County","STUSPS":"MS","STATE_NAME":"Mississippi","LSAD":"06","ALAND":1233855808,"AWATER":50232356},"id":"28033"},{"arcs":[[86,-85,-36,87,88,89]],"type":"Polygon","properties":{"STATEFP":"28","COUNTYFP":"143","COUNTYNS":"00695792","GEOIDFQ":"0500000US28143","GEOID":"28143","NAME":"Tunica","NAMELSAD":"Tunica County","STUSPS":"MS","STATE_NAME":"Mississippi","LSAD":"06","ALAND":1176191639,"AWATER":57012297},"id":"28143"},{"arcs":[[90,91,92,93,94]],"type":"Polygon","properties":{"STATEFP":"28","COUNTYFP":"061","COUNTYNS":"00695754","GEOIDFQ":"0500000US28061","GEOID":"28061","NAME":"Jasper","NAMELSAD":"Jasper County","STUSPS":"MS","STATE_NAME":"Mississippi","LSAD":"06","ALAND":1751636189,"AWATER":3130850},"id":"28061"},{"arcs":[[-19,95,96,-76,97]],"type":"Polygon","properties":{"STATEFP":"28","COUNTYFP":"055","COUNTYNS":"00695751","GEOIDFQ":"0500000US28055","GEOID":"28055","NAME":"Issaquena","NAMELSAD":"Issaquena County","STUSPS":"MS","STATE_NAME":"Mississippi","LSAD":"06","ALAND":1069614257,"AWATER":73664788},"id":"28055"},{"arcs":[[98,99,100,-66]],"type":"Polygon","properties":{"STATEFP":"28","COUNTYFP":"001","COUNTYNS":"00695726","GEOIDFQ":"0500000US28001","GEOID":"28001","NAME":"Adams","NAMELSAD":"Adams County","STUSPS":"MS","STATE_NAME":"Mississippi","LSAD":"06","ALAND":1197464266,"AWATER":65273640},"id":"28001"},{"arcs":[[101,102,103,104,105,106]],"type":"Polygon","properties":{"STATEFP":"28","COUNTYFP":"013","COUNTYNS":"00695731","GEOIDFQ":"0500000US28013","GEOID":"28013","NAME":"Calhoun","NAMELSAD":"Calhoun County","STUSPS":"MS","STATE_NAME":"Mississippi","LSAD":"06","ALAND":1519218292,"AWATER":3590388},"id":"28013"},{"arcs":[[107,108,109,110,111]],"type":"Polygon","properties":{"STATEFP":"28","COUNTYFP":"057","COUNTYNS":"00695752","GEOIDFQ":"0500000US28057","GEOID":"28057","NAME":"Itawamba","NAMELSAD":"Itawamba County","STUSPS":"MS","STATE_NAME":"Mississippi","LSAD":"06","ALAND":1379933000,"AWATER":19825536},"id":"28057"},{"arcs":[[-82,112,113,114,115]],"type":"Polygon","properties":{"STATEFP":"28","COUNTYFP":"019","COUNTYNS":"00695734","GEOIDFQ":"0500000US28019","GEOID":"28019","NAME":"Choctaw","NAMELSAD":"Choctaw County","STUSPS":"MS","STATE_NAME":"Mississippi","LSAD":"06","ALAND":1083125331,"AWATER":4295085},"id":"28019"},{"arcs":[[-39,116,-95,117,118,119]],"type":"Polygon","properties":{"STATEFP":"28","COUNTYFP":"129","COUNTYNS":"00695785","GEOIDFQ":"0500000US28129","GEOID":"28129","NAME":"Smith","NAMELSAD":"Smith County","STUSPS":"MS","STATE_NAME":"Mississippi","LSAD":"06","ALAND":1647926076,"AWATER":2599432},"id":"28129"},{"arcs":[[-73,120,121,-100,122,123]],"type":"Polygon","properties":{"STATEFP":"28","COUNTYFP":"063","COUNTYNS":"00695755","GEOIDFQ":"0500000US28063","GEOID":"28063","NAME":"Jefferson","NAMELSAD":"Jefferson County","STUSPS":"MS","STATE_NAME":"Mississippi","LSAD":"06","ALAND":1346620553,"AWATER":18988092},"id":"28063"},{"arcs":[[-28,124,125,126,127]],"type":"Polygon","properties":{"STATEFP":"28","COUNTYFP":"039","COUNTYNS":"00695744","GEOIDFQ":"0500000US28039","GEOID":"28039","NAME":"George","NAMELSAD":"George County","STUSPS":"MS","STATE_NAME":"Mississippi","LSAD":"06","ALAND":1239824224,"AWATER":12830813},"id":"28039"},{"arcs":[[128,129,130,131]],"type":"Polygon","properties":{"STATEFP":"28","COUNTYFP":"113","COUNTYNS":"00711758","GEOIDFQ":"0500000US28113","GEOID":"28113","NAME":"Pike","NAMELSAD":"Pike County","STUSPS":"MS","STATE_NAME":"Mississippi","LSAD":"06","ALAND":1059783760,"AWATER":3907959},"id":"28113"},{"arcs":[[132,-109,133,134,135]],"type":"Polygon","properties":{"STATEFP":"28","COUNTYFP":"141","COUNTYNS":"00695791","GEOIDFQ":"0500000US28141","GEOID":"28141","NAME":"Tishomingo","NAMELSAD":"Tishomingo County","STUSPS":"MS","STATE_NAME":"Mississippi","LSAD":"06","ALAND":1098925141,"AWATER":52373918},"id":"28141"},{"arcs":[[-104,136,137,138,139,140]],"type":"Polygon","properties":{"STATEFP":"28","COUNTYFP":"017","COUNTYNS":"00695733","GEOIDFQ":"0500000US28017","GEOID":"28017","NAME":"Chickasaw","NAMELSAD":"Chickasaw County","STUSPS":"MS","STATE_NAME":"Mississippi","LSAD":"06","ALAND":1299608407,"AWATER":6380767},"id":"28017"},{"arcs":[[-45,-63,141,142,143,144]],"type":"Polygon","properties":{"STATEFP":"28","COUNTYFP":"091","COUNTYNS":"00695769","GEOIDFQ":"0500000US28091","GEOID":"28091","NAME":"Marion","NAMELSAD":"Marion County","STUSPS":"MS","STATE_NAME":"Mississippi","LSAD":"06","ALAND":1404616873,"AWATER":16302668},"id":"28091"},{"arcs":[[145,146,147,-78,148]],"type":"Polygon","properties":{"STATEFP":"28","COUNTYFP":"011","COUNTYNS":"00695730","GEOIDFQ":"0500000US28011","GEOID":"28011","NAME":"Bolivar","NAMELSAD":"Bolivar County","STUSPS":"MS","STATE_NAME":"Mississippi","LSAD":"06","ALAND":2270141679,"AWATER":81446732},"id":"28011"},{"arcs":[[-8,149,-139,150,-111,151]],"type":"Polygon","properties":{"STATEFP":"28","COUNTYFP":"095","COUNTYNS":"00695771","GEOIDFQ":"0500000US28095","GEOID":"28095","NAME":"Monroe","NAMELSAD":"Monroe County","STUSPS":"MS","STATE_NAME":"Mississippi","LSAD":"06","ALAND":1981673393,"AWATER":17953924},"id":"28095"},{"arcs":[[152,-135,153,154]],"type":"Polygon","properties":{"STATEFP":"28","COUNTYFP":"003","COUNTYNS":"00711755","GEOIDFQ":"0500000US28003","GEOID":"28003","NAME":"Alcorn","NAMELSAD":"Alcorn County","STUSPS":"MS","STATE_NAME":"Mississippi","LSAD":"06","ALAND":1036116127,"AWATER":3402314},"id":"28003"},{"arcs":[[-38,-48,155,156,-117]],"type":"Polygon","properties":{"STATEFP":"28","COUNTYFP":"123","COUNTYNS":"00695782","GEOIDFQ":"0500000US28123","GEOID":"28123","NAME":"Scott","NAMELSAD":"Scott County","STUSPS":"MS","STATE_NAME":"Mississippi","LSAD":"06","ALAND":1577902084,"AWATER":3001523},"id":"28123"},{"arcs":[[-7,157,158,-140,-150]],"type":"Polygon","properties":{"STATEFP":"28","COUNTYFP":"025","COUNTYNS":"00695737","GEOIDFQ":"0500000US28025","GEOID":"28025","NAME":"Clay","NAMELSAD":"Clay County","STUSPS":"MS","STATE_NAME":"Mississippi","LSAD":"06","ALAND":1061922602,"AWATER":15305249},"id":"28025"},{"arcs":[[-5,-20,-98,-75]],"type":"Polygon","properties":{"STATEFP":"28","COUNTYFP":"125","COUNTYNS":"00695783","GEOIDFQ":"0500000US28125","GEOID":"28125","NAME":"Sharkey","NAMELSAD":"Sharkey County","STUSPS":"MS","STATE_NAME":"Mississippi","LSAD":"06","ALAND":1118149684,"AWATER":8806463},"id":"28125"},{"arcs":[[-27,159,160,161,162,-125]],"type":"Polygon","properties":{"STATEFP":"28","COUNTYFP":"111","COUNTYNS":"00695778","GEOIDFQ":"0500000US28111","GEOID":"28111","NAME":"Perry","NAMELSAD":"Perry County","STUSPS":"MS","STATE_NAME":"Mississippi","LSAD":"06","ALAND":1676432392,"AWATER":7581604},"id":"28111"},{"arcs":[[163,164,165,166,167,168,169]],"type":"Polygon","properties":{"STATEFP":"28","COUNTYFP":"135","COUNTYNS":"00695788","GEOIDFQ":"0500000US28135","GEOID":"28135","NAME":"Tallahatchie","NAMELSAD":"Tallahatchie County","STUSPS":"MS","STATE_NAME":"Mississippi","LSAD":"06","ALAND":1672069540,"AWATER":16969517},"id":"28135"},{"arcs":[[-1,-79,-148,170,-170,171]],"type":"Polygon","properties":{"STATEFP":"28","COUNTYFP":"133","COUNTYNS":"00695787","GEOIDFQ":"0500000US28133","GEOID":"28133","NAME":"Sunflower","NAMELSAD":"Sunflower County","STUSPS":"MS","STATE_NAME":"Mississippi","LSAD":"06","ALAND":1807187007,"AWATER":23747316},"id":"28133"},{"arcs":[[-34,-60,172,173,-102,174,175]],"type":"Polygon","properties":{"STATEFP":"28","COUNTYFP":"071","COUNTYNS":"00695759","GEOIDFQ":"0500000US28071","GEOID":"28071","NAME":"Lafayette","NAMELSAD":"Lafayette County","STUSPS":"MS","STATE_NAME":"Mississippi","LSAD":"06","ALAND":1636088509,"AWATER":123105438},"id":"28071"},{"arcs":[[176,177,178,179]],"type":"Polygon","properties":{"STATEFP":"28","COUNTYFP":"075","COUNTYNS":"00695761","GEOIDFQ":"0500000US28075","GEOID":"28075","NAME":"Lauderdale","NAMELSAD":"Lauderdale County","STUSPS":"MS","STATE_NAME":"Mississippi","LSAD":"06","ALAND":1822511106,"AWATER":29727669},"id":"28075"},{"arcs":[[-72,180,181,-131,182,183,-121]],"type":"Polygon","properties":{"STATEFP":"28","COUNTYFP":"085","COUNTYNS":"00695766","GEOIDFQ":"0500000US28085","GEOID":"28085","NAME":"Lincoln","NAMELSAD":"Lincoln County","STUSPS":"MS","STATE_NAME":"Mississippi","LSAD":"06","ALAND":1518269765,"AWATER":5291052},"id":"28085"},{"arcs":[[-61,184,185]],"type":"Polygon","properties":{"STATEFP":"28","COUNTYFP":"045","COUNTYNS":"00711756","GEOIDFQ":"0500000US28045","GEOID":"28045","NAME":"Hancock","NAMELSAD":"Hancock County","STUSPS":"MS","STATE_NAME":"Mississippi","LSAD":"06","ALAND":1227567343,"AWATER":204089428},"id":"28045"},{"arcs":[[-40,-120,186,187,188,-70]],"type":"Polygon","properties":{"STATEFP":"28","COUNTYFP":"127","COUNTYNS":"00695784","GEOIDFQ":"0500000US28127","GEOID":"28127","NAME":"Simpson","NAMELSAD":"Simpson County","STUSPS":"MS","STATE_NAME":"Mississippi","LSAD":"06","ALAND":1525930871,"AWATER":3378528},"id":"28127"},{"arcs":[[-55,189,190,-83,-116,191]],"type":"Polygon","properties":{"STATEFP":"28","COUNTYFP":"159","COUNTYNS":"00695800","GEOIDFQ":"0500000US28159","GEOID":"28159","NAME":"Winston","NAMELSAD":"Winston County","STUSPS":"MS","STATE_NAME":"Mississippi","LSAD":"06","ALAND":1572773204,"AWATER":7341897},"id":"28159"},{"arcs":[[192,-90,193,-164,-171,-147]],"type":"Polygon","properties":{"STATEFP":"28","COUNTYFP":"027","COUNTYNS":"00695738","GEOIDFQ":"0500000US28027","GEOID":"28027","NAME":"Coahoma","NAMELSAD":"Coahoma County","STUSPS":"MS","STATE_NAME":"Mississippi","LSAD":"06","ALAND":1432526488,"AWATER":77525442},"id":"28027"},{"arcs":[[-47,-84,194,195,-156]],"type":"Polygon","properties":{"STATEFP":"28","COUNTYFP":"079","COUNTYNS":"00695763","GEOIDFQ":"0500000US28079","GEOID":"28079","NAME":"Leake","NAMELSAD":"Leake County","STUSPS":"MS","STATE_NAME":"Mississippi","LSAD":"06","ALAND":1509697190,"AWATER":6376466},"id":"28079"},{"arcs":[[-54,196,-180,197,-190]],"type":"Polygon","properties":{"STATEFP":"28","COUNTYFP":"069","COUNTYNS":"00695758","GEOIDFQ":"0500000US28069","GEOID":"28069","NAME":"Kemper","NAMELSAD":"Kemper County","STUSPS":"MS","STATE_NAME":"Mississippi","LSAD":"06","ALAND":1984403152,"AWATER":2182350},"id":"28069"},{"arcs":[[-81,198,199,200,-113]],"type":"Polygon","properties":{"STATEFP":"28","COUNTYFP":"097","COUNTYNS":"00711757","GEOIDFQ":"0500000US28097","GEOID":"28097","NAME":"Montgomery","NAMELSAD":"Montgomery County","STUSPS":"MS","STATE_NAME":"Mississippi","LSAD":"06","ALAND":1054074830,"AWATER":2352156},"id":"28097"},{"arcs":[[-67,-101,-122,-184,201]],"type":"Polygon","properties":{"STATEFP":"28","COUNTYFP":"037","COUNTYNS":"00695743","GEOIDFQ":"0500000US28037","GEOID":"28037","NAME":"Franklin","NAMELSAD":"Franklin County","STUSPS":"MS","STATE_NAME":"Mississippi","LSAD":"06","ALAND":1460658821,"AWATER":7250805},"id":"28037"},{"arcs":[[-112,-151,-138,202,203,204]],"type":"Polygon","properties":{"STATEFP":"28","COUNTYFP":"081","COUNTYNS":"00695764","GEOIDFQ":"0500000US28081","GEOID":"28081","NAME":"Lee","NAMELSAD":"Lee County","STUSPS":"MS","STATE_NAME":"Mississippi","LSAD":"06","ALAND":1165404270,"AWATER":8314457},"id":"28081"},{"arcs":[[-108,-205,205,206,-154,-134]],"type":"Polygon","properties":{"STATEFP":"28","COUNTYFP":"117","COUNTYNS":"00695779","GEOIDFQ":"0500000US28117","GEOID":"28117","NAME":"Prentiss","NAMELSAD":"Prentiss County","STUSPS":"MS","STATE_NAME":"Mississippi","LSAD":"06","ALAND":1074806610,"AWATER":8324262},"id":"28117"},{"arcs":[[-191,-198,207,-195]],"type":"Polygon","properties":{"STATEFP":"28","COUNTYFP":"099","COUNTYNS":"00695772","GEOIDFQ":"0500000US28099","GEOID":"28099","NAME":"Neshoba","NAMELSAD":"Neshoba County","STUSPS":"MS","STATE_NAME":"Mississippi","LSAD":"06","ALAND":1476641126,"AWATER":3830971},"id":"28099"},{"arcs":[[-51,208,-206,-204,209,-173,-59]],"type":"Polygon","properties":{"STATEFP":"28","COUNTYFP":"145","COUNTYNS":"00695793","GEOIDFQ":"0500000US28145","GEOID":"28145","NAME":"Union","NAMELSAD":"Union County","STUSPS":"MS","STATE_NAME":"Mississippi","LSAD":"06","ALAND":1076417816,"AWATER":3369003},"id":"28145"},{"arcs":[[-11,-56,-192,-115,210,-158]],"type":"Polygon","properties":{"STATEFP":"28","COUNTYFP":"105","COUNTYNS":"00695775","GEOIDFQ":"0500000US28105","GEOID":"28105","NAME":"Oktibbeha","NAMELSAD":"Oktibbeha County","STUSPS":"MS","STATE_NAME":"Mississippi","LSAD":"06","ALAND":1185245552,"AWATER":9565689},"id":"28105"},{"arcs":[[-68,-202,-183,-130,211]],"type":"Polygon","properties":{"STATEFP":"28","COUNTYFP":"005","COUNTYNS":"00695727","GEOIDFQ":"0500000US28005","GEOID":"28005","NAME":"Amite","NAMELSAD":"Amite County","STUSPS":"MS","STATE_NAME":"Mississippi","LSAD":"06","ALAND":1890950860,"AWATER":3877823},"id":"28005"},{"arcs":[[[-30,212,213,-185]],[[214]]],"type":"MultiPolygon","properties":{"STATEFP":"28","COUNTYFP":"047","COUNTYNS":"00695747","GEOIDFQ":"0500000US28047","GEOID":"28047","NAME":"Harrison","NAMELSAD":"Harrison County","STUSPS":"MS","STATE_NAME":"Mississippi","LSAD":"06","ALAND":1485746815,"AWATER":1064585233},"id":"28047"},{"arcs":[[[-29,-128,215,-213]],[[216]]],"type":"MultiPolygon","properties":{"STATEFP":"28","COUNTYFP":"059","COUNTYNS":"00695753","GEOIDFQ":"0500000US28059","GEOID":"28059","NAME":"Jackson","NAMELSAD":"Jackson County","STUSPS":"MS","STATE_NAME":"Mississippi","LSAD":"06","ALAND":1872109199,"AWATER":830292614},"id":"28059"},{"arcs":[[-26,-64,-43,217,218,-160]],"type":"Polygon","properties":{"STATEFP":"28","COUNTYFP":"035","COUNTYNS":"00695742","GEOIDFQ":"0500000US28035","GEOID":"28035","NAME":"Forrest","NAMELSAD":"Forrest County","STUSPS":"MS","STATE_NAME":"Mississippi","LSAD":"06","ALAND":1207042892,"AWATER":10872904},"id":"28035"},{"arcs":[[219,-132,-182,220,-143]],"type":"Polygon","properties":{"STATEFP":"28","COUNTYFP":"147","COUNTYNS":"00695794","GEOIDFQ":"0500000US28147","GEOID":"28147","NAME":"Walthall","NAMELSAD":"Walthall County","STUSPS":"MS","STATE_NAME":"Mississippi","LSAD":"06","ALAND":1046169275,"AWATER":1236552},"id":"28147"},{"arcs":[[-91,-157,-196,-208,-179]],"type":"Polygon","properties":{"STATEFP":"28","COUNTYFP":"101","COUNTYNS":"00695773","GEOIDFQ":"0500000US28101","GEOID":"28101","NAME":"Newton","NAMELSAD":"Newton County","STUSPS":"MS","STATE_NAME":"Mississippi","LSAD":"06","ALAND":1496418687,"AWATER":4524423},"id":"28101"},{"arcs":[[-71,-189,221,-144,-221,-181]],"type":"Polygon","properties":{"STATEFP":"28","COUNTYFP":"077","COUNTYNS":"00695762","GEOIDFQ":"0500000US28077","GEOID":"28077","NAME":"Lawrence","NAMELSAD":"Lawrence County","STUSPS":"MS","STATE_NAME":"Mississippi","LSAD":"06","ALAND":1115254009,"AWATER":13188412},"id":"28077"},{"arcs":[[-105,-141,-159,-211,-114,-201,222]],"type":"Polygon","properties":{"STATEFP":"28","COUNTYFP":"155","COUNTYNS":"00695798","GEOIDFQ":"0500000US28155","GEOID":"28155","NAME":"Webster","NAMELSAD":"Webster County","STUSPS":"MS","STATE_NAME":"Mississippi","LSAD":"06","ALAND":1090794796,"AWATER":5363806},"id":"28155"},{"arcs":[[-103,-174,-210,-203,-137]],"type":"Polygon","properties":{"STATEFP":"28","COUNTYFP":"115","COUNTYNS":"00695803","GEOIDFQ":"0500000US28115","GEOID":"28115","NAME":"Pontotoc","NAMELSAD":"Pontotoc County","STUSPS":"MS","STATE_NAME":"Mississippi","LSAD":"06","ALAND":1289330912,"AWATER":8308394},"id":"28115"},{"arcs":[[-89,223,-165,-194]],"type":"Polygon","properties":{"STATEFP":"28","COUNTYFP":"119","COUNTYNS":"00695780","GEOIDFQ":"0500000US28119","GEOID":"28119","NAME":"Quitman","NAMELSAD":"Quitman County","STUSPS":"MS","STATE_NAME":"Mississippi","LSAD":"06","ALAND":1048975540,"AWATER":3676001},"id":"28119"},{"arcs":[[-13,224,225,-199,-80]],"type":"Polygon","properties":{"STATEFP":"28","COUNTYFP":"015","COUNTYNS":"00695732","GEOIDFQ":"0500000US28015","GEOID":"28015","NAME":"Carroll","NAMELSAD":"Carroll County","STUSPS":"MS","STATE_NAME":"Mississippi","LSAD":"06","ALAND":1627517131,"AWATER":16050556},"id":"28015"},{"arcs":[[226,227,-162,228,-93,229]],"type":"Polygon","properties":{"STATEFP":"28","COUNTYFP":"153","COUNTYNS":"00695797","GEOIDFQ":"0500000US28153","GEOID":"28153","NAME":"Wayne","NAMELSAD":"Wayne County","STUSPS":"MS","STATE_NAME":"Mississippi","LSAD":"06","ALAND":2099745602,"AWATER":7255476},"id":"28153"},{"arcs":[[-94,-229,-161,-219,230,-118]],"type":"Polygon","properties":{"STATEFP":"28","COUNTYFP":"067","COUNTYNS":"00695757","GEOIDFQ":"0500000US28067","GEOID":"28067","NAME":"Jones","NAMELSAD":"Jones County","STUSPS":"MS","STATE_NAME":"Mississippi","LSAD":"06","ALAND":1799639008,"AWATER":12681687},"id":"28067"},{"arcs":[[-50,231,-155,-207,-209]],"type":"Polygon","properties":{"STATEFP":"28","COUNTYFP":"139","COUNTYNS":"00695790","GEOIDFQ":"0500000US28139","GEOID":"28139","NAME":"Tippah","NAMELSAD":"Tippah County","STUSPS":"MS","STATE_NAME":"Mississippi","LSAD":"06","ALAND":1185754666,"AWATER":5522230},"id":"28139"},{"arcs":[[-35,-176,232,-166,-224,-88]],"type":"Polygon","properties":{"STATEFP":"28","COUNTYFP":"107","COUNTYNS":"00695776","GEOIDFQ":"0500000US28107","GEOID":"28107","NAME":"Panola","NAMELSAD":"Panola County","STUSPS":"MS","STATE_NAME":"Mississippi","LSAD":"06","ALAND":1774607343,"AWATER":51674888},"id":"28107"},{"arcs":[[-107,233,-167,-233,-175]],"type":"Polygon","properties":{"STATEFP":"28","COUNTYFP":"161","COUNTYNS":"00695801","GEOIDFQ":"0500000US28161","GEOID":"28161","NAME":"Yalobusha","NAMELSAD":"Yalobusha County","STUSPS":"MS","STATE_NAME":"Mississippi","LSAD":"06","ALAND":1209914675,"AWATER":72140595},"id":"28161"},{"arcs":[[-106,-223,-200,-226,234,-168,-234]],"type":"Polygon","properties":{"STATEFP":"28","COUNTYFP":"043","COUNTYNS":"00695746","GEOIDFQ":"0500000US28043","GEOID":"28043","NAME":"Grenada","NAMELSAD":"Grenada County","STUSPS":"MS","STATE_NAME":"Mississippi","LSAD":"06","ALAND":1093267463,"AWATER":70683200},"id":"28043"},{"arcs":[[235,-230,-92,-178]],"type":"Polygon","properties":{"STATEFP":"28","COUNTYFP":"023","COUNTYNS":"00695736","GEOIDFQ":"0500000US28023","GEOID":"28023","NAME":"Clarke","NAMELSAD":"Clarke County","STUSPS":"MS","STATE_NAME":"Mississippi","LSAD":"06","ALAND":1791173033,"AWATER":5073931},"id":"28023"},{"arcs":[[-42,236,-187,-119,-231,-218]],"type":"Polygon","properties":{"STATEFP":"28","COUNTYFP":"031","COUNTYNS":"00695740","GEOIDFQ":"0500000US28031","GEOID":"28031","NAME":"Covington","NAMELSAD":"Covington County","STUSPS":"MS","STATE_NAME":"Mississippi","LSAD":"06","ALAND":1071784953,"AWATER":2880713},"id":"28031"},{"arcs":[[237,-126,-163,-228]],"type":"Polygon","properties":{"STATEFP":"28","COUNTYFP":"041","COUNTYNS":"00695745","GEOIDFQ":"0500000US28041","GEOID":"28041","NAME":"Greene","NAMELSAD":"Greene County","STUSPS":"MS","STATE_NAME":"Mississippi","LSAD":"06","ALAND":1845983902,"AWATER":15430619},"id":"28041"},{"arcs":[[-18,-25,238,239,-96]],"type":"Polygon","properties":{"STATEFP":"28","COUNTYFP":"149","COUNTYNS":"00695795","GEOIDFQ":"0500000US28149","GEOID":"28149","NAME":"Warren","NAMELSAD":"Warren County","STUSPS":"MS","STATE_NAME":"Mississippi","LSAD":"06","ALAND":1524302184,"AWATER":77744204},"id":"28149"},{"arcs":[[-41,-145,-222,-188,-237]],"type":"Polygon","properties":{"STATEFP":"28","COUNTYFP":"065","COUNTYNS":"00695756","GEOIDFQ":"0500000US28065","GEOID":"28065","NAME":"Jefferson Davis","NAMELSAD":"Jefferson Davis County","STUSPS":"MS","STATE_NAME":"Mississippi","LSAD":"06","ALAND":1057871275,"AWATER":1791496},"id":"28065"},{"arcs":[[-24,-74,-124,240,-239]],"type":"Polygon","properties":{"STATEFP":"28","COUNTYFP":"021","COUNTYNS":"00695735","GEOIDFQ":"0500000US28021","GEOID":"28021","NAME":"Claiborne","NAMELSAD":"Claiborne County","STUSPS":"MS","STATE_NAME":"Mississippi","LSAD":"06","ALAND":1262400023,"AWATER":35711134},"id":"28021"},{"arcs":[[-2,-172,-169,-235,-225,-12]],"type":"Polygon","properties":{"STATEFP":"28","COUNTYFP":"083","COUNTYNS":"00695765","GEOIDFQ":"0500000US28083","GEOID":"28083","NAME":"Leflore","NAMELSAD":"Leflore County","STUSPS":"MS","STATE_NAME":"Mississippi","LSAD":"06","ALAND":1538645698,"AWATER":31868197},"id":"28083"}]}}}