{"type":"Topology","arcs":[[[5594,3957],[22,9],[11,17],[24,12],[11,27],[44,13],[40,-17],[60,10],[10,13],[-2,45],[9,13],[37,25],[12,19],[11,41],[26,43],[17,14],[43,-9],[33,4],[18,24],[14,62],[21,13],[34,-13],[23,-37],[73,-52],[21,-9],[25,17],[21,1],[25,-35]],[[6277,4207],[-6,-12],[-48,-39]],[[6223,4156],[-21,-11],[-40,-52],[-34,-16],[-55,-95],[-21,-92],[26,-48],[28,-21],[16,-24]],[[6122,3797],[-7,-17],[-32,-138],[-55,-62]],[[6028,3580],[-7,30],[1,42],[13,19],[-20,15],[-41,-11],[-20,3],[-16,44],[15,0],[5,28],[-206,1],[-13,-33],[-26,-6],[-9,16],[-30,-10],[8,-31],[-30,-19],[-18,39],[-43,-8]],[[5591,3699],[3,258]],[[6028,3580],[-29,-70],[-5,-26],[0,-55],[7,-61],[14,-47],[35,-49],[35,-16],[18,-20],[24,-44]],[[6127,3192],[-10,-30],[-22,-7],[-13,-21],[-40,8],[-96,-78]],[[5946,3064],[-186,-58],[-32,20],[-10,35],[10,44],[-31,10]],[[5697,3115],[-41,16],[-5,23],[-109,152]],[[5542,3306],[9,69],[38,248],[2,76]],[[1877,2026],[8,348]],[[1885,2374],[264,-5],[245,-8]],[[2394,2361],[-5,-218]],[[2389,2143],[-5,-217]],[[2384,1926],[-474,12]],[[1910,1938],[-35,1],[2,87]],[[5009,4707],[83,-1],[3,132],[203,-5],[116,1],[193,-1]],[[5607,4833],[12,-72],[2,-31],[25,-56],[4,-44],[-33,-47],[1,-16],[37,-82],[3,-44],[13,-42]],[[5671,4399],[-31,0],[-36,-37],[-23,30],[-10,-13],[-27,2],[-29,-17],[-15,-52],[-52,18],[-76,-3],[-27,11],[-1,-34]],[[5344,4304],[-170,3],[2,88],[-88,1],[1,89],[-84,2]],[[5005,4487],[4,220]],[[6121,1387],[19,21],[20,-1],[0,43],[20,0],[0,22],[21,-1],[0,22],[20,0],[0,22],[21,0],[1,50],[41,0]],[[6284,1565],[128,-2],[0,22],[41,0],[0,109],[103,-2]],[[6556,1692],[112,0]],[[6668,1692],[-24,-57],[37,-87],[37,-64],[6,-52],[31,-36],[-7,-43],[7,-19],[-11,-19],[6,-22]],[[6750,1293],[-15,0],[6,-178],[-3,-2],[2,-167],[-142,0],[-145,3]],[[6453,949],[-210,1]],[[6243,950],[11,18],[-9,21],[11,17],[-14,14],[10,24],[-12,10],[-8,35],[-16,36],[-31,45],[3,40],[-20,16],[-9,27],[9,15],[-23,30],[-18,10],[5,42],[-11,37]],[[1292,4105],[2,164]],[[1294,4269],[109,-8],[246,-10],[187,-3]],[[1836,4248],[-11,-266],[14,0],[-3,-130],[61,-2]],[[1897,3850],[-4,-152],[2,-28]],[[1895,3670],[-24,13],[-50,-3],[-46,-13],[-59,18],[-26,-3],[-52,5],[-16,19],[-334,9]],[[1288,3715],[1,214],[3,176]],[[6556,1692],[0,139],[3,0],[2,137],[-1,279],[2,154]],[[6562,2401],[49,0],[43,-13],[38,3],[10,13],[26,-3],[44,-22],[7,20],[31,-1],[13,-14],[25,6],[29,-30],[24,7],[13,-15],[24,-1]],[[6938,2351],[6,-46],[27,-62],[24,-41],[22,-25],[19,-35],[13,-44],[-7,-61],[-8,-18],[-56,-15],[-29,-35],[-7,-38],[33,-51]],[[6975,1880],[-20,-11],[-44,5],[0,-11],[-41,0],[0,-11],[-41,0],[0,-22],[-32,0],[0,-18],[-41,-11],[0,-22],[-20,0],[0,-43],[-20,0],[0,-22],[-40,0],[-8,-22]],[[4066,4594],[148,-4],[154,-1],[226,-3]],[[4594,4586],[-5,-179],[-9,-354]],[[4580,4053],[-48,6],[-47,-2],[-30,-31],[-61,-5],[-61,-27],[-27,-44],[-56,-56],[-42,-14],[-30,-25]],[[4178,3855],[-66,-20],[-47,6],[-65,30],[-33,28],[-4,34],[-20,30]],[[3943,3963],[5,107],[26,17],[8,30],[27,39],[-4,16],[33,47],[-20,21],[6,26],[-11,29],[0,42],[-7,21],[11,16],[1,39],[18,72],[7,50],[-6,11],[5,48],[24,0]],[[2236,5283],[1,130]],[[2237,5413],[112,0],[136,3],[285,3]],[[2770,5419],[12,-66],[4,-44],[-15,-27],[12,-39],[-11,-21],[32,-39],[21,23],[10,-34],[-11,-21],[26,-10],[44,10],[12,-22],[38,-6],[6,-43],[12,-8]],[[2962,5072],[-23,-9],[-29,14],[-14,27],[-28,8],[-13,-13],[12,-30],[-2,-24],[-33,-52],[-38,10],[-24,-39],[-61,-3],[-12,-34],[16,-32],[-5,-23],[-38,-25],[-38,-10],[-15,22],[14,28],[-12,11],[-34,1],[-23,36],[-13,1]],[[2549,4936],[-15,-12],[-7,-30],[10,-54],[-14,-16],[-49,-4],[-21,7],[-24,30],[-48,4],[-25,8],[-12,-19],[-22,-6],[-21,-33],[-65,-4]],[[2236,4807],[0,476]],[[1296,6183],[3,217],[5,173]],[[1304,6573],[321,0],[106,-3]],[[1731,6570],[-2,-131],[-1,-240]],[[1728,6199],[-2,-152]],[[1726,6047],[-111,5],[-319,1]],[[1296,6053],[0,130]],[[2663,6863],[126,1],[181,5],[173,5],[252,3]],[[3395,6877],[14,-13],[-10,-36],[31,5],[-24,-41],[19,-13],[11,-43],[-21,-12],[-9,-20],[12,-77],[25,-19],[-16,-23],[2,-76]],[[3429,6509],[-191,-2]],[[3238,6507],[1,65],[-126,-2],[-128,3],[-314,-5]],[[2671,6568],[0,133],[-9,1],[1,161]],[[3943,3963],[-46,5],[-35,30],[-71,20],[-4,18],[20,20],[-19,37],[-38,14]],[[3750,4107],[-16,38],[20,24],[13,29],[-6,23],[-36,5],[-31,29],[-13,33],[-23,21],[4,41],[-27,31]],[[3635,4381],[-66,73]],[[3569,4454],[-13,14],[8,34],[68,164],[79,204]],[[3711,4870],[128,-4]],[[3839,4866],[233,-10],[-6,-262]],[[3395,6877],[85,2],[170,6],[149,3]],[[3799,6888],[-1,-179],[2,-196]],[[3800,6513],[-371,-4]],[[243,6390],[415,-4]],[[658,6386],[121,-1],[-2,-26],[11,-56],[-11,-16],[11,-29],[8,-60],[15,-9]],[[811,6189],[7,-22],[-9,-25],[1,-30],[-17,-19],[54,-29],[7,-74],[17,-81],[-19,-23],[14,-19],[0,-26]],[[866,5841],[-28,0],[-10,-39],[-11,-9],[-49,-6],[-52,19],[-14,11],[-3,31],[-18,7],[-22,-10],[-29,12],[5,39],[-21,15],[-23,1],[-32,37],[-36,22],[-7,23],[-4,14],[-57,34],[-22,-7],[-34,17],[-8,31],[13,23],[-1,25],[19,30],[-6,23],[-36,18],[-6,30],[-44,35],[-7,28],[14,41],[-8,22],[-43,9],[-41,19],[-2,4]],[[3869,5923],[122,3],[155,-5],[94,-2]],[[4240,5919],[125,-2]],[[4365,5917],[-5,-277],[-2,-157]],[[4358,5483],[-209,3],[-166,4],[-2,-88],[-125,2]],[[3856,5404],[7,279],[6,240]],[[2962,5072],[27,-18],[8,-54],[32,-27],[23,-7],[52,4],[19,-5],[7,-21],[-6,-23],[13,-19],[26,-10],[9,-15],[-5,-33],[15,-14],[25,5],[21,16],[18,-15]],[[3246,4836],[-14,-39],[-48,-51],[-3,-32],[-17,-21],[-21,-7],[-1,-34],[37,-12],[2,-17],[-30,-29]],[[3151,4594],[-126,-138],[-3,-66]],[[3022,4390],[-61,5],[-228,7],[-206,10]],[[2527,4412],[17,433],[5,91]],[[2770,5419],[18,11],[-24,43],[-3,23],[8,35],[13,20]],[[2782,5551],[146,1],[59,3],[123,-6],[126,-4]],[[3236,5545],[187,-3],[-3,-131]],[[3420,5411],[-5,0],[-12,-432]],[[3403,4979],[-92,33],[-65,-176]],[[6243,950],[-18,-39],[-17,-15],[-1,-37],[-9,-38],[-23,-3],[-8,-22],[-1,-44]],[[6166,752],[-398,1]],[[5768,753],[2,139],[-20,1],[0,130],[-40,1],[1,196],[-39,1]],[[5672,1221],[2,107],[-21,0],[2,65]],[[5655,1393],[172,1],[189,-1],[105,-6]],[[1304,6573],[-11,0],[0,129],[-26,0],[0,147]],[[1267,6849],[178,0],[266,2]],[[1711,6851],[0,-152],[19,0],[1,-129]],[[1895,3670],[-10,-348],[28,-1]],[[1913,3321],[-9,-266]],[[1904,3055],[-30,-6],[-12,12],[-25,3],[-14,23],[-38,-10],[-88,-35],[4,34],[-414,14]],[[1287,3090],[1,236],[0,256],[0,133]],[[5672,1221],[-258,2],[-57,8],[-87,6],[-101,2]],[[5169,1239],[-121,3],[3,88]],[[5051,1330],[6,302],[119,-3],[48,15],[54,3]],[[5278,1647],[60,2],[-1,-65],[206,-5]],[[5543,1579],[55,-1],[-2,-74],[20,0],[0,-44],[20,0],[-2,-66],[21,-1]],[[6975,1880],[31,-1],[-7,-43],[6,-34],[30,-71],[23,-40],[33,-33],[10,-26],[-11,-42],[8,-27],[72,-45]],[[7170,1518],[-38,-1],[-30,-22],[-1,-44],[-40,0],[0,-22],[-21,0],[0,-22],[-39,0],[0,-44],[-40,0],[0,-44],[-20,-11]],[[6941,1308],[-52,0],[-44,-12],[-95,-3]],[[6562,2401],[-317,-3]],[[6245,2398],[0,66]],[[6245,2464],[40,44]],[[6285,2508],[66,117],[57,108],[68,80]],[[6476,2813],[41,-7],[22,14],[21,26],[20,13],[52,-39],[2,-30],[62,-19],[41,-45],[32,-21],[16,-25],[-9,-40],[21,-21],[35,7],[23,-25],[15,-30],[64,-22],[15,-19],[-6,-67],[12,-24],[32,-39],[1,-20],[-19,-8],[-25,6],[-5,-18],[-1,-9]],[[2394,2361],[8,253],[-26,1],[5,130]],[[2381,2745],[61,-2]],[[2442,2743],[-1,-22],[184,-7],[127,-6],[118,-3]],[[2870,2705],[-4,-109],[20,0],[-7,-294],[-3,-174]],[[2876,2128],[-310,11],[-177,4]],[[6453,949],[-5,-43],[7,-24],[4,-59],[-7,-27],[3,-101],[-10,-78],[6,-29]],[[6451,588],[0,-230],[2,-119],[0,-234]],[[6453,5],[-366,-4],[-99,-1],[29,44],[17,34],[4,29],[14,30],[23,16],[7,25],[23,5],[27,18],[19,26],[-5,18],[17,38],[18,3],[15,22],[54,39],[26,39],[4,18],[35,10],[22,46],[-20,29],[4,39],[13,16],[2,34],[-18,28],[-32,5],[-28,15],[1,34],[-8,40],[-20,24],[5,26],[-70,2]],[[1294,4269],[0,294],[0,104]],[[1294,4667],[11,-5],[53,31],[21,25],[27,5],[25,-8],[25,-37],[23,15],[43,51],[-8,41],[22,2],[12,-35],[17,-10],[29,26],[17,27],[9,34],[27,23],[38,-1],[47,-44]],[[1732,4807],[44,10],[3,-13],[-17,-36],[62,-18],[28,-38]],[[1852,4712],[-10,-338]],[[1842,4374],[-6,-126]],[[4501,5005],[5,240],[2,149],[-5,1],[1,87]],[[4504,5482],[0,43],[176,-2],[277,0]],[[4957,5523],[34,-29],[39,-53],[27,-23],[43,-25]],[[5100,5393],[-28,0],[-182,-143],[-103,-78],[24,-197]],[[4811,4975],[-206,8],[-105,0],[1,22]],[[1883,753],[-316,1],[-284,0],[-1,252],[0,148]],[[1282,1154],[374,-18],[236,-10]],[[1892,1126],[2,0],[-11,-373]],[[6245,2398],[9,-84],[-6,-114],[-2,-229],[-80,4]],[[6166,1975],[-21,2],[-122,-3],[-225,5]],[[5798,1979],[3,287],[-1,133],[14,2],[0,66]],[[5814,2467],[350,-4],[81,1]],[[2876,2128],[121,-3]],[[2997,2125],[-4,-217],[17,-1],[-4,-271]],[[3006,1636],[-221,8],[-383,6]],[[2402,1650],[5,275],[-23,1]],[[1842,4374],[308,-13],[2,43],[374,-14]],[[2526,4390],[5,-44],[-8,-189],[-10,-191],[2,-14],[-4,-119]],[[2511,3833],[-246,8],[-220,4],[-148,5]],[[2116,753],[-233,0]],[[1892,1126],[7,275]],[[1899,1401],[140,-4],[241,-5],[120,-4]],[[2400,1388],[-2,-153],[43,-1],[-7,-286],[-4,-195]],[[2430,753],[-314,0]],[[4582,3432],[1,133],[2,192],[2,297]],[[4587,4054],[17,-5],[42,-27],[47,-8],[47,27],[19,27],[31,-10],[43,5]],[[4833,4063],[26,-3],[29,-13]],[[4888,4047],[2,-194],[-1,-90],[3,-266],[-2,-183]],[[4890,3314],[-186,2],[1,-87]],[[4705,3229],[-107,1]],[[4598,3230],[-16,0],[0,202]],[[1282,1154],[1,348],[0,86]],[[1283,1588],[134,-3],[264,-2],[222,-8]],[[1903,1575],[-4,-174]],[[243,6390],[1,40],[-31,13],[-32,21],[-39,-12],[-9,25],[34,28],[-21,43],[-2,25],[-20,44],[4,39],[-39,41],[-7,54],[42,18],[11,31],[-22,37],[-25,-9],[-3,-42],[-14,-7],[-53,3],[-13,16],[6,17],[-11,45],[9,10],[266,-4],[169,-3],[190,-3]],[[634,6860],[0,-148],[27,-1],[0,-130],[-3,-195]],[[3869,5923],[-64,1],[0,126]],[[3805,6050],[-3,398]],[[3802,6448],[188,2],[254,-5]],[[4244,6445],[-1,-66]],[[4243,6379],[4,-65],[-3,-135],[-4,-260]],[[3426,2224],[159,-4],[83,-4],[180,-5],[60,0]],[[3908,2211],[-1,-326],[7,0],[-5,-292]],[[3909,1593],[-60,2],[-190,3],[-232,6]],[[3427,1604],[7,293],[-14,1],[6,326]],[[3339,1213],[313,-7],[411,-11]],[[4063,1195],[-9,-442]],[[4054,753],[-33,0],[-222,-1],[-198,1],[-270,-1]],[[3331,752],[8,461]],[[4502,6890],[31,-22],[-2,-35],[10,-11],[63,-14],[9,-58],[25,-15],[16,-36],[18,-15],[39,-2],[-5,-28],[16,-14],[-6,-31],[29,-13],[20,-30],[43,7],[24,-12],[-28,-23],[-19,-31],[-34,-96],[-5,-44]],[[4746,6367],[-250,6],[-65,3],[-188,3]],[[4244,6445],[4,194],[3,262]],[[4251,6901],[238,12],[13,-23]],[[3426,2224],[-185,4]],[[3241,2228],[8,355],[-15,0],[5,261]],[[3239,2844],[261,-4],[6,-44],[16,-35],[32,-25],[7,-25],[18,-9],[43,23],[20,20],[43,-7],[6,18],[43,34]],[[3734,2790],[-5,-218],[183,-98],[-1,-66]],[[3911,2408],[-3,-197]],[[2236,5283],[-124,2],[-127,-3],[-248,5]],[[1737,5287],[3,327]],[[1740,5614],[0,64]],[[1740,5678],[125,-4],[247,1],[124,-3]],[[2236,5672],[1,-259]],[[1910,1938],[-7,-363]],[[1283,1588],[-1,198],[1,224],[0,39]],[[1283,2049],[179,-9],[192,-7],[223,-7]],[[1296,6053],[3,-328]],[[1299,5725],[-218,2],[-86,-1]],[[995,5726],[-17,20],[-27,3],[-29,31],[17,44],[-35,23],[-38,-6]],[[811,6189],[286,-4],[199,-2]],[[4598,3230],[-2,-153],[-134,3],[-158,-3],[-44,-30],[-26,8],[-9,-40],[-60,1]],[[4165,3016],[-45,1],[-138,8]],[[3982,3025],[5,217],[-18,0],[2,196]],[[3971,3438],[216,-6],[130,2],[23,6],[97,-2],[20,-5],[125,-1]],[[1885,2374],[2,87]],[[1887,2461],[5,173],[-5,8],[8,210]],[[1895,2852],[286,-12],[-4,-87],[204,-8]],[[3856,5404],[-2,0]],[[3854,5404],[-434,7]],[[3236,5545],[2,132],[9,373]],[[3247,6050],[243,2],[132,-2],[183,0]],[[5169,1239],[-4,-65],[-8,-423]],[[5157,751],[-311,0],[-48,0],[-96,3],[-150,0]],[[4552,754],[0,160],[-7,1],[5,271],[15,-1],[2,152]],[[4567,1337],[184,-4],[269,-2],[31,-1]],[[6819,284],[25,-21],[16,-32],[-2,-34],[-38,-31],[-42,-16],[-15,-20],[-8,-73],[-22,-49],[-29,0],[-251,-3]],[[6451,588],[74,-3],[158,0],[8,48],[21,13],[33,-16],[20,-23],[43,-1],[31,16],[21,-11],[10,-31],[43,-35],[0,-34]],[[6913,511],[-41,8],[-32,-3],[-11,-26],[10,-21],[37,-31],[47,-27],[1,-26],[-26,-3],[-32,-17],[-27,0],[-46,17],[-28,-4],[-19,7],[-11,-24],[28,-31],[56,-46]],[[6223,4156],[-19,-38],[-24,-22],[-4,-44],[25,-42],[6,-21],[2,-47],[-14,-45],[-36,-36],[-37,-64]],[[1299,5725],[1,-109]],[[1300,5616],[1,-325]],[[1301,5291],[-436,4],[-121,1]],[[744,5296],[-12,31],[7,29],[20,11],[36,-1],[12,32],[-8,21],[5,33],[24,42],[20,15],[28,3],[17,23],[-2,58],[17,21],[59,-32],[30,9],[14,19],[2,30],[-23,12],[-20,-15],[-19,0],[-20,19],[10,24],[36,2],[19,23],[-1,21]],[[1294,4667],[20,38],[-13,31]],[[1301,4736],[1,206],[0,238]],[[1302,5180],[433,-2]],[[1735,5178],[-3,-371]],[[5344,4304],[-4,-165],[-3,-319]],[[5337,3820],[-51,25],[-24,44],[-26,22],[-24,2],[-61,-17],[-56,14],[-49,21],[-1,32],[-91,92],[-20,4],[-15,-15],[-31,3]],[[4833,4063],[3,203],[168,-2],[1,223]],[[2870,2705],[5,152],[123,-2]],[[2998,2855],[241,-11]],[[3241,2228],[-242,5],[-2,-108]],[[4358,5483],[146,-1]],[[4501,5005],[-109,-2],[-101,1],[-215,4],[-232,10]],[[3844,5018],[10,386]],[[2442,2743],[5,130],[63,-2],[9,239]],[[2519,3110],[199,-9],[227,-7],[61,0]],[[3006,3094],[-8,-239]],[[3004,3794],[8,244]],[[3012,4038],[121,-11],[123,-3]],[[3256,4024],[-2,-130],[240,-249]],[[3494,3645],[-5,1],[-4,-125],[-63,1],[-6,-189]],[[3416,3333],[-40,-1],[-27,-14],[-9,-34],[-221,12],[32,20],[3,14],[-32,12],[-21,-46],[-30,-17],[-18,19],[19,36],[-9,28],[-48,45],[-23,-13]],[[2992,3394],[10,256],[-4,12],[6,132]],[[5798,1979],[-1,-68],[-102,0],[-22,4],[-82,-6]],[[5591,1909],[-20,-1],[5,153],[-26,2],[5,343],[-25,-1],[-217,2],[-127,-24],[-60,1]],[[5126,2384],[2,163]],[[5128,2547],[7,0],[0,65],[52,-1]],[[5187,2611],[149,-2],[102,-7],[124,5],[130,-4]],[[5692,2603],[-3,-137],[125,1]],[[4567,1337],[3,240]],[[4570,1577],[5,298],[4,0],[1,261]],[[4580,2136],[244,-7],[62,0],[177,-4]],[[5063,2125],[40,-1],[-1,-153],[20,1],[-1,-87],[40,-1],[-3,-82],[42,6],[-1,-44],[20,-17],[41,10],[-1,-44],[20,5],[-1,-71]],[[3635,4381],[-25,-61],[-106,-280],[-1,-22],[-122,5],[-125,1]],[[3012,4038],[10,352]],[[3151,4594],[22,-65],[43,-30],[16,-21],[22,-11],[55,-11],[81,18],[29,-13],[41,1],[76,-13],[33,5]],[[3909,1593],[181,-5]],[[4090,1588],[-9,-393],[-18,0]],[[3339,1213],[-160,5]],[[3179,1218],[7,391]],[[3186,1609],[60,-3],[181,-2]],[[1737,5287],[-2,-109]],[[1302,5180],[-1,111]],[[1300,5616],[315,0],[125,-2]],[[2753,752],[-25,1]],[[2728,753],[7,346],[5,130]],[[2740,1229],[439,-11]],[[3331,752],[-91,0],[-302,0],[-185,0]],[[2236,4807],[-33,-9],[-33,19],[-24,3],[-39,-17],[-27,-29],[-37,-2],[-13,-20],[2,-18],[-21,-22],[-30,14],[6,24],[23,22],[-17,33],[-57,-21],[-7,-21],[12,-34],[-42,-31],[-27,2],[-20,12]],[[1283,2049],[1,235],[-1,198]],[[1283,2482],[370,-10],[134,-5],[100,-6]],[[2782,5551],[-109,0],[3,395]],[[2676,5946],[0,98]],[[2676,6044],[234,5],[213,0],[115,1]],[[3238,6050],[9,0]],[[5768,753],[-231,0],[-380,-2]],[[5543,1579],[0,130],[25,1],[1,43],[21,0],[2,65],[-1,91]],[[6166,1975],[-3,-220],[-3,-122],[125,-1],[-1,-67]],[[4705,3229],[10,0],[-1,-316],[-3,-228]],[[4711,2685],[-308,3],[-3,-288]],[[4400,2400],[-60,0],[-184,5]],[[4156,2405],[7,417],[2,194]],[[2676,5946],[-270,-7],[-173,-5]],[[2233,5934],[-4,213],[1,46]],[[2230,6193],[1,197]],[[2231,6390],[62,-1],[378,4]],[[2671,6393],[0,-349],[5,0]],[[6127,3192],[11,-23],[42,-39],[37,-25],[16,7],[30,-18],[5,-33],[36,-34],[38,-3],[26,-27],[34,-44],[18,-10],[53,14],[18,-25],[-25,-21],[-14,0],[-16,-32],[24,-53],[16,-13]],[[6285,2508],[-48,43],[-52,-45],[-164,185],[-123,128],[151,154],[-103,91]],[[4587,4054],[-7,-1]],[[4594,4586],[5,133],[245,-8]],[[4844,4711],[165,-4]],[[3006,1636],[180,-5],[0,-22]],[[2740,1229],[-41,1],[5,262],[-303,5]],[[2401,1497],[1,153]],[[5542,3306],[-211,2],[-139,-2]],[[5192,3306],[-302,0],[0,8]],[[5337,3820],[35,-19],[45,11],[48,30],[40,35],[44,14],[26,45],[19,21]],[[1728,6199],[125,-3],[377,-3]],[[2233,5934],[3,-262]],[[1740,5678],[3,368],[-17,1]],[[2401,1497],[-1,-109]],[[3238,6507],[0,-457]],[[2671,6393],[0,175]],[[3911,2408],[74,1],[171,-4]],[[4400,2400],[60,0],[0,-262],[120,-2]],[[4570,1577],[-220,2],[-141,8],[-119,1]],[[3734,2790],[3,242]],[[3737,3032],[245,-7]],[[5692,2603],[4,301],[1,211]],[[3839,4866],[5,152]],[[4811,4975],[33,-264]],[[4552,754],[-348,-1],[-150,0]],[[1904,3055],[-9,-203]],[[1283,2482],[0,29],[0,150],[3,256],[1,139],[0,34]],[[5126,2384],[-175,7],[-2,-131],[115,-5],[-1,-130]],[[4711,2685],[245,-3],[-3,-131],[175,-4]],[[1301,4736],[-43,-9],[-24,14],[-8,29],[-20,2],[-30,-20],[-25,-1],[-30,16],[-13,31],[-13,10],[-41,4],[-12,20],[10,27],[-23,40],[-35,19],[-25,29],[-11,72],[35,41],[-7,21],[-19,4],[-23,-12],[-25,14],[-1,18],[-25,20],[-24,40],[-48,22],[-15,21],[-3,30],[-59,58]],[[3971,3438],[1,65]],[[3972,3503],[2,53],[13,11],[23,-2],[41,20],[5,37],[-34,24],[-13,19],[-8,34],[19,12],[39,-26],[38,12],[43,2],[31,21],[7,29],[-18,36],[-1,42],[19,28]],[[5187,2611],[5,245],[2,146],[-2,304]],[[2231,6390],[-2,312],[-10,-1],[0,158]],[[2219,6859],[131,1],[110,3],[203,0]],[[2519,3110],[7,188],[-29,13]],[[2497,3311],[13,358],[-3,12],[2,87]],[[2509,3768],[245,-10],[2,44],[123,-2],[125,-6]],[[2992,3394],[-5,-114],[26,-2],[-7,-184]],[[3403,4979],[308,-109]],[[1711,6851],[240,3],[268,5]],[[2527,4412],[-1,-22]],[[3737,3032],[-122,2],[1,22],[-21,0],[1,22],[-21,0],[0,22],[-20,0],[1,44],[-21,0],[-9,22],[0,44],[-10,0],[1,46],[-41,1],[2,62],[-40,0],[-22,14]],[[3494,3645],[144,-4]],[[3638,3641],[102,-4],[-5,-126],[117,-7],[16,4],[42,-25],[29,20],[33,0]],[[3799,6888],[189,5],[263,8]],[[3802,6448],[-2,65]],[[4746,6367],[-10,-19],[1,-54],[-8,-29],[5,-35],[-3,-44],[23,-106],[-5,-31],[59,-128],[7,-9]],[[4815,5912],[-450,5]],[[2509,3768],[2,65]],[[3750,4107],[-43,-183],[-69,-283]],[[4815,5912],[15,-18],[1,-27],[-25,-32],[-5,-23],[20,-60],[57,-40],[18,-39],[-3,-40],[-6,-39],[19,-26],[51,-45]],[[1913,3321],[325,-12],[222,-8],[37,10]],[[2728,753],[-298,0]],[[634,6860],[319,-5],[314,-6]],[[5100,5393],[11,-50],[22,-29],[54,-10],[27,-54],[12,-12],[6,-39],[23,-30],[50,-38],[50,-24],[13,-12],[18,-23],[89,-65],[26,-30],[26,-16],[47,-66],[27,-22],[6,-40]],[[7170,1518],[23,-26],[29,6],[10,29],[-23,31],[-26,13],[-7,37],[53,-9],[29,-40],[39,-38],[7,-48],[25,-14],[41,18],[16,-1],[21,-26],[-1,-30],[-19,-85],[-23,-60],[-39,-11],[-4,-49],[24,-27],[35,-6],[8,-15],[-10,-35],[-46,12],[-19,-9],[-15,-22],[-2,-35],[33,-40],[12,-34],[-17,-24],[-26,-32],[-5,-41],[-12,-32],[-16,-16],[-34,-7],[-40,43],[-37,58]],[[7154,953],[0,19],[-20,10],[-1,23],[-20,10],[-10,44],[-20,0],[-10,40],[-30,25],[-1,21],[-19,11],[0,32],[-20,-1],[0,22],[-22,44],[-21,0],[0,23],[-19,0],[0,32]],[[5671,4399],[0,-10],[31,-35],[12,-23],[46,-30],[44,9],[41,42],[22,35],[17,49],[23,13],[50,-8],[25,-10],[82,-47],[38,-1],[28,-6],[30,-18],[28,-30],[35,-17],[59,-40],[5,-18],[-10,-47]],[[7154,953],[-42,-11],[-11,-14],[-8,-48],[-15,-36],[-3,-26],[-21,-65],[-21,-36],[-31,-26],[-24,6],[-8,26],[9,28],[21,49],[-8,45],[-13,17],[-47,14],[-28,-6],[-16,-19],[-4,-25],[12,-33],[23,-41],[18,-25],[-5,-45],[-19,-25],[3,-22],[31,-52],[5,-17],[-10,-38],[-29,-17]]],"transform":{"scale":[0.0009010334818415022,0.0006680055153739041],"translate":[-95.773549,35.9957178722202]},"objects":{"29":{"type":"GeometryCollection","geometries":[{"arcs":[[0,1,2,3,4,5]],"type":"Polygon","properties":{"STATEFP":"29","COUNTYFP":"189","COUNTYNS":"00758549","GEOIDFQ":"0500000US29189","GEOID":"29189","NAME":"St. Louis","NAMELSAD":"St. Louis County","STUSPS":"MO","STATE_NAME":"Missouri","LSAD":"06","ALAND":1317074810,"AWATER":40009079},"id":"29189"},{"arcs":[[-5,6,7,8,9,10]],"type":"Polygon","properties":{"STATEFP":"29","COUNTYFP":"099","COUNTYNS":"00758504","GEOIDFQ":"0500000US29099","GEOID":"29099","NAME":"Jefferson","NAMELSAD":"Jefferson County","STUSPS":"MO","STATE_NAME":"Missouri","LSAD":"06","ALAND":1699140815,"AWATER":20247689},"id":"29099"},{"arcs":[[11,12,13,14,15,16]],"type":"Polygon","properties":{"STATEFP":"29","COUNTYFP":"057","COUNTYNS":"00758483","GEOIDFQ":"0500000US29057","GEOID":"29057","NAME":"Dade","NAMELSAD":"Dade County","STUSPS":"MO","STATE_NAME":"Missouri","LSAD":"06","ALAND":1269120979,"AWATER":42072597},"id":"29057"},{"arcs":[[17,18,19,20,21]],"type":"Polygon","properties":{"STATEFP":"29","COUNTYFP":"113","COUNTYNS":"00758511","GEOIDFQ":"0500000US29113","GEOID":"29113","NAME":"Lincoln","NAMELSAD":"Lincoln County","STUSPS":"MO","STATE_NAME":"Missouri","LSAD":"06","ALAND":1622797172,"AWATER":35994186},"id":"29113"},{"arcs":[[22,23,24,25,26,27,28]],"type":"Polygon","properties":{"STATEFP":"29","COUNTYFP":"207","COUNTYNS":"00758556","GEOIDFQ":"0500000US29207","GEOID":"29207","NAME":"Stoddard","NAMELSAD":"Stoddard County","STUSPS":"MO","STATE_NAME":"Missouri","LSAD":"06","ALAND":2131929136,"AWATER":15025823},"id":"29207"},{"arcs":[[29,30,31,32,33,34]],"type":"Polygon","properties":{"STATEFP":"29","COUNTYFP":"037","COUNTYNS":"00758473","GEOIDFQ":"0500000US29037","GEOID":"29037","NAME":"Cass","NAMELSAD":"Cass County","STUSPS":"MO","STATE_NAME":"Missouri","LSAD":"06","ALAND":1804231754,"AWATER":14954758},"id":"29037"},{"arcs":[[-25,35,36,37,38]],"type":"Polygon","properties":{"STATEFP":"29","COUNTYFP":"031","COUNTYNS":"00758470","GEOIDFQ":"0500000US29031","GEOID":"29031","NAME":"Cape Girardeau","NAMELSAD":"Cape Girardeau County","STUSPS":"MO","STATE_NAME":"Missouri","LSAD":"06","ALAND":1498351219,"AWATER":20284964},"id":"29031"},{"arcs":[[39,40,41,42,43]],"type":"Polygon","properties":{"STATEFP":"29","COUNTYFP":"027","COUNTYNS":"00758468","GEOIDFQ":"0500000US29027","GEOID":"29027","NAME":"Callaway","NAMELSAD":"Callaway County","STUSPS":"MO","STATE_NAME":"Missouri","LSAD":"06","ALAND":2161513201,"AWATER":33194432},"id":"29027"},{"arcs":[[44,45,46,47,48,49]],"type":"Polygon","properties":{"STATEFP":"29","COUNTYFP":"033","COUNTYNS":"00758471","GEOIDFQ":"0500000US29033","GEOID":"29033","NAME":"Carroll","NAMELSAD":"Carroll County","STUSPS":"MO","STATE_NAME":"Missouri","LSAD":"06","ALAND":1799061888,"AWATER":17533392},"id":"29033"},{"arcs":[[50,51,52,53,54,55]],"type":"Polygon","properties":{"STATEFP":"29","COUNTYFP":"075","COUNTYNS":"00758492","GEOIDFQ":"0500000US29075","GEOID":"29075","NAME":"Gentry","NAMELSAD":"Gentry County","STUSPS":"MO","STATE_NAME":"Missouri","LSAD":"06","ALAND":1272776755,"AWATER":762384},"id":"29075"},{"arcs":[[56,57,58,59,60]],"type":"Polygon","properties":{"STATEFP":"29","COUNTYFP":"171","COUNTYNS":"00758540","GEOIDFQ":"0500000US29171","GEOID":"29171","NAME":"Putnam","NAMELSAD":"Putnam County","STUSPS":"MO","STATE_NAME":"Missouri","LSAD":"06","ALAND":1339849643,"AWATER":5937543},"id":"29171"},{"arcs":[[-44,61,62,63,64,65,66]],"type":"Polygon","properties":{"STATEFP":"29","COUNTYFP":"019","COUNTYNS":"00758464","GEOIDFQ":"0500000US29019","GEOID":"29019","NAME":"Boone","NAMELSAD":"Boone County","STUSPS":"MO","STATE_NAME":"Missouri","LSAD":"06","ALAND":1775580658,"AWATER":14211203},"id":"29019"},{"arcs":[[-58,67,68,69]],"type":"Polygon","properties":{"STATEFP":"29","COUNTYFP":"197","COUNTYNS":"00758551","GEOIDFQ":"0500000US29197","GEOID":"29197","NAME":"Schuyler","NAMELSAD":"Schuyler County","STUSPS":"MO","STATE_NAME":"Missouri","LSAD":"06","ALAND":795916407,"AWATER":2216011},"id":"29197"},{"arcs":[[70,71,72,73]],"type":"Polygon","properties":{"STATEFP":"29","COUNTYFP":"087","COUNTYNS":"00758498","GEOIDFQ":"0500000US29087","GEOID":"29087","NAME":"Holt","NAMELSAD":"Holt County","STUSPS":"MO","STATE_NAME":"Missouri","LSAD":"06","ALAND":1198375860,"AWATER":19832798},"id":"29087"},{"arcs":[[74,75,76,77,78]],"type":"Polygon","properties":{"STATEFP":"29","COUNTYFP":"205","COUNTYNS":"00758555","GEOIDFQ":"0500000US29205","GEOID":"29205","NAME":"Shelby","NAMELSAD":"Shelby County","STUSPS":"MO","STATE_NAME":"Missouri","LSAD":"06","ALAND":1297230219,"AWATER":3764606},"id":"29205"},{"arcs":[[-48,79,80,81,82,83]],"type":"Polygon","properties":{"STATEFP":"29","COUNTYFP":"195","COUNTYNS":"00758550","GEOIDFQ":"0500000US29195","GEOID":"29195","NAME":"Saline","NAMELSAD":"Saline County","STUSPS":"MO","STATE_NAME":"Missouri","LSAD":"06","ALAND":1956761958,"AWATER":29542462},"id":"29195"},{"arcs":[[-47,84,85,86,87,88,-80]],"type":"Polygon","properties":{"STATEFP":"29","COUNTYFP":"041","COUNTYNS":"00758475","GEOIDFQ":"0500000US29041","GEOID":"29041","NAME":"Chariton","NAMELSAD":"Chariton County","STUSPS":"MO","STATE_NAME":"Missouri","LSAD":"06","ALAND":1945541998,"AWATER":40353307},"id":"29041"},{"arcs":[[-29,89,90,91,92,93]],"type":"Polygon","properties":{"STATEFP":"29","COUNTYFP":"023","COUNTYNS":"00758466","GEOIDFQ":"0500000US29023","GEOID":"29023","NAME":"Butler","NAMELSAD":"Butler County","STUSPS":"MO","STATE_NAME":"Missouri","LSAD":"06","ALAND":1799405241,"AWATER":11196956},"id":"29023"},{"arcs":[[-52,94,95,96]],"type":"Polygon","properties":{"STATEFP":"29","COUNTYFP":"227","COUNTYNS":"00758566","GEOIDFQ":"0500000US29227","GEOID":"29227","NAME":"Worth","NAMELSAD":"Worth County","STUSPS":"MO","STATE_NAME":"Missouri","LSAD":"06","ALAND":690564983,"AWATER":493903},"id":"29227"},{"arcs":[[-34,97,98,99,100]],"type":"Polygon","properties":{"STATEFP":"29","COUNTYFP":"013","COUNTYNS":"00758461","GEOIDFQ":"0500000US29013","GEOID":"29013","NAME":"Bates","NAMELSAD":"Bates County","STUSPS":"MO","STATE_NAME":"Missouri","LSAD":"06","ALAND":2167033432,"AWATER":38030730},"id":"29013"},{"arcs":[[-93,101,102,103,104,105]],"type":"Polygon","properties":{"STATEFP":"29","COUNTYFP":"035","COUNTYNS":"00758472","GEOIDFQ":"0500000US29035","GEOID":"29035","NAME":"Carter","NAMELSAD":"Carter County","STUSPS":"MO","STATE_NAME":"Missouri","LSAD":"06","ALAND":1314052439,"AWATER":4304986},"id":"29035"},{"arcs":[[-26,-39,106,107,108]],"type":"Polygon","properties":{"STATEFP":"29","COUNTYFP":"201","COUNTYNS":"00758553","GEOIDFQ":"0500000US29201","GEOID":"29201","NAME":"Scott","NAMELSAD":"Scott County","STUSPS":"MO","STATE_NAME":"Missouri","LSAD":"06","ALAND":1087811534,"AWATER":15172488},"id":"29201"},{"arcs":[[-37,109,110,111,112,113]],"type":"Polygon","properties":{"STATEFP":"29","COUNTYFP":"157","COUNTYNS":"00758533","GEOIDFQ":"0500000US29157","GEOID":"29157","NAME":"Perry","NAMELSAD":"Perry County","STUSPS":"MO","STATE_NAME":"Missouri","LSAD":"06","ALAND":1228574130,"AWATER":25394864},"id":"29157"},{"arcs":[[-14,114,115,116,117,118]],"type":"Polygon","properties":{"STATEFP":"29","COUNTYFP":"167","COUNTYNS":"00758538","GEOIDFQ":"0500000US29167","GEOID":"29167","NAME":"Polk","NAMELSAD":"Polk County","STUSPS":"MO","STATE_NAME":"Missouri","LSAD":"06","ALAND":1646006422,"AWATER":17837670},"id":"29167"},{"arcs":[[-28,119,120,121,-90]],"type":"Polygon","properties":{"STATEFP":"29","COUNTYFP":"069","COUNTYNS":"00758489","GEOIDFQ":"0500000US29069","GEOID":"29069","NAME":"Dunklin","NAMELSAD":"Dunklin County","STUSPS":"MO","STATE_NAME":"Missouri","LSAD":"06","ALAND":1403538813,"AWATER":13708531},"id":"29069"},{"arcs":[[-31,122,123,124,125,126]],"type":"Polygon","properties":{"STATEFP":"29","COUNTYFP":"095","COUNTYNS":"00758502","GEOIDFQ":"0500000US29095","GEOID":"29095","NAME":"Jackson","NAMELSAD":"Jackson County","STUSPS":"MO","STATE_NAME":"Missouri","LSAD":"06","ALAND":1565698750,"AWATER":30621016},"id":"29095"},{"arcs":[[127,128,129,130,131]],"type":"Polygon","properties":{"STATEFP":"29","COUNTYFP":"173","COUNTYNS":"00758541","GEOIDFQ":"0500000US29173","GEOID":"29173","NAME":"Ralls","NAMELSAD":"Ralls County","STUSPS":"MO","STATE_NAME":"Missouri","LSAD":"06","ALAND":1216759454,"AWATER":36364367},"id":"29173"},{"arcs":[[132,133,134]],"type":"Polygon","properties":{"STATEFP":"29","COUNTYFP":"119","COUNTYNS":"00758518","GEOIDFQ":"0500000US29119","GEOID":"29119","NAME":"McDonald","NAMELSAD":"McDonald County","STUSPS":"MO","STATE_NAME":"Missouri","LSAD":"06","ALAND":1397155458,"AWATER":520251},"id":"29119"},{"arcs":[[-111,135,136,137,138]],"type":"Polygon","properties":{"STATEFP":"29","COUNTYFP":"123","COUNTYNS":"00758515","GEOIDFQ":"0500000US29123","GEOID":"29123","NAME":"Madison","NAMELSAD":"Madison County","STUSPS":"MO","STATE_NAME":"Missouri","LSAD":"06","ALAND":1280453084,"AWATER":8323284},"id":"29123"},{"arcs":[[-15,-119,139,140,141,142]],"type":"Polygon","properties":{"STATEFP":"29","COUNTYFP":"077","COUNTYNS":"00758493","GEOIDFQ":"0500000US29077","GEOID":"29077","NAME":"Greene","NAMELSAD":"Greene County","STUSPS":"MO","STATE_NAME":"Missouri","LSAD":"06","ALAND":1749093465,"AWATER":6607713},"id":"29077"},{"arcs":[[-32,-127,143,144,145]],"type":"Polygon","properties":{"STATEFP":"29","COUNTYFP":"101","COUNTYNS":"00758505","GEOIDFQ":"0500000US29101","GEOID":"29101","NAME":"Johnson","NAMELSAD":"Johnson County","STUSPS":"MO","STATE_NAME":"Missouri","LSAD":"06","ALAND":2147779812,"AWATER":10176753},"id":"29101"},{"arcs":[[146,-135,147,148,149,150]],"type":"Polygon","properties":{"STATEFP":"29","COUNTYFP":"009","COUNTYNS":"00758459","GEOIDFQ":"0500000US29009","GEOID":"29009","NAME":"Barry","NAMELSAD":"Barry County","STUSPS":"MO","STATE_NAME":"Missouri","LSAD":"06","ALAND":2015328986,"AWATER":32910373},"id":"29009"},{"arcs":[[151,152,153,154,155,156,157]],"type":"Polygon","properties":{"STATEFP":"29","COUNTYFP":"073","COUNTYNS":"00758491","GEOIDFQ":"0500000US29073","GEOID":"29073","NAME":"Gasconade","NAMELSAD":"Gasconade County","STUSPS":"MO","STATE_NAME":"Missouri","LSAD":"06","ALAND":1344216316,"AWATER":18008168},"id":"29073"},{"arcs":[[-134,158,159,160,-148]],"type":"Polygon","properties":{"STATEFP":"29","COUNTYFP":"145","COUNTYNS":"00758527","GEOIDFQ":"0500000US29145","GEOID":"29145","NAME":"Newton","NAMELSAD":"Newton County","STUSPS":"MO","STATE_NAME":"Missouri","LSAD":"06","ALAND":1618103704,"AWATER":4717818},"id":"29145"},{"arcs":[[-71,161,162]],"type":"Polygon","properties":{"STATEFP":"29","COUNTYFP":"005","COUNTYNS":"00758457","GEOIDFQ":"0500000US29005","GEOID":"29005","NAME":"Atchison","NAMELSAD":"Atchison County","STUSPS":"MO","STATE_NAME":"Missouri","LSAD":"06","ALAND":1417462623,"AWATER":7359186},"id":"29005"},{"arcs":[[-75,163,164,165,166,167]],"type":"Polygon","properties":{"STATEFP":"29","COUNTYFP":"103","COUNTYNS":"00758506","GEOIDFQ":"0500000US29103","GEOID":"29103","NAME":"Knox","NAMELSAD":"Knox County","STUSPS":"MO","STATE_NAME":"Missouri","LSAD":"06","ALAND":1305380272,"AWATER":7303439},"id":"29103"},{"arcs":[[168,169,170,171]],"type":"Polygon","properties":{"STATEFP":"29","COUNTYFP":"229","COUNTYNS":"00758567","GEOIDFQ":"0500000US29229","GEOID":"29229","NAME":"Wright","NAMELSAD":"Wright County","STUSPS":"MO","STATE_NAME":"Missouri","LSAD":"06","ALAND":1765788552,"AWATER":3524879},"id":"29229"},{"arcs":[[172,173,174,175]],"type":"Polygon","properties":{"STATEFP":"29","COUNTYFP":"153","COUNTYNS":"00758531","GEOIDFQ":"0500000US29153","GEOID":"29153","NAME":"Ozark","NAMELSAD":"Ozark County","STUSPS":"MO","STATE_NAME":"Missouri","LSAD":"06","ALAND":1929557609,"AWATER":26607427},"id":"29153"},{"arcs":[[176,177,-167,178,179]],"type":"Polygon","properties":{"STATEFP":"29","COUNTYFP":"045","COUNTYNS":"00758477","GEOIDFQ":"0500000US29045","GEOID":"29045","NAME":"Clark","NAMELSAD":"Clark County","STUSPS":"MO","STATE_NAME":"Missouri","LSAD":"06","ALAND":1306924732,"AWATER":18695974},"id":"29045"},{"arcs":[[-169,180,181,182,183,184]],"type":"Polygon","properties":{"STATEFP":"29","COUNTYFP":"105","COUNTYNS":"00758507","GEOIDFQ":"0500000US29105","GEOID":"29105","NAME":"Laclede","NAMELSAD":"Laclede County","STUSPS":"MO","STATE_NAME":"Missouri","LSAD":"06","ALAND":1980522177,"AWATER":8720826},"id":"29105"},{"arcs":[[-45,185,186,187,188,189]],"type":"Polygon","properties":{"STATEFP":"29","COUNTYFP":"025","COUNTYNS":"00758467","GEOIDFQ":"0500000US29025","GEOID":"29025","NAME":"Caldwell","NAMELSAD":"Caldwell County","STUSPS":"MO","STATE_NAME":"Missouri","LSAD":"06","ALAND":1104353490,"AWATER":8399237},"id":"29025"},{"arcs":[[-17,190,-160,191,192]],"type":"Polygon","properties":{"STATEFP":"29","COUNTYFP":"097","COUNTYNS":"00758503","GEOIDFQ":"0500000US29097","GEOID":"29097","NAME":"Jasper","NAMELSAD":"Jasper County","STUSPS":"MO","STATE_NAME":"Missouri","LSAD":"06","ALAND":1653723334,"AWATER":7163884},"id":"29097"},{"arcs":[[-56,193,194,195,-73,196]],"type":"Polygon","properties":{"STATEFP":"29","COUNTYFP":"003","COUNTYNS":"00758456","GEOIDFQ":"0500000US29003","GEOID":"29003","NAME":"Andrew","NAMELSAD":"Andrew County","STUSPS":"MO","STATE_NAME":"Missouri","LSAD":"06","ALAND":1120518013,"AWATER":9669777},"id":"29003"},{"arcs":[[-158,197,198,199,200]],"type":"Polygon","properties":{"STATEFP":"29","COUNTYFP":"125","COUNTYNS":"00758516","GEOIDFQ":"0500000US29125","GEOID":"29125","NAME":"Maries","NAMELSAD":"Maries County","STUSPS":"MO","STATE_NAME":"Missouri","LSAD":"06","ALAND":1364873602,"AWATER":7632374},"id":"29125"},{"arcs":[[-13,201,202,203,-115]],"type":"Polygon","properties":{"STATEFP":"29","COUNTYFP":"039","COUNTYNS":"00758474","GEOIDFQ":"0500000US29039","GEOID":"29039","NAME":"Cedar","NAMELSAD":"Cedar County","STUSPS":"MO","STATE_NAME":"Missouri","LSAD":"06","ALAND":1228870899,"AWATER":62637821},"id":"29039"},{"arcs":[[-79,204,205,-87,206,207,-164]],"type":"Polygon","properties":{"STATEFP":"29","COUNTYFP":"121","COUNTYNS":"00758514","GEOIDFQ":"0500000US29121","GEOID":"29121","NAME":"Macon","NAMELSAD":"Macon County","STUSPS":"MO","STATE_NAME":"Missouri","LSAD":"06","ALAND":2075118613,"AWATER":28912354},"id":"29121"},{"arcs":[[-103,208,209,210,211]],"type":"Polygon","properties":{"STATEFP":"29","COUNTYFP":"149","COUNTYNS":"00758529","GEOIDFQ":"0500000US29149","GEOID":"29149","NAME":"Oregon","NAMELSAD":"Oregon County","STUSPS":"MO","STATE_NAME":"Missouri","LSAD":"06","ALAND":2045687593,"AWATER":4528441},"id":"29149"},{"arcs":[[212,-121,213,214]],"type":"Polygon","properties":{"STATEFP":"29","COUNTYFP":"155","COUNTYNS":"00758532","GEOIDFQ":"0500000US29155","GEOID":"29155","NAME":"Pemiscot","NAMELSAD":"Pemiscot County","STUSPS":"MO","STATE_NAME":"Missouri","LSAD":"06","ALAND":1275841039,"AWATER":53915406},"id":"29155"},{"arcs":[[-3,215]],"type":"Polygon","properties":{"STATEFP":"29","COUNTYFP":"510","COUNTYNS":"00767557","GEOIDFQ":"0500000US29510","GEOID":"29510","NAME":"St. Louis","NAMELSAD":"St. Louis city","STUSPS":"MO","STATE_NAME":"Missouri","LSAD":"25","ALAND":159847393,"AWATER":11534970},"id":"29510"},{"arcs":[[-195,216,217,218,219]],"type":"Polygon","properties":{"STATEFP":"29","COUNTYFP":"021","COUNTYNS":"00758465","GEOIDFQ":"0500000US29021","GEOID":"29021","NAME":"Buchanan","NAMELSAD":"Buchanan County","STUSPS":"MO","STATE_NAME":"Missouri","LSAD":"06","ALAND":1057361277,"AWATER":17942873},"id":"29021"},{"arcs":[[-124,220,221,222,223]],"type":"Polygon","properties":{"STATEFP":"29","COUNTYFP":"047","COUNTYNS":"00758478","GEOIDFQ":"0500000US29047","GEOID":"29047","NAME":"Clay","NAMELSAD":"Clay County","STUSPS":"MO","STATE_NAME":"Missouri","LSAD":"06","ALAND":1029930131,"AWATER":28484518},"id":"29047"},{"arcs":[[-21,224,225,-154,226]],"type":"Polygon","properties":{"STATEFP":"29","COUNTYFP":"219","COUNTYNS":"00758562","GEOIDFQ":"0500000US29219","GEOID":"29219","NAME":"Warren","NAMELSAD":"Warren County","STUSPS":"MO","STATE_NAME":"Missouri","LSAD":"06","ALAND":1110059783,"AWATER":23627926},"id":"29219"},{"arcs":[[-118,227,228,-182,229,-140]],"type":"Polygon","properties":{"STATEFP":"29","COUNTYFP":"059","COUNTYNS":"00758484","GEOIDFQ":"0500000US29059","GEOID":"29059","NAME":"Dallas","NAMELSAD":"Dallas County","STUSPS":"MO","STATE_NAME":"Missouri","LSAD":"06","ALAND":1401057556,"AWATER":4909180},"id":"29059"},{"arcs":[[-78,230,-128,231,232,-205]],"type":"Polygon","properties":{"STATEFP":"29","COUNTYFP":"137","COUNTYNS":"00758523","GEOIDFQ":"0500000US29137","GEOID":"29137","NAME":"Monroe","NAMELSAD":"Monroe County","STUSPS":"MO","STATE_NAME":"Missouri","LSAD":"06","ALAND":1677380365,"AWATER":58339267},"id":"29137"},{"arcs":[[-117,233,234,235,-228]],"type":"Polygon","properties":{"STATEFP":"29","COUNTYFP":"085","COUNTYNS":"00758497","GEOIDFQ":"0500000US29085","GEOID":"29085","NAME":"Hickory","NAMELSAD":"Hickory County","STUSPS":"MO","STATE_NAME":"Missouri","LSAD":"06","ALAND":1032908443,"AWATER":33454640},"id":"29085"},{"arcs":[[236,237,238,239,240,241]],"type":"Polygon","properties":{"STATEFP":"29","COUNTYFP":"141","COUNTYNS":"00758525","GEOIDFQ":"0500000US29141","GEOID":"29141","NAME":"Morgan","NAMELSAD":"Morgan County","STUSPS":"MO","STATE_NAME":"Missouri","LSAD":"06","ALAND":1547867041,"AWATER":42414584},"id":"29141"},{"arcs":[[-138,242,243,244,245,246,247]],"type":"Polygon","properties":{"STATEFP":"29","COUNTYFP":"093","COUNTYNS":"00758501","GEOIDFQ":"0500000US29093","GEOID":"29093","NAME":"Iron","NAMELSAD":"Iron County","STUSPS":"MO","STATE_NAME":"Missouri","LSAD":"06","ALAND":1425184838,"AWATER":4655363},"id":"29093"},{"arcs":[[-104,-212,248,249,250,251]],"type":"Polygon","properties":{"STATEFP":"29","COUNTYFP":"203","COUNTYNS":"00758554","GEOIDFQ":"0500000US29203","GEOID":"29203","NAME":"Shannon","NAMELSAD":"Shannon County","STUSPS":"MO","STATE_NAME":"Missouri","LSAD":"06","ALAND":2599881423,"AWATER":464012},"id":"29203"},{"arcs":[[-64,252,-238,253,-82,254]],"type":"Polygon","properties":{"STATEFP":"29","COUNTYFP":"053","COUNTYNS":"00758481","GEOIDFQ":"0500000US29053","GEOID":"29053","NAME":"Cooper","NAMELSAD":"Cooper County","STUSPS":"MO","STATE_NAME":"Missouri","LSAD":"06","ALAND":1462684615,"AWATER":11486534},"id":"29053"},{"arcs":[[-171,255,256,-173,257,258,259]],"type":"Polygon","properties":{"STATEFP":"29","COUNTYFP":"067","COUNTYNS":"00758488","GEOIDFQ":"0500000US29067","GEOID":"29067","NAME":"Douglas","NAMELSAD":"Douglas County","STUSPS":"MO","STATE_NAME":"Missouri","LSAD":"06","ALAND":2107274101,"AWATER":2520175},"id":"29067"},{"arcs":[[-187,260,-223,261,-218,262]],"type":"Polygon","properties":{"STATEFP":"29","COUNTYFP":"049","COUNTYNS":"00758479","GEOIDFQ":"0500000US29049","GEOID":"29049","NAME":"Clinton","NAMELSAD":"Clinton County","STUSPS":"MO","STATE_NAME":"Missouri","LSAD":"06","ALAND":1085049759,"AWATER":11764909},"id":"29049"},{"arcs":[[263,264,265,-258,-176,266]],"type":"Polygon","properties":{"STATEFP":"29","COUNTYFP":"213","COUNTYNS":"00758559","GEOIDFQ":"0500000US29213","GEOID":"29213","NAME":"Taney","NAMELSAD":"Taney County","STUSPS":"MO","STATE_NAME":"Missouri","LSAD":"06","ALAND":1637553942,"AWATER":50101661},"id":"29213"},{"arcs":[[-50,267,-125,-224,-261,-186]],"type":"Polygon","properties":{"STATEFP":"29","COUNTYFP":"177","COUNTYNS":"00758543","GEOIDFQ":"0500000US29177","GEOID":"29177","NAME":"Ray","NAMELSAD":"Ray County","STUSPS":"MO","STATE_NAME":"Missouri","LSAD":"06","ALAND":1473649199,"AWATER":13418136},"id":"29177"},{"arcs":[[-12,-193,268,269,-202]],"type":"Polygon","properties":{"STATEFP":"29","COUNTYFP":"011","COUNTYNS":"00758460","GEOIDFQ":"0500000US29011","GEOID":"29011","NAME":"Barton","NAMELSAD":"Barton County","STUSPS":"MO","STATE_NAME":"Missouri","LSAD":"06","ALAND":1533351241,"AWATER":12151997},"id":"29011"},{"arcs":[[-86,270,271,272,273,-207]],"type":"Polygon","properties":{"STATEFP":"29","COUNTYFP":"115","COUNTYNS":"00758512","GEOIDFQ":"0500000US29115","GEOID":"29115","NAME":"Linn","NAMELSAD":"Linn County","STUSPS":"MO","STATE_NAME":"Missouri","LSAD":"06","ALAND":1594366554,"AWATER":14989603},"id":"29115"},{"arcs":[[274,-209,-102,-92]],"type":"Polygon","properties":{"STATEFP":"29","COUNTYFP":"181","COUNTYNS":"00758545","GEOIDFQ":"0500000US29181","GEOID":"29181","NAME":"Ripley","NAMELSAD":"Ripley County","STUSPS":"MO","STATE_NAME":"Missouri","LSAD":"06","ALAND":1630438192,"AWATER":5455724},"id":"29181"},{"arcs":[[-23,-94,-106,275,-243,-137,276]],"type":"Polygon","properties":{"STATEFP":"29","COUNTYFP":"223","COUNTYNS":"00758564","GEOIDFQ":"0500000US29223","GEOID":"29223","NAME":"Wayne","NAMELSAD":"Wayne County","STUSPS":"MO","STATE_NAME":"Missouri","LSAD":"06","ALAND":1966285866,"AWATER":38530851},"id":"29223"},{"arcs":[[-157,277,278,279,280,-198]],"type":"Polygon","properties":{"STATEFP":"29","COUNTYFP":"161","COUNTYNS":"00758535","GEOIDFQ":"0500000US29161","GEOID":"29161","NAME":"Phelps","NAMELSAD":"Phelps County","STUSPS":"MO","STATE_NAME":"Missouri","LSAD":"06","ALAND":1739921110,"AWATER":6564987},"id":"29161"},{"arcs":[[-272,281,282,283,284,285]],"type":"Polygon","properties":{"STATEFP":"29","COUNTYFP":"079","COUNTYNS":"00758494","GEOIDFQ":"0500000US29079","GEOID":"29079","NAME":"Grundy","NAMELSAD":"Grundy County","STUSPS":"MO","STATE_NAME":"Missouri","LSAD":"06","ALAND":1127403256,"AWATER":7116081},"id":"29079"},{"arcs":[[-8,286,-113,287]],"type":"Polygon","properties":{"STATEFP":"29","COUNTYFP":"186","COUNTYNS":"00765806","GEOIDFQ":"0500000US29186","GEOID":"29186","NAME":"Ste. Genevieve","NAMELSAD":"Ste. Genevieve County","STUSPS":"MO","STATE_NAME":"Missouri","LSAD":"06","ALAND":1292827137,"AWATER":19712984},"id":"29186"},{"arcs":[[-22,-227,-153,288,-41,289,290]],"type":"Polygon","properties":{"STATEFP":"29","COUNTYFP":"139","COUNTYNS":"00758524","GEOIDFQ":"0500000US29139","GEOID":"29139","NAME":"Montgomery","NAMELSAD":"Montgomery County","STUSPS":"MO","STATE_NAME":"Missouri","LSAD":"06","ALAND":1385765130,"AWATER":14100641},"id":"29139"},{"arcs":[[-142,291,-259,-266,292,293]],"type":"Polygon","properties":{"STATEFP":"29","COUNTYFP":"043","COUNTYNS":"00758476","GEOIDFQ":"0500000US29043","GEOID":"29043","NAME":"Christian","NAMELSAD":"Christian County","STUSPS":"MO","STATE_NAME":"Missouri","LSAD":"06","ALAND":1457134679,"AWATER":3048446},"id":"29043"},{"arcs":[[-6,-11,294,295,-155,-226,296]],"type":"Polygon","properties":{"STATEFP":"29","COUNTYFP":"071","COUNTYNS":"00758490","GEOIDFQ":"0500000US29071","GEOID":"29071","NAME":"Franklin","NAMELSAD":"Franklin County","STUSPS":"MO","STATE_NAME":"Missouri","LSAD":"06","ALAND":2389239902,"AWATER":20928381},"id":"29071"},{"arcs":[[-54,297,-283,298,-189,299]],"type":"Polygon","properties":{"STATEFP":"29","COUNTYFP":"061","COUNTYNS":"00758485","GEOIDFQ":"0500000US29061","GEOID":"29061","NAME":"Daviess","NAMELSAD":"Daviess County","STUSPS":"MO","STATE_NAME":"Missouri","LSAD":"06","ALAND":1458894581,"AWATER":14925665},"id":"29061"},{"arcs":[[-16,-143,-294,300,-149,-161,-191]],"type":"Polygon","properties":{"STATEFP":"29","COUNTYFP":"109","COUNTYNS":"00758509","GEOIDFQ":"0500000US29109","GEOID":"29109","NAME":"Lawrence","NAMELSAD":"Lawrence County","STUSPS":"MO","STATE_NAME":"Missouri","LSAD":"06","ALAND":1584432024,"AWATER":4208587},"id":"29109"},{"arcs":[[-60,301,-273,-286,302]],"type":"Polygon","properties":{"STATEFP":"29","COUNTYFP":"211","COUNTYNS":"00758558","GEOIDFQ":"0500000US29211","GEOID":"29211","NAME":"Sullivan","NAMELSAD":"Sullivan County","STUSPS":"MO","STATE_NAME":"Missouri","LSAD":"06","ALAND":1678265916,"AWATER":9121738},"id":"29211"},{"arcs":[[-170,-185,303,-280,304,-250,305,-256]],"type":"Polygon","properties":{"STATEFP":"29","COUNTYFP":"215","COUNTYNS":"00758560","GEOIDFQ":"0500000US29215","GEOID":"29215","NAME":"Texas","NAMELSAD":"Texas County","STUSPS":"MO","STATE_NAME":"Missouri","LSAD":"06","ALAND":3049106811,"AWATER":5071079},"id":"29215"},{"arcs":[[-184,306,307,-199,-281,-304]],"type":"Polygon","properties":{"STATEFP":"29","COUNTYFP":"169","COUNTYNS":"00758539","GEOIDFQ":"0500000US29169","GEOID":"29169","NAME":"Pulaski","NAMELSAD":"Pulaski County","STUSPS":"MO","STATE_NAME":"Missouri","LSAD":"06","ALAND":1417014929,"AWATER":11312362},"id":"29169"},{"arcs":[[-9,-288,-112,-139,-248,308]],"type":"Polygon","properties":{"STATEFP":"29","COUNTYFP":"187","COUNTYNS":"00758548","GEOIDFQ":"0500000US29187","GEOID":"29187","NAME":"St. Francois","NAMELSAD":"St. Francois County","STUSPS":"MO","STATE_NAME":"Missouri","LSAD":"06","ALAND":1170380020,"AWATER":7218075},"id":"29187"},{"arcs":[[-40,-67,309,-232,-132,310,-290]],"type":"Polygon","properties":{"STATEFP":"29","COUNTYFP":"007","COUNTYNS":"00758458","GEOIDFQ":"0500000US29007","GEOID":"29007","NAME":"Audrain","NAMELSAD":"Audrain County","STUSPS":"MO","STATE_NAME":"Missouri","LSAD":"06","ALAND":1792918425,"AWATER":11843439},"id":"29007"},{"arcs":[[-174,-257,-306,-249,-211,311]],"type":"Polygon","properties":{"STATEFP":"29","COUNTYFP":"091","COUNTYNS":"00758500","GEOIDFQ":"0500000US29091","GEOID":"29091","NAME":"Howell","NAMELSAD":"Howell County","STUSPS":"MO","STATE_NAME":"Missouri","LSAD":"06","ALAND":2401376469,"AWATER":2920041},"id":"29091"},{"arcs":[[-100,312,-203,-270,313]],"type":"Polygon","properties":{"STATEFP":"29","COUNTYFP":"217","COUNTYNS":"00758561","GEOIDFQ":"0500000US29217","GEOID":"29217","NAME":"Vernon","NAMELSAD":"Vernon County","STUSPS":"MO","STATE_NAME":"Missouri","LSAD":"06","ALAND":2140343854,"AWATER":27020868},"id":"29217"},{"arcs":[[-245,314,-251,-305,-279,315]],"type":"Polygon","properties":{"STATEFP":"29","COUNTYFP":"065","COUNTYNS":"00758487","GEOIDFQ":"0500000US29065","GEOID":"29065","NAME":"Dent","NAMELSAD":"Dent County","STUSPS":"MO","STATE_NAME":"Missouri","LSAD":"06","ALAND":1949641183,"AWATER":4518781},"id":"29065"},{"arcs":[[-46,-190,-299,-282,-271,-85]],"type":"Polygon","properties":{"STATEFP":"29","COUNTYFP":"117","COUNTYNS":"00758513","GEOIDFQ":"0500000US29117","GEOID":"29117","NAME":"Livingston","NAMELSAD":"Livingston County","STUSPS":"MO","STATE_NAME":"Missouri","LSAD":"06","ALAND":1378657547,"AWATER":16187906},"id":"29117"},{"arcs":[[-219,-262,-222,316]],"type":"Polygon","properties":{"STATEFP":"29","COUNTYFP":"165","COUNTYNS":"00758537","GEOIDFQ":"0500000US29165","GEOID":"29165","NAME":"Platte","NAMELSAD":"Platte County","STUSPS":"MO","STATE_NAME":"Missouri","LSAD":"06","ALAND":1087335650,"AWATER":16896863},"id":"29165"},{"arcs":[[-42,-289,-152,-201,317,318]],"type":"Polygon","properties":{"STATEFP":"29","COUNTYFP":"151","COUNTYNS":"00758530","GEOIDFQ":"0500000US29151","GEOID":"29151","NAME":"Osage","NAMELSAD":"Osage County","STUSPS":"MO","STATE_NAME":"Missouri","LSAD":"06","ALAND":1571034473,"AWATER":17734486},"id":"29151"},{"arcs":[[-24,-277,-136,-110,-36]],"type":"Polygon","properties":{"STATEFP":"29","COUNTYFP":"017","COUNTYNS":"00758463","GEOIDFQ":"0500000US29017","GEOID":"29017","NAME":"Bollinger","NAMELSAD":"Bollinger County","STUSPS":"MO","STATE_NAME":"Missouri","LSAD":"06","ALAND":1600364576,"AWATER":8530122},"id":"29017"},{"arcs":[[-55,-300,-188,-263,-217,-194]],"type":"Polygon","properties":{"STATEFP":"29","COUNTYFP":"063","COUNTYNS":"00758486","GEOIDFQ":"0500000US29063","GEOID":"29063","NAME":"DeKalb","NAMELSAD":"DeKalb County","STUSPS":"MO","STATE_NAME":"Missouri","LSAD":"06","ALAND":1091312447,"AWATER":11560688},"id":"29063"},{"arcs":[[-10,-309,-247,319,-295]],"type":"Polygon","properties":{"STATEFP":"29","COUNTYFP":"221","COUNTYNS":"00758563","GEOIDFQ":"0500000US29221","GEOID":"29221","NAME":"Washington","NAMELSAD":"Washington County","STUSPS":"MO","STATE_NAME":"Missouri","LSAD":"06","ALAND":1968043954,"AWATER":6791224},"id":"29221"},{"arcs":[[-61,-303,-285,320,321]],"type":"Polygon","properties":{"STATEFP":"29","COUNTYFP":"129","COUNTYNS":"00758519","GEOIDFQ":"0500000US29129","GEOID":"29129","NAME":"Mercer","NAMELSAD":"Mercer County","STUSPS":"MO","STATE_NAME":"Missouri","LSAD":"06","ALAND":1175427717,"AWATER":3302140},"id":"29129"},{"arcs":[[-235,322,323,324,-242,325]],"type":"Polygon","properties":{"STATEFP":"29","COUNTYFP":"015","COUNTYNS":"00758462","GEOIDFQ":"0500000US29015","GEOID":"29015","NAME":"Benton","NAMELSAD":"Benton County","STUSPS":"MO","STATE_NAME":"Missouri","LSAD":"06","ALAND":1823437748,"AWATER":125605711},"id":"29015"},{"arcs":[[-65,-255,-81,-89,326]],"type":"Polygon","properties":{"STATEFP":"29","COUNTYFP":"089","COUNTYNS":"00758499","GEOIDFQ":"0500000US29089","GEOID":"29089","NAME":"Howard","NAMELSAD":"Howard County","STUSPS":"MO","STATE_NAME":"Missouri","LSAD":"06","ALAND":1201239497,"AWATER":19854109},"id":"29089"},{"arcs":[[-53,-97,327,-321,-284,-298]],"type":"Polygon","properties":{"STATEFP":"29","COUNTYFP":"081","COUNTYNS":"00758495","GEOIDFQ":"0500000US29081","GEOID":"29081","NAME":"Harrison","NAMELSAD":"Harrison County","STUSPS":"MO","STATE_NAME":"Missouri","LSAD":"06","ALAND":1871309887,"AWATER":10070644},"id":"29081"},{"arcs":[[-105,-252,-315,-244,-276]],"type":"Polygon","properties":{"STATEFP":"29","COUNTYFP":"179","COUNTYNS":"00758544","GEOIDFQ":"0500000US29179","GEOID":"29179","NAME":"Reynolds","NAMELSAD":"Reynolds County","STUSPS":"MO","STATE_NAME":"Missouri","LSAD":"06","ALAND":2093946393,"AWATER":15373678},"id":"29179"},{"arcs":[[-66,-327,-88,-206,-233,-310]],"type":"Polygon","properties":{"STATEFP":"29","COUNTYFP":"175","COUNTYNS":"00758542","GEOIDFQ":"0500000US29175","GEOID":"29175","NAME":"Randolph","NAMELSAD":"Randolph County","STUSPS":"MO","STATE_NAME":"Missouri","LSAD":"06","ALAND":1250220630,"AWATER":13254192},"id":"29175"},{"arcs":[[-49,-84,328,-144,-126,-268]],"type":"Polygon","properties":{"STATEFP":"29","COUNTYFP":"107","COUNTYNS":"00758508","GEOIDFQ":"0500000US29107","GEOID":"29107","NAME":"Lafayette","NAMELSAD":"Lafayette County","STUSPS":"MO","STATE_NAME":"Missouri","LSAD":"06","ALAND":1627247039,"AWATER":27063921},"id":"29107"},{"arcs":[[-200,-308,329,-240,330,331,-318]],"type":"Polygon","properties":{"STATEFP":"29","COUNTYFP":"131","COUNTYNS":"00758520","GEOIDFQ":"0500000US29131","GEOID":"29131","NAME":"Miller","NAMELSAD":"Miller County","STUSPS":"MO","STATE_NAME":"Missouri","LSAD":"06","ALAND":1534779504,"AWATER":19192837},"id":"29131"},{"arcs":[[-69,332,-179,-166,333]],"type":"Polygon","properties":{"STATEFP":"29","COUNTYFP":"199","COUNTYNS":"00758552","GEOIDFQ":"0500000US29199","GEOID":"29199","NAME":"Scotland","NAMELSAD":"Scotland County","STUSPS":"MO","STATE_NAME":"Missouri","LSAD":"06","ALAND":1130548360,"AWATER":7217862},"id":"29199"},{"arcs":[[-76,-168,-178,334,335]],"type":"Polygon","properties":{"STATEFP":"29","COUNTYFP":"111","COUNTYNS":"00758510","GEOIDFQ":"0500000US29111","GEOID":"29111","NAME":"Lewis","NAMELSAD":"Lewis County","STUSPS":"MO","STATE_NAME":"Missouri","LSAD":"06","ALAND":1307990180,"AWATER":14964046},"id":"29111"},{"arcs":[[-141,-230,-181,-172,-260,-292]],"type":"Polygon","properties":{"STATEFP":"29","COUNTYFP":"225","COUNTYNS":"00758565","GEOIDFQ":"0500000US29225","GEOID":"29225","NAME":"Webster","NAMELSAD":"Webster County","STUSPS":"MO","STATE_NAME":"Missouri","LSAD":"06","ALAND":1534732000,"AWATER":3108872},"id":"29225"},{"arcs":[[-83,-254,-237,-325,336,-145,-329]],"type":"Polygon","properties":{"STATEFP":"29","COUNTYFP":"159","COUNTYNS":"00758534","GEOIDFQ":"0500000US29159","GEOID":"29159","NAME":"Pettis","NAMELSAD":"Pettis County","STUSPS":"MO","STATE_NAME":"Missouri","LSAD":"06","ALAND":1766986595,"AWATER":10468070},"id":"29159"},{"arcs":[[-63,337,-331,-239,-253]],"type":"Polygon","properties":{"STATEFP":"29","COUNTYFP":"135","COUNTYNS":"00758522","GEOIDFQ":"0500000US29135","GEOID":"29135","NAME":"Moniteau","NAMELSAD":"Moniteau County","STUSPS":"MO","STATE_NAME":"Missouri","LSAD":"06","ALAND":1074931225,"AWATER":9940393},"id":"29135"},{"arcs":[[-77,-336,338,-129,-231]],"type":"Polygon","properties":{"STATEFP":"29","COUNTYFP":"127","COUNTYNS":"00758517","GEOIDFQ":"0500000US29127","GEOID":"29127","NAME":"Marion","NAMELSAD":"Marion County","STUSPS":"MO","STATE_NAME":"Missouri","LSAD":"06","ALAND":1131646182,"AWATER":19090885},"id":"29127"},{"arcs":[[-99,339,-323,-234,-116,-204,-313]],"type":"Polygon","properties":{"STATEFP":"29","COUNTYFP":"185","COUNTYNS":"00758547","GEOIDFQ":"0500000US29185","GEOID":"29185","NAME":"St. Clair","NAMELSAD":"St. Clair County","STUSPS":"MO","STATE_NAME":"Missouri","LSAD":"06","ALAND":1748193266,"AWATER":70137863},"id":"29185"},{"arcs":[[340,-150,-301,-293,-265]],"type":"Polygon","properties":{"STATEFP":"29","COUNTYFP":"209","COUNTYNS":"00758557","GEOIDFQ":"0500000US29209","GEOID":"29209","NAME":"Stone","NAMELSAD":"Stone County","STUSPS":"MO","STATE_NAME":"Missouri","LSAD":"06","ALAND":1201268813,"AWATER":121210895},"id":"29209"},{"arcs":[[-59,-70,-334,-165,-208,-274,-302]],"type":"Polygon","properties":{"STATEFP":"29","COUNTYFP":"001","COUNTYNS":"00765805","GEOIDFQ":"0500000US29001","GEOID":"29001","NAME":"Adair","NAMELSAD":"Adair County","STUSPS":"MO","STATE_NAME":"Missouri","LSAD":"06","ALAND":1469362061,"AWATER":5468507},"id":"29001"},{"arcs":[[-43,-319,-332,-338,-62]],"type":"Polygon","properties":{"STATEFP":"29","COUNTYFP":"051","COUNTYNS":"00758480","GEOIDFQ":"0500000US29051","GEOID":"29051","NAME":"Cole","NAMELSAD":"Cole County","STUSPS":"MO","STATE_NAME":"Missouri","LSAD":"06","ALAND":1014066038,"AWATER":19144926},"id":"29051"},{"arcs":[[-51,-197,-72,-163,341,-95]],"type":"Polygon","properties":{"STATEFP":"29","COUNTYFP":"147","COUNTYNS":"00758528","GEOIDFQ":"0500000US29147","GEOID":"29147","NAME":"Nodaway","NAMELSAD":"Nodaway County","STUSPS":"MO","STATE_NAME":"Missouri","LSAD":"06","ALAND":2271326607,"AWATER":2361588},"id":"29147"},{"arcs":[[-18,-291,-311,-131,342]],"type":"Polygon","properties":{"STATEFP":"29","COUNTYFP":"163","COUNTYNS":"00758536","GEOIDFQ":"0500000US29163","GEOID":"29163","NAME":"Pike","NAMELSAD":"Pike County","STUSPS":"MO","STATE_NAME":"Missouri","LSAD":"06","ALAND":1736428529,"AWATER":36976720},"id":"29163"},{"arcs":[[-33,-146,-337,-324,-340,-98]],"type":"Polygon","properties":{"STATEFP":"29","COUNTYFP":"083","COUNTYNS":"00758496","GEOIDFQ":"0500000US29083","GEOID":"29083","NAME":"Henry","NAMELSAD":"Henry County","STUSPS":"MO","STATE_NAME":"Missouri","LSAD":"06","ALAND":1805056171,"AWATER":91656114},"id":"29083"},{"arcs":[[-156,-296,-320,-246,-316,-278]],"type":"Polygon","properties":{"STATEFP":"29","COUNTYFP":"055","COUNTYNS":"00758482","GEOIDFQ":"0500000US29055","GEOID":"29055","NAME":"Crawford","NAMELSAD":"Crawford County","STUSPS":"MO","STATE_NAME":"Missouri","LSAD":"06","ALAND":1923005860,"AWATER":3306286},"id":"29055"},{"arcs":[[-108,343,344]],"type":"Polygon","properties":{"STATEFP":"29","COUNTYFP":"133","COUNTYNS":"00758521","GEOIDFQ":"0500000US29133","GEOID":"29133","NAME":"Mississippi","NAMELSAD":"Mississippi County","STUSPS":"MO","STATE_NAME":"Missouri","LSAD":"06","ALAND":1066029405,"AWATER":44515175},"id":"29133"},{"arcs":[[-183,-229,-236,-326,-241,-330,-307]],"type":"Polygon","properties":{"STATEFP":"29","COUNTYFP":"029","COUNTYNS":"00758469","GEOIDFQ":"0500000US29029","GEOID":"29029","NAME":"Camden","NAMELSAD":"Camden County","STUSPS":"MO","STATE_NAME":"Missouri","LSAD":"06","ALAND":1698868744,"AWATER":136411732},"id":"29029"},{"arcs":[[-1,-297,-225,-20,345]],"type":"Polygon","properties":{"STATEFP":"29","COUNTYFP":"183","COUNTYNS":"00758546","GEOIDFQ":"0500000US29183","GEOID":"29183","NAME":"St. Charles","NAMELSAD":"St. Charles County","STUSPS":"MO","STATE_NAME":"Missouri","LSAD":"06","ALAND":1451204476,"AWATER":83022135},"id":"29183"},{"arcs":[[-27,-109,-345,346,-214,-120]],"type":"Polygon","properties":{"STATEFP":"29","COUNTYFP":"143","COUNTYNS":"00758526","GEOIDFQ":"0500000US29143","GEOID":"29143","NAME":"New Madrid","NAMELSAD":"New Madrid County","STUSPS":"MO","STATE_NAME":"Missouri","LSAD":"06","ALAND":1747940900,"AWATER":56236293},"id":"29143"}]}}}