{"type":"Topology","arcs":[[[4955,2495],[20,-10],[38,20],[34,-18],[25,4],[18,32],[35,33]],[[5125,2556],[11,30],[44,41],[5,25],[25,31],[45,5],[16,25],[46,18],[37,51],[0,45],[42,5],[14,15],[-7,25],[-2,80],[21,40],[17,12],[15,37],[34,16],[3,113],[218,0],[0,9],[114,0]],[[5823,3179],[325,-1]],[[6148,3178],[0,-88],[-8,0],[0,-164],[-2,-101],[5,-145],[-1,-206],[-7,0],[-1,-174],[1,-165],[-73,0],[-1,-114],[-71,0],[2,-149],[0,-151],[-141,0],[0,-303],[-10,0],[2,-304]],[[5843,1114],[-11,0],[1,-580],[1,-325],[-56,16],[-35,21],[-9,29],[8,27],[-22,5],[-35,34],[-1,25],[-54,14],[-15,65],[24,13],[-55,73],[-34,65],[-48,54],[-21,-10],[-26,41]],[[5455,681],[0,278],[6,0],[0,426],[-1,334],[27,0],[-2,505],[-215,1],[-1,25],[-24,-1],[0,26],[-24,-1],[0,25],[-24,0],[0,26],[-24,0],[0,25],[-24,0],[0,25],[-24,0],[0,25],[-72,0],[0,50],[-49,1],[0,24],[-49,0],[0,20]],[[5418,6538],[275,2],[405,0],[-1,150],[84,0]],[[6181,6690],[152,0],[0,150],[606,0],[304,-1],[7,-146],[132,0],[0,-154],[151,0],[74,3]],[[7607,6542],[2,-456],[-7,0],[0,-229]],[[7602,5857],[-57,12],[-24,-24],[-30,13],[-43,-7],[-62,-57],[-35,1],[-19,11],[-70,11],[-11,-16],[9,-100],[-6,-41],[-20,-67],[11,-65],[-30,-39],[-45,-8],[-30,-29],[-47,-24],[-18,-22],[-48,1],[-78,-66],[-35,-10],[-39,-31],[-61,-1]],[[6814,5299],[-497,-1]],[[6317,5298],[-2,52],[-150,0],[1,137],[-112,-1],[-4,23],[-46,7],[-68,38],[-5,13],[-38,2],[-49,33],[-3,32],[24,42],[11,36],[48,75],[-285,-1],[-221,0]],[[5418,5786],[1,501]],[[5419,6287],[-1,251]],[[4955,2495],[-2,20],[-42,20],[-34,-6],[-14,22],[-26,-4],[-24,48],[-27,-1],[-39,-15],[-46,21],[-77,-17],[-18,-14],[-17,-49],[8,-11],[-29,-43],[1,-17],[-38,-38],[-25,-2]],[[4506,2409],[-29,30],[-45,8],[-16,27],[-157,79],[-29,21],[-5,17],[31,60],[-32,71],[2,50],[-10,17],[-7,59],[10,21],[-7,27],[-39,42],[16,38],[-5,30],[-41,33],[-22,43],[3,50],[14,30],[-24,3],[-23,-17],[-37,7]],[[4054,3155],[-6,34],[10,22],[-24,29],[42,65]],[[4076,3305],[-4,39],[-12,14],[45,60],[35,-1],[6,20],[57,-14],[-2,28],[30,13],[0,20],[26,30],[62,-2],[16,33],[30,29]],[[4365,3574],[48,-11],[32,13],[26,24],[6,25],[33,1],[8,34],[-24,26],[19,27],[61,33],[13,-10],[42,4],[25,12],[35,33],[5,45],[282,1]],[[4976,3831],[2,-145],[-1,-605],[3,-150],[145,-1],[0,-374]],[[9525,4319],[495,0],[0,14],[507,0],[366,1],[0,-25],[740,1]],[[11633,4310],[0,-25],[-40,0],[0,-603],[-40,0],[0,-449],[2,-151],[-45,0],[0,-604]],[[11510,2478],[-50,0],[3,-55],[-2,-426],[-2,-275],[-51,0],[-1,-298]],[[11407,1424],[-139,0],[0,-5],[-312,1],[-119,4],[-1,299],[46,-2],[0,557],[2,6],[-138,0],[0,13],[-78,0],[0,181],[42,0],[0,75],[-73,0],[0,66]],[[10637,2619],[1,462],[-78,0],[-2,297],[-25,-2],[0,154],[-146,0],[0,125],[-24,1],[0,25],[-659,-2]],[[9704,3679],[-19,25],[-31,0]],[[9654,3704],[-18,0],[2,174],[-50,0],[24,33],[3,68],[17,11],[8,32],[-38,60],[15,50],[-17,22]],[[9600,4154],[-11,12],[-5,71],[-41,71],[-18,11]],[[2313,8040],[438,-3],[137,2],[256,0],[405,0],[753,1],[200,0]],[[4502,8040],[0,-147],[5,0],[0,-602],[6,0],[-1,-154]],[[4512,7137],[-51,10],[-407,0],[0,-294],[-5,-7],[-334,0],[-562,1]],[[3153,6847],[-30,23],[-13,29],[54,54],[7,28],[-16,12],[-11,51],[-29,-12],[-37,6],[-57,42],[-22,26],[17,25],[-9,53],[8,74],[-51,21],[-7,23],[-35,20],[-63,-17],[-47,45],[-26,-26],[-19,13],[-33,2],[-50,34],[6,67],[23,32],[-17,38],[24,3],[20,43],[-14,40],[-29,17],[-4,22],[-22,14],[-13,48],[19,30],[-73,52],[-26,13],[-40,-32],[-41,19],[-9,-23],[-45,-31],[-55,28],[13,36],[-28,18],[-17,27],[-31,15],[52,34],[-14,43],[-20,22],[-5,29],[-25,63]],[[4054,3155],[-44,-24],[-29,16],[-19,-38],[-29,-29],[-112,0],[-1,-152],[-88,0],[-20,-35],[2,-31],[-18,-21],[-45,11],[-19,-20],[0,-42],[17,-60],[-42,-20],[-6,-29],[-56,-38],[-13,-21],[-43,-3],[-28,-16]],[[3461,2603],[-18,37],[-93,5],[-57,-32],[-25,-46],[-29,-38],[-27,1],[-12,-21],[-32,12],[-13,-15],[-20,-58],[2,-23],[-40,17],[-40,57],[2,52],[-14,43],[-21,28],[-13,46],[-19,28],[-10,38],[-24,5]],[[2958,2739],[-2,2]],[[2956,2741],[21,14],[23,-15],[44,72],[50,33],[3,24],[72,-15],[8,17],[59,52],[4,24],[0,133],[-12,0],[0,151],[289,0],[0,76]],[[3517,3307],[171,-2],[388,0]],[[3153,6847],[31,-39],[28,-6],[27,-43],[30,-8],[26,-33],[-12,-44],[8,-49],[27,-31],[26,12],[51,-31],[21,-26],[39,-3],[26,20],[62,-30]],[[3543,6536],[17,0],[7,-56],[15,-43],[51,-22],[-15,-19],[17,-26],[33,-9],[13,-19],[14,-58],[-33,-68],[-45,-2],[-39,15]],[[3578,6229],[-34,-21],[-9,-25],[-49,-3],[-27,-12],[-7,-39],[34,-18],[6,-75],[-13,-23],[11,-36],[-7,-55],[-21,-14],[4,-32],[-48,-14],[-19,7],[-30,-27],[-2,-18],[22,-75],[21,-27],[-18,-113]],[[3392,5609],[-212,0],[0,8],[-164,-1]],[[3016,5616],[-196,0]],[[2820,5616],[10,38],[3,64],[20,8],[9,34],[-7,67],[-34,-4],[-31,28],[12,35],[-4,31],[-21,17],[-13,38],[17,24],[-9,81],[12,29],[-8,24],[-55,35],[-33,63],[-29,8],[-49,44],[-22,-12],[-26,35],[-12,31],[7,19],[-29,46],[-169,0],[1,-25],[-26,0],[0,-25],[-33,0],[19,-50],[27,-11],[1,-44],[-530,-1],[0,-150],[17,0],[0,-148],[-148,0]],[[1687,5945],[0,149],[-300,0],[0,-5],[-150,0],[0,226],[-24,0],[0,25]],[[1213,6340],[0,210],[-11,0],[0,151],[200,0],[-1,300],[-1,302],[-45,0],[0,147],[292,1],[-20,20],[-43,16],[14,26],[-12,24],[14,27],[70,32],[-35,63],[-48,38],[-50,14],[12,39],[36,18],[3,38],[-25,47],[8,21],[-7,46],[-11,15],[26,27],[14,33],[-46,12],[-18,19],[15,17]],[[1544,8043],[410,1],[359,-4]],[[1213,6340],[-168,-1],[4,-38],[16,-20],[-13,-34],[-30,14],[-13,-92],[-25,1],[-22,-20],[-27,12],[-35,-43],[-48,54],[-72,-30],[-21,15],[-1,41],[-25,-4],[-8,-40],[-39,16],[-44,-19],[-30,0],[-25,22],[-14,35],[22,65],[-16,53],[-36,20],[-32,48],[3,18],[-33,26],[6,24],[-16,79],[-59,75],[28,50],[-25,31],[-19,42],[-39,23],[-33,-5],[-33,-63],[-37,-20],[-60,-15],[-30,-34],[-33,2],[-24,-61],[-60,19],[-15,46],[6,34],[-38,18]],[[0,6684],[0,495],[0,501],[0,363],[640,0],[342,-3],[562,3]],[[9123,8041],[308,0],[620,-1],[305,1]],[[10356,8041],[0,-151],[-30,0],[-1,-596],[16,-1],[0,-101],[-29,-3],[-18,13],[-29,-1],[0,-59],[-51,0],[1,-149],[47,-1],[0,-155],[-127,1],[0,-150],[-41,0],[0,-603],[-12,0],[0,-310]],[[10082,5775],[-16,-26],[10,-25],[-20,-22],[3,-31],[-20,-16],[-56,3],[-25,33],[-54,0],[-32,11],[-21,-8],[-31,8],[-9,-35],[-28,1],[-28,-15],[-17,-36],[-26,-26],[-1,-23],[-61,-35],[-43,-12],[-24,-35],[-27,-21],[17,-36],[-18,-16],[3,-46],[-53,-9]],[[9505,5358],[0,64],[13,39],[-25,18],[-13,41],[-1,43],[-35,1],[-32,33],[-29,-13],[-39,12],[-22,17],[-16,-11],[-68,1],[-12,-15],[-36,-6],[-24,17],[-45,-13],[-16,9],[-36,-14],[-36,7]],[[9033,5588],[-15,-22],[-28,-6],[-7,22],[-52,26],[-45,13],[-21,23],[-20,-31],[-41,5],[-21,35],[-13,-13],[-40,-7],[-45,25],[-24,-8],[-46,0],[-36,18],[-30,35],[-51,-8],[-22,30],[7,34],[-43,46],[-82,44]],[[8358,5849],[0,236],[3,90],[253,1],[54,-5],[3,64],[18,59],[45,-17],[158,-8],[0,421],[26,0],[1,390],[20,-12],[30,6],[25,-32],[0,252],[32,0],[0,301],[70,0],[0,297],[27,0],[0,149]],[[11916,6327],[51,26],[22,30],[36,-30],[35,12],[31,37],[33,6],[26,-10],[5,26],[52,27],[31,3],[33,-30],[25,38],[24,17],[50,-15],[84,6],[22,-7],[39,7],[16,-24],[64,18],[39,0],[12,-44],[28,5]],[[12674,6425],[0,-344],[-46,0],[0,-135]],[[12628,5946],[-150,0],[-1,-452],[-50,0],[0,-603]],[[12427,4891],[-498,0],[0,-153],[-148,0],[0,152],[-148,0]],[[11633,4890],[-98,0],[0,301],[-149,0],[0,302],[43,0],[0,588],[-113,0],[0,154],[-71,1]],[[11245,6236],[5,26],[-18,79],[14,43],[28,37],[24,-4],[10,-27],[31,-1],[20,16],[24,-24],[29,9],[54,-35],[63,2],[51,9],[14,-50],[28,12],[8,33],[36,-2],[17,-35],[38,5],[-16,25],[22,14],[37,-31],[46,-5],[18,-16],[49,30],[39,-19]],[[7607,6542],[1,151],[-21,0],[0,125],[38,0],[0,175],[26,0],[0,101],[38,-1],[0,126],[-38,0],[0,74],[-10,0],[0,599],[18,1],[0,150]],[[7659,8043],[571,-3],[599,0],[294,1]],[[8358,5849],[-33,2],[-3,30],[-28,35],[4,33],[-37,16],[-31,3],[-51,-17],[-25,14],[-78,-35],[-32,-2],[-35,19],[-46,7],[-52,-3],[-10,-30],[-35,-30],[-85,-27],[-30,-32],[-62,1],[-68,36],[-19,-12]],[[14018,6303],[0,-1],[3,-231],[-2,-200],[-2,-606]],[[14017,5265],[-101,0],[-1,-75],[-296,-1],[-40,2]],[[13579,5191],[-109,0],[0,303],[-94,0],[0,151],[-449,0],[0,150],[-300,1],[1,150]],[[12674,6425],[25,26],[36,-15],[34,9],[34,-24],[32,23],[23,-25],[28,10],[8,28],[37,-1],[1,32],[42,-13],[14,26],[4,44],[36,25],[23,-12],[22,-32],[36,-11],[39,16],[33,-3],[15,-26],[58,13],[19,-27],[65,15],[0,31],[36,9],[13,-47],[47,32],[38,-28],[38,24],[22,-8],[20,-42],[56,-31],[41,-15],[8,-34],[38,-7],[35,10],[52,-34],[53,11],[14,20],[25,-23],[40,34],[40,-96],[38,6],[26,-12]],[[10356,8041],[407,0],[411,0],[429,-1]],[[11603,8040],[0,-153],[-46,0],[0,-150],[152,0],[0,-446],[2,-6],[251,0]],[[11962,7285],[0,-596],[-46,0],[0,-362]],[[11245,6236],[-39,22],[-44,-14],[-23,-21],[24,-31],[-8,-27],[-41,-23],[24,-21],[-37,-37],[15,-35],[-40,-16],[7,-21],[-16,-27],[-45,-14],[-14,-24],[-35,0],[-8,-27],[-62,-6],[1,-24],[-28,-41],[-30,-5],[-29,19],[-57,2],[-32,-11],[-21,-33],[11,-28],[-11,-40],[-54,-16],[-85,7],[-15,-18],[-69,-2],[-51,12],[-52,-2],[-19,-10],[-86,-1],[-42,33],[-55,0],[-33,18],[-64,1]],[[9525,4319],[-19,24],[-31,15],[-7,37],[27,45],[-13,12],[26,78],[25,20],[-29,82],[-18,20],[6,27],[-16,35],[-12,52],[3,76],[12,56],[-19,22],[10,33],[-35,57],[19,41],[-10,30],[18,16],[1,35],[-22,15],[14,25],[-14,18],[39,39],[7,35],[17,9],[1,85]],[[11633,4890],[0,-555]],[[11633,4335],[0,-25]],[[6814,5299],[0,-101],[100,1],[0,-151],[149,0],[0,-75],[149,0],[1,-75],[135,1],[1,-502],[-25,0],[-24,-50],[-2,-63],[-43,0],[7,-50],[37,0],[12,-38],[36,0],[1,-62],[12,0],[0,-87]],[[7360,4047],[-86,-1],[-30,30],[-15,-4],[-44,30],[-84,43],[-25,-1],[-46,-24],[-28,23],[-39,-5],[-35,-13],[-13,-35],[-37,-5],[-38,17],[-23,-30],[-73,3]],[[6744,4075],[-62,-60],[-57,30],[-41,-14],[-30,3],[-21,-12],[-30,16],[-3,21],[-28,20],[-21,0],[-47,46],[8,42],[-23,11],[-50,4],[-34,51],[-4,38]],[[6301,4271],[19,24],[0,150],[-5,0],[0,150],[-5,0],[0,148],[-147,1],[-2,151],[7,88],[-25,25],[0,102],[19,0],[6,89],[149,0],[0,99]],[[2956,2741],[-43,12],[-23,-14],[-41,19],[-7,34],[-39,-8],[-18,27],[-6,38],[-25,41],[4,15],[-53,6],[-27,10],[-6,-24],[-50,13],[19,64],[19,20],[21,46],[-32,55],[-17,14],[11,47],[-45,39],[8,23],[49,22],[29,76],[-41,28],[16,57],[-16,31],[4,35],[-51,88],[-38,17],[11,49],[-30,104],[29,11],[6,57],[19,42],[-9,18],[29,12],[9,71],[-16,13],[-12,40]],[[2594,3989],[40,-4],[146,0],[0,100],[136,1],[8,49],[76,0],[0,100],[73,0],[1,51],[133,0]],[[3207,4286],[13,-44],[32,32],[26,-20],[-1,-21],[17,-31],[57,-39],[-2,-47],[57,-14],[19,-22],[64,32],[26,7],[1,-436],[2,0],[-1,-376]],[[9600,4154],[-215,-3],[-292,0],[-137,-8],[-295,0]],[[8661,4143],[1,151],[23,0],[3,453],[-150,0],[1,148],[20,0],[0,150],[149,0],[1,63],[296,2],[25,13],[0,374],[3,91]],[[3016,5616],[0,-439],[0,-290],[191,1],[0,-602]],[[2594,3989],[-401,0],[-189,0]],[[2004,3989],[-29,14],[-78,-14],[-29,-19],[-21,-31],[-93,22],[-27,-2],[-28,-17],[-23,10],[-8,32],[-18,3],[-7,34],[22,22],[-2,35],[-26,33],[-32,10]],[[1605,4121],[0,18],[147,0],[0,150],[-20,0],[0,225],[23,-1],[-1,51],[25,0],[0,29],[27,0],[19,-17],[41,-11],[0,27],[37,0],[0,25],[-75,0],[0,77],[-96,0],[0,47],[-24,0],[0,50],[-50,0],[0,25],[-25,0],[0,50],[-48,1],[0,26],[-24,0],[0,75],[-74,0],[0,25],[-25,0],[0,50]],[[1462,5043],[42,-16],[28,5],[33,-14],[25,34],[65,-10],[45,-20],[34,-4],[85,-60],[26,-1],[20,-20],[33,4],[50,-38],[31,2],[10,-23],[-10,-27],[79,-60],[39,-8],[20,23],[28,-12],[29,18]],[[2174,4816],[296,0],[0,76],[131,0],[1,150],[-26,6],[-32,28],[-14,35],[-8,81],[16,28],[5,36],[-23,43],[0,26],[-15,27],[-33,18],[-12,61],[33,14],[-16,34],[10,50],[-15,44],[2,41],[32,3],[314,-1]],[[4365,3574],[-12,39],[19,11],[4,69],[-6,36],[15,36],[-16,31],[-11,45],[28,52],[-9,39],[-24,49],[-104,0],[-1,75],[-145,0],[-1,234],[-154,0],[0,-5],[-149,0],[-1,227],[1,372],[-296,0],[-12,4],[0,535],[-38,-13],[-26,16],[-10,44],[-2,74],[8,21],[-31,44]],[[3578,6229],[14,-73],[23,-12],[11,-58],[19,-19],[17,-59],[-3,-46],[-13,-65],[29,-59],[-14,-53],[69,-118],[43,-38],[19,5],[36,-20],[45,32],[40,9],[60,-3],[36,26],[42,-4],[30,32],[37,-15],[8,-35],[25,-16],[24,2],[64,-31],[0,-23],[19,-29],[-3,-25],[38,-11],[33,8],[29,-13],[48,-65],[33,8],[52,-14],[33,20],[36,5],[30,-15],[46,14],[39,0]],[[4672,5471],[3,-287],[1,-273],[22,11],[18,-26],[38,0],[42,-70],[25,-14],[53,-12],[100,0],[-1,-372],[154,-1]],[[5127,4427],[40,-18],[18,-19],[-1,-25],[-38,-23],[-4,-36],[49,-58],[36,0],[47,-10],[10,22],[33,-46],[-3,-49]],[[5314,4165],[-13,-5],[-89,38],[-28,-14],[-18,-47],[-16,-13],[-2,-270],[10,-22],[-182,-1]],[[3461,2603],[71,-53],[27,-38],[68,-15],[11,6],[38,-39],[19,15],[21,-20],[50,-6],[29,-26],[46,-19],[14,-32],[-7,-31],[20,-13],[0,-31],[41,-17],[11,-35],[-5,-39],[11,-15]],[[3926,2195],[0,-96],[-8,-47],[-13,-16],[19,-45],[-5,-32],[23,-28],[45,-37],[8,-19],[32,-18],[27,0],[45,29],[39,-6],[48,-85],[-1,-77],[8,0],[2,-452],[143,-1],[0,-152],[167,0],[0,-152],[28,0],[0,-149],[118,-1],[0,-74],[48,-2],[285,-2],[0,-125],[284,-2],[73,1]],[[5341,607],[-17,-14],[20,-58],[-27,-39],[-8,-30],[-27,-38],[21,-74],[31,-11],[2,-24],[-42,-9],[-10,19],[-73,26],[-36,-22],[-102,16],[-13,-28],[-36,-4],[-45,-30],[-23,0],[-20,-25],[-24,29],[-33,65],[-34,-10],[-57,-2],[-34,-36],[-64,19],[0,-31],[-43,14],[-38,-28],[-28,14],[-13,19],[-32,3],[-23,-15],[-44,18],[-9,36],[-32,13],[-34,-5],[-31,-26],[-8,-25],[-41,-6],[-5,-12],[3,-62],[-16,-47],[-19,-31],[-35,9],[-67,45],[-13,-14],[-75,23],[-42,-6],[-20,17],[-72,-8],[-29,21],[-36,11],[-23,-23],[-48,-12],[-20,-39],[-36,-37],[-13,-29],[20,-28],[10,-54],[-37,-32],[-42,38],[-25,33],[-33,25],[-24,7],[-63,63],[-1,31],[-24,42],[13,35],[-11,38],[-26,18],[11,29],[-34,24],[-24,35],[15,26],[21,8],[6,31],[-16,22],[-3,51],[-16,8],[-23,39],[0,40],[-42,54],[6,22],[-55,25],[-35,37],[-33,9],[-10,15],[-39,-18],[-25,-22],[-46,-25],[-18,60],[-33,31],[-44,0],[-8,29],[-31,19],[-7,37],[-20,15],[7,24],[-23,27],[-8,29],[39,11],[25,21],[-9,172],[-39,7],[-2,20],[-42,31],[20,28],[-9,14],[-43,-7],[-31,32],[-4,29],[-17,32],[3,30],[-52,50],[-25,49],[-40,39],[13,27],[-34,38],[-10,25],[-22,22],[-3,27],[12,20],[-5,64],[-17,18],[-30,7],[-11,85],[28,43],[-15,58],[-35,16],[-37,-5],[20,70],[24,37],[-12,35],[-42,17],[-21,19],[-29,-10],[-21,7],[10,38],[-28,25],[-22,65]],[[2465,2317],[33,34],[6,28],[-12,23],[22,41],[30,23],[18,-14],[7,-36],[22,-3],[30,21],[30,50],[41,40],[17,8],[19,33],[105,5],[32,16],[19,38],[55,10],[-3,60],[22,45]],[[14015,6984],[1,-369],[2,-312]],[[11962,7285],[436,0],[535,0]],[[12933,7285],[252,0],[0,-150],[151,-1],[0,-150],[430,0],[249,0]],[[5455,681],[-18,2],[-6,-49],[-19,-23],[-20,17],[-51,-21]],[[3926,2195],[101,63],[27,29],[32,10],[30,41],[-2,35],[12,33],[36,21],[27,-28],[317,10]],[[5419,6287],[-426,-5],[-247,1],[1,100],[-75,1],[0,75],[-152,1],[0,76],[-323,2],[-434,2],[-75,-4],[-145,0]],[[4512,7137],[12,-18],[48,-1],[65,-55],[48,29],[54,-23],[0,-77],[76,-2],[151,0],[0,-75],[152,0],[1,-225],[299,0]],[[5418,6690],[0,-152]],[[5418,5786],[-301,0],[1,-150],[-300,0],[0,-184],[-89,4],[-33,18],[-24,-3]],[[11603,8040],[325,1],[558,-1],[348,0]],[[12834,8040],[0,-153],[23,0],[0,-452],[76,0],[0,-150]],[[8661,4143],[-441,2]],[[8220,4145],[-443,1],[0,-100]],[[7777,4046],[-417,1]],[[2465,2317],[-28,-10],[-11,23],[-26,0],[-30,-18],[-9,-29],[14,-22],[-60,-61],[-18,-29],[0,-25],[-18,-17],[-28,-5],[-17,-47],[-52,-11],[-27,-26],[-28,18],[-24,-1],[1,-35],[-16,-49],[-21,-29],[-65,-36],[-11,1],[-26,54],[-60,32],[-15,35],[-39,27],[-2,26],[-38,-8],[-34,26],[-44,-22],[8,45],[23,41],[-29,43],[27,31],[20,-2],[27,35],[5,58],[-10,32],[-26,11],[-23,26],[2,27],[-26,26],[61,93],[6,32],[46,10],[37,19],[33,-17],[7,34],[18,17],[-8,33],[-21,18],[-21,43],[34,38],[-11,34],[-73,25],[-16,20],[17,16],[-8,30],[-32,3],[16,35],[29,17],[10,62],[-17,27],[-53,20],[-8,37],[14,34],[31,3],[15,-12],[35,23],[3,50],[-10,65],[-17,12],[-5,32],[51,31],[-7,39],[22,51],[4,51],[-13,39],[43,41],[0,28],[15,27],[-9,31],[-25,32],[2,40],[56,9],[5,78],[19,34],[-15,30],[25,38],[2,62],[-14,23]],[[2174,4816],[0,76],[-18,0],[0,301],[-100,0],[-42,16],[-34,43],[12,31],[1,50],[18,27],[1,26],[38,-8],[10,28],[-13,28],[-63,3],[-38,-26],[21,68],[2,35],[37,24],[-10,52],[-12,30],[-273,-1],[-1,251],[-24,0],[1,75]],[[6301,4271],[-30,2],[-20,32],[-34,-6],[-32,35],[-12,39],[2,25],[-52,9],[-23,22],[-38,14],[-2,40],[-32,20],[-31,41],[-97,42],[-20,-4],[-49,11],[-20,-6],[-35,41],[30,27],[-8,48],[3,26],[-90,1],[0,-133],[-148,0],[0,-18],[-297,-1],[0,-151],[-139,0]],[[11407,1424],[19,0],[0,-323]],[[11426,1101],[-359,2],[-366,2],[-234,1],[-49,6],[-416,3],[-166,-2],[-334,0],[-395,-1]],[[9107,1112],[-8,11],[8,44],[35,81],[3,27],[33,10],[9,43],[13,14],[-5,44],[27,20],[17,61],[17,20],[28,7],[-702,-5],[0,228],[16,74],[4,72],[43,53]],[[8645,1916],[234,1],[0,-7],[150,0],[0,50],[144,0],[0,51],[144,0],[0,459],[26,-1],[0,201],[194,0],[0,50],[48,0],[0,50],[49,0],[0,50],[145,0],[0,100],[190,0]],[[9969,2920],[101,0],[0,-150],[290,0],[0,-76],[146,1],[-1,-76],[132,0]],[[5314,4165],[38,-18],[12,-16],[14,-90],[33,-28],[4,-59],[38,10],[14,-18],[43,-4],[6,-31],[-11,-15],[17,-65],[-22,-53],[55,-20],[16,-15],[13,-39],[16,-12],[8,-88],[22,-17],[46,3],[18,29],[27,6],[60,-31],[48,-60],[-19,-48],[-2,-40],[-23,-6],[-27,-46],[-10,-76],[21,-25],[35,-18],[20,-48],[-1,-48]],[[1462,5043],[-53,0],[0,50],[-74,0],[0,25],[-74,0],[0,107],[-15,39],[-37,7],[-16,24],[-25,-9],[-46,31],[-38,-13],[-34,23],[-9,26],[-42,23],[-22,2],[-43,31],[-38,11],[-28,-26],[-43,-1],[-14,16],[-55,8],[-55,-32],[-42,9],[-28,39],[-24,-29],[-43,-11],[-75,15]],[[489,5408],[-35,-3],[-30,12],[-29,66],[-48,33],[-3,18],[77,75],[-10,14],[3,34],[-42,33],[-7,21],[16,69],[-10,19],[-62,42],[4,22],[-27,27],[-24,-10],[-27,57],[3,52],[-43,59],[-22,-11],[-21,25],[-54,93],[-21,9],[-55,98],[-22,8],[0,414]],[[12427,4891],[95,0],[0,-354],[150,0],[0,-100],[149,0],[24,-24],[0,-25],[25,-1],[0,-50],[494,-1]],[[13364,4336],[-4,-50],[1,-255]],[[13361,4031],[0,-50],[-147,0],[-1,-75]],[[13213,3906],[-146,0],[0,-76],[-147,1],[0,-50],[-298,1],[1,50],[-246,2],[0,50],[-50,0],[0,101],[-98,-1],[0,151],[-49,0],[0,151],[-251,0],[0,50],[-296,-1]],[[7777,4046],[0,-351],[-17,0],[1,-470],[-293,0]],[[7468,3225],[-284,0],[-450,2]],[[6734,3227],[1,466],[10,0],[-1,382]],[[7468,3225],[0,-151],[58,0],[-2,-151],[220,-1]],[[7744,2922],[-7,-20],[0,-127],[-98,-1],[1,-154],[-50,1],[3,-152],[-20,0],[2,-124],[0,-178],[-144,0],[0,-75],[-144,1],[0,-76],[-144,0],[0,-301],[-155,0],[0,-306]],[[6988,1410],[-191,0],[0,306],[10,0],[0,297],[2,6],[-1,253],[-3,73],[0,127],[-83,0],[0,604],[12,0],[0,88]],[[6734,3164],[0,63]],[[14017,5265],[-1,-116],[1,-351],[-1,-514],[0,-328]],[[14016,3956],[-361,0],[0,50],[-74,0],[0,25],[-220,0]],[[13364,4336],[126,0],[12,25],[24,0],[13,25],[24,0],[0,25],[25,0],[0,25],[50,50],[12,50],[37,51],[0,63],[25,0],[0,164],[-12,0],[0,76],[-30,62],[0,50],[-37,25],[-16,25],[0,25],[-50,51],[-24,-1],[33,48],[3,16]],[[7744,2922],[1,152],[377,-1],[197,1]],[[8319,3074],[-1,-148],[4,-152],[24,0],[0,-303],[-4,0],[0,-177],[24,1],[0,-50],[24,0],[0,-25],[24,0],[0,-49]],[[8414,2171],[-21,4],[-35,-19],[-50,1],[-51,23],[-60,-26],[-12,-18],[-33,-13],[-71,6],[0,-111],[-74,0],[0,-101],[-192,0],[0,-25],[-72,-1],[0,-25],[-24,0],[0,-25],[-48,0],[0,-25],[-24,0],[0,-25],[-24,0],[0,-25],[-24,0],[0,-25],[-24,0],[-7,-50],[-24,0],[0,-51],[-24,0],[1,-75],[-93,0],[0,-163],[-130,0]],[[7298,1402],[0,8],[-310,0]],[[4502,8040],[504,-2],[305,-2],[270,1]],[[5581,8037],[-4,-144],[-1,-602],[-2,0],[0,-601],[-156,0]],[[14002,1108],[-240,1],[-430,1],[-475,2]],[[12857,1112],[0,610],[59,0],[1,157],[6,0],[0,597]],[[12923,2476],[50,0],[0,605],[62,0]],[[13035,3081],[432,0],[0,-141],[146,0],[0,-147],[73,-4],[226,2],[0,-151],[106,0]],[[14018,2640],[2,-229],[0,-332],[3,-319],[-1,-279],[1,-372],[-21,-1]],[[6148,3178],[437,-1],[0,-13],[149,0]],[[7298,1402],[1,-286]],[[7299,1116],[-32,2],[-327,0],[-91,-11],[-118,1],[-47,4],[-96,-1],[-45,-10],[-302,-2],[-100,15],[-298,0]],[[13213,3906],[1,-226],[-203,0],[1,-292],[23,-1],[0,-306]],[[12923,2476],[-389,2],[-482,0],[-542,0]],[[9654,3704],[-1,-175],[-171,0],[0,-25],[-24,0],[0,-25],[-24,0],[0,-26],[-25,0],[0,-25],[-24,0],[0,-50],[-21,0],[0,-76],[-340,0],[0,-25],[-49,1],[0,-25],[-49,0],[0,-178],[-438,-1]],[[8488,3074],[1,251],[-25,0],[0,50],[-24,0],[-12,26],[0,50],[-12,25],[-24,0],[2,151],[-25,0],[2,66],[-29,0],[0,151],[-98,2],[0,75],[-25,0],[1,224]],[[14014,7407],[1,-423]],[[12834,8040],[213,0],[266,0],[400,1],[299,0],[0,-264],[2,-370]],[[5581,8037],[310,0],[305,2]],[[6196,8039],[0,-146],[-9,0],[0,-602],[-7,0],[1,-601]],[[6196,8039],[356,1],[311,0],[411,1],[385,2]],[[12857,1112],[-45,0],[-344,1],[-300,0],[-333,0],[-17,-12],[-113,0],[-279,0]],[[9704,3679],[0,-24],[25,-1],[0,-50],[24,0],[1,-50],[24,0],[0,-25],[25,0],[0,-50],[24,0],[0,-25],[24,0],[0,-76],[25,0],[0,-25],[24,0],[0,-50],[25,0],[0,-25],[24,0],[0,-50],[24,0],[0,-50],[25,0],[0,-25],[24,0],[-1,-83],[-9,-47],[-50,-92],[7,-11]],[[8645,1916],[-61,0],[-2,102],[-71,0],[0,50],[-48,0],[-1,62],[24,49],[0,40],[-19,-6],[-53,-42]],[[8319,3074],[169,0]],[[14016,3956],[1,-174],[-1,-272],[0,-180],[1,-269],[-2,-216],[1,-95],[2,-110]],[[9107,1112],[-310,0],[-124,1],[-539,-2],[-24,11],[-231,-1],[-346,-4],[-234,-1]],[[1273,4461],[-28,28],[-21,39],[-58,16],[-20,24],[-5,54],[-18,34],[-18,3],[-33,37],[-15,58],[-33,9],[-16,38],[-42,34],[-25,3],[-22,54],[-29,3],[-17,17],[12,29],[-9,27],[-20,13],[-9,40],[-41,6],[-31,14],[-31,-6],[-16,27],[-37,-3],[-11,15],[-72,21],[-24,83],[-30,15],[-3,20],[-49,26],[-28,-8],[-16,39],[-75,44],[-45,-3],[14,31],[65,27],[18,-7],[43,11],[11,35]],[[1605,4121],[-30,-5],[-12,-29],[-34,-9],[-15,-26],[-42,26],[22,40],[5,40],[-50,42],[-25,1],[-42,55],[-25,-9],[-39,30],[-10,49],[-23,10],[20,27],[-6,36],[13,37],[-39,25]]],"transform":{"scale":[0.0008564106220579761,0.0005772536051715564],"translate":[-116.049140153119,44.357962]},"objects":{"30":{"type":"GeometryCollection","geometries":[{"arcs":[[0,1,2,3,4,5]],"type":"Polygon","properties":{"STATEFP":"30","COUNTYFP":"031","COUNTYNS":"01720053","GEOIDFQ":"0500000US30031","GEOID":"30031","NAME":"Gallatin","NAMELSAD":"Gallatin County","STUSPS":"MT","STATE_NAME":"Montana","LSAD":"06","ALAND":6747835851,"AWATER":73611148},"id":"30031"},{"arcs":[[6,7,8,9,10,11,12,13]],"type":"Polygon","properties":{"STATEFP":"30","COUNTYFP":"015","COUNTYNS":"01719619","GEOIDFQ":"0500000US30015","GEOID":"30015","NAME":"Chouteau","NAMELSAD":"Chouteau County","STUSPS":"MT","STATE_NAME":"Montana","LSAD":"06","ALAND":10288778624,"AWATER":62611691},"id":"30015"},{"arcs":[[-1,14,15,16,17,18,19]],"type":"Polygon","properties":{"STATEFP":"30","COUNTYFP":"043","COUNTYNS":"01720045","GEOIDFQ":"0500000US30043","GEOID":"30043","NAME":"Jefferson","NAMELSAD":"Jefferson County","STUSPS":"MT","STATE_NAME":"Montana","LSAD":"06","ALAND":4291603026,"AWATER":6256292},"id":"30043"},{"arcs":[[20,21,22,23,24,25,26,27]],"type":"Polygon","properties":{"STATEFP":"30","COUNTYFP":"087","COUNTYNS":"01716795","GEOIDFQ":"0500000US30087","GEOID":"30087","NAME":"Rosebud","NAMELSAD":"Rosebud County","STUSPS":"MT","STATE_NAME":"Montana","LSAD":"06","ALAND":12971010182,"AWATER":44234227},"id":"30087"},{"arcs":[[28,29,30,31]],"type":"Polygon","properties":{"STATEFP":"30","COUNTYFP":"035","COUNTYNS":"01719607","GEOIDFQ":"0500000US30035","GEOID":"30035","NAME":"Glacier","NAMELSAD":"Glacier County","STUSPS":"MT","STATE_NAME":"Montana","LSAD":"06","ALAND":7757405147,"AWATER":105684958},"id":"30035"},{"arcs":[[-17,32,33,34,35,36]],"type":"Polygon","properties":{"STATEFP":"30","COUNTYFP":"023","COUNTYNS":"01719617","GEOIDFQ":"0500000US30023","GEOID":"30023","NAME":"Deer Lodge","NAMELSAD":"Deer Lodge County","STUSPS":"MT","STATE_NAME":"Montana","LSAD":"06","ALAND":1907998861,"AWATER":12199890},"id":"30023"},{"arcs":[[-32,37,38,39,40,41,42,43,44,45]],"type":"Polygon","properties":{"STATEFP":"30","COUNTYFP":"029","COUNTYNS":"01719611","GEOIDFQ":"0500000US30029","GEOID":"30029","NAME":"Flathead","NAMELSAD":"Flathead County","STUSPS":"MT","STATE_NAME":"Montana","LSAD":"06","ALAND":13176056530,"AWATER":436954292},"id":"30029"},{"arcs":[[-45,46,47]],"type":"Polygon","properties":{"STATEFP":"30","COUNTYFP":"053","COUNTYNS":"01720038","GEOIDFQ":"0500000US30053","GEOID":"30053","NAME":"Lincoln","NAMELSAD":"Lincoln County","STUSPS":"MT","STATE_NAME":"Montana","LSAD":"06","ALAND":9356484222,"AWATER":161555792},"id":"30053"},{"arcs":[[48,49,50,51,52,53]],"type":"Polygon","properties":{"STATEFP":"30","COUNTYFP":"071","COUNTYNS":"01720023","GEOIDFQ":"0500000US30071","GEOID":"30071","NAME":"Phillips","NAMELSAD":"Phillips County","STUSPS":"MT","STATE_NAME":"Montana","LSAD":"06","ALAND":13313630165,"AWATER":185493135},"id":"30071"},{"arcs":[[54,55,56,57,58,59]],"type":"Polygon","properties":{"STATEFP":"30","COUNTYFP":"055","COUNTYNS":"01716270","GEOIDFQ":"0500000US30055","GEOID":"30055","NAME":"McCone","NAMELSAD":"McCone County","STUSPS":"MT","STATE_NAME":"Montana","LSAD":"06","ALAND":6843332035,"AWATER":103024685},"id":"30055"},{"arcs":[[-9,60,61,-54,62]],"type":"Polygon","properties":{"STATEFP":"30","COUNTYFP":"005","COUNTYNS":"01722470","GEOIDFQ":"0500000US30005","GEOID":"30005","NAME":"Blaine","NAMELSAD":"Blaine County","STUSPS":"MT","STATE_NAME":"Montana","LSAD":"06","ALAND":10949218323,"AWATER":29079295},"id":"30005"},{"arcs":[[63,64,65,-56,66]],"type":"Polygon","properties":{"STATEFP":"30","COUNTYFP":"083","COUNTYNS":"01715338","GEOIDFQ":"0500000US30083","GEOID":"30083","NAME":"Richland","NAMELSAD":"Richland County","STUSPS":"MT","STATE_NAME":"Montana","LSAD":"06","ALAND":5398974513,"AWATER":49002594},"id":"30083"},{"arcs":[[-50,67,68,69,-60,70]],"type":"Polygon","properties":{"STATEFP":"30","COUNTYFP":"105","COUNTYNS":"01678923","GEOIDFQ":"0500000US30105","GEOID":"30105","NAME":"Valley","NAMELSAD":"Valley County","STUSPS":"MT","STATE_NAME":"Montana","LSAD":"06","ALAND":12758579867,"AWATER":351382239},"id":"30105"},{"arcs":[[-21,71,-51,-71,-59,72,73]],"type":"Polygon","properties":{"STATEFP":"30","COUNTYFP":"033","COUNTYNS":"01716058","GEOIDFQ":"0500000US30033","GEOID":"30033","NAME":"Garfield","NAMELSAD":"Garfield County","STUSPS":"MT","STATE_NAME":"Montana","LSAD":"06","ALAND":12112233245,"AWATER":446864356},"id":"30033"},{"arcs":[[-11,74,75,76,77]],"type":"Polygon","properties":{"STATEFP":"30","COUNTYFP":"045","COUNTYNS":"01719602","GEOIDFQ":"0500000US30045","GEOID":"30045","NAME":"Judith Basin","NAMELSAD":"Judith Basin County","STUSPS":"MT","STATE_NAME":"Montana","LSAD":"06","ALAND":4842466585,"AWATER":2066740},"id":"30045"},{"arcs":[[-36,78,79,80]],"type":"Polygon","properties":{"STATEFP":"30","COUNTYFP":"039","COUNTYNS":"01719605","GEOIDFQ":"0500000US30039","GEOID":"30039","NAME":"Granite","NAMELSAD":"Granite County","STUSPS":"MT","STATE_NAME":"Montana","LSAD":"06","ALAND":4473328969,"AWATER":14546367},"id":"30039"},{"arcs":[[-28,81,82,-52,-72]],"type":"Polygon","properties":{"STATEFP":"30","COUNTYFP":"069","COUNTYNS":"01719590","GEOIDFQ":"0500000US30069","GEOID":"30069","NAME":"Petroleum","NAMELSAD":"Petroleum County","STUSPS":"MT","STATE_NAME":"Montana","LSAD":"06","ALAND":4288047859,"AWATER":48927318},"id":"30069"},{"arcs":[[-42,83,-80,84,85,86,87,88]],"type":"Polygon","properties":{"STATEFP":"30","COUNTYFP":"063","COUNTYNS":"01719596","GEOIDFQ":"0500000US30063","GEOID":"30063","NAME":"Missoula","NAMELSAD":"Missoula County","STUSPS":"MT","STATE_NAME":"Montana","LSAD":"06","ALAND":6715864478,"AWATER":64582796},"id":"30063"},{"arcs":[[-19,89,-40,90,91,92,93]],"type":"Polygon","properties":{"STATEFP":"30","COUNTYFP":"049","COUNTYNS":"00793926","GEOIDFQ":"0500000US30049","GEOID":"30049","NAME":"Lewis and Clark","NAMELSAD":"Lewis and Clark County","STUSPS":"MT","STATE_NAME":"Montana","LSAD":"06","ALAND":8957163878,"AWATER":101496952},"id":"30049"},{"arcs":[[-34,94,95,96,97]],"type":"Polygon","properties":{"STATEFP":"30","COUNTYFP":"001","COUNTYNS":"01719627","GEOIDFQ":"0500000US30001","GEOID":"30001","NAME":"Beaverhead","NAMELSAD":"Beaverhead County","STUSPS":"MT","STATE_NAME":"Montana","LSAD":"06","ALAND":14355492117,"AWATER":78345288},"id":"30001"},{"arcs":[[98,-67,-55,-70,99,100]],"type":"Polygon","properties":{"STATEFP":"30","COUNTYFP":"085","COUNTYNS":"01669428","GEOIDFQ":"0500000US30085","GEOID":"30085","NAME":"Roosevelt","NAMELSAD":"Roosevelt County","STUSPS":"MT","STATE_NAME":"Montana","LSAD":"06","ALAND":6098391689,"AWATER":38582249},"id":"30085"},{"arcs":[[-6,101,-96,102,-15]],"type":"Polygon","properties":{"STATEFP":"30","COUNTYFP":"057","COUNTYNS":"01720033","GEOIDFQ":"0500000US30057","GEOID":"30057","NAME":"Madison","NAMELSAD":"Madison County","STUSPS":"MT","STATE_NAME":"Montana","LSAD":"06","ALAND":9293281827,"AWATER":39849039},"id":"30057"},{"arcs":[[-14,103,-38,-31,104,105]],"type":"Polygon","properties":{"STATEFP":"30","COUNTYFP":"073","COUNTYNS":"01719587","GEOIDFQ":"0500000US30073","GEOID":"30073","NAME":"Pondera","NAMELSAD":"Pondera County","STUSPS":"MT","STATE_NAME":"Montana","LSAD":"06","ALAND":4207608377,"AWATER":43980663},"id":"30073"},{"arcs":[[-13,106,-91,-39,-104]],"type":"Polygon","properties":{"STATEFP":"30","COUNTYFP":"099","COUNTYNS":"01720018","GEOIDFQ":"0500000US30099","GEOID":"30099","NAME":"Teton","NAMELSAD":"Teton County","STUSPS":"MT","STATE_NAME":"Montana","LSAD":"06","ALAND":5883457564,"AWATER":52625570},"id":"30099"},{"arcs":[[-69,107,108,-100]],"type":"Polygon","properties":{"STATEFP":"30","COUNTYFP":"019","COUNTYNS":"01637566","GEOIDFQ":"0500000US30019","GEOID":"30019","NAME":"Daniels","NAMELSAD":"Daniels County","STUSPS":"MT","STATE_NAME":"Montana","LSAD":"06","ALAND":3694021960,"AWATER":1021697},"id":"30019"},{"arcs":[[-10,-63,-53,-83,109,110,111,-75]],"type":"Polygon","properties":{"STATEFP":"30","COUNTYFP":"027","COUNTYNS":"01719614","GEOIDFQ":"0500000US30027","GEOID":"30027","NAME":"Fergus","NAMELSAD":"Fergus County","STUSPS":"MT","STATE_NAME":"Montana","LSAD":"06","ALAND":11238811029,"AWATER":27700317},"id":"30027"},{"arcs":[[-35,-98,112,-85,-79]],"type":"Polygon","properties":{"STATEFP":"30","COUNTYFP":"081","COUNTYNS":"01719582","GEOIDFQ":"0500000US30081","GEOID":"30081","NAME":"Ravalli","NAMELSAD":"Ravalli County","STUSPS":"MT","STATE_NAME":"Montana","LSAD":"06","ALAND":6192574708,"AWATER":24289482},"id":"30081"},{"arcs":[[-43,-89,113]],"type":"Polygon","properties":{"STATEFP":"30","COUNTYFP":"047","COUNTYNS":"01796943","GEOIDFQ":"0500000US30047","GEOID":"30047","NAME":"Lake","NAMELSAD":"Lake County","STUSPS":"MT","STATE_NAME":"Montana","LSAD":"06","ALAND":3860389550,"AWATER":423445080},"id":"30047"},{"arcs":[[-18,-37,-81,-84,-41,-90]],"type":"Polygon","properties":{"STATEFP":"30","COUNTYFP":"077","COUNTYNS":"01720021","GEOIDFQ":"0500000US30077","GEOID":"30077","NAME":"Powell","NAMELSAD":"Powell County","STUSPS":"MT","STATE_NAME":"Montana","LSAD":"06","ALAND":6024423558,"AWATER":16245447},"id":"30077"},{"arcs":[[-12,-78,114,-92,-107]],"type":"Polygon","properties":{"STATEFP":"30","COUNTYFP":"013","COUNTYNS":"01719622","GEOIDFQ":"0500000US30013","GEOID":"30013","NAME":"Cascade","NAMELSAD":"Cascade County","STUSPS":"MT","STATE_NAME":"Montana","LSAD":"06","ALAND":6988334235,"AWATER":34300473},"id":"30013"},{"arcs":[[-16,-103,-95,-33]],"type":"Polygon","properties":{"STATEFP":"30","COUNTYFP":"093","COUNTYNS":"01719575","GEOIDFQ":"0500000US30093","GEOID":"30093","NAME":"Silver Bow","NAMELSAD":"Silver Bow County","STUSPS":"MT","STATE_NAME":"Montana","LSAD":"06","ALAND":1859586139,"AWATER":1500304},"id":"30093"},{"arcs":[[-24,115,116,117,118,119]],"type":"Polygon","properties":{"STATEFP":"30","COUNTYFP":"003","COUNTYNS":"01716521","GEOIDFQ":"0500000US30003","GEOID":"30003","NAME":"Big Horn","NAMELSAD":"Big Horn County","STUSPS":"MT","STATE_NAME":"Montana","LSAD":"06","ALAND":12944183984,"AWATER":47395459},"id":"30003"},{"arcs":[[-2,-20,-94,120]],"type":"Polygon","properties":{"STATEFP":"30","COUNTYFP":"007","COUNTYNS":"01719625","GEOIDFQ":"0500000US30007","GEOID":"30007","NAME":"Broadwater","NAMELSAD":"Broadwater County","STUSPS":"MT","STATE_NAME":"Montana","LSAD":"06","ALAND":3088195856,"AWATER":118487320},"id":"30007"},{"arcs":[[-44,-114,-88,121,122,-47]],"type":"Polygon","properties":{"STATEFP":"30","COUNTYFP":"089","COUNTYNS":"01719578","GEOIDFQ":"0500000US30089","GEOID":"30089","NAME":"Sanders","NAMELSAD":"Sanders County","STUSPS":"MT","STATE_NAME":"Montana","LSAD":"06","ALAND":7149404118,"AWATER":76395125},"id":"30089"},{"arcs":[[-58,123,124,125,126,-73]],"type":"Polygon","properties":{"STATEFP":"30","COUNTYFP":"079","COUNTYNS":"01715847","GEOIDFQ":"0500000US30079","GEOID":"30079","NAME":"Prairie","NAMELSAD":"Prairie County","STUSPS":"MT","STATE_NAME":"Montana","LSAD":"06","ALAND":4497780202,"AWATER":15092932},"id":"30079"},{"arcs":[[-76,-112,127,128,129]],"type":"Polygon","properties":{"STATEFP":"30","COUNTYFP":"107","COUNTYNS":"01719560","GEOIDFQ":"0500000US30107","GEOID":"30107","NAME":"Wheatland","NAMELSAD":"Wheatland County","STUSPS":"MT","STATE_NAME":"Montana","LSAD":"06","ALAND":3684208390,"AWATER":13010928},"id":"30107"},{"arcs":[[-129,130,131,132,133]],"type":"Polygon","properties":{"STATEFP":"30","COUNTYFP":"097","COUNTYNS":"01719569","GEOIDFQ":"0500000US30097","GEOID":"30097","NAME":"Sweet Grass","NAMELSAD":"Sweet Grass County","STUSPS":"MT","STATE_NAME":"Montana","LSAD":"06","ALAND":4805816380,"AWATER":17455905},"id":"30097"},{"arcs":[[-65,134,135,-125,136]],"type":"Polygon","properties":{"STATEFP":"30","COUNTYFP":"109","COUNTYNS":"01696629","GEOIDFQ":"0500000US30109","GEOID":"30109","NAME":"Wibaux","NAMELSAD":"Wibaux County","STUSPS":"MT","STATE_NAME":"Montana","LSAD":"06","ALAND":2303979503,"AWATER":1756846},"id":"30109"},{"arcs":[[-132,137,138,139,140]],"type":"Polygon","properties":{"STATEFP":"30","COUNTYFP":"095","COUNTYNS":"01719572","GEOIDFQ":"0500000US30095","GEOID":"30095","NAME":"Stillwater","NAMELSAD":"Stillwater County","STUSPS":"MT","STATE_NAME":"Montana","LSAD":"06","ALAND":4652999504,"AWATER":23923677},"id":"30095"},{"arcs":[[-30,141,142,-105]],"type":"Polygon","properties":{"STATEFP":"30","COUNTYFP":"101","COUNTYNS":"01719566","GEOIDFQ":"0500000US30101","GEOID":"30101","NAME":"Toole","NAMELSAD":"Toole County","STUSPS":"MT","STATE_NAME":"Montana","LSAD":"06","ALAND":4959475398,"AWATER":78025726},"id":"30101"},{"arcs":[[143,144,145,146,147]],"type":"Polygon","properties":{"STATEFP":"30","COUNTYFP":"011","COUNTYNS":"01688746","GEOIDFQ":"0500000US30011","GEOID":"30011","NAME":"Carter","NAMELSAD":"Carter County","STUSPS":"MT","STATE_NAME":"Montana","LSAD":"06","ALAND":8651796244,"AWATER":19503322},"id":"30011"},{"arcs":[[-4,148,-133,-141,149,150]],"type":"Polygon","properties":{"STATEFP":"30","COUNTYFP":"067","COUNTYNS":"01720027","GEOIDFQ":"0500000US30067","GEOID":"30067","NAME":"Park","NAMELSAD":"Park County","STUSPS":"MT","STATE_NAME":"Montana","LSAD":"06","ALAND":7258388272,"AWATER":27861800},"id":"30067"},{"arcs":[[-22,-74,-127,151,-146,152]],"type":"Polygon","properties":{"STATEFP":"30","COUNTYFP":"017","COUNTYNS":"01720109","GEOIDFQ":"0500000US30017","GEOID":"30017","NAME":"Custer","NAMELSAD":"Custer County","STUSPS":"MT","STATE_NAME":"Montana","LSAD":"06","ALAND":9798723728,"AWATER":25612454},"id":"30017"},{"arcs":[[-27,153,154,-110,-82]],"type":"Polygon","properties":{"STATEFP":"30","COUNTYFP":"065","COUNTYNS":"01719593","GEOIDFQ":"0500000US30065","GEOID":"30065","NAME":"Musselshell","NAMELSAD":"Musselshell County","STUSPS":"MT","STATE_NAME":"Montana","LSAD":"06","ALAND":4840577742,"AWATER":7118682},"id":"30065"},{"arcs":[[155,-101,-109,156]],"type":"Polygon","properties":{"STATEFP":"30","COUNTYFP":"091","COUNTYNS":"01677577","GEOIDFQ":"0500000US30091","GEOID":"30091","NAME":"Sheridan","NAMELSAD":"Sheridan County","STUSPS":"MT","STATE_NAME":"Montana","LSAD":"06","ALAND":4343256737,"AWATER":75111952},"id":"30091"},{"arcs":[[-7,-106,-143,157,158]],"type":"Polygon","properties":{"STATEFP":"30","COUNTYFP":"051","COUNTYNS":"01720036","GEOIDFQ":"0500000US30051","GEOID":"30051","NAME":"Liberty","NAMELSAD":"Liberty County","STUSPS":"MT","STATE_NAME":"Montana","LSAD":"06","ALAND":3703651372,"AWATER":44411471},"id":"30051"},{"arcs":[[-57,-66,-137,-124]],"type":"Polygon","properties":{"STATEFP":"30","COUNTYFP":"021","COUNTYNS":"01715632","GEOIDFQ":"0500000US30021","GEOID":"30021","NAME":"Dawson","NAMELSAD":"Dawson County","STUSPS":"MT","STATE_NAME":"Montana","LSAD":"06","ALAND":6143260033,"AWATER":29884286},"id":"30021"},{"arcs":[[-8,-159,159,-61]],"type":"Polygon","properties":{"STATEFP":"30","COUNTYFP":"041","COUNTYNS":"01720048","GEOIDFQ":"0500000US30041","GEOID":"30041","NAME":"Hill","NAMELSAD":"Hill County","STUSPS":"MT","STATE_NAME":"Montana","LSAD":"06","ALAND":7509401938,"AWATER":44199217},"id":"30041"},{"arcs":[[-23,-153,-145,160,-116]],"type":"Polygon","properties":{"STATEFP":"30","COUNTYFP":"075","COUNTYNS":"01719584","GEOIDFQ":"0500000US30075","GEOID":"30075","NAME":"Powder River","NAMELSAD":"Powder River County","STUSPS":"MT","STATE_NAME":"Montana","LSAD":"06","ALAND":8542288815,"AWATER":1565958},"id":"30075"},{"arcs":[[-26,161,-119,162,-139,163,-154]],"type":"Polygon","properties":{"STATEFP":"30","COUNTYFP":"111","COUNTYNS":"01719558","GEOIDFQ":"0500000US30111","GEOID":"30111","NAME":"Yellowstone","NAMELSAD":"Yellowstone County","STUSPS":"MT","STATE_NAME":"Montana","LSAD":"06","ALAND":6820478440,"AWATER":40490022},"id":"30111"},{"arcs":[[-126,-136,164,-147,-152]],"type":"Polygon","properties":{"STATEFP":"30","COUNTYFP":"025","COUNTYNS":"01688745","GEOIDFQ":"0500000US30025","GEOID":"30025","NAME":"Fallon","NAMELSAD":"Fallon County","STUSPS":"MT","STATE_NAME":"Montana","LSAD":"06","ALAND":4197320397,"AWATER":5915331},"id":"30025"},{"arcs":[[-3,-121,-93,-115,-77,-130,-134,-149]],"type":"Polygon","properties":{"STATEFP":"30","COUNTYFP":"059","COUNTYNS":"01719600","GEOIDFQ":"0500000US30059","GEOID":"30059","NAME":"Meagher","NAMELSAD":"Meagher County","STUSPS":"MT","STATE_NAME":"Montana","LSAD":"06","ALAND":6194909925,"AWATER":7475979},"id":"30059"},{"arcs":[[165,-150,-140,-163,-118]],"type":"Polygon","properties":{"STATEFP":"30","COUNTYFP":"009","COUNTYNS":"01720111","GEOIDFQ":"0500000US30009","GEOID":"30009","NAME":"Carbon","NAMELSAD":"Carbon County","STUSPS":"MT","STATE_NAME":"Montana","LSAD":"06","ALAND":5304007483,"AWATER":35017697},"id":"30009"},{"arcs":[[-25,-120,-162]],"type":"Polygon","properties":{"STATEFP":"30","COUNTYFP":"103","COUNTYNS":"01719563","GEOIDFQ":"0500000US30103","GEOID":"30103","NAME":"Treasure","NAMELSAD":"Treasure County","STUSPS":"MT","STATE_NAME":"Montana","LSAD":"06","ALAND":2532492074,"AWATER":17149960},"id":"30103"},{"arcs":[[166,-122,-87,167]],"type":"Polygon","properties":{"STATEFP":"30","COUNTYFP":"061","COUNTYNS":"01720030","GEOIDFQ":"0500000US30061","GEOID":"30061","NAME":"Mineral","NAMELSAD":"Mineral County","STUSPS":"MT","STATE_NAME":"Montana","LSAD":"06","ALAND":3158799815,"AWATER":9897218},"id":"30061"},{"arcs":[[-111,-155,-164,-138,-131,-128]],"type":"Polygon","properties":{"STATEFP":"30","COUNTYFP":"037","COUNTYNS":"01723078","GEOIDFQ":"0500000US30037","GEOID":"30037","NAME":"Golden Valley","NAMELSAD":"Golden Valley County","STUSPS":"MT","STATE_NAME":"Montana","LSAD":"06","ALAND":3041740573,"AWATER":2621792},"id":"30037"}]}}}