{"type":"Topology","arcs":[[[1793,2236],[367,-3],[29,-1]],[[2189,2232],[3,-372]],[[2192,1860],[-69,0],[-124,2],[-192,1]],[[1807,1863],[-14,0]],[[1793,1863],[0,373]],[[0,1815],[204,0],[184,2],[78,-1]],[[466,1816],[2,-168],[-1,-111]],[[467,1537],[-1,-46],[-5,0]],[[461,1491],[-48,-1],[-238,-1],[-174,0]],[[1,1489],[0,183],[-1,143]],[[466,1816],[0,47],[6,1],[0,92],[-1,185]],[[471,2141],[66,-1],[92,1],[184,-3],[112,5]],[[925,2143],[14,0]],[[939,2143],[-1,-204],[2,-29],[8,-47],[20,0],[-2,-31],[1,-110],[0,-184]],[[967,1538],[-184,0],[-316,-1]],[[939,2143],[135,3],[157,0],[125,2]],[[1356,2148],[-1,-286],[56,0]],[[1411,1862],[1,-371]],[[1412,1491],[-48,0],[0,-185]],[[1364,1306],[-144,0],[-235,0]],[[985,1306],[1,185],[-19,0],[0,47]],[[4245,2606],[238,0]],[[4483,2606],[80,1],[0,-93]],[[4563,2514],[0,-279]],[[4563,2235],[-318,-1]],[[4245,2234],[-1,178],[1,194]],[[2631,3205],[191,-1],[263,0],[191,1]],[[3276,3205],[0,-100],[-3,-3],[1,-105]],[[3274,2997],[-12,-10],[-18,2],[-24,-17],[-29,2],[-14,-12],[-11,1],[-15,-20],[-17,-2],[-6,-14],[-46,-22],[-30,7],[-30,0],[-23,11],[-12,-4]],[[2987,2919],[-23,-4],[-28,11],[-16,-3],[-30,9],[-12,12],[-12,-2],[-5,18],[-25,-4],[-33,8],[-15,-1],[-27,18],[-32,-4],[-40,15],[-15,10],[1,13],[-11,13],[-25,5],[-8,9]],[[2631,3042],[0,163]],[[2980,2230],[17,0]],[[2997,2230],[208,0],[84,2]],[[3289,2232],[8,0]],[[3297,2232],[1,-371]],[[3298,1861],[-108,0],[-210,-1]],[[2980,1860],[1,148],[-1,222]],[[3305,1860],[170,0],[139,0]],[[3614,1860],[4,0]],[[3618,1860],[1,-277],[0,-93]],[[3619,1490],[-308,0]],[[3311,1490],[-7,0],[1,370]],[[2980,1860],[-188,-1],[-28,-1],[-169,2]],[[2595,1860],[-9,0]],[[2586,1860],[-2,370]],[[2584,2230],[68,-1]],[[2652,2229],[133,0],[195,1]],[[3618,1860],[177,0],[135,1]],[[3930,1861],[3,0],[0,-278]],[[3933,1583],[0,-93]],[[3933,1490],[-227,0],[-82,0]],[[3624,1490],[-5,0]],[[4879,1553],[46,-8],[13,-6],[30,11],[19,-1],[25,-20],[26,-5],[26,9],[44,-1],[41,-31],[9,-11],[18,-1]],[[5176,1489],[7,-14],[24,-15],[12,-34],[0,-21],[27,-28],[12,-25],[-11,-33],[11,-32],[15,-15]],[[5273,1272],[12,-80],[-15,-17],[-5,-18],[14,-40]],[[5279,1117],[-20,0],[-1,-32],[-78,1]],[[5180,1086],[0,31],[-303,1]],[[4877,1118],[-1,237],[1,135],[2,63]],[[374,3207],[345,0],[142,0]],[[861,3207],[0,-230],[13,0],[0,-369]],[[874,2608],[-155,-2],[-303,-1]],[[416,2605],[-25,0],[0,237],[0,135],[-15,0],[-2,230]],[[3404,2],[-77,0]],[[3327,2],[0,373]],[[3327,375],[180,0],[129,0]],[[3636,375],[0,-125],[0,-248]],[[3636,2],[-232,0]],[[2614,1119],[260,0],[220,-1],[64,1]],[[3158,1119],[1,-104],[-1,-174],[0,-93],[7,0],[-1,-31]],[[3164,717],[-18,8],[-14,-4],[-45,1],[-6,5],[-30,-3],[-27,9],[-14,-1]],[[3010,732],[-38,16],[-193,0]],[[2779,748],[-165,0]],[[2614,748],[-1,216],[1,155]],[[2262,2],[-13,0]],[[2249,2],[0,165],[-2,20],[2,187]],[[2249,374],[114,0],[153,2],[67,-3],[49,1]],[[2632,374],[1,-78],[2,-263],[0,-31]],[[2635,2],[-188,0],[-185,0]],[[3936,1490],[9,0],[-1,-139],[118,0],[0,16],[34,0],[0,15],[105,1],[0,15],[132,1],[1,92]],[[4334,1491],[72,0],[0,-66]],[[4406,1425],[0,-17],[-22,-11],[-19,-2],[-39,-44],[-34,-31],[-25,-45],[-18,-21]],[[4249,1254],[-13,-25],[-26,-38],[-56,-31],[-29,-13],[-11,-21],[-19,-17],[-24,-30],[-8,-1],[-31,-26],[-16,-32],[-25,-19],[-47,-61],[-5,-12]],[[3939,928],[0,190],[-3,0]],[[3936,1118],[0,372]],[[4251,747],[312,0]],[[4563,747],[0,-372]],[[4563,375],[-309,0]],[[4254,375],[-2,0]],[[4252,375],[-1,372]],[[5334,1],[-154,0]],[[5180,1],[0,279]],[[5180,280],[271,0]],[[5451,280],[39,-1]],[[5490,279],[0,-278]],[[5490,1],[-156,0]],[[4642,1863],[159,0]],[[4801,1863],[78,0]],[[4879,1863],[0,-306]],[[4879,1557],[-11,-1],[-30,-15],[-23,-23],[-11,-7],[-28,-1],[-24,-21],[-58,-17],[-16,9],[-37,-1]],[[4641,1480],[1,11],[0,372]],[[3636,375],[2,0]],[[3638,375],[304,-1]],[[3942,374],[3,0]],[[3945,374],[0,-371]],[[3945,3],[-158,-1],[-151,0]],[[3624,1490],[-2,-88],[-2,-221],[1,-62]],[[3621,1119],[-313,0]],[[3308,1119],[2,253],[1,118]],[[4877,1118],[-2,0]],[[4875,1118],[-129,0],[-183,1]],[[4563,1119],[0,374]],[[4563,1493],[21,-6],[22,10],[12,0],[23,-17]],[[4879,1557],[0,-4]],[[5801,283],[1,-3]],[[5802,280],[-236,-1],[-76,0]],[[5451,280],[1,93],[-1,186]],[[5451,559],[216,0],[28,1]],[[5695,560],[9,5],[2,30],[15,6],[13,-26],[-6,-22],[-26,-13],[4,-38],[24,-30],[-2,-27],[12,-32],[1,-18],[13,-31],[-21,-19],[6,-18],[24,9],[19,-16],[20,-9],[-1,-28]],[[4875,1118],[0,-186],[0,-186],[-2,0]],[[4873,746],[-310,1]],[[4563,747],[0,372]],[[3933,1490],[3,0]],[[3936,1118],[-62,0],[-235,1]],[[3639,1119],[-18,0]],[[3327,2],[-305,0],[-2,0]],[[3020,2],[-1,93],[0,280]],[[3019,375],[133,0],[175,0]],[[4802,2513],[2,93],[0,346]],[[4804,2952],[22,-1],[15,-22],[-2,-21],[18,-1],[21,15],[32,-14],[11,-9],[26,-9],[2,-34],[26,-11],[25,5],[28,-14],[-14,-30],[-2,-18],[17,-33],[32,-27],[5,-30]],[[5066,2698],[-62,0],[0,-93],[-3,-7],[0,-163]],[[5001,2435],[0,-15],[-66,0]],[[4935,2420],[-133,0],[0,93]],[[4563,2235],[0,-372]],[[4563,1863],[-316,-1]],[[4247,1862],[-1,0],[0,186]],[[4246,2048],[-1,186]],[[1848,746],[67,0]],[[1915,746],[169,2],[152,0]],[[2236,748],[-2,-19],[-2,-150],[3,-178],[1,-27]],[[2236,374],[-142,1],[-231,0]],[[1863,375],[-13,0]],[[1850,375],[-1,186],[-1,185]],[[4563,2514],[239,-1]],[[4935,2420],[0,-186]],[[4935,2234],[-134,0]],[[4801,2234],[-238,1]],[[3158,1119],[150,0]],[[3639,1119],[0,-372]],[[3639,747],[-2,-10]],[[3637,737],[-69,-16],[-28,-16],[-27,-7],[-46,4],[-15,-5],[-58,5],[-24,-2],[-43,6]],[[3327,706],[-45,-1],[-40,5],[-19,8],[-30,-8],[-29,7]],[[4334,1491],[0,141],[-86,-1]],[[4248,1631],[-1,61],[0,170]],[[4563,1863],[79,0]],[[4563,1493],[-56,-30],[-49,-7],[-33,-27],[-19,-4]],[[5180,1086],[0,-248]],[[5180,838],[0,-279]],[[5180,559],[-74,1],[-83,-1],[-149,1]],[[4874,560],[-1,186]],[[3298,1861],[7,-1]],[[2614,1119],[-10,0],[1,123],[2,123],[-1,124],[-11,0]],[[2595,1489],[-1,69],[0,179],[1,123]],[[4801,1863],[0,371]],[[4935,2234],[183,0],[0,-79]],[[5118,2155],[0,-293]],[[5118,1862],[-239,1]],[[4245,2606],[-83,-1],[-235,0]],[[3927,2605],[-4,0],[1,346]],[[3924,2951],[-4,25],[0,105]],[[3920,3081],[36,-9],[26,-22],[33,-18],[12,3],[17,-20],[64,-61],[24,-1],[15,8],[19,-1],[31,32],[11,19],[9,45],[20,9],[49,-19],[37,-3],[23,-5],[35,10],[21,7],[29,-11],[20,2],[19,9],[13,-8]],[[4483,3047],[0,-139],[0,-302]],[[3930,1861],[0,186]],[[3930,2047],[157,0],[159,1]],[[4248,1631],[-38,0],[-1,-16],[-105,0],[-1,-16],[-39,-1],[0,-15],[-131,0]],[[2779,748],[1,-280],[-78,1],[0,-94]],[[2702,375],[-70,-1]],[[2249,374],[-13,0]],[[2236,748],[114,0],[264,0]],[[5279,1117],[24,-25],[23,-3],[12,-19],[17,-6],[43,24],[24,33],[36,18],[16,0],[35,-14],[23,6],[40,0],[7,-5]],[[5579,1126],[12,-15],[-5,-32],[4,-13],[20,-16],[4,-11],[-8,-34],[3,-20],[15,-21],[1,-19],[-24,-21],[7,-31],[-4,-34],[6,-21]],[[5610,838],[-196,0],[-143,-1],[-91,1]],[[2192,1860],[89,0]],[[2281,1860],[-1,-186],[0,-185]],[[2280,1489],[-263,2],[-117,0]],[[1900,1491],[-94,0]],[[1806,1491],[1,372]],[[0,1815],[1,325]],[[1,2140],[122,-2],[282,4],[40,-1]],[[445,2141],[26,0]],[[5118,1862],[76,0],[-1,-62]],[[5193,1800],[1,-171],[6,0],[0,-31],[7,-16],[13,0],[0,-15],[13,0],[0,-16],[13,0],[0,-15],[26,0],[0,-47]],[[5272,1489],[-96,0]],[[3010,732],[0,-287],[1,-70]],[[3011,375],[-95,0],[-214,0]],[[985,1306],[0,-186],[-7,0],[0,-48]],[[978,1072],[-22,-1],[-145,0],[-93,1],[-208,-1],[-52,0]],[[458,1071],[0,49],[5,0],[0,276],[-2,95]],[[3276,3205],[242,0],[274,0],[5,-22],[16,-33],[19,-20],[13,4],[53,-33],[22,-20]],[[3924,2951],[-25,10],[-13,-3],[-38,9],[-32,-10],[-19,7],[-28,2],[-12,7],[-24,-2],[-50,31],[-12,-6],[-23,0],[-37,27],[-23,-4],[-15,6],[-15,16],[-28,-4],[-40,41],[-10,15],[-19,3],[-23,-11],[-27,-25],[-27,-7],[-22,-13],[-18,-2],[-17,-14],[-20,-7],[-33,-20]],[[4254,375],[0,-295],[0,-78]],[[4254,2],[-76,0],[-233,1]],[[3945,374],[307,1]],[[416,2605],[0,-370],[29,-1],[0,-93]],[[1,2140],[0,277],[-1,255],[1,120],[-1,152],[0,263],[164,1],[210,-1]],[[4483,3047],[29,-5],[18,21],[27,-1],[12,-11],[12,1],[24,13],[11,-13],[29,0],[20,-10],[6,-39],[34,-11],[20,-29],[40,0],[39,-11]],[[2987,2919],[1,-317],[8,0],[1,-372]],[[2652,2229],[0,372],[-10,0],[0,371],[-11,0],[0,70]],[[458,1071],[-131,0],[-120,0],[-207,-1],[0,167],[1,252]],[[1915,746],[0,217],[-1,110]],[[1914,1073],[-1,46],[-13,0],[0,372]],[[2280,1489],[315,0]],[[3327,375],[0,331]],[[3637,737],[1,-362]],[[4563,1119],[-157,0],[-156,0]],[[4250,1119],[-1,135]],[[3011,375],[8,0]],[[3020,2],[-126,-1],[-249,1],[-10,0]],[[3274,2997],[7,-23],[0,-79],[1,-293],[7,0],[0,-370]],[[4563,375],[-1,-373]],[[4562,2],[0,0],[-97,0],[-211,0]],[[5180,280],[0,279]],[[5180,559],[155,0],[116,0]],[[5273,1272],[276,1]],[[5549,1273],[10,-7],[30,4],[16,-14],[-8,-10],[-19,-6],[-1,-17],[11,-28],[3,-32],[-11,-20],[-1,-17]],[[4874,560],[-1,-180],[-1,-6]],[[4872,374],[-123,0],[-186,1]],[[5802,280],[25,-14],[27,-7],[5,-15],[-9,-30],[4,-19],[28,-25],[3,-22],[22,-13],[4,-16],[-12,-21],[1,-19],[-8,-16],[5,-22],[21,-12],[13,5],[35,-24],[3,-10],[-22,0],[-305,0],[-152,1]],[[1412,1491],[174,0],[220,0]],[[1914,1073],[-183,-1],[-209,0],[-156,1]],[[1366,1073],[-2,47],[0,186]],[[3930,2047],[0,186],[-3,0]],[[3927,2233],[0,372]],[[4871,2],[-91,-1],[-218,1]],[[4872,374],[-1,-372]],[[2249,2],[-206,0],[-180,1]],[[1863,3],[-1,185],[0,164],[1,23]],[[925,2143],[-3,50],[0,44],[-27,-1],[0,92],[-3,77],[-1,109],[-2,5],[1,89],[-16,0]],[[861,3207],[208,-1],[276,0]],[[1345,3206],[-1,-229],[12,0],[0,-90],[0,-275],[20,0],[-2,-371],[23,0]],[[1397,2241],[-1,-94],[-40,1]],[[1367,746],[0,55],[-1,270]],[[1366,1071],[0,2]],[[1848,746],[-64,0],[-128,2],[-289,-2]],[[3927,2233],[-315,-1]],[[3612,2232],[-315,0]],[[2281,1860],[305,0]],[[5180,1],[-233,0],[-76,1]],[[3942,374],[0,372]],[[3942,746],[141,0],[168,1]],[[4250,1119],[1,-372]],[[3942,746],[-3,0]],[[3939,746],[0,182]],[[1366,1071],[-163,0],[-225,1]],[[3939,746],[-300,1]],[[1366,470],[1,276]],[[1850,375],[-181,-1],[-152,-1],[-151,0]],[[1366,373],[0,97]],[[5657,625],[-6,-7],[7,-32],[-4,-12],[9,-12],[32,-2]],[[5610,838],[-13,-20],[-21,-19],[-3,-17],[4,-15],[16,-10],[11,-33],[14,-11],[23,-8],[12,-22],[1,-16],[13,-16],[-2,-17],[-8,-9]],[[5193,1800],[221,-1]],[[5414,1799],[15,-24],[3,-14],[-13,-25],[3,-29],[18,-15],[-7,-26],[1,-26],[26,-27],[12,0],[7,33],[18,-1],[2,-34],[-15,-22],[10,-15],[26,-10],[23,1],[8,-14],[-9,-23],[2,-25],[-4,-14]],[[5540,1489],[-268,0]],[[5001,2435],[253,-2]],[[5254,2433],[17,-18],[5,-32],[-9,-11],[-14,-4],[6,-22],[1,-30],[19,-22],[6,-15],[21,-9],[8,-14],[-8,-39],[5,-29]],[[5311,2188],[-25,0],[0,-34],[-103,2],[-65,-1]],[[1345,3206],[159,0],[93,-3],[60,0],[272,1],[155,0],[252,0],[108,2],[187,-1],[0,0]],[[2584,2230],[-252,1],[-143,1]],[[1793,2236],[-293,2],[-103,3]],[[5311,2188],[11,-10],[12,4],[16,-37],[19,-1],[-3,-23],[5,-8],[19,3],[18,-9],[-9,-36],[1,-24],[-14,-14],[16,-38],[16,-12],[5,-37],[26,-18],[3,-16],[-8,-12],[-5,-26],[-14,-10],[2,-17],[15,-11],[3,-17],[-20,-2],[-11,-18]],[[1804,3],[-294,0],[-144,0],[0,156],[0,214]],[[1863,3],[-59,0]],[[5066,2698],[4,-11],[15,-10],[31,17],[22,-11],[17,-29],[17,-3],[21,11],[34,-7],[6,-10],[4,-30],[-5,-15],[-16,-23],[-2,-19],[4,-18],[-6,-19],[6,-23],[17,-12],[9,-16],[1,-20],[9,-17]],[[5540,1489],[4,-30],[-18,-17],[3,-10],[19,-19],[25,-3],[12,-25],[-8,-15],[-20,-2],[4,22],[-15,-2],[0,-18],[10,-11],[-5,-14],[6,-22],[-11,-38],[3,-12]],[[3612,2232],[0,-156],[2,-216]],[[1793,1863],[-258,-1],[-124,0]]],"transform":{"scale":[0.0014651070531077246,0.0009355922693266848],"translate":[-104.05351400000002,39.999998]},"objects":{"31":{"type":"GeometryCollection","geometries":[{"arcs":[[0,1,2,3,4]],"type":"Polygon","properties":{"STATEFP":"31","COUNTYFP":"091","COUNTYNS":"00835867","GEOIDFQ":"0500000US31091","GEOID":"31091","NAME":"Hooker","NAMELSAD":"Hooker County","STUSPS":"NE","STATE_NAME":"Nebraska","LSAD":"06","ALAND":1867293651,"AWATER":1385457},"id":"31091"},{"arcs":[[5,6,7,8,9]],"type":"Polygon","properties":{"STATEFP":"31","COUNTYFP":"007","COUNTYNS":"00835826","GEOIDFQ":"0500000US31007","GEOID":"31007","NAME":"Banner","NAMELSAD":"Banner County","STUSPS":"NE","STATE_NAME":"Nebraska","LSAD":"06","ALAND":1932231569,"AWATER":392060},"id":"31007"},{"arcs":[[-7,10,11,12,13,14]],"type":"Polygon","properties":{"STATEFP":"31","COUNTYFP":"123","COUNTYNS":"00835883","GEOIDFQ":"0500000US31123","GEOID":"31123","NAME":"Morrill","NAMELSAD":"Morrill County","STUSPS":"NE","STATE_NAME":"Nebraska","LSAD":"06","ALAND":3687380849,"AWATER":16454219},"id":"31123"},{"arcs":[[-14,15,16,17,18,19,20]],"type":"Polygon","properties":{"STATEFP":"31","COUNTYFP":"069","COUNTYNS":"00835856","GEOIDFQ":"0500000US31069","GEOID":"31069","NAME":"Garden","NAMELSAD":"Garden County","STUSPS":"NE","STATE_NAME":"Nebraska","LSAD":"06","ALAND":4415478551,"AWATER":67450146},"id":"31069"},{"arcs":[[21,22,23,24,25]],"type":"Polygon","properties":{"STATEFP":"31","COUNTYFP":"139","COUNTYNS":"00835891","GEOIDFQ":"0500000US31139","GEOID":"31139","NAME":"Pierce","NAMELSAD":"Pierce County","STUSPS":"NE","STATE_NAME":"Nebraska","LSAD":"06","ALAND":1484707024,"AWATER":3482144},"id":"31139"},{"arcs":[[26,27,28,29,30]],"type":"Polygon","properties":{"STATEFP":"31","COUNTYFP":"103","COUNTYNS":"00835873","GEOIDFQ":"0500000US31103","GEOID":"31103","NAME":"Keya Paha","NAMELSAD":"Keya Paha County","STUSPS":"NE","STATE_NAME":"Nebraska","LSAD":"06","ALAND":2001740192,"AWATER":2710300},"id":"31103"},{"arcs":[[31,32,33,34,35,36]],"type":"Polygon","properties":{"STATEFP":"31","COUNTYFP":"115","COUNTYNS":"00835879","GEOIDFQ":"0500000US31115","GEOID":"31115","NAME":"Loup","NAMELSAD":"Loup County","STUSPS":"NE","STATE_NAME":"Nebraska","LSAD":"06","ALAND":1459046159,"AWATER":20032911},"id":"31115"},{"arcs":[[37,38,39,40,41]],"type":"Polygon","properties":{"STATEFP":"31","COUNTYFP":"175","COUNTYNS":"00835909","GEOIDFQ":"0500000US31175","GEOID":"31175","NAME":"Valley","NAMELSAD":"Valley County","STUSPS":"NE","STATE_NAME":"Nebraska","LSAD":"06","ALAND":1471346017,"AWATER":6133639},"id":"31175"},{"arcs":[[-37,42,43,44,45,46]],"type":"Polygon","properties":{"STATEFP":"31","COUNTYFP":"009","COUNTYNS":"00835827","GEOIDFQ":"0500000US31009","GEOID":"31009","NAME":"Blaine","NAMELSAD":"Blaine County","STUSPS":"NE","STATE_NAME":"Nebraska","LSAD":"06","ALAND":1840709885,"AWATER":9415061},"id":"31009"},{"arcs":[[-40,47,48,49,50,51]],"type":"Polygon","properties":{"STATEFP":"31","COUNTYFP":"077","COUNTYNS":"00835860","GEOIDFQ":"0500000US31077","GEOID":"31077","NAME":"Greeley","NAMELSAD":"Greeley County","STUSPS":"NE","STATE_NAME":"Nebraska","LSAD":"06","ALAND":1475843020,"AWATER":2150066},"id":"31077"},{"arcs":[[52,53,54,55,56,57]],"type":"Polygon","properties":{"STATEFP":"31","COUNTYFP":"155","COUNTYNS":"00835899","GEOIDFQ":"0500000US31155","GEOID":"31155","NAME":"Saunders","NAMELSAD":"Saunders County","STUSPS":"NE","STATE_NAME":"Nebraska","LSAD":"06","ALAND":1939132554,"AWATER":28792403},"id":"31155"},{"arcs":[[58,59,60,61]],"type":"Polygon","properties":{"STATEFP":"31","COUNTYFP":"045","COUNTYNS":"00835844","GEOIDFQ":"0500000US31045","GEOID":"31045","NAME":"Dawes","NAMELSAD":"Dawes County","STUSPS":"NE","STATE_NAME":"Nebraska","LSAD":"06","ALAND":3616756320,"AWATER":11755838},"id":"31045"},{"arcs":[[62,63,64,65,66]],"type":"Polygon","properties":{"STATEFP":"31","COUNTYFP":"061","COUNTYNS":"00835852","GEOIDFQ":"0500000US31061","GEOID":"31061","NAME":"Franklin","NAMELSAD":"Franklin County","STUSPS":"NE","STATE_NAME":"Nebraska","LSAD":"06","ALAND":1491355862,"AWATER":487899},"id":"31061"},{"arcs":[[67,68,69,70,71,72]],"type":"Polygon","properties":{"STATEFP":"31","COUNTYFP":"047","COUNTYNS":"00835845","GEOIDFQ":"0500000US31047","GEOID":"31047","NAME":"Dawson","NAMELSAD":"Dawson County","STUSPS":"NE","STATE_NAME":"Nebraska","LSAD":"06","ALAND":2625694518,"AWATER":14624602},"id":"31047"},{"arcs":[[73,74,75,76,77]],"type":"Polygon","properties":{"STATEFP":"31","COUNTYFP":"145","COUNTYNS":"00835894","GEOIDFQ":"0500000US31145","GEOID":"31145","NAME":"Red Willow","NAMELSAD":"Red Willow County","STUSPS":"NE","STATE_NAME":"Nebraska","LSAD":"06","ALAND":1857462677,"AWATER":2164642},"id":"31145"},{"arcs":[[78,79,80,81,82,83]],"type":"Polygon","properties":{"STATEFP":"31","COUNTYFP":"121","COUNTYNS":"00835882","GEOIDFQ":"0500000US31121","GEOID":"31121","NAME":"Merrick","NAMELSAD":"Merrick County","STUSPS":"NE","STATE_NAME":"Nebraska","LSAD":"06","ALAND":1263381780,"AWATER":23270576},"id":"31121"},{"arcs":[[84,85,86,87,88]],"type":"Polygon","properties":{"STATEFP":"31","COUNTYFP":"059","COUNTYNS":"00835851","GEOIDFQ":"0500000US31059","GEOID":"31059","NAME":"Fillmore","NAMELSAD":"Fillmore County","STUSPS":"NE","STATE_NAME":"Nebraska","LSAD":"06","ALAND":1490200740,"AWATER":2991991},"id":"31059"},{"arcs":[[89,90,91,92,93,94]],"type":"Polygon","properties":{"STATEFP":"31","COUNTYFP":"133","COUNTYNS":"00835888","GEOIDFQ":"0500000US31133","GEOID":"31133","NAME":"Pawnee","NAMELSAD":"Pawnee County","STUSPS":"NE","STATE_NAME":"Nebraska","LSAD":"06","ALAND":1116478167,"AWATER":4852359},"id":"31133"},{"arcs":[[95,96,97,98,99]],"type":"Polygon","properties":{"STATEFP":"31","COUNTYFP":"037","COUNTYNS":"00835840","GEOIDFQ":"0500000US31037","GEOID":"31037","NAME":"Colfax","NAMELSAD":"Colfax County","STUSPS":"NE","STATE_NAME":"Nebraska","LSAD":"06","ALAND":1065675354,"AWATER":13096486},"id":"31037"},{"arcs":[[-66,100,101,102,103,104]],"type":"Polygon","properties":{"STATEFP":"31","COUNTYFP":"181","COUNTYNS":"00835912","GEOIDFQ":"0500000US31181","GEOID":"31181","NAME":"Webster","NAMELSAD":"Webster County","STUSPS":"NE","STATE_NAME":"Nebraska","LSAD":"06","ALAND":1489017942,"AWATER":337241},"id":"31181"},{"arcs":[[-41,-52,105,106,107]],"type":"Polygon","properties":{"STATEFP":"31","COUNTYFP":"163","COUNTYNS":"00835903","GEOIDFQ":"0500000US31163","GEOID":"31163","NAME":"Sherman","NAMELSAD":"Sherman County","STUSPS":"NE","STATE_NAME":"Nebraska","LSAD":"06","ALAND":1465613586,"AWATER":14937773},"id":"31163"},{"arcs":[[-58,108,109,110,111,-99,112]],"type":"Polygon","properties":{"STATEFP":"31","COUNTYFP":"023","COUNTYNS":"00835833","GEOIDFQ":"0500000US31023","GEOID":"31023","NAME":"Butler","NAMELSAD":"Butler County","STUSPS":"NE","STATE_NAME":"Nebraska","LSAD":"06","ALAND":1514595607,"AWATER":15598406},"id":"31023"},{"arcs":[[113,114,-93,115,116,117]],"type":"Polygon","properties":{"STATEFP":"31","COUNTYFP":"127","COUNTYNS":"00835885","GEOIDFQ":"0500000US31127","GEOID":"31127","NAME":"Nemaha","NAMELSAD":"Nemaha County","STUSPS":"NE","STATE_NAME":"Nebraska","LSAD":"06","ALAND":1054904344,"AWATER":5966167},"id":"31127"},{"arcs":[[-110,118,119,120]],"type":"Polygon","properties":{"STATEFP":"31","COUNTYFP":"159","COUNTYNS":"00835901","GEOIDFQ":"0500000US31159","GEOID":"31159","NAME":"Seward","NAMELSAD":"Seward County","STUSPS":"NE","STATE_NAME":"Nebraska","LSAD":"06","ALAND":1479998886,"AWATER":11539342},"id":"31159"},{"arcs":[[-51,121,-84,122,123,-106]],"type":"Polygon","properties":{"STATEFP":"31","COUNTYFP":"093","COUNTYNS":"00835868","GEOIDFQ":"0500000US31093","GEOID":"31093","NAME":"Howard","NAMELSAD":"Howard County","STUSPS":"NE","STATE_NAME":"Nebraska","LSAD":"06","ALAND":1474401359,"AWATER":16376495},"id":"31093"},{"arcs":[[124,125,126,-64]],"type":"Polygon","properties":{"STATEFP":"31","COUNTYFP":"083","COUNTYNS":"00835863","GEOIDFQ":"0500000US31083","GEOID":"31083","NAME":"Harlan","NAMELSAD":"Harlan County","STUSPS":"NE","STATE_NAME":"Nebraska","LSAD":"06","ALAND":1433471185,"AWATER":53339808},"id":"31083"},{"arcs":[[127,128,129,130,131]],"type":"Polygon","properties":{"STATEFP":"31","COUNTYFP":"051","COUNTYNS":"00835847","GEOIDFQ":"0500000US31051","GEOID":"31051","NAME":"Dixon","NAMELSAD":"Dixon County","STUSPS":"NE","STATE_NAME":"Nebraska","LSAD":"06","ALAND":1231852118,"AWATER":18379775},"id":"31051"},{"arcs":[[-25,132,133,134,135]],"type":"Polygon","properties":{"STATEFP":"31","COUNTYFP":"119","COUNTYNS":"00835880","GEOIDFQ":"0500000US31119","GEOID":"31119","NAME":"Madison","NAMELSAD":"Madison County","STUSPS":"NE","STATE_NAME":"Nebraska","LSAD":"06","ALAND":1483057691,"AWATER":7352794},"id":"31119"},{"arcs":[[136,137,138,139,140,141]],"type":"Polygon","properties":{"STATEFP":"31","COUNTYFP":"085","COUNTYNS":"00835864","GEOIDFQ":"0500000US31085","GEOID":"31085","NAME":"Hayes","NAMELSAD":"Hayes County","STUSPS":"NE","STATE_NAME":"Nebraska","LSAD":"06","ALAND":1846829900,"AWATER":562429},"id":"31085"},{"arcs":[[-24,142,-132,143,144,145]],"type":"Polygon","properties":{"STATEFP":"31","COUNTYFP":"179","COUNTYNS":"00835911","GEOIDFQ":"0500000US31179","GEOID":"31179","NAME":"Wayne","NAMELSAD":"Wayne County","STUSPS":"NE","STATE_NAME":"Nebraska","LSAD":"06","ALAND":1147146589,"AWATER":1084985},"id":"31179"},{"arcs":[[-69,146,-107,-124,147,148,149,150]],"type":"Polygon","properties":{"STATEFP":"31","COUNTYFP":"019","COUNTYNS":"00835831","GEOIDFQ":"0500000US31019","GEOID":"31019","NAME":"Buffalo","NAMELSAD":"Buffalo County","STUSPS":"NE","STATE_NAME":"Nebraska","LSAD":"06","ALAND":2507745811,"AWATER":18526719},"id":"31019"},{"arcs":[[-80,151,152,-134,153,-100,-112,154]],"type":"Polygon","properties":{"STATEFP":"31","COUNTYFP":"141","COUNTYNS":"00835892","GEOIDFQ":"0500000US31141","GEOID":"31141","NAME":"Platte","NAMELSAD":"Platte County","STUSPS":"NE","STATE_NAME":"Nebraska","LSAD":"06","ALAND":1748546409,"AWATER":24531819},"id":"31141"},{"arcs":[[-57,155,156,157,158,-119,-109]],"type":"Polygon","properties":{"STATEFP":"31","COUNTYFP":"109","COUNTYNS":"00835876","GEOIDFQ":"0500000US31109","GEOID":"31109","NAME":"Lancaster","NAMELSAD":"Lancaster County","STUSPS":"NE","STATE_NAME":"Nebraska","LSAD":"06","ALAND":2169269510,"AWATER":22850511},"id":"31109"},{"arcs":[[-36,159,-42,-108,-147,-68,160,161,-43]],"type":"Polygon","properties":{"STATEFP":"31","COUNTYFP":"041","COUNTYNS":"00835842","GEOIDFQ":"0500000US31041","GEOID":"31041","NAME":"Custer","NAMELSAD":"Custer County","STUSPS":"NE","STATE_NAME":"Nebraska","LSAD":"06","ALAND":6670405018,"AWATER":1285152},"id":"31041"},{"arcs":[[-97,162,-145,163,164,165]],"type":"Polygon","properties":{"STATEFP":"31","COUNTYFP":"039","COUNTYNS":"00835841","GEOIDFQ":"0500000US31039","GEOID":"31039","NAME":"Cuming","NAMELSAD":"Cuming County","STUSPS":"NE","STATE_NAME":"Nebraska","LSAD":"06","ALAND":1477563051,"AWATER":10772508},"id":"31039"},{"arcs":[[-22,166,167,168,169,170]],"type":"Polygon","properties":{"STATEFP":"31","COUNTYFP":"107","COUNTYNS":"00835875","GEOIDFQ":"0500000US31107","GEOID":"31107","NAME":"Knox","NAMELSAD":"Knox County","STUSPS":"NE","STATE_NAME":"Nebraska","LSAD":"06","ALAND":2870314750,"AWATER":81551358},"id":"31107"},{"arcs":[[-49,171,172,-135,-153,173]],"type":"Polygon","properties":{"STATEFP":"31","COUNTYFP":"011","COUNTYNS":"00835828","GEOIDFQ":"0500000US31011","GEOID":"31011","NAME":"Boone","NAMELSAD":"Boone County","STUSPS":"NE","STATE_NAME":"Nebraska","LSAD":"06","ALAND":1778104026,"AWATER":1780542},"id":"31011"},{"arcs":[[-72,174,175,-76,176,-139,177]],"type":"Polygon","properties":{"STATEFP":"31","COUNTYFP":"063","COUNTYNS":"00835853","GEOIDFQ":"0500000US31063","GEOID":"31063","NAME":"Frontier","NAMELSAD":"Frontier County","STUSPS":"NE","STATE_NAME":"Nebraska","LSAD":"06","ALAND":2524345619,"AWATER":14047824},"id":"31063"},{"arcs":[[-56,178,179,180,-156]],"type":"Polygon","properties":{"STATEFP":"31","COUNTYFP":"025","COUNTYNS":"00835834","GEOIDFQ":"0500000US31025","GEOID":"31025","NAME":"Cass","NAMELSAD":"Cass County","STUSPS":"NE","STATE_NAME":"Nebraska","LSAD":"06","ALAND":1442393397,"AWATER":23258498},"id":"31025"},{"arcs":[[-3,181,182,183,184,185]],"type":"Polygon","properties":{"STATEFP":"31","COUNTYFP":"117","COUNTYNS":"00835881","GEOIDFQ":"0500000US31117","GEOID":"31117","NAME":"McPherson","NAMELSAD":"McPherson County","STUSPS":"NE","STATE_NAME":"Nebraska","LSAD":"06","ALAND":2225470205,"AWATER":2671077},"id":"31117"},{"arcs":[[-6,186,187,188,-11]],"type":"Polygon","properties":{"STATEFP":"31","COUNTYFP":"157","COUNTYNS":"00835900","GEOIDFQ":"0500000US31157","GEOID":"31157","NAME":"Scotts Bluff","NAMELSAD":"Scotts Bluff County","STUSPS":"NE","STATE_NAME":"Nebraska","LSAD":"06","ALAND":1915608690,"AWATER":15369467},"id":"31157"},{"arcs":[[-53,-113,-98,-166,189,190,191]],"type":"Polygon","properties":{"STATEFP":"31","COUNTYFP":"053","COUNTYNS":"00835848","GEOIDFQ":"0500000US31053","GEOID":"31053","NAME":"Dodge","NAMELSAD":"Dodge County","STUSPS":"NE","STATE_NAME":"Nebraska","LSAD":"06","ALAND":1369700566,"AWATER":36668439},"id":"31053"},{"arcs":[[-71,192,193,-175]],"type":"Polygon","properties":{"STATEFP":"31","COUNTYFP":"073","COUNTYNS":"00835858","GEOIDFQ":"0500000US31073","GEOID":"31073","NAME":"Gosper","NAMELSAD":"Gosper County","STUSPS":"NE","STATE_NAME":"Nebraska","LSAD":"06","ALAND":1186729973,"AWATER":11718014},"id":"31073"},{"arcs":[[-8,-15,-21,194,195,196]],"type":"Polygon","properties":{"STATEFP":"31","COUNTYFP":"033","COUNTYNS":"00835838","GEOIDFQ":"0500000US31033","GEOID":"31033","NAME":"Cheyenne","NAMELSAD":"Cheyenne County","STUSPS":"NE","STATE_NAME":"Nebraska","LSAD":"06","ALAND":3097645444,"AWATER":292549},"id":"31033"},{"arcs":[[-28,197,-169,198]],"type":"Polygon","properties":{"STATEFP":"31","COUNTYFP":"015","COUNTYNS":"00835829","GEOIDFQ":"0500000US31015","GEOID":"31015","NAME":"Boyd","NAMELSAD":"Boyd County","STUSPS":"NE","STATE_NAME":"Nebraska","LSAD":"06","ALAND":1396957277,"AWATER":13360589},"id":"31015"},{"arcs":[[-88,199,200,-104,201]],"type":"Polygon","properties":{"STATEFP":"31","COUNTYFP":"129","COUNTYNS":"00835886","GEOIDFQ":"0500000US31129","GEOID":"31129","NAME":"Nuckolls","NAMELSAD":"Nuckolls County","STUSPS":"NE","STATE_NAME":"Nebraska","LSAD":"06","ALAND":1489645169,"AWATER":1718484},"id":"31129"},{"arcs":[[-62,202,-188,203]],"type":"Polygon","properties":{"STATEFP":"31","COUNTYFP":"165","COUNTYNS":"00835904","GEOIDFQ":"0500000US31165","GEOID":"31165","NAME":"Sioux","NAMELSAD":"Sioux County","STUSPS":"NE","STATE_NAME":"Nebraska","LSAD":"06","ALAND":5352788422,"AWATER":1662499},"id":"31165"},{"arcs":[[-23,-171,204,-128,-143]],"type":"Polygon","properties":{"STATEFP":"31","COUNTYFP":"027","COUNTYNS":"00835835","GEOIDFQ":"0500000US31027","GEOID":"31027","NAME":"Cedar","NAMELSAD":"Cedar County","STUSPS":"NE","STATE_NAME":"Nebraska","LSAD":"06","ALAND":1917080037,"AWATER":14653906},"id":"31027"},{"arcs":[[-30,205,-32,-47,206]],"type":"Polygon","properties":{"STATEFP":"31","COUNTYFP":"017","COUNTYNS":"00835830","GEOIDFQ":"0500000US31017","GEOID":"31017","NAME":"Brown","NAMELSAD":"Brown County","STUSPS":"NE","STATE_NAME":"Nebraska","LSAD":"06","ALAND":3163423492,"AWATER":9687309},"id":"31017"},{"arcs":[[-9,-197,207]],"type":"Polygon","properties":{"STATEFP":"31","COUNTYFP":"105","COUNTYNS":"00835874","GEOIDFQ":"0500000US31105","GEOID":"31105","NAME":"Kimball","NAMELSAD":"Kimball County","STUSPS":"NE","STATE_NAME":"Nebraska","LSAD":"06","ALAND":2465517106,"AWATER":1448446},"id":"31105"},{"arcs":[[-73,-178,-138,208,209,-184,210,-161]],"type":"Polygon","properties":{"STATEFP":"31","COUNTYFP":"111","COUNTYNS":"00835877","GEOIDFQ":"0500000US31111","GEOID":"31111","NAME":"Lincoln","NAMELSAD":"Lincoln County","STUSPS":"NE","STATE_NAME":"Nebraska","LSAD":"06","ALAND":6641131937,"AWATER":28397612},"id":"31111"},{"arcs":[[-65,211,-150,212,-101]],"type":"Polygon","properties":{"STATEFP":"31","COUNTYFP":"099","COUNTYNS":"00835871","GEOIDFQ":"0500000US31099","GEOID":"31099","NAME":"Kearney","NAMELSAD":"Kearney County","STUSPS":"NE","STATE_NAME":"Nebraska","LSAD":"06","ALAND":1336933471,"AWATER":404663},"id":"31099"},{"arcs":[[-96,-154,-133,-146,-163]],"type":"Polygon","properties":{"STATEFP":"31","COUNTYFP":"167","COUNTYNS":"00835905","GEOIDFQ":"0500000US31167","GEOID":"31167","NAME":"Stanton","NAMELSAD":"Stanton County","STUSPS":"NE","STATE_NAME":"Nebraska","LSAD":"06","ALAND":1107564317,"AWATER":8725896},"id":"31167"},{"arcs":[[-81,-155,-111,213,214]],"type":"Polygon","properties":{"STATEFP":"31","COUNTYFP":"143","COUNTYNS":"00835893","GEOIDFQ":"0500000US31143","GEOID":"31143","NAME":"Polk","NAMELSAD":"Polk County","STUSPS":"NE","STATE_NAME":"Nebraska","LSAD":"06","ALAND":1136569017,"AWATER":4687900},"id":"31143"},{"arcs":[[-77,-176,-194,215,-126,216]],"type":"Polygon","properties":{"STATEFP":"31","COUNTYFP":"065","COUNTYNS":"00835854","GEOIDFQ":"0500000US31065","GEOID":"31065","NAME":"Furnas","NAMELSAD":"Furnas County","STUSPS":"NE","STATE_NAME":"Nebraska","LSAD":"06","ALAND":1862730834,"AWATER":3727356},"id":"31065"},{"arcs":[[-29,217,-33,-206]],"type":"Polygon","properties":{"STATEFP":"31","COUNTYFP":"149","COUNTYNS":"00835896","GEOIDFQ":"0500000US31149","GEOID":"31149","NAME":"Rock","NAMELSAD":"Rock County","STUSPS":"NE","STATE_NAME":"Nebraska","LSAD":"06","ALAND":2611461740,"AWATER":8812080},"id":"31149"},{"arcs":[[-87,218,219,-200]],"type":"Polygon","properties":{"STATEFP":"31","COUNTYFP":"169","COUNTYNS":"00835906","GEOIDFQ":"0500000US31169","GEOID":"31169","NAME":"Thayer","NAMELSAD":"Thayer County","STUSPS":"NE","STATE_NAME":"Nebraska","LSAD":"06","ALAND":1486107858,"AWATER":3070762},"id":"31169"},{"arcs":[[-92,220,221,-116]],"type":"Polygon","properties":{"STATEFP":"31","COUNTYFP":"097","COUNTYNS":"00835870","GEOIDFQ":"0500000US31097","GEOID":"31097","NAME":"Johnson","NAMELSAD":"Johnson County","STUSPS":"NE","STATE_NAME":"Nebraska","LSAD":"06","ALAND":974059404,"AWATER":1675330},"id":"31097"},{"arcs":[[-55,222,223,-179]],"type":"Polygon","properties":{"STATEFP":"31","COUNTYFP":"153","COUNTYNS":"00835898","GEOIDFQ":"0500000US31153","GEOID":"31153","NAME":"Sarpy","NAMELSAD":"Sarpy County","STUSPS":"NE","STATE_NAME":"Nebraska","LSAD":"06","ALAND":616429160,"AWATER":24664760},"id":"31153"},{"arcs":[[-86,-120,-159,224,225]],"type":"Polygon","properties":{"STATEFP":"31","COUNTYFP":"151","COUNTYNS":"00835897","GEOIDFQ":"0500000US31151","GEOID":"31151","NAME":"Saline","NAMELSAD":"Saline County","STUSPS":"NE","STATE_NAME":"Nebraska","LSAD":"06","ALAND":1486835483,"AWATER":5797866},"id":"31151"},{"arcs":[[226,-94,-115]],"type":"Polygon","properties":{"STATEFP":"31","COUNTYFP":"147","COUNTYNS":"00835895","GEOIDFQ":"0500000US31147","GEOID":"31147","NAME":"Richardson","NAMELSAD":"Richardson County","STUSPS":"NE","STATE_NAME":"Nebraska","LSAD":"06","ALAND":1429261299,"AWATER":7077609},"id":"31147"},{"arcs":[[-19,227,-185,-210,228,229]],"type":"Polygon","properties":{"STATEFP":"31","COUNTYFP":"101","COUNTYNS":"00835872","GEOIDFQ":"0500000US31101","GEOID":"31101","NAME":"Keith","NAMELSAD":"Keith County","STUSPS":"NE","STATE_NAME":"Nebraska","LSAD":"06","ALAND":2750729961,"AWATER":123802447},"id":"31101"},{"arcs":[[-26,-136,-173,230,231,-167]],"type":"Polygon","properties":{"STATEFP":"31","COUNTYFP":"003","COUNTYNS":"00835824","GEOIDFQ":"0500000US31003","GEOID":"31003","NAME":"Antelope","NAMELSAD":"Antelope County","STUSPS":"NE","STATE_NAME":"Nebraska","LSAD":"06","ALAND":2220026338,"AWATER":3715966},"id":"31003"},{"arcs":[[232,-219,-226,233]],"type":"Polygon","properties":{"STATEFP":"31","COUNTYFP":"095","COUNTYNS":"00835869","GEOIDFQ":"0500000US31095","GEOID":"31095","NAME":"Jefferson","NAMELSAD":"Jefferson County","STUSPS":"NE","STATE_NAME":"Nebraska","LSAD":"06","ALAND":1476765635,"AWATER":14202899},"id":"31095"},{"arcs":[[234,235,-140,-177,-75]],"type":"Polygon","properties":{"STATEFP":"31","COUNTYFP":"087","COUNTYNS":"00835865","GEOIDFQ":"0500000US31087","GEOID":"31087","NAME":"Hitchcock","NAMELSAD":"Hitchcock County","STUSPS":"NE","STATE_NAME":"Nebraska","LSAD":"06","ALAND":1838765331,"AWATER":22080715},"id":"31087"},{"arcs":[[-13,236,-60,237,238,239,-16]],"type":"Polygon","properties":{"STATEFP":"31","COUNTYFP":"161","COUNTYNS":"00835902","GEOIDFQ":"0500000US31161","GEOID":"31161","NAME":"Sheridan","NAMELSAD":"Sheridan County","STUSPS":"NE","STATE_NAME":"Nebraska","LSAD":"06","ALAND":6320009952,"AWATER":76575663},"id":"31161"},{"arcs":[[-12,-189,-203,-61,-237]],"type":"Polygon","properties":{"STATEFP":"31","COUNTYFP":"013","COUNTYNS":"00835991","GEOIDFQ":"0500000US31013","GEOID":"31013","NAME":"Box Butte","NAMELSAD":"Box Butte County","STUSPS":"NE","STATE_NAME":"Nebraska","LSAD":"06","ALAND":2784840486,"AWATER":6928324},"id":"31013"},{"arcs":[[240,241,-229,-209,-137,242]],"type":"Polygon","properties":{"STATEFP":"31","COUNTYFP":"135","COUNTYNS":"00835889","GEOIDFQ":"0500000US31135","GEOID":"31135","NAME":"Perkins","NAMELSAD":"Perkins County","STUSPS":"NE","STATE_NAME":"Nebraska","LSAD":"06","ALAND":2287768807,"AWATER":2840175},"id":"31135"},{"arcs":[[-34,-218,-199,-168,-232,243,244]],"type":"Polygon","properties":{"STATEFP":"31","COUNTYFP":"089","COUNTYNS":"00835866","GEOIDFQ":"0500000US31089","GEOID":"31089","NAME":"Holt","NAMELSAD":"Holt County","STUSPS":"NE","STATE_NAME":"Nebraska","LSAD":"06","ALAND":6246663912,"AWATER":14619277},"id":"31089"},{"arcs":[[-44,-162,-211,-183,245]],"type":"Polygon","properties":{"STATEFP":"31","COUNTYFP":"113","COUNTYNS":"00835878","GEOIDFQ":"0500000US31113","GEOID":"31113","NAME":"Logan","NAMELSAD":"Logan County","STUSPS":"NE","STATE_NAME":"Nebraska","LSAD":"06","ALAND":1478101923,"AWATER":1203586},"id":"31113"},{"arcs":[[246,-234,-225,-158,-221,-91]],"type":"Polygon","properties":{"STATEFP":"31","COUNTYFP":"067","COUNTYNS":"00835855","GEOIDFQ":"0500000US31067","GEOID":"31067","NAME":"Gage","NAMELSAD":"Gage County","STUSPS":"NE","STATE_NAME":"Nebraska","LSAD":"06","ALAND":2205292872,"AWATER":21993057},"id":"31067"},{"arcs":[[-50,-174,-152,-79,-122]],"type":"Polygon","properties":{"STATEFP":"31","COUNTYFP":"125","COUNTYNS":"00835884","GEOIDFQ":"0500000US31125","GEOID":"31125","NAME":"Nance","NAMELSAD":"Nance County","STUSPS":"NE","STATE_NAME":"Nebraska","LSAD":"06","ALAND":1143726730,"AWATER":17185449},"id":"31125"},{"arcs":[[-89,-202,-103,247,248]],"type":"Polygon","properties":{"STATEFP":"31","COUNTYFP":"035","COUNTYNS":"00835839","GEOIDFQ":"0500000US31035","GEOID":"31035","NAME":"Clay","NAMELSAD":"Clay County","STUSPS":"NE","STATE_NAME":"Nebraska","LSAD":"06","ALAND":1482222910,"AWATER":3234876},"id":"31035"},{"arcs":[[-82,-215,249,-249,250,251]],"type":"Polygon","properties":{"STATEFP":"31","COUNTYFP":"081","COUNTYNS":"00835862","GEOIDFQ":"0500000US31081","GEOID":"31081","NAME":"Hamilton","NAMELSAD":"Hamilton County","STUSPS":"NE","STATE_NAME":"Nebraska","LSAD":"06","ALAND":1403850997,"AWATER":7017551},"id":"31081"},{"arcs":[[-20,-230,-242,252,-195]],"type":"Polygon","properties":{"STATEFP":"31","COUNTYFP":"049","COUNTYNS":"00835846","GEOIDFQ":"0500000US31049","GEOID":"31049","NAME":"Deuel","NAMELSAD":"Deuel County","STUSPS":"NE","STATE_NAME":"Nebraska","LSAD":"06","ALAND":1139142630,"AWATER":2295555},"id":"31049"},{"arcs":[[-83,-252,253,-148,-123]],"type":"Polygon","properties":{"STATEFP":"31","COUNTYFP":"079","COUNTYNS":"00835861","GEOIDFQ":"0500000US31079","GEOID":"31079","NAME":"Hall","NAMELSAD":"Hall County","STUSPS":"NE","STATE_NAME":"Nebraska","LSAD":"06","ALAND":1415504338,"AWATER":14542805},"id":"31079"},{"arcs":[[254,-243,-142,255,256]],"type":"Polygon","properties":{"STATEFP":"31","COUNTYFP":"029","COUNTYNS":"00835836","GEOIDFQ":"0500000US31029","GEOID":"31029","NAME":"Chase","NAMELSAD":"Chase County","STUSPS":"NE","STATE_NAME":"Nebraska","LSAD":"06","ALAND":2316548814,"AWATER":7962797},"id":"31029"},{"arcs":[[257,-117,-222,-157,-181,258]],"type":"Polygon","properties":{"STATEFP":"31","COUNTYFP":"131","COUNTYNS":"00835887","GEOIDFQ":"0500000US31131","GEOID":"31131","NAME":"Otoe","NAMELSAD":"Otoe County","STUSPS":"NE","STATE_NAME":"Nebraska","LSAD":"06","ALAND":1594444459,"AWATER":8806587},"id":"31131"},{"arcs":[[-191,259,260,261]],"type":"Polygon","properties":{"STATEFP":"31","COUNTYFP":"177","COUNTYNS":"00835910","GEOIDFQ":"0500000US31177","GEOID":"31177","NAME":"Washington","NAMELSAD":"Washington County","STUSPS":"NE","STATE_NAME":"Nebraska","LSAD":"06","ALAND":1009915276,"AWATER":8462656},"id":"31177"},{"arcs":[[-131,262,263,264,-164,-144]],"type":"Polygon","properties":{"STATEFP":"31","COUNTYFP":"173","COUNTYNS":"00835908","GEOIDFQ":"0500000US31173","GEOID":"31173","NAME":"Thurston","NAMELSAD":"Thurston County","STUSPS":"NE","STATE_NAME":"Nebraska","LSAD":"06","ALAND":1019398007,"AWATER":6437925},"id":"31173"},{"arcs":[[265,-31,-207,-46,266,-1,267,-239]],"type":"Polygon","properties":{"STATEFP":"31","COUNTYFP":"031","COUNTYNS":"00835837","GEOIDFQ":"0500000US31031","GEOID":"31031","NAME":"Cherry","NAMELSAD":"Cherry County","STUSPS":"NE","STATE_NAME":"Nebraska","LSAD":"06","ALAND":15436585720,"AWATER":128192826},"id":"31031"},{"arcs":[[-85,-250,-214,-121]],"type":"Polygon","properties":{"STATEFP":"31","COUNTYFP":"185","COUNTYNS":"00835914","GEOIDFQ":"0500000US31185","GEOID":"31185","NAME":"York","NAMELSAD":"York County","STUSPS":"NE","STATE_NAME":"Nebraska","LSAD":"06","ALAND":1482809121,"AWATER":8579992},"id":"31185"},{"arcs":[[-165,-265,268,-260,-190]],"type":"Polygon","properties":{"STATEFP":"31","COUNTYFP":"021","COUNTYNS":"00835832","GEOIDFQ":"0500000US31021","GEOID":"31021","NAME":"Burt","NAMELSAD":"Burt County","STUSPS":"NE","STATE_NAME":"Nebraska","LSAD":"06","ALAND":1273203509,"AWATER":14184088},"id":"31021"},{"arcs":[[-70,-151,-212,-127,-216,-193]],"type":"Polygon","properties":{"STATEFP":"31","COUNTYFP":"137","COUNTYNS":"00835890","GEOIDFQ":"0500000US31137","GEOID":"31137","NAME":"Phelps","NAMELSAD":"Phelps County","STUSPS":"NE","STATE_NAME":"Nebraska","LSAD":"06","ALAND":1397985724,"AWATER":1709313},"id":"31137"},{"arcs":[[269,-256,-141,-236,270]],"type":"Polygon","properties":{"STATEFP":"31","COUNTYFP":"057","COUNTYNS":"00835850","GEOIDFQ":"0500000US31057","GEOID":"31057","NAME":"Dundy","NAMELSAD":"Dundy County","STUSPS":"NE","STATE_NAME":"Nebraska","LSAD":"06","ALAND":2381956209,"AWATER":3046331},"id":"31057"},{"arcs":[[-102,-213,-149,-254,-251,-248]],"type":"Polygon","properties":{"STATEFP":"31","COUNTYFP":"001","COUNTYNS":"00835823","GEOIDFQ":"0500000US31001","GEOID":"31001","NAME":"Adams","NAMELSAD":"Adams County","STUSPS":"NE","STATE_NAME":"Nebraska","LSAD":"06","ALAND":1458836770,"AWATER":2513742},"id":"31001"},{"arcs":[[-130,271,-263]],"type":"Polygon","properties":{"STATEFP":"31","COUNTYFP":"043","COUNTYNS":"00835843","GEOIDFQ":"0500000US31043","GEOID":"31043","NAME":"Dakota","NAMELSAD":"Dakota County","STUSPS":"NE","STATE_NAME":"Nebraska","LSAD":"06","ALAND":684873059,"AWATER":7742889},"id":"31043"},{"arcs":[[-54,-192,-262,272,-223]],"type":"Polygon","properties":{"STATEFP":"31","COUNTYFP":"055","COUNTYNS":"00835849","GEOIDFQ":"0500000US31055","GEOID":"31055","NAME":"Douglas","NAMELSAD":"Douglas County","STUSPS":"NE","STATE_NAME":"Nebraska","LSAD":"06","ALAND":845735092,"AWATER":33157714},"id":"31055"},{"arcs":[[-35,-245,273,-38,-160]],"type":"Polygon","properties":{"STATEFP":"31","COUNTYFP":"071","COUNTYNS":"00835857","GEOIDFQ":"0500000US31071","GEOID":"31071","NAME":"Garfield","NAMELSAD":"Garfield County","STUSPS":"NE","STATE_NAME":"Nebraska","LSAD":"06","ALAND":1474624514,"AWATER":5255328},"id":"31071"},{"arcs":[[-39,-274,-244,-231,-172,-48]],"type":"Polygon","properties":{"STATEFP":"31","COUNTYFP":"183","COUNTYNS":"00835913","GEOIDFQ":"0500000US31183","GEOID":"31183","NAME":"Wheeler","NAMELSAD":"Wheeler County","STUSPS":"NE","STATE_NAME":"Nebraska","LSAD":"06","ALAND":1489717918,"AWATER":1059454},"id":"31183"},{"arcs":[[-5,274,-17,-240,-268]],"type":"Polygon","properties":{"STATEFP":"31","COUNTYFP":"075","COUNTYNS":"00835859","GEOIDFQ":"0500000US31075","GEOID":"31075","NAME":"Grant","NAMELSAD":"Grant County","STUSPS":"NE","STATE_NAME":"Nebraska","LSAD":"06","ALAND":2011633358,"AWATER":17249018},"id":"31075"},{"arcs":[[-2,-267,-45,-246,-182]],"type":"Polygon","properties":{"STATEFP":"31","COUNTYFP":"171","COUNTYNS":"00835907","GEOIDFQ":"0500000US31171","GEOID":"31171","NAME":"Thomas","NAMELSAD":"Thomas County","STUSPS":"NE","STATE_NAME":"Nebraska","LSAD":"06","ALAND":1845505749,"AWATER":2087569},"id":"31171"},{"arcs":[[-4,-186,-228,-18,-275]],"type":"Polygon","properties":{"STATEFP":"31","COUNTYFP":"005","COUNTYNS":"00835825","GEOIDFQ":"0500000US31005","GEOID":"31005","NAME":"Arthur","NAMELSAD":"Arthur County","STUSPS":"NE","STATE_NAME":"Nebraska","LSAD":"06","ALAND":1852234562,"AWATER":7644718},"id":"31005"}]}}}