{"type":"Topology","arcs":[[[0,3423],[2,102],[1,75],[1,145],[3,186],[1,243],[0,188],[-1,176],[-2,120],[0,247],[0,251],[1,94],[-1,204],[0,95],[93,1],[114,0],[211,-1],[64,-1],[27,0]],[[514,5548],[0,-109],[-2,0],[0,-211],[5,0],[-3,-140],[15,0],[-1,-143],[-19,1],[1,-218],[15,0]],[[525,4728],[-2,-172],[0,-179],[-20,0],[1,-164],[-1,-248],[86,0]],[[589,3965],[-1,-79],[13,0],[0,-71],[15,0],[0,-17],[14,0],[0,-86],[-14,0],[0,-23]],[[616,3689],[-51,0],[-20,-23]],[[545,3666],[-42,-20],[-14,1],[-10,-9],[-32,3],[-41,-5],[-1,-12],[-32,-6],[-15,3],[-49,-18],[-17,-23],[-35,-4],[-23,9],[0,-58],[31,0],[-2,-34],[-15,0],[-6,-23],[20,-35],[-14,0],[0,-40],[-14,0],[0,-17],[-13,-7]],[[221,3371],[-2,-5],[-27,0],[0,-11],[-15,0],[0,-12],[-21,0],[-34,-11],[-14,-12],[1,-12],[-14,-4],[-94,0]],[[1,3304],[-1,119]],[[3145,4067],[45,1],[208,-2],[191,-3],[287,0],[253,-3],[122,-1],[242,-1]],[[4493,4058],[-1,-167],[0,-288],[0,-69],[-1,-357],[0,-203],[-1,-58]],[[4490,2916],[-83,0],[-354,0],[-280,0]],[[3773,2916],[-94,54],[-357,202],[-232,129]],[[3090,3301],[0,240],[24,1],[4,17],[21,19],[8,20],[-5,16],[19,29],[-11,42],[3,32],[-7,34],[17,26],[-1,49],[10,9],[3,14],[-10,37],[4,11],[-12,15],[3,13],[-16,36],[6,23],[-4,16],[4,15],[-9,29],[11,6],[-7,17]],[[3098,1460],[118,0],[0,9],[591,0],[146,0],[0,-7],[448,-1],[89,0]],[[4490,1461],[1,-122],[3,-153],[1,-21],[0,-72],[-1,-84],[1,-64],[-19,-12],[-21,-45],[-15,-5],[4,-15],[-15,-24],[-3,-17],[-12,-17],[-17,3],[-29,-9],[-16,-2],[-21,10],[-7,16],[-15,4],[-17,12],[5,13],[-17,19],[-23,17],[-8,12],[-34,2],[-22,-15],[-18,10],[-23,-10],[-7,19],[-48,1],[-29,-16],[-15,9],[-40,-26],[-40,-4],[-14,-16],[14,-25],[-5,-6],[15,-14],[-13,-11],[0,-30],[21,-35],[9,-24],[28,-22],[-33,-20],[9,-13],[-13,-21],[10,-13],[-2,-16],[3,-28],[-6,-18],[17,-18],[-5,-31],[27,-31],[-4,-18],[-12,-6],[9,-12],[4,-26],[-15,-16],[-1,-11],[10,-24],[2,-16],[8,-14],[19,-16],[7,-24],[9,-17],[8,-27],[-2,-22],[8,-27],[6,-42],[6,-7],[2,-31],[-7,-26],[-15,-6],[-26,-4],[-11,-12],[32,-21],[-1,-13],[-16,-11],[-7,-13],[2,-21],[-116,99],[-223,188],[-142,118],[-173,144],[-110,92],[-78,63],[-72,60]],[[3136,764],[0,163],[-37,2],[0,197],[0,209],[-1,125]],[[589,3965],[203,0],[208,-1],[372,3],[195,1],[227,-1],[64,0]],[[1858,3967],[16,-18],[15,-22],[17,-9],[9,-23],[3,-19],[-2,-23],[-6,-15],[-12,-10],[2,-32],[-7,-9],[0,-21],[15,-10],[-9,-17],[1,-11],[16,-19],[-16,-25],[17,-9],[-13,-27],[3,-13],[-6,-30],[-13,-12],[-15,3],[-52,-13],[3,-12],[-22,-11],[-6,-10],[-25,-6],[15,-13],[-7,-20],[-22,-4],[-16,-29],[-26,-4],[-14,3],[-10,-20],[8,-37],[15,-25],[10,-35],[-2,-15],[-17,-21],[-28,-12],[-17,-24],[10,-14],[-2,-16],[14,-12]],[[1682,3246],[-68,-15]],[[1614,3231],[-285,-1],[-285,1],[-101,1]],[[943,3232],[0,30],[-28,0],[0,23],[-14,0],[0,11],[-14,0],[0,12],[-14,0],[0,11],[-14,11],[-18,0],[0,23],[-14,0],[0,11],[-14,0],[0,12],[-14,0],[0,11],[-14,0],[0,12],[-17,0],[0,11],[-15,0],[0,13],[-14,0],[0,11],[-14,0],[0,12],[-13,0],[0,11],[-14,0],[-1,12],[-13,0],[-1,11],[-13,1],[0,103],[20,0],[1,94],[9,0],[0,68],[-26,-27],[-34,-25],[-24,-5]],[[1858,3967],[46,107],[79,180],[57,129]],[[2040,4383],[40,92],[172,1],[1,113],[-1,170]],[[2252,4759],[326,0]],[[2578,4759],[0,-42],[-8,0],[1,-156],[0,-149],[1,-65],[0,-139],[-3,-110],[-1,-74],[7,-1],[0,-94],[0,-254],[-2,0],[0,-205],[-3,-2],[0,-156],[-3,-12]],[[2567,3300],[-113,0],[-198,2],[-240,0],[-220,-36],[-114,-20]],[[3090,3301],[-72,-1],[-175,1],[-276,-1]],[[2578,4759],[323,0],[0,-265],[64,-232],[55,-195],[125,0]],[[4490,2916],[0,-83],[0,-57],[1,-187],[-1,-92],[0,-118],[0,-140],[-1,-62],[-1,-112],[1,-148],[0,-146],[0,-115],[1,-70],[0,-125]],[[3098,1460],[2,16],[-1,118],[-1,190],[1,20],[-1,79],[1,267],[1,269],[483,0],[190,0],[0,357],[0,140]],[[525,4728],[394,0],[0,-83],[404,1],[189,0],[269,0],[0,-137],[252,-1],[7,-6],[0,-119]],[[3,3226],[-1,36]],[[2,3262],[183,1],[7,-23],[152,1]],[[344,3241],[180,-2],[1,-74],[-25,0],[-4,-6],[-40,0],[-1,-23],[-13,0],[-1,-57],[-14,0],[0,-23],[14,0],[0,-23],[14,-12],[-2,-60],[42,2],[1,-69],[14,0],[0,-90]],[[510,2804],[-193,141],[-240,174],[-73,53],[-1,54]],[[2252,4759],[0,198],[1,137],[-1,260],[1,198]],[[2253,5552],[295,-1],[194,-1],[27,0],[201,1],[94,-1],[238,1],[235,-2],[208,0],[123,5],[52,0],[157,-6],[98,1],[140,-1],[182,0],[1,-87],[-1,-27],[1,-77],[0,-208],[-1,-215],[-1,-175],[-1,-181],[-2,-296],[0,-224]],[[1639,1954],[-55,41],[-53,42],[-208,158],[-133,101]],[[1190,2296],[58,-2],[75,71],[13,14],[82,74],[36,35],[60,54],[231,213]],[[1745,2755],[49,-46],[169,-160],[122,-115],[0,-15],[16,0],[41,-40],[0,-199],[-1,-198],[1,-56],[-1,-363]],[[2141,1563],[-158,123],[-94,74],[-61,47],[-75,59],[-24,17],[-90,71]],[[943,3232],[-123,0],[-62,-87],[-11,-17],[1,-73],[84,0],[0,-69],[-4,0],[1,-278],[-188,-1]],[[641,2707],[-131,97]],[[344,3241],[-8,39],[-9,9],[9,25],[-1,13],[-65,0],[-26,11],[-22,33]],[[222,3371],[49,13],[127,56],[147,226]],[[514,5548],[88,-1],[156,1],[229,-2],[148,3],[229,1],[244,1],[186,0],[323,2],[130,-1],[6,0]],[[222,3371],[-1,0]],[[1614,3231],[-249,-59],[0,-64],[132,-122],[226,-211],[22,-20]],[[1190,2296],[-109,83],[-37,27],[-70,54],[-43,31],[-134,101],[-39,28],[-117,87]],[[3136,764],[-35,28],[-154,126],[-210,170],[-85,68],[-167,134],[-219,175],[-125,98]],[[2,3262],[-1,42]]],"transform":{"scale":[0.0013265157059590934,0.0012603465970471726],"translate":[-120.006315645404,35.001857]},"objects":{"32":{"type":"GeometryCollection","geometries":[{"arcs":[[0,1,2,3,4,5,6,7]],"type":"Polygon","properties":{"STATEFP":"32","COUNTYFP":"031","COUNTYNS":"00858608","GEOIDFQ":"0500000US32031","GEOID":"32031","NAME":"Washoe","NAMELSAD":"Washoe County","STUSPS":"NV","STATE_NAME":"Nevada","LSAD":"06","ALAND":16358064865,"AWATER":582717357},"id":"32031"},{"arcs":[[8,9,10,11,12]],"type":"Polygon","properties":{"STATEFP":"32","COUNTYFP":"033","COUNTYNS":"00858615","GEOIDFQ":"0500000US32033","GEOID":"32033","NAME":"White Pine","NAMELSAD":"White Pine County","STUSPS":"NV","STATE_NAME":"Nevada","LSAD":"06","ALAND":23016356486,"AWATER":23426584},"id":"32033"},{"arcs":[[13,14,15]],"type":"Polygon","properties":{"STATEFP":"32","COUNTYFP":"003","COUNTYNS":"00863600","GEOIDFQ":"0500000US32003","GEOID":"32003","NAME":"Clark","NAMELSAD":"Clark County","STUSPS":"NV","STATE_NAME":"Nevada","LSAD":"06","ALAND":20439308551,"AWATER":438384091},"id":"32003"},{"arcs":[[-4,16,17,18,19,20]],"type":"Polygon","properties":{"STATEFP":"32","COUNTYFP":"001","COUNTYNS":"00858638","GEOIDFQ":"0500000US32001","GEOID":"32001","NAME":"Churchill","NAMELSAD":"Churchill County","STUSPS":"NV","STATE_NAME":"Nevada","LSAD":"06","ALAND":12820847801,"AWATER":190742991},"id":"32001"},{"arcs":[[-18,21,22,23,24,25]],"type":"Polygon","properties":{"STATEFP":"32","COUNTYFP":"015","COUNTYNS":"00863368","GEOIDFQ":"0500000US32015","GEOID":"32015","NAME":"Lander","NAMELSAD":"Lander County","STUSPS":"NV","STATE_NAME":"Nevada","LSAD":"06","ALAND":14294783202,"AWATER":662270},"id":"32015"},{"arcs":[[-13,26,-25,27]],"type":"Polygon","properties":{"STATEFP":"32","COUNTYFP":"011","COUNTYNS":"00858640","GEOIDFQ":"0500000US32011","GEOID":"32011","NAME":"Eureka","NAMELSAD":"Eureka County","STUSPS":"NV","STATE_NAME":"Nevada","LSAD":"06","ALAND":10814982430,"AWATER":11058701},"id":"32011"},{"arcs":[[-11,28,-14,29]],"type":"Polygon","properties":{"STATEFP":"32","COUNTYFP":"017","COUNTYNS":"00863992","GEOIDFQ":"0500000US32017","GEOID":"32017","NAME":"Lincoln","NAMELSAD":"Lincoln County","STUSPS":"NV","STATE_NAME":"Nevada","LSAD":"06","ALAND":27540342261,"AWATER":9802713},"id":"32017"},{"arcs":[[-3,30,-22,-17]],"type":"Polygon","properties":{"STATEFP":"32","COUNTYFP":"027","COUNTYNS":"00858646","GEOIDFQ":"0500000US32027","GEOID":"32027","NAME":"Pershing","NAMELSAD":"Pershing County","STUSPS":"NV","STATE_NAME":"Nevada","LSAD":"06","ALAND":15634691981,"AWATER":79934815},"id":"32027"},{"arcs":[[31,32,33,34]],"type":"Polygon","properties":{"STATEFP":"32","COUNTYFP":"005","COUNTYNS":"00858643","GEOIDFQ":"0500000US32005","GEOID":"32005","NAME":"Douglas","NAMELSAD":"Douglas County","STUSPS":"NV","STATE_NAME":"Nevada","LSAD":"06","ALAND":1840283027,"AWATER":72182210},"id":"32005"},{"arcs":[[-9,-28,-24,35,36]],"type":"Polygon","properties":{"STATEFP":"32","COUNTYFP":"007","COUNTYNS":"00857664","GEOIDFQ":"0500000US32007","GEOID":"32007","NAME":"Elko","NAMELSAD":"Elko County","STUSPS":"NV","STATE_NAME":"Nevada","LSAD":"06","ALAND":44478647053,"AWATER":75156805},"id":"32007"},{"arcs":[[37,38,39,40]],"type":"Polygon","properties":{"STATEFP":"32","COUNTYFP":"009","COUNTYNS":"00858641","GEOIDFQ":"0500000US32009","GEOID":"32009","NAME":"Esmeralda","NAMELSAD":"Esmeralda County","STUSPS":"NV","STATE_NAME":"Nevada","LSAD":"06","ALAND":9277050177,"AWATER":18552010},"id":"32009"},{"arcs":[[-5,-21,41,42,-34,43,44]],"type":"Polygon","properties":{"STATEFP":"32","COUNTYFP":"019","COUNTYNS":"00858645","GEOIDFQ":"0500000US32019","GEOID":"32019","NAME":"Lyon","NAMELSAD":"Lyon County","STUSPS":"NV","STATE_NAME":"Nevada","LSAD":"06","ALAND":5187884837,"AWATER":59489121},"id":"32019"},{"arcs":[[-2,45,-36,-23,-31]],"type":"Polygon","properties":{"STATEFP":"32","COUNTYFP":"013","COUNTYNS":"00863310","GEOIDFQ":"0500000US32013","GEOID":"32013","NAME":"Humboldt","NAMELSAD":"Humboldt County","STUSPS":"NV","STATE_NAME":"Nevada","LSAD":"06","ALAND":24969535376,"AWATER":44194899},"id":"32013"},{"arcs":[[-6,-45,46]],"type":"Polygon","properties":{"STATEFP":"32","COUNTYFP":"029","COUNTYNS":"00858642","GEOIDFQ":"0500000US32029","GEOID":"32029","NAME":"Storey","NAMELSAD":"Storey County","STUSPS":"NV","STATE_NAME":"Nevada","LSAD":"06","ALAND":683238144,"AWATER":1881143},"id":"32029"},{"arcs":[[-20,47,-39,48,-42]],"type":"Polygon","properties":{"STATEFP":"32","COUNTYFP":"021","COUNTYNS":"00858644","GEOIDFQ":"0500000US32021","GEOID":"32021","NAME":"Mineral","NAMELSAD":"Mineral County","STUSPS":"NV","STATE_NAME":"Nevada","LSAD":"06","ALAND":9715777465,"AWATER":155864513},"id":"32021"},{"arcs":[[-12,-30,-16,49,-40,-48,-19,-26,-27]],"type":"Polygon","properties":{"STATEFP":"32","COUNTYFP":"023","COUNTYNS":"00863599","GEOIDFQ":"0500000US32023","GEOID":"32023","NAME":"Nye","NAMELSAD":"Nye County","STUSPS":"NV","STATE_NAME":"Nevada","LSAD":"06","ALAND":47090939237,"AWATER":43207981},"id":"32023"},{"arcs":[[50,-7,-47,-44,-33]],"type":"Polygon","properties":{"STATEFP":"32","COUNTYFP":"510","COUNTYNS":"00863219","GEOIDFQ":"0500000US32510","GEOID":"32510","NAME":"Carson City","NAMELSAD":"Carson City","STUSPS":"NV","STATE_NAME":"Nevada","LSAD":"00","ALAND":374341370,"AWATER":32594082},"id":"32510"}]}}}