{"type":"Topology","arcs":[[[571,1810],[-1,22],[34,34],[4,50],[-9,37],[23,40],[36,37],[54,37],[2,40],[29,17],[-29,62],[18,28],[33,17],[86,119],[-32,16],[0,31],[25,10],[-11,53],[-37,55],[30,82],[-33,56],[15,25],[42,27],[23,30],[61,29],[84,0],[44,17],[48,-18],[57,18],[41,17],[-4,41],[39,31],[40,10]],[[1283,2880],[112,-125],[16,8],[162,-54],[18,-85],[111,14],[61,-5],[43,-18],[44,-62]],[[1850,2553],[-17,-2],[22,-73],[42,-21],[17,-61],[-8,-36],[25,-49],[32,0],[-60,-77],[35,-180],[-329,-39],[34,-163],[20,-59]],[[1663,1793],[16,-106],[-205,-23],[-11,-39],[6,-68],[-19,-22],[-41,-22],[-41,9],[-29,-20],[25,-18],[-19,-24]],[[1345,1460],[-54,7],[-93,-33],[-50,106],[-70,-61],[-70,-77]],[[1008,1402],[-213,25],[-39,-25],[-47,16],[22,25],[-165,54],[-197,25]],[[369,1522],[-8,24],[12,37],[19,8],[20,62],[6,48],[39,35],[67,31],[47,43]],[[2586,1422],[13,-37],[-25,-55],[15,-33],[-1,-48],[-42,-40],[4,-65],[28,-54],[49,-11],[33,-29],[33,-59],[24,-21],[62,-31],[7,-19],[34,-9],[2,-39],[-11,-67],[-17,-47],[23,-41]],[[2817,717],[-69,3],[2,-50],[-23,-24],[-95,16],[-76,-13],[-149,-1],[75,95],[-165,105],[-193,126]],[[2124,974],[18,17]],[[2142,991],[46,38],[78,80],[-24,115],[-27,154],[46,41]],[[2261,1419],[57,57],[26,-112],[36,10],[35,25],[48,4],[22,-79],[101,98]],[[445,41],[-285,9],[-28,52],[-103,80],[-15,62],[-14,19],[7,54],[35,22],[12,34],[-17,53],[26,22],[72,15],[20,19],[3,29],[25,17],[-30,31],[-7,40],[52,57],[-13,24],[16,32],[-38,45],[7,25]],[[170,782],[33,-2],[1,-41],[96,-6],[-7,43],[75,-4],[-3,13],[284,32],[-35,-84],[228,-5]],[[842,728],[-7,-79],[-25,-107],[-7,-124],[90,-2],[51,-260],[50,-2],[25,-128]],[[1019,26],[-574,15]],[[1008,1402],[-89,-108],[-34,-47],[-69,7],[-7,-30],[19,-21],[-8,-59],[-63,-90],[40,-114],[33,0],[6,-54],[53,-59]],[[889,827],[-45,-9],[21,-38],[-23,-52]],[[170,782],[24,70],[6,51],[-2,43],[22,8],[22,33],[20,51],[-24,31],[32,40],[-37,13],[-4,23],[20,26],[18,123],[19,48],[-29,34],[30,46],[-4,39],[15,26],[71,35]],[[2817,717],[84,-49],[19,-23],[29,-10],[52,2],[4,-26],[-40,-54],[-35,-60],[-11,-1],[-30,-58],[-30,-29],[-7,-32],[-20,-23],[-11,-59],[-51,-19],[-61,37],[-72,3],[-58,-26],[-105,-17],[-21,-17],[-32,-72],[-111,26],[-54,-22],[-33,-30],[7,-90],[-68,16],[-35,-7]],[[2127,77],[-24,22],[-147,28],[-22,22],[6,23],[-43,41],[-65,2],[-39,178],[123,15],[-27,118]],[[1889,526],[0,51],[58,105],[66,102],[111,190]],[[2508,2675],[15,-323],[13,-298],[7,-209],[21,-281],[5,-93],[36,-32],[-19,-17]],[[2261,1419],[-60,34],[-94,20],[-162,113],[-167,120],[-115,87]],[[1850,2553],[35,4],[17,-60],[45,-22],[21,-72],[0,-52],[51,-1],[10,77],[87,180],[249,-15],[91,4],[-3,78],[55,1]],[[1345,1460],[35,-44],[28,-14],[-4,-22],[23,-26],[63,-15],[30,-81],[30,-15],[50,29],[34,1],[325,-179],[183,-103]],[[1889,526],[-94,18],[-8,41],[-31,-15],[-24,28],[-39,-4],[-7,33],[-201,-25],[-43,166],[-305,-63],[-93,154],[-155,-32]],[[2389,4395],[11,-99],[29,-407],[23,-270],[22,-319],[8,-164],[22,-366],[4,-95]],[[1283,2880],[38,-8],[45,14],[63,32],[26,21],[24,57],[33,0],[41,19],[37,30],[-10,32],[13,29],[-36,23],[15,20],[29,-5],[33,11],[20,27],[-38,24],[14,51],[-18,38],[-37,9],[-17,33],[-4,43],[-45,44],[-9,39],[85,55],[55,137],[18,5],[63,67],[-32,30],[-1,63],[-37,39],[23,25],[38,19],[16,48],[-11,47],[49,24],[32,47],[32,20],[-12,27],[62,107],[-37,49],[29,17],[32,-13],[75,64],[86,49],[30,-14],[3,-27],[57,-47],[41,8],[39,-22],[26,15],[47,-10],[58,97],[23,6]],[[2111,67],[-63,-67],[-732,17],[-248,7],[-49,2]],[[2127,77],[-16,-10]]],"transform":{"scale":[0.0006167813643926816,0.0005935064846416378],"translate":[-72.557247,42.69699]},"objects":{"33":{"type":"GeometryCollection","geometries":[{"arcs":[[0,1,2,3,4,5,6]],"type":"Polygon","properties":{"STATEFP":"33","COUNTYFP":"009","COUNTYNS":"00873178","GEOIDFQ":"0500000US33009","GEOID":"33009","NAME":"Grafton","NAMELSAD":"Grafton County","STUSPS":"NH","STATE_NAME":"New Hampshire","LSAD":"06","ALAND":4425280009,"AWATER":106433838},"id":"33009"},{"arcs":[[7,8,9,10,11]],"type":"Polygon","properties":{"STATEFP":"33","COUNTYFP":"017","COUNTYNS":"00873182","GEOIDFQ":"0500000US33017","GEOID":"33017","NAME":"Strafford","NAMELSAD":"Strafford County","STUSPS":"NH","STATE_NAME":"New Hampshire","LSAD":"06","ALAND":951766244,"AWATER":39131257},"id":"33017"},{"arcs":[[12,13,14,15]],"type":"Polygon","properties":{"STATEFP":"33","COUNTYFP":"005","COUNTYNS":"00873176","GEOIDFQ":"0500000US33005","GEOID":"33005","NAME":"Cheshire","NAMELSAD":"Cheshire County","STUSPS":"NH","STATE_NAME":"New Hampshire","LSAD":"06","ALAND":1830408433,"AWATER":57547873},"id":"33005"},{"arcs":[[-6,16,17,-14,18]],"type":"Polygon","properties":{"STATEFP":"33","COUNTYFP":"019","COUNTYNS":"00873183","GEOIDFQ":"0500000US33019","GEOID":"33019","NAME":"Sullivan","NAMELSAD":"Sullivan County","STUSPS":"NH","STATE_NAME":"New Hampshire","LSAD":"06","ALAND":1393107952,"AWATER":36915441},"id":"33019"},{"arcs":[[19,20,21,-9]],"type":"Polygon","properties":{"STATEFP":"33","COUNTYFP":"015","COUNTYNS":"00873181","GEOIDFQ":"0500000US33015","GEOID":"33015","NAME":"Rockingham","NAMELSAD":"Rockingham County","STUSPS":"NH","STATE_NAME":"New Hampshire","LSAD":"06","ALAND":1801476202,"AWATER":258205458},"id":"33015"},{"arcs":[[22,-12,23,-3,24]],"type":"Polygon","properties":{"STATEFP":"33","COUNTYFP":"003","COUNTYNS":"00873175","GEOIDFQ":"0500000US33003","GEOID":"33003","NAME":"Carroll","NAMELSAD":"Carroll County","STUSPS":"NH","STATE_NAME":"New Hampshire","LSAD":"06","ALAND":2413547249,"AWATER":159588456},"id":"33003"},{"arcs":[[-5,25,-10,-22,26,-17]],"type":"Polygon","properties":{"STATEFP":"33","COUNTYFP":"013","COUNTYNS":"00873180","GEOIDFQ":"0500000US33013","GEOID":"33013","NAME":"Merrimack","NAMELSAD":"Merrimack County","STUSPS":"NH","STATE_NAME":"New Hampshire","LSAD":"06","ALAND":2416073580,"AWATER":57302046},"id":"33013"},{"arcs":[[27,-25,-2,28]],"type":"Polygon","properties":{"STATEFP":"33","COUNTYFP":"007","COUNTYNS":"00873177","GEOIDFQ":"0500000US33007","GEOID":"33007","NAME":"Coos","NAMELSAD":"Coos County","STUSPS":"NH","STATE_NAME":"New Hampshire","LSAD":"06","ALAND":4647924493,"AWATER":92541535},"id":"33007"},{"arcs":[[-4,-24,-11,-26]],"type":"Polygon","properties":{"STATEFP":"33","COUNTYFP":"001","COUNTYNS":"00873174","GEOIDFQ":"0500000US33001","GEOID":"33001","NAME":"Belknap","NAMELSAD":"Belknap County","STUSPS":"NH","STATE_NAME":"New Hampshire","LSAD":"06","ALAND":1040947197,"AWATER":176373665},"id":"33001"},{"arcs":[[29,-15,-18,-27,-21,30]],"type":"Polygon","properties":{"STATEFP":"33","COUNTYFP":"011","COUNTYNS":"00873179","GEOIDFQ":"0500000US33011","GEOID":"33011","NAME":"Hillsborough","NAMELSAD":"Hillsborough County","STUSPS":"NH","STATE_NAME":"New Hampshire","LSAD":"06","ALAND":2270202132,"AWATER":41310055},"id":"33011"}]}}}