{"type":"Topology","arcs":[[[918,2304],[46,9],[39,-34],[-2,-72],[38,-16],[20,-27],[38,-15],[25,-47],[34,-27],[51,-206],[50,-20],[60,18],[44,-4],[53,-36],[34,-46],[66,-44]],[[1514,1737],[-259,-264]],[[1255,1473],[-28,22],[-28,49],[-5,48],[-48,69],[-105,34],[-11,20],[-46,23],[4,35],[-24,18],[-29,55],[-66,-2],[24,51],[-27,38],[10,29],[-43,64],[-28,6],[-32,48]],[[773,2080],[21,51],[-13,34],[9,68],[51,29],[49,13],[28,29]],[[1186,540],[-15,24],[-6,65],[54,35],[27,159],[38,34]],[[1284,857],[66,-40],[77,4],[57,-27],[39,8],[58,-20],[70,18],[80,-9],[49,34],[43,-22],[36,4]],[[1859,807],[-10,-33],[-48,-33],[-72,-65],[-96,-131],[-43,-70],[-35,-72],[15,-25],[-58,-61],[-62,-92],[-50,-13],[20,-55],[-117,-101],[-25,-30],[-36,4],[-42,-22],[-49,-8],[-62,11],[-9,15],[31,132],[31,73],[64,113],[21,56],[9,99],[-50,41]],[[1514,1737],[110,-83],[33,-76],[-1,-55],[87,-18],[42,-24],[24,-29],[40,0],[47,-62],[42,-1],[25,-30],[30,-9],[43,12],[26,-12],[38,13]],[[2100,1363],[29,-42],[39,-86],[49,16],[51,1]],[[2268,1252],[26,-49],[-2,-22],[-39,-49],[1,-34],[-61,-72],[-104,-101],[-67,-22],[-163,-96]],[[1284,857],[-7,31],[24,97],[-11,26],[2,65],[-236,195]],[[1056,1271],[199,202]],[[808,4422],[-25,4],[6,44],[39,28],[151,77],[26,58],[56,28],[28,33]],[[1089,4694],[364,-398]],[[1453,4296],[-63,-54],[3,-48],[-40,-42],[-49,-87],[-72,-36]],[[1232,4029],[-24,-34],[-45,-38],[-80,-97],[-59,-34],[-26,2],[-111,-68],[-57,-51],[-68,-24],[-66,-75],[-17,-6]],[[679,3604],[-12,37],[11,59],[-18,24],[42,67],[-48,30],[39,83],[-26,47],[35,27],[11,30],[69,-9],[47,38],[46,72],[-26,36],[13,18],[50,0],[18,53],[-41,47],[-6,40],[-30,22],[-41,63],[-4,34]],[[2479,4779],[218,-111],[350,-184],[16,-1],[-4,-33],[-41,-139],[-28,-77],[-54,-120],[-40,-63]],[[2896,4051],[-51,41],[-86,-23],[-57,-61],[-68,-14],[-37,33]],[[2597,4027],[32,72]],[[2629,4099],[11,6],[15,114],[-26,21],[-19,111],[-14,13],[13,52],[-56,24],[-98,9],[-44,23],[-44,56],[112,251]],[[918,2304],[13,28],[75,35],[71,59],[76,45],[43,3],[91,32],[40,35],[21,50],[19,8],[63,-15],[42,29],[34,3],[34,32]],[[1540,2648],[29,25],[19,45],[134,-87],[65,-9]],[[1787,2622],[64,-128]],[[1851,2494],[45,-92],[41,-99],[141,-316],[73,-156],[-1,-384],[-19,-52],[-31,-32]],[[1186,540],[-89,31],[-116,4],[-1,42],[-40,4],[-129,-6],[-17,-48],[-27,-7],[-46,36],[8,23],[-16,51],[-35,19],[-28,35],[-66,25],[-18,57],[-58,11],[-9,-30],[-50,41],[-34,75],[-63,12],[-41,18],[-31,48],[-10,7],[-8,6]],[[262,994],[14,17],[-16,44],[19,94],[73,-4],[47,73],[45,3],[146,145],[120,-88],[165,-132],[19,60],[-12,36],[14,49],[-4,44],[23,53]],[[915,1388],[141,-117]],[[262,994],[-47,33],[-42,79],[-62,22],[-17,22],[-52,3],[-12,21],[1,57],[27,3],[0,81],[-11,12],[42,59],[-1,20],[-82,63],[-6,51],[45,38],[37,46],[14,61],[52,37],[9,47],[27,66],[39,40],[60,26]],[[283,1881],[15,-59],[-11,-17],[49,-36],[0,-40],[92,-65],[73,-36],[66,-6],[33,-34],[61,13],[254,-213]],[[1727,3132],[60,44],[7,54],[88,42],[106,99],[34,15],[-13,39],[-27,6],[-55,61],[-26,62],[30,34],[85,33]],[[2016,3621],[12,-8],[283,28],[22,-36],[144,24],[14,-20]],[[2491,3609],[-17,-62],[-32,-6],[-42,-30],[10,-55],[-43,-75],[19,-52],[73,-28]],[[2459,3301],[-46,-44],[-1,-54],[-238,-219],[-29,-56],[-124,-61],[-45,4]],[[1976,2871],[6,45],[-81,41],[-48,-5],[-59,46],[-74,37],[-12,24],[19,73]],[[1232,4029],[84,-63],[30,-31],[62,-8],[75,-20],[50,-25]],[[1533,3882],[16,-32],[-12,-37],[8,-78],[-13,-42],[44,-25],[-35,-44],[16,-36],[-22,-39],[-34,-28],[-59,-105],[-41,24],[91,-199]],[[1492,3241],[-111,-16],[12,-69],[-124,-15],[24,-67],[-140,-16],[-19,5]],[[1134,3063],[-11,50],[-28,66],[-59,33],[-53,-15],[-62,31],[-22,81],[14,57],[-10,131],[-59,56],[-67,17],[-40,-23],[-31,0],[-34,24],[7,33]],[[2629,4099],[-203,131],[-45,15],[-13,22]],[[2368,4267],[10,22],[-42,46],[22,57],[-15,51],[-29,45],[-90,10],[-10,21],[-62,-3],[-63,33],[-43,58],[-101,-26],[19,78],[-21,16]],[[1943,4675],[150,162],[99,93]],[[2192,4930],[121,-67],[124,-63],[42,-21]],[[1540,2648],[-22,52],[-40,27],[-29,62],[-44,30],[-86,46],[-48,97],[-34,33],[-39,14],[-64,54]],[[1492,3241],[48,-106],[125,34],[58,-14],[4,-23]],[[1976,2871],[7,-22],[-114,-57],[-35,-57],[-58,-24],[-38,6],[49,-95]],[[283,1881],[-17,12],[111,82],[44,20],[107,0],[69,16],[43,23],[41,30],[92,16]],[[1851,2494],[47,24],[222,178],[267,-12],[3,-39],[33,-39],[-5,-28],[37,-20],[42,8],[76,-12],[19,-18],[78,83],[25,-64],[44,-39],[45,34],[22,-7]],[[2806,2543],[-56,-267],[-38,-251],[-26,-230],[-34,-46],[-45,-99],[-91,-140],[-91,-151],[-89,-100],[-68,-7]],[[2016,3621],[46,23],[42,47],[23,54],[-49,18],[-39,-23],[-19,42]],[[2020,3782],[109,97],[20,0],[35,46]],[[2184,3925],[85,-49],[41,-8],[34,19],[116,-32],[37,-44],[67,7],[40,-23]],[[2604,3795],[9,-12],[-85,-59],[-39,-44],[2,-71]],[[2597,4027],[-32,-66],[9,-47],[42,15],[37,-9],[-7,-44]],[[2646,3876],[0,-27],[-42,-54]],[[2184,3925],[26,33],[-25,20],[8,63],[64,62],[19,92],[-30,13],[7,76],[77,1],[38,-18]],[[1089,4694],[-45,-5],[18,35],[108,65],[76,92],[42,86],[-15,16],[34,51],[19,56],[30,36],[54,37],[1,25],[38,6],[34,46],[59,2],[48,22],[436,-237],[166,-97]],[[1943,4675],[-191,-190],[-47,-53],[-5,-50],[-30,-58],[-52,-31],[-58,-22],[-13,29],[-55,16],[-39,-20]],[[2020,3782],[-78,-30],[-36,-23],[-12,40],[9,47],[-9,81],[-33,22],[-16,47],[-312,-84]],[[2896,4051],[-54,-87],[-17,-82],[-59,-63],[-17,11],[-41,-63],[-1,-28],[-104,-22],[13,31],[64,95],[-34,33]],[[2459,3301],[52,-23],[31,35],[35,-23],[42,19],[87,-37],[74,-42],[76,-17],[20,18],[36,-29],[8,-112],[-10,-119],[-30,-134],[-68,-249],[-6,-45]]],"transform":{"scale":[0.0005437355447701589,0.0004614179331306983],"translate":[-75.559446,38.928519]},"objects":{"34":{"type":"GeometryCollection","geometries":[{"arcs":[[0,1,2,3]],"type":"Polygon","properties":{"STATEFP":"34","COUNTYFP":"007","COUNTYNS":"00882273","GEOIDFQ":"0500000US34007","GEOID":"34007","NAME":"Camden","NAMELSAD":"Camden County","STUSPS":"NJ","STATE_NAME":"New Jersey","LSAD":"06","ALAND":573332073,"AWATER":15917055},"id":"34007"},{"arcs":[[4,5,6]],"type":"Polygon","properties":{"STATEFP":"34","COUNTYFP":"009","COUNTYNS":"00882274","GEOIDFQ":"0500000US34009","GEOID":"34009","NAME":"Cape May","NAMELSAD":"Cape May County","STUSPS":"NJ","STATE_NAME":"New Jersey","LSAD":"06","ALAND":651416132,"AWATER":955170886},"id":"34009"},{"arcs":[[-2,7,8,9,-6,10,11]],"type":"Polygon","properties":{"STATEFP":"34","COUNTYFP":"001","COUNTYNS":"00882270","GEOIDFQ":"0500000US34001","GEOID":"34001","NAME":"Atlantic","NAMELSAD":"Atlantic County","STUSPS":"NJ","STATE_NAME":"New Jersey","LSAD":"06","ALAND":1438954274,"AWATER":301091070},"id":"34001"},{"arcs":[[12,13,14,15,16]],"type":"Polygon","properties":{"STATEFP":"34","COUNTYFP":"041","COUNTYNS":"00882237","GEOIDFQ":"0500000US34041","GEOID":"34041","NAME":"Warren","NAMELSAD":"Warren County","STUSPS":"NJ","STATE_NAME":"New Jersey","LSAD":"06","ALAND":923436997,"AWATER":15824253},"id":"34041"},{"arcs":[[17,18,19,20]],"type":"Polygon","properties":{"STATEFP":"34","COUNTYFP":"003","COUNTYNS":"00882271","GEOIDFQ":"0500000US34003","GEOID":"34003","NAME":"Bergen","NAMELSAD":"Bergen County","STUSPS":"NJ","STATE_NAME":"New Jersey","LSAD":"06","ALAND":602942130,"AWATER":35363774},"id":"34003"},{"arcs":[[-1,21,22,23,24,-8]],"type":"Polygon","properties":{"STATEFP":"34","COUNTYFP":"005","COUNTYNS":"00882272","GEOIDFQ":"0500000US34005","GEOID":"34005","NAME":"Burlington","NAMELSAD":"Burlington County","STUSPS":"NJ","STATE_NAME":"New Jersey","LSAD":"06","ALAND":2070156208,"AWATER":54585340},"id":"34005"},{"arcs":[[-5,25,26,27,-11]],"type":"Polygon","properties":{"STATEFP":"34","COUNTYFP":"011","COUNTYNS":"00882275","GEOIDFQ":"0500000US34011","GEOID":"34011","NAME":"Cumberland","NAMELSAD":"Cumberland County","STUSPS":"NJ","STATE_NAME":"New Jersey","LSAD":"06","ALAND":1251948168,"AWATER":503663195},"id":"34011"},{"arcs":[[-27,28,29]],"type":"Polygon","properties":{"STATEFP":"34","COUNTYFP":"033","COUNTYNS":"00882233","GEOIDFQ":"0500000US34033","GEOID":"34033","NAME":"Salem","NAMELSAD":"Salem County","STUSPS":"NJ","STATE_NAME":"New Jersey","LSAD":"06","ALAND":859515221,"AWATER":105389623},"id":"34033"},{"arcs":[[30,31,32,33,34]],"type":"Polygon","properties":{"STATEFP":"34","COUNTYFP":"023","COUNTYNS":"00882230","GEOIDFQ":"0500000US34023","GEOID":"34023","NAME":"Middlesex","NAMELSAD":"Middlesex County","STUSPS":"NJ","STATE_NAME":"New Jersey","LSAD":"06","ALAND":801117796,"AWATER":35126562},"id":"34023"},{"arcs":[[-16,35,36,37,38]],"type":"Polygon","properties":{"STATEFP":"34","COUNTYFP":"019","COUNTYNS":"00882228","GEOIDFQ":"0500000US34019","GEOID":"34019","NAME":"Hunterdon","NAMELSAD":"Hunterdon County","STUSPS":"NJ","STATE_NAME":"New Jersey","LSAD":"06","ALAND":1108086281,"AWATER":24761599},"id":"34019"},{"arcs":[[-21,39,40,41,42]],"type":"Polygon","properties":{"STATEFP":"34","COUNTYFP":"031","COUNTYNS":"00882232","GEOIDFQ":"0500000US34031","GEOID":"34031","NAME":"Passaic","NAMELSAD":"Passaic County","STUSPS":"NJ","STATE_NAME":"New Jersey","LSAD":"06","ALAND":482078671,"AWATER":32001147},"id":"34031"},{"arcs":[[-23,43,-38,44,-35,45]],"type":"Polygon","properties":{"STATEFP":"34","COUNTYFP":"021","COUNTYNS":"00882229","GEOIDFQ":"0500000US34021","GEOID":"34021","NAME":"Mercer","NAMELSAD":"Mercer County","STUSPS":"NJ","STATE_NAME":"New Jersey","LSAD":"06","ALAND":581404580,"AWATER":11327996},"id":"34021"},{"arcs":[[-3,-12,-28,-30,46]],"type":"Polygon","properties":{"STATEFP":"34","COUNTYFP":"015","COUNTYNS":"00882277","GEOIDFQ":"0500000US34015","GEOID":"34015","NAME":"Gloucester","NAMELSAD":"Gloucester County","STUSPS":"NJ","STATE_NAME":"New Jersey","LSAD":"06","ALAND":833999183,"AWATER":38137139},"id":"34015"},{"arcs":[[-9,-25,47,48]],"type":"Polygon","properties":{"STATEFP":"34","COUNTYFP":"029","COUNTYNS":"00882279","GEOIDFQ":"0500000US34029","GEOID":"34029","NAME":"Ocean","NAMELSAD":"Ocean County","STUSPS":"NJ","STATE_NAME":"New Jersey","LSAD":"06","ALAND":1627266218,"AWATER":742148419},"id":"34029"},{"arcs":[[-32,49,50,51,52]],"type":"Polygon","properties":{"STATEFP":"34","COUNTYFP":"039","COUNTYNS":"00882235","GEOIDFQ":"0500000US34039","GEOID":"34039","NAME":"Union","NAMELSAD":"Union County","STUSPS":"NJ","STATE_NAME":"New Jersey","LSAD":"06","ALAND":266164943,"AWATER":6839884},"id":"34039"},{"arcs":[[-20,53,54,-52,55,-40]],"type":"Polygon","properties":{"STATEFP":"34","COUNTYFP":"013","COUNTYNS":"00882276","GEOIDFQ":"0500000US34013","GEOID":"34013","NAME":"Essex","NAMELSAD":"Essex County","STUSPS":"NJ","STATE_NAME":"New Jersey","LSAD":"06","ALAND":326552020,"AWATER":8653478},"id":"34013"},{"arcs":[[56,-42,57,-14]],"type":"Polygon","properties":{"STATEFP":"34","COUNTYFP":"037","COUNTYNS":"00882236","GEOIDFQ":"0500000US34037","GEOID":"34037","NAME":"Sussex","NAMELSAD":"Sussex County","STUSPS":"NJ","STATE_NAME":"New Jersey","LSAD":"06","ALAND":1342890215,"AWATER":43870812},"id":"34037"},{"arcs":[[-15,-58,-41,-56,-51,58,-36]],"type":"Polygon","properties":{"STATEFP":"34","COUNTYFP":"027","COUNTYNS":"00882231","GEOIDFQ":"0500000US34027","GEOID":"34027","NAME":"Morris","NAMELSAD":"Morris County","STUSPS":"NJ","STATE_NAME":"New Jersey","LSAD":"06","ALAND":1194054336,"AWATER":53097699},"id":"34027"},{"arcs":[[-19,59,-54]],"type":"Polygon","properties":{"STATEFP":"34","COUNTYFP":"017","COUNTYNS":"00882278","GEOIDFQ":"0500000US34017","GEOID":"34017","NAME":"Hudson","NAMELSAD":"Hudson County","STUSPS":"NJ","STATE_NAME":"New Jersey","LSAD":"06","ALAND":119638037,"AWATER":41839269},"id":"34017"},{"arcs":[[-24,-46,-34,60,-48]],"type":"Polygon","properties":{"STATEFP":"34","COUNTYFP":"025","COUNTYNS":"00882910","GEOIDFQ":"0500000US34025","GEOID":"34025","NAME":"Monmouth","NAMELSAD":"Monmouth County","STUSPS":"NJ","STATE_NAME":"New Jersey","LSAD":"06","ALAND":1212642039,"AWATER":500374481},"id":"34025"},{"arcs":[[-31,-45,-37,-59,-50]],"type":"Polygon","properties":{"STATEFP":"34","COUNTYFP":"035","COUNTYNS":"00882234","GEOIDFQ":"0500000US34035","GEOID":"34035","NAME":"Somerset","NAMELSAD":"Somerset County","STUSPS":"NJ","STATE_NAME":"New Jersey","LSAD":"06","ALAND":781847506,"AWATER":7977584},"id":"34035"}]}}}