{"type":"Topology","arcs":[[[2,1516],[58,-1],[88,1],[111,0],[66,-1],[60,-6],[151,0],[136,1]],[[672,1510],[87,-1],[15,-12],[-7,-12],[0,-29],[11,-54],[-10,-10],[-3,-15],[5,-9],[1,-26],[11,-24],[31,-9],[10,-33],[-8,-12],[3,-35],[9,-6],[9,-17],[-3,-16],[6,-14],[12,-8],[3,-19],[-4,-15],[5,-12],[-2,-19],[-6,-5],[2,-25],[-6,-15],[1,-12],[10,-4],[70,-14]],[[924,1028],[-202,-1],[0,-70],[-196,0],[0,-250],[0,-103],[8,0],[0,-174]],[[534,430],[-197,-1],[0,175],[-9,0],[1,96],[0,257],[-71,-1],[1,71],[-133,0],[-1,140],[-123,1]],[[2,1168],[0,160],[0,188]],[[2690,960],[6,0],[0,357],[160,1],[153,0],[158,1],[188,0]],[[3355,1319],[0,-158],[0,-200],[58,0],[0,-204],[0,-218]],[[3413,539],[-165,0],[-28,0],[-196,0],[-129,0],[-143,1],[-11,-3],[-48,2]],[[2693,539],[0,205],[-3,0],[0,216]],[[2135,3753],[7,-8],[18,-1],[12,-7],[10,3],[8,14],[18,-5],[20,-1],[23,15],[4,18]],[[2255,3781],[15,6],[11,13],[17,33],[28,44],[3,20],[-4,10],[16,18],[2,20],[-4,11],[8,18],[29,8]],[[2376,3982],[113,-1],[192,0],[0,-35],[81,1],[194,0]],[[2956,3947],[0,-34],[21,-17],[-10,-10],[6,-9],[8,-27],[-2,-6],[12,-12],[1,-22],[9,-4],[1,-25],[16,-11],[-10,-14],[18,-18],[-16,-16],[-5,-44],[-12,-7],[-2,-12],[10,-19],[-8,-12],[11,-33],[-5,-3]],[[2999,3592],[-113,1],[0,2],[-72,0],[-131,-4],[-93,-6],[-13,-13],[-19,21],[-10,1],[-23,21],[-26,1],[-18,13],[-26,3],[-12,8],[-71,26],[-168,0],[-71,0]],[[2133,3666],[2,87]],[[2664,2435],[0,208],[216,0],[71,0],[0,70],[67,1],[0,70],[135,0]],[[3153,2784],[0,-140],[116,-1]],[[3269,2643],[-1,-279],[2,0],[0,-143]],[[3270,2221],[-134,1],[0,-71],[-104,0],[-160,2],[-140,2],[0,71],[-69,0]],[[2663,2226],[1,209]],[[2255,3781],[-131,70],[-17,24],[-61,81],[-129,54],[14,24],[20,4],[26,15],[8,20],[-2,36],[11,35],[-1,20],[-10,42],[0,29],[-11,46],[3,22],[-2,19],[-7,25],[1,43],[-3,36],[7,21],[1,39],[-9,28],[-1,16],[-11,29],[-1,15]],[[1950,4574],[185,1],[173,0],[146,-1]],[[2454,4574],[-10,-11],[0,-16],[23,-37],[-19,-55],[3,-21],[-6,-8],[-1,-17],[7,-29],[-4,-25],[-24,-6],[-13,9],[-16,-4],[-8,-20],[-17,-1],[-11,-13],[4,-22],[8,-13],[-9,-8],[-6,-15],[16,-29],[-4,-12],[-13,-7],[18,-14],[3,-17],[11,-9],[-15,-36],[6,-8],[10,-46],[-7,-12],[4,-29],[-4,-29],[5,-20],[-9,-12]],[[2135,3753],[1,19],[-227,0],[11,-13],[-1,-45],[-122,0]],[[1797,3714],[-2,29]],[[1795,3743],[1,28],[-92,0],[-248,-2],[-69,0],[0,96],[0,80],[-236,0],[-33,-1],[-68,2],[-43,0],[-93,2]],[[914,3948],[-1,105],[1,35],[-2,35],[2,193],[3,0],[0,104],[12,9],[1,15],[12,1],[15,17],[17,4],[5,11],[11,0],[18,15],[16,8],[-3,40],[17,14],[-1,13],[7,11]],[[1044,4578],[143,0],[205,0],[5,-6],[76,0],[176,1],[176,0],[125,1]],[[2956,3947],[274,-1]],[[3230,3946],[0,-35],[138,0],[-1,-72],[276,1],[0,-71],[-7,0],[0,-209]],[[3636,3560],[0,-71],[-3,0],[0,-206],[-6,-6],[-159,0]],[[3468,3277],[0,27],[-55,0],[-133,250],[-30,56],[-28,-16],[-55,0],[-168,-2]],[[2454,4574],[42,0],[99,-2],[227,1],[14,0],[183,0],[212,2]],[[3231,4575],[0,-171],[0,-70],[-1,-16],[1,-266],[-1,-106]],[[672,1510],[0,223],[40,-3],[112,2],[33,0]],[[857,1732],[169,0],[146,1],[302,-2],[176,0],[0,4],[65,0]],[[1715,1735],[1,-73],[17,0]],[[1733,1662],[3,-205],[0,-67]],[[1736,1390],[-263,-140],[-88,-46],[0,-35],[-263,0],[0,-141]],[[1122,1028],[-198,0]],[[2133,3666],[0,-111],[2,-65],[0,-282],[1,0],[1,-212]],[[2137,2996],[-202,-1],[-137,0]],[[1798,2995],[0,142]],[[1798,3137],[-1,71],[-2,0],[0,282],[-1,83]],[[1794,3573],[17,9],[28,34],[4,14],[-33,2],[-15,8],[0,14],[2,60]],[[3848,2407],[0,-8]],[[3848,2399],[-274,1],[-172,-1],[1,177],[0,67]],[[3403,2643],[21,0],[0,71],[135,-1],[0,71],[67,-1],[1,71],[67,-1],[0,72],[155,0]],[[3849,2925],[0,-167],[-1,-230],[0,-121]],[[2663,2226],[-1,-143],[1,-70],[2,-2],[-1,-184],[0,-158],[5,-4],[0,-71],[-12,0],[-1,-135],[-65,0],[0,-3],[-61,-1],[-5,-2],[-133,1]],[[2392,1454],[0,140],[-66,-1],[-196,0],[-1,69],[-222,0],[-174,0]],[[1715,1735],[0,145],[67,1],[71,-7],[68,-2],[0,142],[82,0],[-1,69],[0,211],[0,71]],[[2002,2365],[278,0],[114,0],[0,70]],[[2394,2435],[270,0]],[[534,430],[0,-36],[4,0],[1,-30]],[[539,364],[1,-137],[-1,-226],[-320,0],[-51,-1],[-168,0],[0,119],[1,127],[0,189],[0,176],[1,273],[0,178],[0,106]],[[2693,539],[-46,1],[-151,0],[-204,0],[-166,1],[-170,0],[-82,0],[-161,-1]],[[1713,540],[-1,136],[1,186],[0,131],[0,320],[23,0],[0,77]],[[2392,1454],[0,-138],[-23,0],[1,-100],[-1,-72],[0,-116],[-1,-70],[131,0],[0,2],[191,0]],[[3153,2784],[0,142],[2,0],[1,151]],[[3156,3077],[171,99],[0,-18],[9,-1],[132,0],[0,120]],[[3636,3560],[214,0]],[[3850,3560],[0,-95],[-1,-184],[0,-171],[0,-185]],[[3403,2643],[-134,0]],[[1798,2995],[0,-70],[60,0],[0,-67],[-24,-1],[-144,1]],[[1690,2858],[1,15],[-12,11],[-164,3],[-23,-30],[-194,0],[-27,71]],[[1271,2928],[-84,212]],[[1187,3140],[64,-1],[157,-1],[125,0],[11,-12],[23,12],[152,0],[79,-1]],[[3231,4575],[175,1],[168,1],[247,1],[54,0],[0,-262],[0,-142],[-25,0],[0,-147],[0,-212],[0,-255]],[[3156,3077],[0,60],[-148,0],[-176,0],[-252,0],[-171,0],[0,-141]],[[2409,2996],[-272,0]],[[3270,2221],[67,0],[0,-212],[80,0],[-1,-132],[134,1],[0,-71]],[[3550,1807],[-135,0],[-1,-140],[-29,-1],[0,-151],[0,-196],[-30,0]],[[1713,540],[-155,0],[-13,-17],[9,-15],[1,-29],[-14,-25],[10,-9],[-4,-14],[22,-21],[-3,-10],[18,-14],[20,-2],[12,-20],[-2,1],[-141,0],[-160,-1],[-190,1]],[[1123,365],[0,239],[-1,2],[0,130],[1,202],[-1,90]],[[2,1516],[0,162],[0,174],[0,123],[0,180],[0,135],[0,178],[1,155]],[[3,2623],[175,0],[234,-1],[222,1],[215,-1]],[[849,2622],[-1,-49],[1,-60],[0,-148],[6,0],[0,-351],[2,-12],[0,-59],[0,-211]],[[2394,2435],[1,210],[14,0],[0,153],[0,198]],[[2002,2365],[-113,0],[-201,0],[-1,145]],[[1687,2510],[0,66],[-34,0],[-1,70],[4,0],[-1,111],[2,101],[33,0]],[[1271,2928],[-87,0],[-1,-141],[0,-141],[1,-24]],[[1184,2622],[-83,1],[-140,-1],[-91,1],[-21,-1]],[[3,2623],[0,154],[0,153]],[[3,2930],[179,0],[190,-1],[0,141],[1,140],[142,0],[164,-1],[164,0],[0,35],[68,0],[0,-36],[66,0],[138,1]],[[1115,3209],[46,0],[26,-69]],[[3550,1807],[293,1]],[[3843,1808],[-3,-147],[-5,-283],[0,-64],[0,-223],[0,-130],[0,-151],[0,-200],[0,-70],[-168,0],[-254,-1]],[[3848,2399],[0,-241],[-2,-145],[-3,-141],[0,-64]],[[1184,2622],[66,0],[125,2],[14,-1],[73,-39],[169,-60],[31,-16],[25,2]],[[3,2930],[0,234],[-1,92],[1,268],[0,248]],[[3,3772],[248,0],[248,0],[68,0],[230,-1],[115,-1]],[[912,3770],[204,-1],[0,-209],[0,-126],[1,-133],[-2,0],[0,-92]],[[1794,3573],[-10,19],[-11,10],[-47,20],[-28,-7],[-12,8],[12,8],[0,107],[9,-6],[45,0],[10,5],[0,12],[23,-1],[10,-5]],[[3,4577],[190,0],[237,0],[83,0],[159,1],[185,0],[148,0],[39,0]],[[914,3948],[-2,-178]],[[3,3772],[0,145],[0,281],[0,193],[0,186]],[[1123,365],[-220,-1],[-144,0],[-220,0]]],"transform":{"scale":[0.001560767483870967,0.0012380534869443653],"translate":[-109.050173,31.332365]},"objects":{"35":{"type":"GeometryCollection","geometries":[{"arcs":[[0,1,2,3,4]],"type":"Polygon","properties":{"STATEFP":"35","COUNTYFP":"017","COUNTYNS":"00915980","GEOIDFQ":"0500000US35017","GEOID":"35017","NAME":"Grant","NAMELSAD":"Grant County","STUSPS":"NM","STATE_NAME":"New Mexico","LSAD":"06","ALAND":10259478298,"AWATER":15295130},"id":"35017"},{"arcs":[[5,6,7,8]],"type":"Polygon","properties":{"STATEFP":"35","COUNTYFP":"015","COUNTYNS":"00936829","GEOIDFQ":"0500000US35015","GEOID":"35015","NAME":"Eddy","NAMELSAD":"Eddy County","STUSPS":"NM","STATE_NAME":"New Mexico","LSAD":"06","ALAND":10816692046,"AWATER":56489009},"id":"35015"},{"arcs":[[9,10,11,12,13,14]],"type":"Polygon","properties":{"STATEFP":"35","COUNTYFP":"033","COUNTYNS":"01702367","GEOIDFQ":"0500000US35033","GEOID":"35033","NAME":"Mora","NAMELSAD":"Mora County","STUSPS":"NM","STATE_NAME":"New Mexico","LSAD":"06","ALAND":4988972401,"AWATER":6083545},"id":"35033"},{"arcs":[[15,16,17,18,19]],"type":"Polygon","properties":{"STATEFP":"35","COUNTYFP":"011","COUNTYNS":"00933054","GEOIDFQ":"0500000US35011","GEOID":"35011","NAME":"De Baca","NAMELSAD":"De Baca County","STUSPS":"NM","STATE_NAME":"New Mexico","LSAD":"06","ALAND":6016818942,"AWATER":29090018},"id":"35011"},{"arcs":[[-11,20,21,22]],"type":"Polygon","properties":{"STATEFP":"35","COUNTYFP":"055","COUNTYNS":"00933056","GEOIDFQ":"0500000US35055","GEOID":"35055","NAME":"Taos","NAMELSAD":"Taos County","STUSPS":"NM","STATE_NAME":"New Mexico","LSAD":"06","ALAND":5704119619,"AWATER":3383128},"id":"35055"},{"arcs":[[-10,23,24,25,26,27,-21]],"type":"Polygon","properties":{"STATEFP":"35","COUNTYFP":"039","COUNTYNS":"01702368","GEOIDFQ":"0500000US35039","GEOID":"35039","NAME":"Rio Arriba","NAMELSAD":"Rio Arriba County","STUSPS":"NM","STATE_NAME":"New Mexico","LSAD":"06","ALAND":15179598453,"AWATER":91463244},"id":"35039"},{"arcs":[[-13,28,29,30,31]],"type":"Polygon","properties":{"STATEFP":"35","COUNTYFP":"021","COUNTYNS":"00933055","GEOIDFQ":"0500000US35021","GEOID":"35021","NAME":"Harding","NAMELSAD":"Harding County","STUSPS":"NM","STATE_NAME":"New Mexico","LSAD":"06","ALAND":5504963122,"AWATER":1162620},"id":"35021"},{"arcs":[[-12,-23,32,33,-29]],"type":"Polygon","properties":{"STATEFP":"35","COUNTYFP":"007","COUNTYNS":"00929117","GEOIDFQ":"0500000US35007","GEOID":"35007","NAME":"Colfax","NAMELSAD":"Colfax County","STUSPS":"NM","STATE_NAME":"New Mexico","LSAD":"06","ALAND":9733113272,"AWATER":26296498},"id":"35007"},{"arcs":[[-2,34,35,36,37,38,39]],"type":"Polygon","properties":{"STATEFP":"35","COUNTYFP":"051","COUNTYNS":"01702370","GEOIDFQ":"0500000US35051","GEOID":"35051","NAME":"Sierra","NAMELSAD":"Sierra County","STUSPS":"NM","STATE_NAME":"New Mexico","LSAD":"06","ALAND":10829293033,"AWATER":147631578},"id":"35051"},{"arcs":[[-15,40,41,42,43,44,-24]],"type":"Polygon","properties":{"STATEFP":"35","COUNTYFP":"049","COUNTYNS":"00933322","GEOIDFQ":"0500000US35049","GEOID":"35049","NAME":"Santa Fe","NAMELSAD":"Santa Fe County","STUSPS":"NM","STATE_NAME":"New Mexico","LSAD":"06","ALAND":4947861285,"AWATER":2643021},"id":"35049"},{"arcs":[[45,46,47,48]],"type":"Polygon","properties":{"STATEFP":"35","COUNTYFP":"009","COUNTYNS":"00933053","GEOIDFQ":"0500000US35009","GEOID":"35009","NAME":"Curry","NAMELSAD":"Curry County","STUSPS":"NM","STATE_NAME":"New Mexico","LSAD":"06","ALAND":3640291094,"AWATER":7991739},"id":"35009"},{"arcs":[[-20,49,50,-37,51,52,53]],"type":"Polygon","properties":{"STATEFP":"35","COUNTYFP":"027","COUNTYNS":"00929116","GEOIDFQ":"0500000US35027","GEOID":"35027","NAME":"Lincoln","NAMELSAD":"Lincoln County","STUSPS":"NM","STATE_NAME":"New Mexico","LSAD":"06","ALAND":12512530054,"AWATER":554839},"id":"35027"},{"arcs":[[-4,54,55]],"type":"Polygon","properties":{"STATEFP":"35","COUNTYFP":"023","COUNTYNS":"00929106","GEOIDFQ":"0500000US35023","GEOID":"35023","NAME":"Hidalgo","NAMELSAD":"Hidalgo County","STUSPS":"NM","STATE_NAME":"New Mexico","LSAD":"06","ALAND":8905805099,"AWATER":23581028},"id":"35023"},{"arcs":[[-9,56,57,-38,-51,58]],"type":"Polygon","properties":{"STATEFP":"35","COUNTYFP":"035","COUNTYNS":"00929104","GEOIDFQ":"0500000US35035","GEOID":"35035","NAME":"Otero","NAMELSAD":"Otero County","STUSPS":"NM","STATE_NAME":"New Mexico","LSAD":"06","ALAND":17126455957,"AWATER":36944199},"id":"35035"},{"arcs":[[-17,59,60,-31,61,62,-48,63]],"type":"Polygon","properties":{"STATEFP":"35","COUNTYFP":"037","COUNTYNS":"00929110","GEOIDFQ":"0500000US35037","GEOID":"35037","NAME":"Quay","NAMELSAD":"Quay County","STUSPS":"NM","STATE_NAME":"New Mexico","LSAD":"06","ALAND":7443508559,"AWATER":18554572},"id":"35037"},{"arcs":[[-43,64,65,66,67]],"type":"Polygon","properties":{"STATEFP":"35","COUNTYFP":"001","COUNTYNS":"01702363","GEOIDFQ":"0500000US35001","GEOID":"35001","NAME":"Bernalillo","NAMELSAD":"Bernalillo County","STUSPS":"NM","STATE_NAME":"New Mexico","LSAD":"06","ALAND":3007611372,"AWATER":15882884},"id":"35001"},{"arcs":[[68,-62,-30,-34]],"type":"Polygon","properties":{"STATEFP":"35","COUNTYFP":"059","COUNTYNS":"00929115","GEOIDFQ":"0500000US35059","GEOID":"35059","NAME":"Union","NAMELSAD":"Union County","STUSPS":"NM","STATE_NAME":"New Mexico","LSAD":"06","ALAND":9906834378,"AWATER":15498790},"id":"35059"},{"arcs":[[-14,-32,-61,69,70,-41]],"type":"Polygon","properties":{"STATEFP":"35","COUNTYFP":"047","COUNTYNS":"00929114","GEOIDFQ":"0500000US35047","GEOID":"35047","NAME":"San Miguel","NAMELSAD":"San Miguel County","STUSPS":"NM","STATE_NAME":"New Mexico","LSAD":"06","ALAND":12228666253,"AWATER":51380263},"id":"35047"},{"arcs":[[-6,-59,-50,-19,71,72]],"type":"Polygon","properties":{"STATEFP":"35","COUNTYFP":"005","COUNTYNS":"01702364","GEOIDFQ":"0500000US35005","GEOID":"35005","NAME":"Chaves","NAMELSAD":"Chaves County","STUSPS":"NM","STATE_NAME":"New Mexico","LSAD":"06","ALAND":15713917226,"AWATER":20469858},"id":"35005"},{"arcs":[[-39,-58,73,74]],"type":"Polygon","properties":{"STATEFP":"35","COUNTYFP":"013","COUNTYNS":"00929109","GEOIDFQ":"0500000US35013","GEOID":"35013","NAME":"Doña Ana","NAMELSAD":"Doña Ana County","STUSPS":"NM","STATE_NAME":"New Mexico","LSAD":"06","ALAND":9863137491,"AWATER":17594316},"id":"35013"},{"arcs":[[-1,75,76,77,-35]],"type":"Polygon","properties":{"STATEFP":"35","COUNTYFP":"003","COUNTYNS":"00929108","GEOIDFQ":"0500000US35003","GEOID":"35003","NAME":"Catron","NAMELSAD":"Catron County","STUSPS":"NM","STATE_NAME":"New Mexico","LSAD":"06","ALAND":17933561654,"AWATER":14193499},"id":"35003"},{"arcs":[[-16,-54,78,-70,-60]],"type":"Polygon","properties":{"STATEFP":"35","COUNTYFP":"019","COUNTYNS":"00929111","GEOIDFQ":"0500000US35019","GEOID":"35019","NAME":"Guadalupe","NAMELSAD":"Guadalupe County","STUSPS":"NM","STATE_NAME":"New Mexico","LSAD":"06","ALAND":7847072131,"AWATER":2887948},"id":"35019"},{"arcs":[[-42,-71,-79,-53,79,80,-65]],"type":"Polygon","properties":{"STATEFP":"35","COUNTYFP":"057","COUNTYNS":"00929112","GEOIDFQ":"0500000US35057","GEOID":"35057","NAME":"Torrance","NAMELSAD":"Torrance County","STUSPS":"NM","STATE_NAME":"New Mexico","LSAD":"06","ALAND":8664061394,"AWATER":2316559},"id":"35057"},{"arcs":[[-67,81,82,-77,83,84,85]],"type":"Polygon","properties":{"STATEFP":"35","COUNTYFP":"006","COUNTYNS":"00933051","GEOIDFQ":"0500000US35006","GEOID":"35006","NAME":"Cibola","NAMELSAD":"Cibola County","STUSPS":"NM","STATE_NAME":"New Mexico","LSAD":"06","ALAND":11758505173,"AWATER":5554597},"id":"35006"},{"arcs":[[-7,-73,86,87]],"type":"Polygon","properties":{"STATEFP":"35","COUNTYFP":"025","COUNTYNS":"01702365","GEOIDFQ":"0500000US35025","GEOID":"35025","NAME":"Lea","NAMELSAD":"Lea County","STUSPS":"NM","STATE_NAME":"New Mexico","LSAD":"06","ALAND":11374066519,"AWATER":8147103},"id":"35025"},{"arcs":[[-18,-64,-47,88,-87,-72]],"type":"Polygon","properties":{"STATEFP":"35","COUNTYFP":"041","COUNTYNS":"01702369","GEOIDFQ":"0500000US35041","GEOID":"35041","NAME":"Roosevelt","NAMELSAD":"Roosevelt County","STUSPS":"NM","STATE_NAME":"New Mexico","LSAD":"06","ALAND":6335242922,"AWATER":18679639},"id":"35041"},{"arcs":[[-36,-78,-83,89,-80,-52]],"type":"Polygon","properties":{"STATEFP":"35","COUNTYFP":"053","COUNTYNS":"01702371","GEOIDFQ":"0500000US35053","GEOID":"35053","NAME":"Socorro","NAMELSAD":"Socorro County","STUSPS":"NM","STATE_NAME":"New Mexico","LSAD":"06","ALAND":17214061582,"AWATER":4843011},"id":"35053"},{"arcs":[[-85,90,91,92]],"type":"Polygon","properties":{"STATEFP":"35","COUNTYFP":"031","COUNTYNS":"00929107","GEOIDFQ":"0500000US35031","GEOID":"35031","NAME":"McKinley","NAMELSAD":"McKinley County","STUSPS":"NM","STATE_NAME":"New Mexico","LSAD":"06","ALAND":14118189535,"AWATER":12688957},"id":"35031"},{"arcs":[[-66,-81,-90,-82]],"type":"Polygon","properties":{"STATEFP":"35","COUNTYFP":"061","COUNTYNS":"00933052","GEOIDFQ":"0500000US35061","GEOID":"35061","NAME":"Valencia","NAMELSAD":"Valencia County","STUSPS":"NM","STATE_NAME":"New Mexico","LSAD":"06","ALAND":2762783468,"AWATER":2830941},"id":"35061"},{"arcs":[[-25,-45,93]],"type":"Polygon","properties":{"STATEFP":"35","COUNTYFP":"028","COUNTYNS":"01702366","GEOIDFQ":"0500000US35028","GEOID":"35028","NAME":"Los Alamos","NAMELSAD":"Los Alamos County","STUSPS":"NM","STATE_NAME":"New Mexico","LSAD":"06","ALAND":282626746,"AWATER":208105},"id":"35028"},{"arcs":[[94,-27,95,-92,96]],"type":"Polygon","properties":{"STATEFP":"35","COUNTYFP":"045","COUNTYNS":"00936844","GEOIDFQ":"0500000US35045","GEOID":"35045","NAME":"San Juan","NAMELSAD":"San Juan County","STUSPS":"NM","STATE_NAME":"New Mexico","LSAD":"06","ALAND":14289558282,"AWATER":54900394},"id":"35045"},{"arcs":[[-3,-40,-75,97,-55]],"type":"Polygon","properties":{"STATEFP":"35","COUNTYFP":"029","COUNTYNS":"00933057","GEOIDFQ":"0500000US35029","GEOID":"35029","NAME":"Luna","NAMELSAD":"Luna County","STUSPS":"NM","STATE_NAME":"New Mexico","LSAD":"06","ALAND":7679773818,"AWATER":433660},"id":"35029"},{"arcs":[[-26,-94,-44,-68,-86,-93,-96]],"type":"Polygon","properties":{"STATEFP":"35","COUNTYFP":"043","COUNTYNS":"00929113","GEOIDFQ":"0500000US35043","GEOID":"35043","NAME":"Sandoval","NAMELSAD":"Sandoval County","STUSPS":"NM","STATE_NAME":"New Mexico","LSAD":"06","ALAND":9609358675,"AWATER":10851799},"id":"35043"}]}}}