{"type":"Topology","arcs":[[[781,3583],[8,36],[24,40],[59,54],[1,34],[21,46],[50,23],[19,2],[59,45],[32,10],[66,59],[15,39],[-23,49],[18,28],[-18,23],[-42,82],[0,41],[-16,41],[-17,15],[-37,4],[-17,19],[-45,28],[-15,54],[30,69],[-25,20]],[[928,4444],[87,0],[48,-23],[19,-18],[7,-38],[64,-5],[17,25],[-8,25],[34,12],[4,18],[73,9],[65,31],[9,-14],[57,26],[43,-41],[22,2],[6,27],[39,7],[18,-13],[39,15],[6,-18],[44,9]],[[1621,4480],[2,-130],[-2,-253]],[[1621,4097],[-27,1],[-2,-151],[31,0],[-1,-149],[3,-140],[-3,-133]],[[1622,3525],[-59,-14],[-35,-24],[-31,-9],[-23,9],[-49,-17],[-30,-23],[-104,-14],[-65,-48],[-17,13],[-52,-33],[-75,-5],[-54,47],[-22,8],[-12,37],[-26,33],[-5,28],[-52,24],[-35,-9]],[[876,3528],[-28,15],[-16,31],[-51,9]],[[876,3528],[0,-157],[1,-322],[1,-300],[-2,-152]],[[876,2597],[-514,-1],[-173,1],[-188,0],[-1,468],[99,49],[141,92],[74,53],[45,38],[26,12],[35,35],[9,36],[16,2],[55,46],[6,20],[32,-4],[17,23],[50,15],[30,27],[92,43],[39,3],[15,28]],[[5581,3884],[20,35],[35,34],[2,69],[13,18],[-10,65]],[[5641,4105],[45,14]],[[5686,4119],[3,-40],[87,5],[49,84],[147,-85],[95,-59],[15,12],[20,115],[145,-61]],[[6247,4090],[143,-58]],[[6390,4032],[-21,-64],[-3,-72],[41,-178],[5,-36],[-51,-107],[-50,-82]],[[6311,3493],[-50,-5],[-33,-14],[-82,10],[-143,-86],[-21,8],[-22,-46],[-29,17],[-5,-37],[-49,3],[-43,-17],[-67,-61],[-63,-47],[5,33],[-53,-23],[-32,4],[-10,-27],[-29,-20],[-16,-29],[-45,-13],[-16,7],[-76,-8]],[[5432,3142],[26,68],[-15,47],[17,34],[22,18],[-14,59],[-23,59],[7,35],[32,63],[7,28],[44,24],[9,39],[-14,10],[0,33],[17,16],[0,36],[-10,30],[6,34],[16,16],[21,50],[1,43]],[[2258,4090],[-1,74],[26,-1],[1,70],[29,-1],[1,74]],[[2314,4306],[224,1],[13,-16],[-13,-53],[-35,-14],[152,-1],[3,8],[68,-1]],[[2726,4230],[25,-39],[0,-37],[17,-54],[-6,-26],[-45,0],[-1,-157],[-29,0],[16,-157],[140,-3],[-4,-41],[-1,-120]],[[2838,3596],[-211,6],[-2,-79],[-74,0],[-3,-110]],[[2548,3413],[-147,6],[0,74],[-253,2],[6,5]],[[2154,3500],[-17,47],[28,94],[30,12],[28,36],[11,40],[23,24],[1,337]],[[6311,3493],[116,-161],[219,-120]],[[6646,3212],[19,-10],[-136,-255],[107,-56]],[[6636,2891],[-65,-42],[-34,3],[-28,-43],[-284,-182]],[[6225,2627],[-455,-285]],[[5770,2342],[-21,-3],[-45,33],[-33,-20],[-50,23],[-9,29],[4,34],[-14,55],[-18,27],[-21,-9],[-40,43],[1,32],[-23,12]],[[5501,2598],[-53,19],[-24,54],[4,265]],[[5428,2936],[4,206]],[[9653,1305],[21,41],[34,8],[40,-5],[-51,-41],[-44,-3]],[[9521,1040],[36,22],[46,-24],[-32,-18],[-50,20]],[[7920,196],[1,107],[-40,292],[-12,48]],[[7869,643],[-10,43],[-30,56],[14,36],[60,-20],[30,-53],[21,8],[21,-15],[22,7],[12,35],[-22,10],[-24,-11],[-17,13],[13,41],[34,-40],[26,-13],[17,9],[45,-9],[84,-32],[101,40],[-1,64],[37,19],[20,-14],[31,7],[28,-14],[125,2],[52,-6],[60,3],[41,10],[73,-8],[83,21],[90,8],[63,27],[84,73],[51,21],[40,59],[34,3],[27,14],[33,41],[20,35],[41,-3],[11,16],[42,19],[46,-9],[-16,-34],[-30,-20],[-37,30],[-23,-13],[-15,-38],[23,-16],[4,-21],[46,-14],[6,-76],[43,14],[64,-21],[34,36],[32,-24],[0,-27],[26,-42],[26,-14],[23,29],[36,25],[39,1],[31,41],[25,-11],[19,13],[-3,40],[69,25],[11,-15],[49,-11],[-23,-32],[-105,-44],[-88,-46],[-106,-49],[-152,-77],[-200,-105],[-93,-41],[-241,-94],[-131,-46],[-194,-84],[-112,-58],[-91,-36],[-153,-48],[-68,-16],[-55,-2],[-25,22],[-31,-5],[-91,-36]],[[6742,1892],[33,6],[45,36],[50,30],[18,-6],[-2,-41],[80,-25],[76,-15],[-10,58],[45,-15],[11,-15],[27,13],[18,-44],[126,16]],[[7259,1890],[-8,-32],[-37,-52],[-9,-32],[-5,-114],[24,-31]],[[7224,1629],[27,-66],[15,-13],[-17,-77],[-25,-40]],[[7224,1433],[-148,-146],[-168,-169]],[[6908,1118],[-85,51],[-82,53],[-112,78],[-297,188],[5,17],[-28,39],[-28,15],[-24,46]],[[6257,1605],[-9,42],[14,25],[-12,47],[10,5],[239,12],[97,6],[23,22],[44,71],[43,39],[36,18]],[[5428,2936],[-273,1],[-3,91],[-226,1],[-20,-9],[-10,27],[-10,148],[-15,122]],[[4871,3317],[-7,129],[-25,403]],[[4839,3849],[331,23],[245,15],[1,-13],[165,10]],[[4102,4720],[168,9],[47,-4],[22,-20],[11,-31],[24,30],[47,-23],[27,30],[-10,37],[0,43],[13,3],[39,-41],[66,-23],[36,-25],[10,-34],[41,5],[52,-39],[14,7]],[[4709,4644],[24,-35],[3,-40],[27,-15],[-32,-50],[22,-27],[52,-2],[17,-354],[9,-156]],[[4831,3965],[-230,-18],[-243,-16]],[[4358,3931],[-1,16],[-38,57],[-64,63],[-117,-7],[-15,278],[-37,-3],[-9,160],[35,13],[-9,45],[7,26],[-8,141]],[[928,4444],[-69,17],[21,50],[-14,23],[33,41],[-13,52],[5,45],[-9,94],[-18,14],[103,27],[171,59],[19,11],[78,16],[56,20],[53,7],[65,25],[109,20],[73,9],[29,-6]],[[1620,4968],[-1,-118],[7,-150],[-6,-151]],[[1620,4549],[1,-69]],[[4256,5847],[31,40],[5,-36],[-36,-4]],[[4876,6752],[220,-140],[97,-57],[200,-124]],[[5393,6431],[-127,-201],[79,-48],[-25,-39],[7,-71],[-65,-5],[10,-68],[-42,-5],[-34,11],[-193,-160],[-102,9],[-14,-159],[80,-5],[17,-173]],[[4984,5517],[-314,31],[4,-67],[-222,21]],[[4452,5502],[-17,127],[-20,87],[-11,20],[-50,44],[-27,-4],[2,30],[47,45],[34,7],[13,-11],[-19,-28],[44,2],[62,44],[32,13],[-4,61],[-11,13],[40,28],[30,35],[29,-4],[-1,39],[-21,9],[-58,-56],[-44,-19],[-51,16],[-7,29],[23,25],[48,14],[32,29],[-55,17],[27,36],[-32,19],[-41,-21],[-22,22],[-31,-3],[-21,-21],[-26,-57],[11,-8],[57,23],[32,-16],[-22,-29],[-19,-43],[-44,-28],[-15,9],[23,50],[-44,43],[6,68],[-24,-1],[-55,29],[18,18],[-31,32],[28,33],[-7,18],[50,112],[33,8],[51,0],[68,30],[34,32],[3,71],[39,27],[41,5],[66,56],[55,27],[38,-8],[72,44],[66,61]],[[4224,6123],[17,23],[33,-1],[-8,-24],[-42,2]],[[4144,5865],[49,53],[20,-23],[-47,-29],[-22,-1]],[[6225,2627],[195,-113],[213,-130],[-42,-72],[-109,-153],[105,-84],[120,-90],[23,-81],[12,-12]],[[6257,1605],[-51,-2],[-12,32],[-39,-18],[-28,22],[-37,-11],[-8,34],[-18,25],[-29,17],[-32,-10],[-29,6],[-4,46],[-19,1],[-5,29],[-26,27],[8,21],[-28,31],[-8,24],[-28,31],[26,53],[-2,53],[-11,20],[8,24],[-20,34],[24,12],[-5,65],[-28,33],[-36,5],[24,64],[-35,19],[-1,36],[-38,14]],[[5686,4119],[13,1],[-22,297],[75,113],[112,189],[-67,24],[-49,30],[18,53],[1,26],[50,14],[11,22],[27,10],[-26,287],[-17,204]],[[5812,5389],[-24,281],[-47,550]],[[5741,6220],[131,-78],[261,34]],[[6133,6176],[32,-326],[40,-411],[26,-271],[-115,-254],[194,-93]],[[6310,4821],[20,-183],[-26,-26],[12,-27],[-34,-10],[8,-32],[-38,-10],[-19,-62],[18,-62]],[[6251,4409],[20,-29],[5,-56],[-29,-234]],[[7903,5715],[73,9]],[[7976,5724],[36,-63],[-16,-33],[-9,-48],[-39,-56],[-8,-41],[-25,-60],[12,-19],[-13,-68],[39,-28],[17,13],[-3,27],[13,37],[22,22],[71,-1],[21,-78],[33,-25],[21,-52],[-6,-16],[-10,-365],[-14,-377],[-11,-264]],[[8107,4229],[-132,0],[-15,16],[-51,10],[-22,-24],[-231,-6]],[[7656,4225],[7,54],[24,15],[7,35],[18,38],[22,133],[-5,32],[-17,36],[13,23],[-12,30],[13,67],[-22,61],[11,16],[-16,26],[15,55],[-7,9]],[[7707,4855],[-48,350],[18,21],[18,82],[30,11],[20,40],[47,67],[40,31],[13,66],[15,25],[15,59],[0,71],[28,37]],[[7920,196],[-114,-30],[-71,-24],[-8,13],[-40,3],[-38,-8],[-80,1],[-58,10]],[[7511,161],[18,6],[-11,33],[-26,5],[-1,21],[27,14],[26,33],[-2,98],[-5,20],[28,9],[8,43],[-61,52]],[[7512,495],[-3,29],[-16,20],[11,40],[66,-29],[2,26],[-31,11],[-4,46],[21,8],[46,-22],[21,-39],[15,33],[-8,42],[18,32],[48,11],[45,22],[22,-12],[8,-55],[45,-2],[-7,21],[21,12],[8,-31],[29,-15]],[[7511,161],[-29,3],[-75,-23],[-129,-59],[-3,18],[76,36]],[[7351,136],[37,24],[19,32],[2,36],[-38,52],[10,10],[-17,54],[-34,-22],[-32,47],[-9,31],[-42,16]],[[7247,416],[27,52],[38,41],[-2,9]],[[7310,518],[49,-17],[13,20],[57,14],[29,-9]],[[7458,526],[0,-20],[54,-11]],[[1622,3525],[-1,-29],[195,3]],[[1816,3499],[0,-146],[-1,-303],[2,-452]],[[1817,2598],[-361,0],[-191,-3],[-211,0],[-178,2]],[[5393,6431],[170,-105],[178,-106]],[[5812,5389],[-352,-223],[-176,-114],[-279,88]],[[5005,5140],[-13,275],[-8,102]],[[7707,4855],[-60,-3],[1,-19],[-33,-2],[-22,-16],[-68,-29],[-5,-40],[-39,-25],[-22,31],[-53,13],[12,39],[0,50],[-41,43],[6,16],[-24,35],[3,22],[-17,44],[-345,-45]],[[7000,4969],[-28,258],[-40,359],[197,27]],[[7129,5613],[340,45],[357,49],[77,8]],[[7351,136],[-45,12],[-94,-19],[-8,36],[-43,24],[-13,36],[11,30],[32,33],[-14,29],[14,13],[11,23],[1,2]],[[7203,355],[31,14],[13,47]],[[4102,4720],[-2,50],[-155,-5],[-15,284]],[[3930,5049],[23,11],[45,41],[95,47],[21,35],[74,48],[52,4],[29,-21],[68,0],[17,12],[52,15],[19,18],[22,61],[5,44],[3,109],[-3,29]],[[5005,5140],[-72,22],[-90,-274],[29,-10],[-26,-283]],[[4846,4595],[-54,13],[-7,24],[-28,-8],[-48,20]],[[7129,5613],[13,90],[-46,20],[-41,2],[-41,35],[-67,-16],[-14,-16],[-154,197],[101,77],[-32,261]],[[6848,6263],[236,29],[-28,214],[-8,79],[-24,173],[289,39]],[[7313,6797],[261,28],[33,-9],[57,31],[18,-7],[54,19],[38,36],[57,2],[32,37],[7,50],[157,16]],[[8027,7000],[22,-58],[18,-23],[8,-41],[5,-83],[-24,-69],[-23,-28],[-1,-27],[13,-39],[0,-42],[16,-61],[-3,-18],[-12,-35],[-33,-23],[-15,-38],[-36,-34],[-15,-74],[-17,-23],[6,-35],[-22,-57],[-11,-60],[34,-31],[6,-27],[-9,-54],[8,-22],[-3,-59],[16,-52],[27,-50],[-9,-26],[12,-24],[-26,-40],[17,-23]],[[7302,729],[28,110],[3,27]],[[7333,866],[6,70],[-7,77],[9,80],[-3,28],[-27,40],[-25,64],[-49,74],[5,33],[24,30],[-42,52],[-2,13]],[[7222,1427],[547,77]],[[7769,1504],[-7,-123],[85,-143],[-306,-193],[90,-154],[-5,-40],[-1,-34],[-22,-8],[-7,-25],[-92,-64],[-12,-27],[-33,-24]],[[7459,669],[-57,19],[-100,41]],[[5641,4105],[-237,-15],[-8,121],[-124,-2],[-12,183],[-55,-4],[-14,30],[11,15],[-51,30],[1,31],[-49,52],[-34,19],[-1,23],[-39,23],[-19,-10],[-20,19],[-35,-18],[-54,2],[-34,-24],[-21,15]],[[7656,4225],[-19,-5],[-35,-45],[-8,-34],[15,-30],[-4,-29],[21,-68],[-2,-28],[-20,-34]],[[7604,3952],[-15,-13],[-39,44],[-2,32],[-20,-1],[-39,-57],[-23,6],[-27,-18]],[[7439,3945],[-16,2],[-46,69],[-22,24],[-7,29],[-18,0],[-10,104],[-64,-24],[-27,32],[-37,32],[-61,33],[-47,4]],[[7084,4250],[-5,47]],[[7079,4297],[-54,469]],[[7025,4766],[-25,203]],[[6636,2891],[180,-95],[291,-30],[40,127],[22,-14],[27,2],[1,24],[105,-83],[10,-3]],[[7312,2819],[-13,-30],[-11,-54]],[[7288,2735],[-9,-90],[5,-14],[-25,-106],[-11,-97],[28,-61],[-12,-30],[-3,-135],[13,-28],[-7,-95],[5,-26],[-12,-102],[-1,-61]],[[2838,3596],[155,-1]],[[2993,3595],[279,1],[-7,-40],[0,-93],[27,-5],[25,14],[0,-37]],[[3317,3435],[3,-164],[7,-202],[31,6],[137,5]],[[3495,3080],[-1,-479]],[[3494,2601],[-198,-3],[-476,1],[-131,-1],[-175,-1]],[[2514,2597],[8,251],[16,449],[6,0],[4,116]],[[7604,3952],[-16,-82],[-9,-12],[-12,-60],[-50,-83],[-18,-62],[11,-58],[-8,-73],[-32,-77],[1,-44]],[[7471,3401],[-67,-10],[-117,-23],[-404,-64]],[[6883,3304],[-13,21],[25,86],[20,42],[3,55],[-20,42],[10,43],[51,75],[29,84],[7,86],[-20,22]],[[6975,3860],[275,48],[188,30],[1,7]],[[1620,4549],[68,3],[517,4]],[[2205,4556],[114,1],[-56,-162],[59,-4],[-8,-85]],[[2258,4090],[-51,3],[-98,-2],[0,11],[-291,0],[-197,-5]],[[6646,3212],[81,33],[41,-32],[87,14],[37,27],[-9,50]],[[7471,3401],[12,-22],[-2,-37],[-22,-76],[4,-61],[12,-78],[-10,-62],[-18,-28],[-41,-20],[-15,-20],[-10,-68],[-24,-30],[-21,-8],[-24,-72]],[[7224,1629],[59,85],[40,8],[272,36],[130,22],[63,2]],[[7788,1782],[-19,-278]],[[7222,1427],[2,6]],[[5501,2598],[-154,-1],[-324,-2],[-160,2],[-294,0]],[[4569,2597],[1,56],[-8,121],[-6,145],[37,3],[7,75],[-20,47],[20,0],[-9,36],[-15,0],[-2,55],[-18,28],[9,19],[-20,111],[-7,15]],[[4538,3308],[135,4],[1,-7],[197,12]],[[3495,3080],[0,15],[153,11],[136,0],[2,-79],[58,1],[0,-19],[47,1],[36,18],[0,59]],[[3927,3087],[101,-1]],[[4028,3086],[4,-55],[-1,-164],[-33,1],[7,-29],[8,-103],[11,-48],[-24,-73],[4,-16]],[[4004,2599],[-240,3],[-221,0],[-49,-1]],[[7288,2735],[28,1],[190,-97],[56,-31],[229,-47],[7,124],[31,0]],[[7829,2685],[12,-1],[-3,-85],[-27,-417],[-9,-159],[-3,-81],[-11,-160]],[[6848,6263],[-316,-37]],[[6532,6226],[-12,121],[23,2],[-8,85],[-26,229],[-28,253],[-42,380],[-41,405],[-98,0],[-7,73]],[[6293,7774],[30,14],[23,-6],[283,-5],[153,-8],[235,-1],[149,7]],[[7166,7775],[24,-173],[2,-101],[16,-125],[9,-98],[26,2],[25,-232],[16,2],[16,-124],[13,-129]],[[3497,4349],[106,8],[206,11]],[[3809,4368],[-17,-79],[-12,-14],[3,-44],[-3,-73],[20,-57],[2,-76],[-26,-62],[9,-107],[17,-47],[43,-52],[23,-81]],[[3868,3676],[27,-55],[34,-43],[40,-29],[-138,-5]],[[3831,3544],[-249,-10]],[[3582,3534],[2,65],[-2,134],[-4,18],[-39,72],[-19,50],[-3,47],[-30,-1]],[[3487,3919],[-8,16],[6,104],[-10,48],[22,20],[0,242]],[[6310,4821],[-1,5],[223,-105],[261,23],[5,-46],[126,11],[-4,46],[105,11]],[[7079,4297],[-556,5],[-272,107]],[[7084,4250],[12,-101],[-217,-147],[-8,-27]],[[6871,3975],[-32,-22],[-44,-1],[-163,-18],[-135,69],[-107,29]],[[4538,3308],[-154,-5]],[[4384,3303],[-15,373]],[[4369,3676],[-11,255]],[[4831,3965],[8,-116]],[[6871,3975],[19,-21],[-13,-47],[-35,-1],[-23,-16],[41,-57],[41,8],[46,-14],[23,3],[5,30]],[[2726,4230],[122,-2],[-3,158],[142,1]],[[2987,4387],[156,0],[0,8],[141,1],[1,-48],[212,1]],[[3487,3919],[-190,-4],[-237,0],[-30,-50],[-20,-57],[-5,-55],[-12,0],[0,-158]],[[7166,7775],[191,10],[140,3],[154,1],[252,10],[118,2],[-14,-40],[20,-37],[0,-73],[-22,-33],[-16,-66],[-16,-37],[20,-32],[38,-38],[3,-27],[-41,-82],[0,-76],[-9,-50],[-17,-56],[-4,-33],[16,-30],[-6,-18],[24,-43],[30,-30]],[[3317,3435],[148,1],[2,-37],[29,-7],[93,7],[-14,53],[7,82]],[[3831,3544],[13,-297],[-6,-3],[-1,-154],[90,-3]],[[6881,20],[14,19],[-4,43],[44,24],[21,77],[-6,51],[33,23],[24,-13],[95,19],[9,-42],[23,-35],[-29,-44],[-46,-52],[-89,-50],[-13,-16],[-65,-24],[-11,20]],[[2205,4556],[2,402]],[[2207,4958],[38,5],[53,-20],[157,-29],[46,2],[58,-30],[8,-22],[67,-54],[32,-15],[64,-48],[59,-13],[36,25],[18,0],[120,45],[19,0]],[[2982,4804],[1,-200],[4,-217]],[[4876,6752],[49,50],[16,68],[52,76],[49,47],[81,84],[55,48],[141,148],[35,26],[67,63],[13,28],[21,1],[34,25],[31,37],[14,-5],[39,35],[-7,18],[112,70],[19,0],[47,27],[32,6],[7,32],[47,21],[40,4],[74,50],[16,33],[25,10],[81,0],[25,29],[26,1],[50,26],[32,-2],[10,-17],[37,1],[24,-26],[23,8]],[[6532,6226],[-255,-33],[-144,-17]],[[7219,521],[27,51],[37,95]],[[7283,667],[33,-16],[-32,-69],[1,-42],[25,-22]],[[7203,355],[-18,-2],[-14,34],[12,65],[36,69]],[[7333,866],[-11,0],[-238,147],[-148,88],[-28,17]],[[8107,4229],[-5,-190],[-16,-55],[19,-96],[14,0],[-110,-408]],[[8009,3480],[-184,-26],[-135,-22],[-219,-31]],[[2982,4804],[43,8],[96,-6],[63,12],[51,-5],[29,13],[54,1],[73,-22],[7,-11],[68,7],[47,-7],[68,44],[24,-5],[44,21],[60,7],[40,21],[49,38]],[[3798,4920],[16,-239],[9,-215],[-19,-31],[5,-67]],[[8009,3480],[-112,-425],[-82,-307],[14,-63]],[[1620,4968],[119,9],[42,-6],[105,-2],[24,-5],[68,3],[24,7],[69,2],[90,-15],[46,-3]],[[7283,667],[19,62]],[[7459,669],[-3,-45],[-26,-6],[1,-39],[27,-53]],[[3868,3676],[65,-2],[195,9],[0,-15],[241,8]],[[4384,3303],[-49,-2],[-8,-37],[43,-17],[26,-19],[8,-23],[-17,-45],[1,-49],[-47,0],[0,20],[-78,1],[0,17],[-81,0],[-1,-96],[-73,1],[1,30],[-81,2]],[[2514,2597],[-309,0],[-159,2],[-102,-1],[-127,0]],[[1816,3499],[338,1]],[[4569,2597],[-50,0],[-247,-1],[-268,3]],[[3798,4920],[36,5],[30,35],[49,81],[17,8]]],"transform":{"scale":[0.0008002295778924991,0.0005787128040973114],"translate":[-79.761951,40.496103]},"objects":{"36":{"type":"GeometryCollection","geometries":[{"arcs":[[0,1,2,3,4,5]],"type":"Polygon","properties":{"STATEFP":"36","COUNTYFP":"029","COUNTYNS":"00974113","GEOIDFQ":"0500000US36029","GEOID":"36029","NAME":"Erie","NAMELSAD":"Erie County","STUSPS":"NY","STATE_NAME":"New York","LSAD":"06","ALAND":2700743414,"AWATER":476876396},"id":"36029"},{"arcs":[[-6,6,7]],"type":"Polygon","properties":{"STATEFP":"36","COUNTYFP":"013","COUNTYNS":"00974105","GEOIDFQ":"0500000US36013","GEOID":"36013","NAME":"Chautauqua","NAMELSAD":"Chautauqua County","STUSPS":"NY","STATE_NAME":"New York","LSAD":"06","ALAND":2746450227,"AWATER":1139029655},"id":"36013"},{"arcs":[[8,9,10,11,12,13,14]],"type":"Polygon","properties":{"STATEFP":"36","COUNTYFP":"077","COUNTYNS":"00974137","GEOIDFQ":"0500000US36077","GEOID":"36077","NAME":"Otsego","NAMELSAD":"Otsego County","STUSPS":"NY","STATE_NAME":"New York","LSAD":"06","ALAND":2594488422,"AWATER":36312826},"id":"36077"},{"arcs":[[15,16,17,18,19,20]],"type":"Polygon","properties":{"STATEFP":"36","COUNTYFP":"051","COUNTYNS":"00974124","GEOIDFQ":"0500000US36051","GEOID":"36051","NAME":"Livingston","NAMELSAD":"Livingston County","STUSPS":"NY","STATE_NAME":"New York","LSAD":"06","ALAND":1635974791,"AWATER":22076449},"id":"36051"},{"arcs":[[-14,21,22,23,24,25,26,27]],"type":"Polygon","properties":{"STATEFP":"36","COUNTYFP":"025","COUNTYNS":"00974111","GEOIDFQ":"0500000US36025","GEOID":"36025","NAME":"Delaware","NAMELSAD":"Delaware County","STUSPS":"NY","STATE_NAME":"New York","LSAD":"06","ALAND":3736306656,"AWATER":64163829},"id":"36025"},{"arcs":[[[28]],[[29]],[[30,31]]],"type":"MultiPolygon","properties":{"STATEFP":"36","COUNTYFP":"103","COUNTYNS":"00974149","GEOIDFQ":"0500000US36103","GEOID":"36103","NAME":"Suffolk","NAMELSAD":"Suffolk County","STUSPS":"NY","STATE_NAME":"New York","LSAD":"06","ALAND":2359323057,"AWATER":3787372220},"id":"36103"},{"arcs":[[32,33,34,35,36,37]],"type":"Polygon","properties":{"STATEFP":"36","COUNTYFP":"071","COUNTYNS":"00974134","GEOIDFQ":"0500000US36071","GEOID":"36071","NAME":"Orange","NAMELSAD":"Orange County","STUSPS":"NY","STATE_NAME":"New York","LSAD":"06","ALAND":2103273921,"AWATER":67952544},"id":"36071"},{"arcs":[[-15,-28,38,39,40]],"type":"Polygon","properties":{"STATEFP":"36","COUNTYFP":"017","COUNTYNS":"00974107","GEOIDFQ":"0500000US36017","GEOID":"36017","NAME":"Chenango","NAMELSAD":"Chenango County","STUSPS":"NY","STATE_NAME":"New York","LSAD":"06","ALAND":2314006878,"AWATER":13433905},"id":"36017"},{"arcs":[[41,42,43,44]],"type":"Polygon","properties":{"STATEFP":"36","COUNTYFP":"067","COUNTYNS":"00974132","GEOIDFQ":"0500000US36067","GEOID":"36067","NAME":"Onondaga","NAMELSAD":"Onondaga County","STUSPS":"NY","STATE_NAME":"New York","LSAD":"06","ALAND":2016027797,"AWATER":70512842},"id":"36067"},{"arcs":[[-2,45,46,47]],"type":"Polygon","properties":{"STATEFP":"36","COUNTYFP":"063","COUNTYNS":"00974130","GEOIDFQ":"0500000US36063","GEOID":"36063","NAME":"Niagara","NAMELSAD":"Niagara County","STUSPS":"NY","STATE_NAME":"New York","LSAD":"06","ALAND":1352876143,"AWATER":1598772310},"id":"36063"},{"arcs":[[[48]],[[49,50,51,52]],[[53]],[[54]]],"type":"MultiPolygon","properties":{"STATEFP":"36","COUNTYFP":"045","COUNTYNS":"00974121","GEOIDFQ":"0500000US36045","GEOID":"36045","NAME":"Jefferson","NAMELSAD":"Jefferson County","STUSPS":"NY","STATE_NAME":"New York","LSAD":"06","ALAND":3283928401,"AWATER":1524534691},"id":"36045"},{"arcs":[[-25,55,-38,56]],"type":"Polygon","properties":{"STATEFP":"36","COUNTYFP":"105","COUNTYNS":"00974150","GEOIDFQ":"0500000US36105","GEOID":"36105","NAME":"Sullivan","NAMELSAD":"Sullivan County","STUSPS":"NY","STATE_NAME":"New York","LSAD":"06","ALAND":2507484146,"AWATER":73737482},"id":"36105"},{"arcs":[[-11,57,58,59,60,61,62]],"type":"Polygon","properties":{"STATEFP":"36","COUNTYFP":"043","COUNTYNS":"00974120","GEOIDFQ":"0500000US36043","GEOID":"36043","NAME":"Herkimer","NAMELSAD":"Herkimer County","STUSPS":"NY","STATE_NAME":"New York","LSAD":"06","ALAND":3653402964,"AWATER":120355811},"id":"36043"},{"arcs":[[63,64,65,66,67]],"type":"Polygon","properties":{"STATEFP":"36","COUNTYFP":"115","COUNTYNS":"00974155","GEOIDFQ":"0500000US36115","GEOID":"36115","NAME":"Washington","NAMELSAD":"Washington County","STUSPS":"NY","STATE_NAME":"New York","LSAD":"06","ALAND":2152773115,"AWATER":38123569},"id":"36115"},{"arcs":[[-31,68,69,70]],"type":"Polygon","properties":{"STATEFP":"36","COUNTYFP":"059","COUNTYNS":"00974128","GEOIDFQ":"0500000US36059","GEOID":"36059","NAME":"Nassau","NAMELSAD":"Nassau County","STUSPS":"NY","STATE_NAME":"New York","LSAD":"06","ALAND":736965431,"AWATER":437285877},"id":"36059"},{"arcs":[[-70,71,72,73,74,75]],"type":"Polygon","properties":{"STATEFP":"36","COUNTYFP":"081","COUNTYNS":"00974139","GEOIDFQ":"0500000US36081","GEOID":"36081","NAME":"Queens","NAMELSAD":"Queens County","STUSPS":"NY","STATE_NAME":"New York","LSAD":"06","ALAND":281594050,"AWATER":188444349},"id":"36081"},{"arcs":[[-5,76,77,78,-7]],"type":"Polygon","properties":{"STATEFP":"36","COUNTYFP":"009","COUNTYNS":"00974103","GEOIDFQ":"0500000US36009","GEOID":"36009","NAME":"Cattaraugus","NAMELSAD":"Cattaraugus County","STUSPS":"NY","STATE_NAME":"New York","LSAD":"06","ALAND":3388177066,"AWATER":36783591},"id":"36009"},{"arcs":[[-51,79,-59,80,81]],"type":"Polygon","properties":{"STATEFP":"36","COUNTYFP":"049","COUNTYNS":"00974123","GEOIDFQ":"0500000US36049","GEOID":"36049","NAME":"Lewis","NAMELSAD":"Lewis County","STUSPS":"NY","STATE_NAME":"New York","LSAD":"06","ALAND":3305625876,"AWATER":39648337},"id":"36049"},{"arcs":[[-68,82,83,84]],"type":"Polygon","properties":{"STATEFP":"36","COUNTYFP":"113","COUNTYNS":"00974154","GEOIDFQ":"0500000US36113","GEOID":"36113","NAME":"Warren","NAMELSAD":"Warren County","STUSPS":"NY","STATE_NAME":"New York","LSAD":"06","ALAND":2246093482,"AWATER":166839689},"id":"36113"},{"arcs":[[-73,85,86]],"type":"Polygon","properties":{"STATEFP":"36","COUNTYFP":"047","COUNTYNS":"00974122","GEOIDFQ":"0500000US36047","GEOID":"36047","NAME":"Kings","NAMELSAD":"Kings County","STUSPS":"NY","STATE_NAME":"New York","LSAD":"06","ALAND":179684482,"AWATER":71158757},"id":"36047"},{"arcs":[[-42,87,88,-52,-82,89,90]],"type":"Polygon","properties":{"STATEFP":"36","COUNTYFP":"075","COUNTYNS":"00974136","GEOIDFQ":"0500000US36075","GEOID":"36075","NAME":"Oswego","NAMELSAD":"Oswego County","STUSPS":"NY","STATE_NAME":"New York","LSAD":"06","ALAND":2464685609,"AWATER":933435238},"id":"36075"},{"arcs":[[-64,-85,91,92,93,94]],"type":"Polygon","properties":{"STATEFP":"36","COUNTYFP":"031","COUNTYNS":"00974114","GEOIDFQ":"0500000US36031","GEOID":"36031","NAME":"Essex","NAMELSAD":"Essex County","STUSPS":"NY","STATE_NAME":"New York","LSAD":"06","ALAND":4646755722,"AWATER":316348027},"id":"36031"},{"arcs":[[95,96,97,98,99]],"type":"Polygon","properties":{"STATEFP":"36","COUNTYFP":"119","COUNTYNS":"00974157","GEOIDFQ":"0500000US36119","GEOID":"36119","NAME":"Westchester","NAMELSAD":"Westchester County","STUSPS":"NY","STATE_NAME":"New York","LSAD":"06","ALAND":1115811944,"AWATER":179391718},"id":"36119"},{"arcs":[[-10,100,-90,-81,-58]],"type":"Polygon","properties":{"STATEFP":"36","COUNTYFP":"065","COUNTYNS":"00974131","GEOIDFQ":"0500000US36065","GEOID":"36065","NAME":"Oneida","NAMELSAD":"Oneida County","STUSPS":"NY","STATE_NAME":"New York","LSAD":"06","ALAND":3140211182,"AWATER":117357244},"id":"36065"},{"arcs":[[-67,101,102,103,104,105,106,-83]],"type":"Polygon","properties":{"STATEFP":"36","COUNTYFP":"091","COUNTYNS":"00974143","GEOIDFQ":"0500000US36091","GEOID":"36091","NAME":"Saratoga","NAMELSAD":"Saratoga County","STUSPS":"NY","STATE_NAME":"New York","LSAD":"06","ALAND":2097812297,"AWATER":87488004},"id":"36091"},{"arcs":[[-24,107,108,109,-33,-56]],"type":"Polygon","properties":{"STATEFP":"36","COUNTYFP":"111","COUNTYNS":"00974153","GEOIDFQ":"0500000US36111","GEOID":"36111","NAME":"Ulster","NAMELSAD":"Ulster County","STUSPS":"NY","STATE_NAME":"New York","LSAD":"06","ALAND":2911757763,"AWATER":94596810},"id":"36111"},{"arcs":[[-19,110,111,112,113,114,115]],"type":"Polygon","properties":{"STATEFP":"36","COUNTYFP":"101","COUNTYNS":"00974148","GEOIDFQ":"0500000US36101","GEOID":"36101","NAME":"Steuben","NAMELSAD":"Steuben County","STUSPS":"NY","STATE_NAME":"New York","LSAD":"06","ALAND":3601403378,"AWATER":35034921},"id":"36101"},{"arcs":[[-103,116,117,118,119]],"type":"Polygon","properties":{"STATEFP":"36","COUNTYFP":"001","COUNTYNS":"00974099","GEOIDFQ":"0500000US36001","GEOID":"36001","NAME":"Albany","NAMELSAD":"Albany County","STUSPS":"NY","STATE_NAME":"New York","LSAD":"06","ALAND":1354273426,"AWATER":26971925},"id":"36001"},{"arcs":[[-3,-48,120,121,-16,122]],"type":"Polygon","properties":{"STATEFP":"36","COUNTYFP":"037","COUNTYNS":"00974117","GEOIDFQ":"0500000US36037","GEOID":"36037","NAME":"Genesee","NAMELSAD":"Genesee County","STUSPS":"NY","STATE_NAME":"New York","LSAD":"06","ALAND":1276803035,"AWATER":6136678},"id":"36037"},{"arcs":[[-23,123,-118,124,-108]],"type":"Polygon","properties":{"STATEFP":"36","COUNTYFP":"039","COUNTYNS":"00974118","GEOIDFQ":"0500000US36039","GEOID":"36039","NAME":"Greene","NAMELSAD":"Greene County","STUSPS":"NY","STATE_NAME":"New York","LSAD":"06","ALAND":1676140501,"AWATER":28201061},"id":"36039"},{"arcs":[[-35,125,126,-98,127]],"type":"Polygon","properties":{"STATEFP":"36","COUNTYFP":"079","COUNTYNS":"00974138","GEOIDFQ":"0500000US36079","GEOID":"36079","NAME":"Putnam","NAMELSAD":"Putnam County","STUSPS":"NY","STATE_NAME":"New York","LSAD":"06","ALAND":596350753,"AWATER":41228996},"id":"36079"},{"arcs":[[-27,128,129,130,-39]],"type":"Polygon","properties":{"STATEFP":"36","COUNTYFP":"007","COUNTYNS":"00974102","GEOIDFQ":"0500000US36007","GEOID":"36007","NAME":"Broome","NAMELSAD":"Broome County","STUSPS":"NY","STATE_NAME":"New York","LSAD":"06","ALAND":1827626589,"AWATER":25078245},"id":"36007"},{"arcs":[[-114,131,132,133,134]],"type":"Polygon","properties":{"STATEFP":"36","COUNTYFP":"015","COUNTYNS":"00974106","GEOIDFQ":"0500000US36015","GEOID":"36015","NAME":"Chemung","NAMELSAD":"Chemung County","STUSPS":"NY","STATE_NAME":"New York","LSAD":"06","ALAND":1054989064,"AWATER":8874703},"id":"36015"},{"arcs":[[-34,-110,135,136,-126]],"type":"Polygon","properties":{"STATEFP":"36","COUNTYFP":"027","COUNTYNS":"00974112","GEOIDFQ":"0500000US36027","GEOID":"36027","NAME":"Dutchess","NAMELSAD":"Dutchess County","STUSPS":"NY","STATE_NAME":"New York","LSAD":"06","ALAND":2060598606,"AWATER":76906718},"id":"36027"},{"arcs":[[-93,137,138,139,140]],"type":"Polygon","properties":{"STATEFP":"36","COUNTYFP":"033","COUNTYNS":"00974115","GEOIDFQ":"0500000US36033","GEOID":"36033","NAME":"Franklin","NAMELSAD":"Franklin County","STUSPS":"NY","STATE_NAME":"New York","LSAD":"06","ALAND":4219867408,"AWATER":176612001},"id":"36033"},{"arcs":[[141,142,143,144,145,146]],"type":"Polygon","properties":{"STATEFP":"36","COUNTYFP":"099","COUNTYNS":"00974147","GEOIDFQ":"0500000US36099","GEOID":"36099","NAME":"Seneca","NAMELSAD":"Seneca County","STUSPS":"NY","STATE_NAME":"New York","LSAD":"06","ALAND":838377559,"AWATER":172813844},"id":"36099"},{"arcs":[[-62,147,-106,148]],"type":"Polygon","properties":{"STATEFP":"36","COUNTYFP":"035","COUNTYNS":"00974116","GEOIDFQ":"0500000US36035","GEOID":"36035","NAME":"Fulton","NAMELSAD":"Fulton County","STUSPS":"NY","STATE_NAME":"New York","LSAD":"06","ALAND":1283236089,"AWATER":96915000},"id":"36035"},{"arcs":[[-12,-63,-149,-105,149,150]],"type":"Polygon","properties":{"STATEFP":"36","COUNTYFP":"057","COUNTYNS":"00974127","GEOIDFQ":"0500000US36057","GEOID":"36057","NAME":"Montgomery","NAMELSAD":"Montgomery County","STUSPS":"NY","STATE_NAME":"New York","LSAD":"06","ALAND":1044053041,"AWATER":18613118},"id":"36057"},{"arcs":[[-40,-131,151,152,153,-44,154]],"type":"Polygon","properties":{"STATEFP":"36","COUNTYFP":"023","COUNTYNS":"00974110","GEOIDFQ":"0500000US36023","GEOID":"36023","NAME":"Cortland","NAMELSAD":"Cortland County","STUSPS":"NY","STATE_NAME":"New York","LSAD":"06","ALAND":1291817953,"AWATER":7110638},"id":"36023"},{"arcs":[[-13,-151,155,-119,-124,-22]],"type":"Polygon","properties":{"STATEFP":"36","COUNTYFP":"095","COUNTYNS":"00974145","GEOIDFQ":"0500000US36095","GEOID":"36095","NAME":"Schoharie","NAMELSAD":"Schoharie County","STUSPS":"NY","STATE_NAME":"New York","LSAD":"06","ALAND":1610503550,"AWATER":11676951},"id":"36095"},{"arcs":[[-18,156,157,-147,158,-111]],"type":"Polygon","properties":{"STATEFP":"36","COUNTYFP":"069","COUNTYNS":"00974133","GEOIDFQ":"0500000US36069","GEOID":"36069","NAME":"Ontario","NAMELSAD":"Ontario County","STUSPS":"NY","STATE_NAME":"New York","LSAD":"06","ALAND":1668017479,"AWATER":47845322},"id":"36069"},{"arcs":[[-94,-141,159]],"type":"Polygon","properties":{"STATEFP":"36","COUNTYFP":"019","COUNTYNS":"00974108","GEOIDFQ":"0500000US36019","GEOID":"36019","NAME":"Clinton","NAMELSAD":"Clinton County","STUSPS":"NY","STATE_NAME":"New York","LSAD":"06","ALAND":2687763047,"AWATER":206581998},"id":"36019"},{"arcs":[[-113,160,-145,161,-132]],"type":"Polygon","properties":{"STATEFP":"36","COUNTYFP":"097","COUNTYNS":"00974146","GEOIDFQ":"0500000US36097","GEOID":"36097","NAME":"Schuyler","NAMELSAD":"Schuyler County","STUSPS":"NY","STATE_NAME":"New York","LSAD":"06","ALAND":850405404,"AWATER":36246373},"id":"36097"},{"arcs":[[162]],"type":"Polygon","properties":{"STATEFP":"36","COUNTYFP":"085","COUNTYNS":"00974141","GEOIDFQ":"0500000US36085","GEOID":"36085","NAME":"Richmond","NAMELSAD":"Richmond County","STUSPS":"NY","STATE_NAME":"New York","LSAD":"06","ALAND":148982681,"AWATER":117441532},"id":"36085"},{"arcs":[[-17,-122,163,164,165,-157]],"type":"Polygon","properties":{"STATEFP":"36","COUNTYFP":"055","COUNTYNS":"00974126","GEOIDFQ":"0500000US36055","GEOID":"36055","NAME":"Monroe","NAMELSAD":"Monroe County","STUSPS":"NY","STATE_NAME":"New York","LSAD":"06","ALAND":1701536380,"AWATER":1838269506},"id":"36055"},{"arcs":[[-50,166,-139,167,-60,-80]],"type":"Polygon","properties":{"STATEFP":"36","COUNTYFP":"089","COUNTYNS":"00977309","GEOIDFQ":"0500000US36089","GEOID":"36089","NAME":"St. Lawrence","NAMELSAD":"St. Lawrence County","STUSPS":"NY","STATE_NAME":"New York","LSAD":"06","ALAND":6939961469,"AWATER":366939180},"id":"36089"},{"arcs":[[168,169,-74,-87,170]],"type":"Polygon","properties":{"STATEFP":"36","COUNTYFP":"061","COUNTYNS":"00974129","GEOIDFQ":"0500000US36061","GEOID":"36061","NAME":"New York","NAMELSAD":"New York County","STUSPS":"NY","STATE_NAME":"New York","LSAD":"06","ALAND":58683879,"AWATER":29010416},"id":"36061"},{"arcs":[[171,-36,-128,-97]],"type":"Polygon","properties":{"STATEFP":"36","COUNTYFP":"087","COUNTYNS":"00974142","GEOIDFQ":"0500000US36087","GEOID":"36087","NAME":"Rockland","NAMELSAD":"Rockland County","STUSPS":"NY","STATE_NAME":"New York","LSAD":"06","ALAND":449841001,"AWATER":66919666},"id":"36087"},{"arcs":[[-66,172,173,-117,-102]],"type":"Polygon","properties":{"STATEFP":"36","COUNTYFP":"083","COUNTYNS":"00974140","GEOIDFQ":"0500000US36083","GEOID":"36083","NAME":"Rensselaer","NAMELSAD":"Rensselaer County","STUSPS":"NY","STATE_NAME":"New York","LSAD":"06","ALAND":1689861383,"AWATER":33524231},"id":"36083"},{"arcs":[[-142,-158,-166,174,175]],"type":"Polygon","properties":{"STATEFP":"36","COUNTYFP":"117","COUNTYNS":"00974156","GEOIDFQ":"0500000US36117","GEOID":"36117","NAME":"Wayne","NAMELSAD":"Wayne County","STUSPS":"NY","STATE_NAME":"New York","LSAD":"06","ALAND":1563913378,"AWATER":2018184725},"id":"36117"},{"arcs":[[-109,-125,-174,176,-136]],"type":"Polygon","properties":{"STATEFP":"36","COUNTYFP":"021","COUNTYNS":"00974109","GEOIDFQ":"0500000US36021","GEOID":"36021","NAME":"Columbia","NAMELSAD":"Columbia County","STUSPS":"NY","STATE_NAME":"New York","LSAD":"06","ALAND":1643770715,"AWATER":35071400},"id":"36021"},{"arcs":[[-47,177,-164,-121]],"type":"Polygon","properties":{"STATEFP":"36","COUNTYFP":"073","COUNTYNS":"00974135","GEOIDFQ":"0500000US36073","GEOID":"36073","NAME":"Orleans","NAMELSAD":"Orleans County","STUSPS":"NY","STATE_NAME":"New York","LSAD":"06","ALAND":1013364726,"AWATER":1103744014},"id":"36073"},{"arcs":[[178,-100,179,-75,-170]],"type":"Polygon","properties":{"STATEFP":"36","COUNTYFP":"005","COUNTYNS":"00974101","GEOIDFQ":"0500000US36005","GEOID":"36005","NAME":"Bronx","NAMELSAD":"Bronx County","STUSPS":"NY","STATE_NAME":"New York","LSAD":"06","ALAND":109301172,"AWATER":39287800},"id":"36005"},{"arcs":[[-112,-159,-146,-161]],"type":"Polygon","properties":{"STATEFP":"36","COUNTYFP":"123","COUNTYNS":"00974159","GEOIDFQ":"0500000US36123","GEOID":"36123","NAME":"Yates","NAMELSAD":"Yates County","STUSPS":"NY","STATE_NAME":"New York","LSAD":"06","ALAND":875850182,"AWATER":97496449},"id":"36123"},{"arcs":[[-61,-168,-138,-92,-84,-107,-148]],"type":"Polygon","properties":{"STATEFP":"36","COUNTYFP":"041","COUNTYNS":"00974119","GEOIDFQ":"0500000US36041","GEOID":"36041","NAME":"Hamilton","NAMELSAD":"Hamilton County","STUSPS":"NY","STATE_NAME":"New York","LSAD":"06","ALAND":4447989312,"AWATER":234204425},"id":"36041"},{"arcs":[[-133,-162,-144,180,-153,181]],"type":"Polygon","properties":{"STATEFP":"36","COUNTYFP":"109","COUNTYNS":"00974152","GEOIDFQ":"0500000US36109","GEOID":"36109","NAME":"Tompkins","NAMELSAD":"Tompkins County","STUSPS":"NY","STATE_NAME":"New York","LSAD":"06","ALAND":1229336924,"AWATER":43765697},"id":"36109"},{"arcs":[[-20,-116,182,-78,183]],"type":"Polygon","properties":{"STATEFP":"36","COUNTYFP":"003","COUNTYNS":"00974100","GEOIDFQ":"0500000US36003","GEOID":"36003","NAME":"Allegany","NAMELSAD":"Allegany County","STUSPS":"NY","STATE_NAME":"New York","LSAD":"06","ALAND":2666410173,"AWATER":12989704},"id":"36003"},{"arcs":[[-4,-123,-21,-184,-77]],"type":"Polygon","properties":{"STATEFP":"36","COUNTYFP":"121","COUNTYNS":"00974158","GEOIDFQ":"0500000US36121","GEOID":"36121","NAME":"Wyoming","NAMELSAD":"Wyoming County","STUSPS":"NY","STATE_NAME":"New York","LSAD":"06","ALAND":1535086365,"AWATER":9085228},"id":"36121"},{"arcs":[[-130,184,-134,-182,-152]],"type":"Polygon","properties":{"STATEFP":"36","COUNTYFP":"107","COUNTYNS":"00974151","GEOIDFQ":"0500000US36107","GEOID":"36107","NAME":"Tioga","NAMELSAD":"Tioga County","STUSPS":"NY","STATE_NAME":"New York","LSAD":"06","ALAND":1343600018,"AWATER":11044570},"id":"36107"},{"arcs":[[-104,-120,-156,-150]],"type":"Polygon","properties":{"STATEFP":"36","COUNTYFP":"093","COUNTYNS":"00974144","GEOIDFQ":"0500000US36093","GEOID":"36093","NAME":"Schenectady","NAMELSAD":"Schenectady County","STUSPS":"NY","STATE_NAME":"New York","LSAD":"06","ALAND":530121015,"AWATER":12335637},"id":"36093"},{"arcs":[[-45,-154,-181,-143,-176,185,-88]],"type":"Polygon","properties":{"STATEFP":"36","COUNTYFP":"011","COUNTYNS":"00974104","GEOIDFQ":"0500000US36011","GEOID":"36011","NAME":"Cayuga","NAMELSAD":"Cayuga County","STUSPS":"NY","STATE_NAME":"New York","LSAD":"06","ALAND":1791207571,"AWATER":445691131},"id":"36011"},{"arcs":[[-9,-41,-155,-43,-91,-101]],"type":"Polygon","properties":{"STATEFP":"36","COUNTYFP":"053","COUNTYNS":"00974125","GEOIDFQ":"0500000US36053","GEOID":"36053","NAME":"Madison","NAMELSAD":"Madison County","STUSPS":"NY","STATE_NAME":"New York","LSAD":"06","ALAND":1696064498,"AWATER":16680858},"id":"36053"}]}}}