{"type":"Topology","arcs":[[[48,3019],[3,42],[48,36],[59,60],[19,-7],[20,-49],[149,17],[82,37],[43,53]],[[471,3208],[31,-42],[5,-70],[15,-21],[62,-34],[89,41],[116,46],[15,-13],[43,16],[35,-26],[63,-2],[34,29],[17,-21]],[[996,3111],[20,-24],[-10,-27],[-52,-54],[26,-26],[-30,-23],[-11,-51]],[[939,2906],[-56,0],[-78,-37],[-32,10],[-34,-25],[-1,-24],[-32,-34],[-40,-62],[-37,-19],[-20,-30],[-25,-7],[4,-58],[-79,-87]],[[509,2533],[-199,0],[-310,2],[27,296],[21,188]],[[2290,4653],[39,17],[35,-8],[42,-43],[62,50],[4,79],[15,27],[41,13],[107,89],[83,43],[47,-57],[2,-34],[-21,-53],[17,-29],[-11,-44],[54,-7],[32,-23],[13,23],[71,30]],[[2922,4726],[27,-79],[-15,-38],[5,-33],[32,-2],[42,-27],[15,-39],[35,-45],[-3,-35],[18,-56]],[[3078,4372],[-42,-20],[-43,2],[-23,-25],[-66,9],[-243,-144],[-3,-26],[-61,14],[-10,-32],[-50,-6],[-15,-25],[-65,-17],[-20,-22],[-52,17],[-9,15],[-63,-49]],[[2313,4063],[-24,17],[0,39],[-19,28],[5,26],[-16,37],[-57,-5],[1,75],[-17,34]],[[2186,4314],[28,73],[47,37],[-7,60],[39,26],[-27,97],[23,14],[1,32]],[[8001,2204],[252,-11],[245,263]],[[8498,2456],[135,-87],[46,-59],[-1,-50],[40,-64]],[[8718,2196],[40,-104],[22,-40],[15,-76],[26,-39],[26,-19],[26,-44],[-6,-47],[-40,-104],[5,-28],[-20,-67],[-20,-14],[-7,-44],[6,-62],[17,-45],[-28,-13],[-9,-30]],[[8771,1420],[-43,-50],[-90,-29],[-31,-47],[5,-67],[-43,-11],[-24,-27],[14,-36],[-39,-27],[-15,-29],[-6,-56],[-21,3],[-32,-34]],[[8446,1010],[0,0],[-287,333],[-175,212],[-147,167],[-19,21]],[[7818,1743],[209,316],[-42,104],[16,41]],[[10455,3857],[26,-4],[85,72],[85,80]],[[10651,4005],[19,-6],[11,-41],[31,-26],[84,-114],[28,-8],[36,-34],[16,-34],[57,-11],[32,-23],[2,-54],[46,-148]],[[11013,3506],[-28,-33],[-27,21],[-30,-16],[-9,-36],[-89,-53],[-29,12],[-49,-55],[-67,-16],[-29,66],[-129,-21],[-46,2]],[[10481,3377],[10,30],[-9,56],[-34,37],[7,357]],[[3292,4121],[29,-12],[23,29],[79,51],[57,98],[-15,21],[33,35],[22,41]],[[3520,4384],[53,43],[85,23],[29,32],[12,38],[40,-24],[28,24],[-3,59]],[[3764,4579],[44,34],[-14,33],[32,41]],[[3826,4687],[53,-121],[6,-49],[-29,-89],[-25,-13],[-28,-40],[-26,4],[-21,-31],[101,-100],[88,-94],[73,-320]],[[4018,3834],[-30,-72],[-100,-1],[-101,-35],[-56,57],[-60,-43],[-69,2],[-109,-34],[-30,22]],[[3463,3730],[-82,56],[-50,15],[-64,69],[17,39],[25,19],[-35,79],[10,31],[-23,37],[31,46]],[[8771,1420],[18,-22],[53,-28],[253,17],[103,-63],[18,-23],[64,-22],[173,-96],[40,1],[38,-16],[50,5],[49,-12],[127,71]],[[9757,1232],[32,-52],[40,-15],[2,-25],[28,-12],[49,10]],[[9908,1138],[-148,-312],[-193,-25],[8,-37],[-28,-23],[-32,-50],[-33,-34],[-111,61],[-31,-3],[-15,-27],[-33,-18],[4,-43],[-8,-69],[-20,-7],[8,-55],[-33,-28],[-5,-36],[-19,-25],[-42,-8],[-38,-29],[22,-67],[-35,-32],[-3,-47]],[[9123,224],[-361,421],[-316,365]],[[6507,2994],[21,29],[19,-9],[16,-51],[27,-56],[55,-2],[26,-16],[34,59],[28,-16],[45,18],[53,-72]],[[6831,2878],[18,-73],[66,-45],[48,-9],[27,37],[49,36],[35,-7],[20,-53],[6,-58],[48,-41],[2,-26],[-25,-23],[-11,-47],[57,-60],[-14,-58],[37,-86],[-1,-29],[-48,-70],[-32,-18],[-22,-88],[-22,-27]],[[7069,2133],[-5,0],[-488,14],[-140,3]],[[6436,2150],[30,355],[41,489]],[[6658,3677],[187,4]],[[6845,3681],[266,9],[214,3]],[[7325,3693],[6,-79],[20,-70],[68,-316],[-4,-56],[23,-54],[41,-15],[22,-112],[72,-68]],[[7573,2923],[-45,-13],[-51,39],[-39,7],[-25,-12],[-33,12],[-25,-12],[-101,15],[-41,-4],[-22,13],[-76,-49],[-73,6],[-9,-15],[-54,2],[-64,-47],[-84,13]],[[6831,2878],[30,46],[4,37],[-25,83],[-34,40],[-12,42],[9,78],[20,38],[-3,31],[26,49],[-1,30],[24,34],[-17,30],[-51,35],[6,30],[-27,61],[-2,36],[-51,35],[-35,0],[-23,23],[-11,41]],[[5275,2892],[29,-1],[30,18],[6,52],[-5,60],[-14,32],[9,57],[-11,46],[23,81],[32,54],[-1,29],[63,18],[11,25],[-44,29],[13,55]],[[5416,3447],[-6,72],[26,55],[-15,25],[7,44]],[[5428,3643],[66,58],[197,-20]],[[5691,3681],[-5,-28],[56,-175],[-23,-28],[36,-46],[82,-76],[44,-174],[186,-131]],[[6067,3023],[-239,-264],[-111,-118],[-59,-18],[-58,-58]],[[5600,2565],[-106,165],[-46,69],[-171,-139],[-26,39],[0,53],[39,61],[-28,38],[13,41]],[[7325,3693],[342,8]],[[7667,3701],[331,7]],[[7998,3708],[22,-45],[-31,-73],[46,-66],[27,-58],[26,-20],[27,-51],[6,-52],[83,-64],[61,-38]],[[8265,3241],[-63,-86],[47,-40],[46,-21],[22,-59],[22,-6],[68,-43]],[[8407,2986],[-3,-39]],[[8404,2947],[-70,-11],[-56,53],[-57,2],[-30,36],[-25,5],[-105,-88],[-40,-25],[-198,-261]],[[7823,2658],[-30,29],[-39,16],[-77,5],[-25,-6],[-29,45],[14,84],[-52,60],[-12,32]],[[12596,5994],[286,0]],[[12882,5994],[249,-277],[2,-61],[57,-59],[12,-30],[82,-23],[16,28],[28,-11],[26,-46],[30,-24],[3,-27],[38,-2],[18,-48],[26,-7],[-22,-41]],[[13447,5366],[-8,-26],[26,-44],[2,-44],[-16,-37],[38,-47],[3,-26],[-107,32],[-26,14],[-15,34],[-26,20],[-18,53],[-42,7],[-35,47],[-7,29],[-48,36],[-46,8],[-14,22],[-36,-13],[-33,9]],[[13039,5440],[22,10],[16,51],[-34,-2],[-1,32],[-39,67],[-26,-20],[-7,48],[-53,5],[-50,68],[-72,31],[-15,32],[-97,49],[-87,95]],[[12596,5906],[-81,87]],[[12515,5993],[81,1]],[[7734,5972],[71,1],[204,0],[200,1],[129,0]],[[8338,5974],[-25,-664]],[[8313,5310],[-167,4]],[[8146,5314],[-441,14]],[[7705,5328],[29,644]],[[13039,5440],[68,-81],[47,-11],[44,-100],[60,-31],[33,-112],[-20,-20],[-153,-36],[-33,4],[-31,26],[-68,105],[-40,13]],[[12946,5197],[-27,73],[-21,-4],[-23,41],[-92,41],[-10,38],[-106,194],[-10,32]],[[12657,5612],[-61,201],[0,93]],[[12855,2224],[53,54],[9,30],[25,0],[79,89],[50,73],[97,114],[35,27],[40,50],[21,55],[36,3],[26,-32],[-59,-39],[-36,-34],[-143,-150],[-92,-107],[-92,-92],[-49,-41]],[[12496,1727],[34,-28],[56,124],[38,99],[52,50],[3,54],[42,15],[-34,-69],[-86,-139],[-58,-123],[-18,-53],[-29,70]],[[11619,1779],[17,21],[118,44],[20,-9],[152,29],[16,11],[86,11],[27,19],[56,2],[42,-10],[58,2],[54,23],[6,-39],[-80,9],[-116,-8],[-130,-21],[-190,-44],[-127,-45],[-9,5]],[[11652,2143],[199,-5],[0,35],[116,27],[-1,18],[201,3],[105,50],[16,67],[36,36],[13,49],[-40,44]],[[12297,2467],[1,25],[31,30],[42,14],[85,-27],[-2,30],[24,18],[85,15],[22,-44],[23,7],[-22,44],[19,72],[34,14],[-10,25],[12,40],[28,-40],[16,-1],[9,-65],[-16,-31],[24,-29],[5,-53],[-12,-19],[11,-40],[32,28],[25,-27],[12,42],[54,4],[36,-25],[6,33],[-32,48],[-38,87],[113,-60],[71,-19],[-2,-43],[-19,-14],[-41,47],[-28,-11],[44,-68],[-2,-43],[-55,-32],[-44,15],[7,-53],[36,-7],[-52,-73],[-35,-1],[-22,-36],[-45,10],[-4,-64],[-31,-8],[-32,-46],[-35,-85],[-18,-19],[-48,-15],[26,-49],[-23,-26],[-65,12],[-37,-9],[1,40],[-47,111],[-21,-4],[0,-77],[-11,-15],[-4,-60],[12,-34],[-114,26],[-71,12],[-173,18],[-80,-9],[-122,-41],[-61,-32],[-56,-6],[-34,-23],[-50,-14],[-33,22]],[[11596,1859],[13,26],[-3,39],[-24,43],[-5,50],[-42,36],[-24,32]],[[11511,2085],[7,19],[48,10],[25,-9],[38,11],[23,27]],[[8498,2456],[7,23],[-24,64],[-66,111],[2,63],[-19,97],[-19,26],[25,107]],[[8407,2986],[136,43],[144,25],[66,17],[21,33],[119,46],[38,-14],[70,16],[34,-22],[142,-25]],[[9177,3105],[-12,-92],[-21,-14],[1,-125],[-19,-36],[-23,-104],[6,-78],[23,-76],[-4,-36],[64,-86],[56,-36],[17,-42],[25,-4],[2,-35],[47,-39],[5,-31],[29,-28]],[[9373,2243],[-34,-23],[-28,12],[-473,-1],[-120,-35]],[[996,3111],[36,69]],[[1032,3180],[12,7],[281,37],[43,-4],[31,37],[38,22],[29,-17],[18,25],[56,-4],[40,11]],[[1580,3294],[44,-109],[6,-55],[17,-3],[7,-44],[27,-17],[51,8],[34,15],[12,-33],[-12,-71],[1,-72],[16,-2],[48,-68],[10,-40],[40,-24],[14,-35],[-45,-30],[35,-32],[28,-46],[10,-40],[29,-32]],[[1952,2564],[-2,0],[-343,-12],[-258,-5]],[[1349,2547],[-54,12],[-7,42],[-36,46],[-22,0],[-8,46],[-37,49],[-4,24],[-40,23],[-12,52],[-47,18],[1,41],[-40,9],[-104,-3]],[[9177,3105],[52,61],[4,55],[70,41]],[[9303,3262],[75,-118],[129,-19],[22,18],[147,55]],[[9676,3198],[97,-137],[136,-48],[-3,-32]],[[9906,2981],[1,-116],[-14,-97],[19,-30],[21,-393],[-83,-356],[77,-43],[25,-26],[34,25]],[[9986,1945],[1,-32],[-69,-62],[-158,-278]],[[9760,1573],[4,18],[-25,49],[-57,41],[-30,64],[14,27],[-22,27],[4,24],[-35,49],[-34,10],[-25,53],[-21,75],[-39,33],[-28,40],[-20,65],[-32,38],[-39,28],[-2,29]],[[8265,3241],[344,475]],[[8609,3716],[87,138]],[[8696,3854],[333,-143]],[[9029,3711],[30,-8],[4,-26],[44,-17],[16,-53],[37,-31],[46,-89],[6,-36],[36,-34],[16,-54],[44,-38],[9,-22],[-14,-41]],[[2313,4063],[31,-97],[21,-38],[62,23],[22,-66],[24,-15],[30,-52],[-19,-27],[19,-33],[-23,-33],[-9,-68],[-20,-56],[27,-67],[58,-36]],[[2536,3498],[0,-35],[-46,-30],[-22,-28],[-28,-74],[-16,-9],[-27,-56],[-72,-8],[-71,-50]],[[2254,3208],[-11,23],[-60,28],[0,40],[-52,88],[-39,12],[-36,35],[-1,46],[-57,44],[-19,50],[-74,15],[-6,65],[-32,7],[-6,29],[-34,10]],[[1827,3700],[19,16],[5,36],[24,35],[-17,55],[-25,13],[-5,31],[15,31],[-2,43],[-40,41],[29,46],[-37,23],[-13,24],[-65,8]],[[1715,4102],[0,42],[24,26],[68,-3],[21,10],[42,77],[63,3],[67,52],[68,-5],[71,-29],[47,39]],[[4040,5022],[218,24],[23,-9],[185,-2]],[[4466,5035],[60,-45],[20,8],[45,-34],[15,13],[29,-40],[25,10],[36,-27],[25,-49],[70,-46],[24,-58]],[[4815,4767],[-23,-162],[15,-98],[-17,-120],[16,-63]],[[4806,4324],[-15,-2],[-33,-61]],[[4758,4261],[-21,-23],[-105,38],[-6,24],[-71,-11],[-106,-7],[-72,106],[-15,-12],[-32,23],[-15,40],[-113,59],[-31,36],[-38,74],[-37,20],[-6,29],[-45,34]],[[4045,4691],[115,234],[-29,11],[-20,46],[-71,40]],[[9757,1232],[128,145],[-44,25],[-8,25],[-43,11],[-31,34],[-1,27],[-27,40],[29,34]],[[9986,1945],[77,14],[94,-4],[43,-27],[40,2],[28,18],[27,-7],[389,2]],[[10684,1943],[106,-321],[63,-215],[36,-16],[55,-68]],[[10944,1323],[-104,-89],[-106,-115],[-65,-63],[-34,-50]],[[10635,1006],[-46,-11],[-116,145],[10,40],[-29,29],[-54,-20],[-38,-31],[-62,19],[-35,-11],[-75,5],[12,-25],[-22,-53],[-59,-11]],[[10121,1082],[-28,-3],[-45,16],[-73,67],[-54,-7],[-13,-17]],[[7823,2658],[-23,-19],[-65,-23],[-97,-72],[-19,-83],[6,-43],[21,-17],[11,-38],[-87,-99],[-17,-30],[15,-29],[-9,-27],[-51,-27],[-55,-8],[-7,-14]],[[7446,2129],[-286,1],[-91,3]],[[5837,4888],[153,-7],[164,-3]],[[6154,4878],[14,-7],[38,43],[35,-71],[38,-32],[8,-34],[-10,-34],[41,-28]],[[6318,4715],[26,-24],[15,-83],[-10,-29],[16,-40],[-74,-7],[-9,-22],[43,-28],[7,-31],[-15,-27],[-42,25],[-13,-49],[-26,13],[-44,-24],[13,-50],[-20,-31],[42,-52],[-13,-51]],[[6214,4205],[-21,57],[-38,31],[-19,-17],[-57,39],[-43,52],[-65,29],[-36,37],[-63,2],[-9,21],[-50,-7]],[[5813,4449],[24,439]],[[471,3208],[12,20],[-22,37],[9,34],[-14,32],[24,14],[26,39],[-12,89],[36,58],[31,24],[19,33],[14,-7]],[[594,3581],[38,-24],[24,34],[65,-11],[15,-26],[31,10],[62,-18],[10,24],[42,-27],[67,9],[101,-26],[35,-18],[8,35],[39,-16],[14,-21],[39,18],[6,-56],[-18,-73],[-44,-69],[-64,-22],[-39,-25],[-17,-59],[24,-40]],[[10651,4005],[57,50]],[[10708,4055],[192,158],[47,34],[71,88],[38,12],[37,-3],[26,47],[31,14],[64,-30]],[[11214,4375],[153,-73],[-7,-47],[70,-11],[68,-60]],[[11498,4184],[6,-31],[-38,-22],[1,-33],[38,-22],[-8,-57],[10,-60],[42,-30],[-3,-37],[85,-71],[-4,-40],[-54,6],[-79,-77],[4,-138],[-28,-48],[4,-37]],[[11474,3487],[-17,-40],[-45,-1],[-20,-41],[1,-45],[-34,-20],[-14,38],[-41,22],[-90,-112],[-65,25]],[[11149,3313],[-28,30],[-30,-6],[-10,39],[-24,8],[-2,39],[-34,45],[-8,38]],[[9757,4372],[119,267],[82,173],[201,412]],[[10159,5224],[24,-37],[32,-18],[86,8],[-8,-33],[36,-9],[20,-38],[107,-1],[21,-15],[43,7],[64,30],[33,-30],[38,26]],[[10655,5114],[-19,-95],[-52,-109],[-48,-120],[-9,-49],[-70,-230],[-12,-30]],[[10445,4481],[-26,-66],[-47,27],[-38,-13],[-201,-111],[-201,-106],[-52,-16],[-20,-18]],[[9860,4178],[-19,-5],[-46,51],[-26,47],[5,37],[-17,64]],[[13362,2718],[48,60],[-5,41],[49,-2],[135,82],[8,-11],[-82,-51],[-73,-55],[-59,-59],[-21,-5]],[[12361,4122],[148,0],[224,-17]],[[12733,4105],[220,-15],[-46,-181],[46,-2],[87,-22],[31,49],[6,59],[23,18],[14,79],[40,26],[39,-48],[44,-24],[51,12],[26,-21]],[[13314,4035],[-4,-28],[24,-15],[22,16],[9,34]],[[13365,4042],[180,0],[20,-63]],[[13565,3979],[8,-37],[-14,-51],[17,-54],[-60,-33],[11,-37],[-50,-19],[-22,-22],[-9,-71],[-42,-20],[-12,-48],[-31,-48],[4,-31],[-30,-32],[-12,39],[-51,-47],[-20,-41],[20,-45],[-32,-3],[-35,-32],[-29,6],[-11,-29],[-30,-15],[-29,20],[-21,-11],[-54,-3],[-17,40],[-59,-41],[-60,33],[-5,33],[-28,36],[-30,14],[-21,-20],[26,-91],[-61,-2],[4,38],[-56,-27],[-2,65],[72,-32],[11,28],[-56,60],[18,31],[-17,37],[-35,-15],[-33,-59],[-69,14],[18,-69],[-43,18],[-22,35],[-36,8],[-13,21],[12,48],[-31,10],[-21,28],[32,25],[-28,32],[1,36],[-40,39],[82,1],[33,-13],[40,2],[34,33],[1,85]],[[12632,3796],[-37,33],[-76,23],[8,28],[-48,12],[-39,43],[-29,58],[7,52],[-57,77]],[[11498,4184],[16,14],[208,-134],[79,-44],[223,135]],[[12024,4155],[4,-32],[333,-1]],[[12632,3796],[-24,-40],[-85,-23],[-73,25],[-27,-2],[-63,-59],[38,-57],[27,-12],[-15,-59],[23,-41],[4,-44],[20,-65],[-113,35],[-30,38],[-23,-10],[-48,28],[-94,-4],[-99,47],[-80,26],[-41,-1],[-83,52],[-35,1],[-49,67],[-53,51],[1,-64],[12,-33],[48,-38],[30,-7],[19,-30],[13,-55],[66,33],[28,-29],[50,-25],[52,-2],[71,-73],[44,1],[6,-18],[50,-18],[30,1],[41,-28],[20,-29],[49,-21],[56,6],[8,-16]],[[12403,3304],[-10,-15],[-2,-63],[11,-47],[-33,-97],[-342,-43],[-82,84]],[[11945,3123],[-101,104],[-370,260]],[[3826,4687],[70,88],[30,-16],[18,-36],[41,-3],[60,-29]],[[4758,4261],[-111,-199],[-119,-155],[-46,-88]],[[4482,3819],[-3,-9]],[[4479,3810],[-58,-12],[-11,20],[-145,-2],[-35,29]],[[4230,3845],[-21,3],[-26,55],[-19,-10],[-32,27],[-31,-47],[-35,1],[-7,-29],[-41,-11]],[[3520,4384],[-20,89],[-1,85],[-13,42],[-69,69],[10,85],[-37,59],[-39,-27],[-56,-5],[9,31],[-50,52],[-22,-31],[-41,9],[3,49],[-15,53],[-55,-12],[-33,24],[-26,-20]],[[3065,4936],[11,24],[88,71],[29,-2],[76,46],[15,-15],[53,5],[41,57],[27,1],[45,-33],[47,16],[28,-95],[80,-2]],[[3605,5009],[20,-92],[47,-125],[-26,-18],[-6,-27],[40,-100],[84,-68]],[[594,3581],[25,24],[41,10],[16,45],[31,46],[91,15],[38,39],[35,20],[14,26],[78,-1],[26,15],[71,1],[53,-3],[45,23],[32,-34],[26,7],[109,-7],[20,12],[23,49],[41,48],[22,-5],[64,34],[41,30],[25,47],[27,12],[35,-23],[25,6],[13,37],[54,48]],[[1827,3700],[-81,22],[-73,-56],[-59,-75],[-43,19],[-10,-13],[-20,-91],[19,-34],[33,-128],[-13,-50]],[[11596,1859],[-35,-6],[-5,-22],[-67,-57],[-41,-24],[-56,-67],[10,-23],[-118,-106],[-61,-44],[-107,-64],[-130,-89],[-42,-34]],[[10684,1943],[2,141],[20,122],[25,186],[-4,37],[-35,74]],[[10692,2503],[58,24],[219,-33],[219,-135],[2,33],[54,34],[103,-29],[31,-57],[37,-28],[41,-120],[33,-7],[-26,-46],[48,-54]],[[10159,5224],[103,212],[49,186],[0,133],[4,69],[16,67]],[[10331,5891],[66,6],[63,-14],[73,-42],[50,-4],[53,16],[46,-17],[52,5],[15,-14],[15,-56],[33,-29],[95,-50],[10,-45],[-4,-44],[-53,-53],[-9,-28],[23,-52],[48,-24],[74,12],[47,30],[33,6],[52,-73],[4,-56],[56,-52],[-17,-65],[57,-49],[37,1],[24,-44],[35,-8]],[[11309,5148],[64,-73],[4,-48],[14,-35],[-42,5],[-75,-25],[-23,-39]],[[11251,4933],[-19,-15],[-102,-132]],[[11130,4786],[-41,1],[-15,30],[-60,42],[-69,-3],[-36,54],[22,23],[-11,44],[-30,17],[-35,-1],[-86,32],[-27,56],[-42,-2],[-3,23],[-42,12]],[[2536,3498],[158,-209],[36,-43],[23,-47],[-9,-62],[19,-3],[0,-82],[21,-131],[27,-42]],[[2811,2879],[-57,-10],[-85,-46],[-39,15],[1,-37],[-84,-64],[-41,-25],[-29,-3],[-2,42],[-184,-66],[-179,-63]],[[2112,2622],[-74,59],[16,51],[39,41],[59,79],[5,38],[-25,33],[15,54],[30,15],[14,46],[45,30],[20,93],[-2,47]],[[10121,1082],[25,-20],[-4,-67],[33,-18],[17,-56],[29,-16],[18,-39],[-8,-65],[13,-114],[27,-68],[9,-141],[-7,-120],[-21,-74],[18,-93]],[[10270,191],[-26,-75],[-11,-116],[-57,26],[-21,29],[25,31],[7,45],[-45,0],[1,-30],[-89,28],[-78,20],[-93,8],[-112,2],[-213,-26],[-206,-81],[-52,-31],[-11,9],[-166,194]],[[12403,3304],[107,-21],[98,-28],[-24,-17],[30,-59],[-5,-65],[-32,-20],[-3,-40],[-39,19],[-43,6],[60,-70],[-13,-39],[-77,36],[-43,-8],[-18,-39],[-35,-12],[1,-30],[32,5],[44,-19],[11,43],[24,-17],[36,-46],[-44,-104],[-31,-6],[-13,-48],[-53,-28],[-72,-70],[-45,-24],[-14,-32],[-74,-27],[-22,-34],[-48,-18],[-31,5],[-130,120],[-38,9],[-9,28],[-30,21]],[[11860,2675],[21,23],[-1,110],[-23,30],[-40,19],[-19,46],[25,11],[3,44],[17,52],[27,23],[16,38],[43,12],[16,40]],[[10708,4055],[-16,32],[-70,88],[-51,197],[-2,22],[-124,87]],[[11130,4786],[-10,-14],[107,-207],[-11,-83],[-2,-107]],[[4172,5641],[-20,49],[32,20],[10,77],[31,24],[-3,82],[-17,69],[49,76],[0,39],[123,-2],[128,-15],[127,-8],[143,-5]],[[4775,6047],[0,-63],[40,-64],[10,-47],[81,-109],[9,-69],[34,-54],[-13,-54]],[[4936,5587],[-41,-8],[-76,26],[-45,-43],[-20,-154],[-101,-19],[-1,-24],[-41,-25],[-29,-5],[-7,-28]],[[4575,5307],[-14,2],[-106,78],[-22,-10],[-39,71],[-77,101],[-145,92]],[[10331,5891],[-1,90]],[[10330,5981],[214,1],[471,0],[285,-1],[148,0],[65,3]],[[11513,5984],[26,-47],[89,-15],[12,-40],[30,-18],[-5,-27],[-34,-18],[-34,13],[-40,-49],[10,-39],[-76,-267],[-49,-156]],[[11442,5321],[-32,-65],[-57,0],[-55,-21],[-2,-58],[13,-29]],[[11442,5321],[41,-8],[341,-11],[109,11],[292,2]],[[12225,5315],[-31,-33],[-14,-39],[-7,-141],[32,-97],[14,-17],[-8,-48],[20,-59],[20,-12],[3,-71],[29,-9],[6,-37],[-59,-54],[-15,-70],[35,25],[22,-5]],[[12272,4648],[-14,-43],[-30,-13],[-18,-64],[-23,-39],[-24,-13]],[[12163,4476],[-33,-2],[-35,39],[-43,10],[-12,-22],[9,-45],[-14,-26],[-56,-67],[-33,-2],[-13,54],[13,63],[-34,61],[-36,18],[-37,-42],[-42,-15],[-28,-38],[-61,5],[29,93],[-4,51],[-24,36],[-21,5],[-111,-39],[-61,24],[-37,-15],[-27,37],[20,58],[-11,42],[-33,50],[-21,0],[-71,41],[-71,48],[-14,35]],[[11513,5984],[112,-3],[288,-2]],[[11913,5979],[18,-47],[-33,-76],[-35,-35],[0,-126],[27,-35],[55,-21],[120,-58],[62,-2],[39,-29],[38,-58],[62,-61]],[[12266,5431],[4,-31]],[[12270,5400],[-24,-60],[-21,-25]],[[12882,5994],[308,0],[409,0],[16,-110],[63,-317],[36,-149],[37,-130]],[[13751,5288],[-36,-10]],[[13715,5278],[-24,48],[11,42],[-15,53],[-33,4],[-29,68],[9,18],[37,-22],[-9,96],[-31,28],[-3,48],[10,44],[-34,39],[-38,9],[-19,89],[-44,2],[-13,17],[-86,10],[13,36],[-8,32],[-27,25],[-45,4],[7,-50],[-26,-13],[17,-62],[32,-77],[36,-24],[28,1],[26,-81],[35,59],[16,-4],[13,-81],[-12,-47],[46,-106],[19,-78],[30,1],[1,-123],[44,-57],[-6,-59],[66,-132],[-6,-41],[21,-44],[-13,-15],[-82,72],[-28,50],[6,71],[-20,55],[-50,54],[-27,82],[-63,47]],[[6507,2994],[-32,-5],[-12,-23],[-58,-19],[-28,-21],[-18,32],[-32,-30],[-82,-10],[-50,13],[-55,40]],[[6140,2971],[0,20],[33,49],[304,635]],[[6477,3675],[180,2]],[[6657,3677],[1,0]],[[10635,1006],[-48,-55],[-56,-87],[-87,-155],[-16,-34],[-58,-162],[-65,-228],[-35,-94]],[[7818,1743],[-344,386],[-28,0]],[[7823,2658],[15,-37],[29,-16],[25,-37],[28,-17],[60,-84],[13,-39],[6,-116],[18,-63],[-16,-45]],[[6214,4205],[72,-44],[25,5],[48,-20],[46,12],[23,-21],[-14,-49],[6,-24],[38,-29],[30,-67],[38,-13],[34,-34],[16,-35],[40,-38],[-2,-57],[42,-87],[1,-27]],[[6477,3675],[-204,-3],[-241,3],[-163,7],[-103,-1]],[[5766,3681],[-4,85],[-51,283],[102,400]],[[4466,5035],[73,56],[71,128],[-35,88]],[[4936,5587],[16,-2],[87,74],[42,74],[25,-30],[85,47],[27,-50],[54,-15],[1,-39],[28,-45],[51,14],[44,50]],[[5396,5665],[16,-32],[42,-46],[41,-13],[20,-44],[40,-32],[-8,-200]],[[5547,5298],[-13,-400]],[[5534,4898],[-151,7],[-86,-29]],[[5297,4876],[-46,-31],[-65,-8],[-11,17],[-53,2],[-47,-24],[-42,24],[-41,-14],[-80,-12],[-44,-39],[-53,-24]],[[1349,2547],[-106,-3],[-114,0],[0,-13],[-209,3],[-300,-1],[-111,0]],[[8696,3854],[-127,58],[94,358],[9,50],[34,107],[6,56]],[[8712,4483],[122,-3],[41,135],[73,-21],[68,95],[27,111],[-32,40],[-32,-13],[-22,17],[4,88]],[[8961,4932],[52,11],[57,-3],[128,-71],[92,-46]],[[9290,4823],[98,-49],[95,-54],[52,-85],[66,-13],[4,-46],[31,-27],[38,-7],[48,-61],[14,-50],[24,-34],[-3,-25]],[[9757,4372],[-176,-137],[-189,-137],[-185,-198],[-178,-189]],[[11652,2143],[50,55],[-99,-12],[9,413],[7,21],[-19,44],[1,49],[-33,8],[-27,-35],[-28,20],[-24,-16],[-14,50],[-227,153],[-198,153],[-34,22]],[[11016,3068],[15,23],[51,24],[10,27],[-18,32],[-5,59],[15,21],[0,37],[37,22],[28,0]],[[11860,2675],[-38,11],[-41,45],[-52,125],[-38,32],[2,-45],[29,-36],[-5,-26],[37,-69],[41,-54],[15,-77],[15,-26],[56,-53],[64,-34],[11,-22],[34,-1],[33,-25],[58,7],[82,-52],[55,27],[30,58],[49,7]],[[6318,4715],[103,52],[187,2],[0,65],[103,0],[172,-35]],[[6883,4799],[-6,-200]],[[6877,4599],[-16,-377],[-10,-305],[-6,-236]],[[2922,4726],[72,66],[71,144]],[[3292,4121],[-26,56],[-35,8],[-35,35],[-18,82],[13,22],[-17,34],[-53,28],[-43,-14]],[[4230,3845],[-3,-143],[-14,-350],[-91,-298],[-14,-94]],[[4108,2960],[-172,9],[-152,7]],[[3784,2976],[-2,54],[13,33],[-10,69],[-43,28],[-8,27],[-47,42],[-39,75],[-41,22],[-28,54],[-41,50],[-47,33],[-31,4],[-23,-28],[-31,16],[-36,-18],[-20,15],[-35,-20]],[[3315,3432],[-15,15],[-5,68],[-11,28],[23,54]],[[3307,3597],[38,0],[29,67],[-14,25],[20,23],[83,18]],[[12657,5612],[-171,-60]],[[12486,5552],[-18,-37],[-68,-23],[-46,-8],[-88,-53]],[[11913,5979],[0,18],[175,-3],[427,-1]],[[8146,5314],[-4,-330],[-4,-196],[-2,-203],[23,-83]],[[8159,4502],[-1,-44],[21,-28],[-491,-2]],[[7688,4428],[1,125]],[[7689,4553],[4,405],[11,352]],[[7704,5310],[1,18]],[[11016,3068],[-86,31],[32,-155],[-151,-225],[-209,-140]],[[10602,2579],[-24,32],[-6,191],[-31,81],[-105,72]],[[10436,2955],[16,367],[29,55]],[[4040,5022],[-31,127],[-44,55],[-45,-10],[-39,60],[-3,29],[28,76],[-11,38],[-28,14]],[[3867,5411],[16,33],[33,15],[48,57],[39,28],[68,19],[42,-38],[33,-2],[43,22],[-27,70],[10,26]],[[10436,2955],[-80,-34],[-21,-31],[-28,41],[-25,14],[-38,-17],[-39,10],[-27,29],[-41,23],[-39,-3],[-53,-38],[-139,32]],[[9676,3198],[27,61],[53,23],[24,-13],[52,44],[82,17],[-6,44],[27,35],[-13,20],[-2,57],[145,371]],[[10065,3857],[11,28],[96,-27],[280,1],[3,-2]],[[12163,4476],[-29,-18],[-17,-43],[12,-24],[-34,-47],[16,-34],[-41,-95],[-46,-60]],[[10065,3857],[-98,39],[-51,182],[-5,57],[-51,43]],[[5691,3681],[75,0]],[[6140,2971],[-73,52]],[[6877,4599],[496,-28],[316,-18]],[[7688,4428],[-7,-297],[-10,-243],[-4,-187]],[[5837,4888],[-303,10]],[[5547,5298],[105,40],[18,-14],[30,20],[16,40],[26,-26],[109,12],[24,-39],[26,3],[17,45],[43,17],[38,-24],[72,35],[17,-12],[9,-49],[78,-4],[26,8],[23,-40]],[[6224,5310],[33,-56],[-23,-22],[15,-84],[-4,-70],[-38,-42],[-40,-4],[-30,-17],[-16,-54],[16,-67],[17,-16]],[[6436,2150],[-288,7],[-99,0],[-380,5],[25,257],[-94,146]],[[9290,4823],[3,131],[77,209]],[[9370,5163],[48,-6],[68,-20],[20,13],[55,145],[64,-1],[50,70]],[[9675,5364],[133,-21],[57,-20],[26,18],[26,-25],[39,4],[9,-36],[28,-44],[36,-3],[34,17],[16,-12],[51,-3],[29,-15]],[[12486,5552],[-9,-128],[-13,-80],[-27,-40],[28,-282],[54,-38],[35,7],[37,-29],[22,19],[57,-38],[54,-1]],[[12724,4942],[-71,-92],[-7,-22],[-50,-15],[-37,-24],[-106,9],[-58,98],[-31,-39],[-27,-4],[-39,19],[-25,50],[6,90],[-27,6],[-9,55],[-17,29],[4,118],[13,49],[62,108],[-35,23]],[[4806,4324],[58,4],[79,39],[37,-14],[48,26],[87,13],[1,-30],[21,-52],[30,-30]],[[5167,4280],[65,-82],[15,-64],[39,-5],[29,10],[37,-24],[21,-45],[24,-23],[26,-67],[40,-44],[-29,-36],[16,-31],[-28,-21],[-14,-76]],[[5408,3772],[-459,23],[-467,24]],[[5968,6010],[276,-16]],[[6244,5994],[-13,-321],[-6,-319]],[[6225,5354],[-1,-44]],[[5396,5665],[32,38],[-42,76],[16,13],[59,92],[41,135]],[[5502,6019],[102,-6],[214,7],[150,-10]],[[5428,3643],[-24,22],[11,75],[-7,32]],[[5167,4280],[75,111],[35,69],[58,223],[3,85],[-41,108]],[[7998,3708],[61,27],[-9,29],[23,19],[44,-45],[49,47],[1,37],[33,-2],[-3,-30],[43,9],[-4,33],[22,12],[49,53],[30,46],[63,-1],[50,-33],[26,-28],[11,-62],[47,-53],[34,-5],[41,-45]],[[9434,5976],[214,3]],[[9648,5979],[75,-526],[-48,-89]],[[9370,5163],[-18,17],[-5,602],[24,122],[26,18],[37,54]],[[6225,5354],[671,-10]],[[6896,5344],[-13,-545]],[[10602,2579],[90,-76]],[[4754,2926],[-346,18],[-300,16]],[[4479,3810],[45,-30],[-6,-60],[51,-115],[42,-114]],[[4611,3491],[91,-148],[68,-50],[-16,-35],[18,-45],[3,-38],[51,-37],[-3,-157],[-7,-58]],[[4816,2923],[-62,3]],[[13365,4042],[22,56],[-3,69],[18,37],[12,67],[-18,89],[29,57],[-20,52],[13,19],[-9,41],[38,28],[23,42],[43,34],[-42,53],[60,31],[63,11],[56,-18],[43,-25],[6,-29],[37,-28],[1,-31],[34,-68],[18,-11],[-3,-73],[27,-30],[7,-70],[-10,-15],[-3,-110],[20,-22],[1,-55],[13,-46],[-33,2],[-47,24],[-21,-47],[42,-80],[17,2],[14,-42],[-28,-49],[-53,-27],[12,-35],[-55,7],[-30,22],[-36,-18],[-30,57],[4,43],[-32,23]],[[13751,5288],[89,-261],[34,-80],[62,-127],[142,-348],[40,-129],[-20,-20],[-50,109],[-22,65],[-33,40],[17,28],[-5,47],[-47,84],[-36,16],[-25,54],[-23,-4],[-49,21],[0,41],[27,8],[-7,50],[-36,-17],[-4,77],[-20,104],[10,48],[-42,163],[-38,21]],[[13826,4633],[57,2],[51,-38],[51,-81],[18,-59],[4,-90],[-86,17],[12,34],[-1,53],[-19,44],[-40,42],[-8,31],[-34,22],[-5,23]],[[13817,3005],[51,24],[23,44],[29,-27],[43,21],[37,41],[62,35],[68,22],[22,-7],[14,69],[-3,79],[6,45],[29,72],[19,232],[-7,38],[19,51],[12,88],[-4,105],[-40,114],[-5,55],[-13,20],[-23,104],[27,-21],[30,-101],[18,-82],[21,-153],[0,-78],[-28,-164],[-10,-183],[-33,-167],[-21,-150],[-20,-68],[-43,17],[-71,-4],[-75,-22],[-115,-53],[-19,4]],[[8712,4483],[-178,-11]],[[8534,4472],[50,390],[56,443]],[[8640,5305],[239,-8]],[[8879,5297],[-4,-313],[37,-50],[49,-2]],[[4775,6047],[74,1],[400,-18],[88,-7],[165,-4]],[[9648,5979],[447,1],[235,1]],[[3605,5009],[31,16],[12,31],[34,-14],[117,238],[44,81],[24,50]],[[8338,5974],[550,0]],[[8888,5974],[3,-34],[-12,-643]],[[8640,5305],[-327,5]],[[6244,5994],[233,-15],[389,-3],[42,0]],[[6908,5976],[-12,-632]],[[7704,5310],[-270,9],[-538,25]],[[6908,5976],[225,1],[278,-2],[323,-3]],[[8159,4502],[270,-35],[105,5]],[[12946,5197],[-5,-22],[50,-49],[16,-47],[27,-42],[30,-21],[-21,-28],[-71,23],[-83,40],[-23,23],[-81,7],[-26,54],[-77,65],[-32,-15],[99,-102],[39,-47],[41,7],[11,-26],[38,-19],[-12,-35],[-38,8],[-104,-29]],[[8988,5975],[361,-2],[85,3]],[[8888,5974],[100,1]],[[5416,3447],[-91,8],[-331,16],[-383,20]],[[3388,2995],[-95,9],[-66,-21],[-12,-13],[-49,17]],[[3166,2987],[12,207],[26,46],[22,4],[18,54],[71,134]],[[3784,2976],[-193,7],[-203,12]],[[12272,4648],[49,-23],[94,17],[81,0],[74,22],[28,22],[146,49],[25,-23],[28,-81]],[[12797,4631],[-22,-45],[17,-70],[26,-48],[-84,-166],[-1,-197]],[[3307,3597],[-107,72],[-21,-28],[-42,-17],[7,-36],[-81,23],[-85,-64],[-146,-5],[-15,-27],[-61,27],[-22,-16],[-50,42],[-32,10],[-68,-25],[-48,-55]],[[12797,4631],[29,16],[37,-8],[69,64],[124,44],[56,16],[61,-11],[113,3],[60,-47],[16,-37],[-8,-46],[12,-23],[-44,-60],[-10,-54],[-27,-37],[-1,-66],[21,-38],[-8,-103],[12,-51],[-20,-45],[9,-31],[30,-32],[-14,-50]],[[5275,2892],[-107,10],[-352,21]],[[2112,2622],[-160,-58]],[[3166,2987],[-28,-24],[-31,75],[-47,-37],[-32,-73],[-33,27],[-44,-12],[-12,-18],[-75,-5],[-53,-41]]],"transform":{"scale":[0.0006216658714566378,0.0004516975481323018],"translate":[-84.321869,33.843151]},"objects":{"37":{"type":"GeometryCollection","geometries":[{"arcs":[[0,1,2,3,4]],"type":"Polygon","properties":{"STATEFP":"37","COUNTYFP":"039","COUNTYNS":"01008545","GEOIDFQ":"0500000US37039","GEOID":"37039","NAME":"Cherokee","NAMELSAD":"Cherokee County","STUSPS":"NC","STATE_NAME":"North Carolina","LSAD":"06","ALAND":1179842040,"AWATER":28813680},"id":"37039"},{"arcs":[[5,6,7,8,9]],"type":"Polygon","properties":{"STATEFP":"37","COUNTYFP":"115","COUNTYNS":"01025834","GEOIDFQ":"0500000US37115","GEOID":"37115","NAME":"Madison","NAMELSAD":"Madison County","STUSPS":"NC","STATE_NAME":"North Carolina","LSAD":"06","ALAND":1164498323,"AWATER":4840167},"id":"37115"},{"arcs":[[10,11,12,13,14,15]],"type":"Polygon","properties":{"STATEFP":"37","COUNTYFP":"155","COUNTYNS":"01026130","GEOIDFQ":"0500000US37155","GEOID":"37155","NAME":"Robeson","NAMELSAD":"Robeson County","STUSPS":"NC","STATE_NAME":"North Carolina","LSAD":"06","ALAND":2453501990,"AWATER":5055139},"id":"37155"},{"arcs":[[16,17,18,19]],"type":"Polygon","properties":{"STATEFP":"37","COUNTYFP":"079","COUNTYNS":"01008557","GEOIDFQ":"0500000US37079","GEOID":"37079","NAME":"Greene","NAMELSAD":"Greene County","STUSPS":"NC","STATE_NAME":"North Carolina","LSAD":"06","ALAND":690842898,"AWATER":1225570},"id":"37079"},{"arcs":[[20,21,22,23,24,25]],"type":"Polygon","properties":{"STATEFP":"37","COUNTYFP":"111","COUNTYNS":"01025836","GEOIDFQ":"0500000US37111","GEOID":"37111","NAME":"McDowell","NAMELSAD":"McDowell County","STUSPS":"NC","STATE_NAME":"North Carolina","LSAD":"06","ALAND":1139476689,"AWATER":13977729},"id":"37111"},{"arcs":[[-14,26,27,28,29]],"type":"Polygon","properties":{"STATEFP":"37","COUNTYFP":"047","COUNTYNS":"01026339","GEOIDFQ":"0500000US37047","GEOID":"37047","NAME":"Columbus","NAMELSAD":"Columbus County","STUSPS":"NC","STATE_NAME":"North Carolina","LSAD":"06","ALAND":2429919777,"AWATER":43712413},"id":"37047"},{"arcs":[[30,31,32,33]],"type":"Polygon","properties":{"STATEFP":"37","COUNTYFP":"007","COUNTYNS":"01008534","GEOIDFQ":"0500000US37007","GEOID":"37007","NAME":"Anson","NAMELSAD":"Anson County","STUSPS":"NC","STATE_NAME":"North Carolina","LSAD":"06","ALAND":1376493250,"AWATER":14588102},"id":"37007"},{"arcs":[[34,35,36,37,38]],"type":"Polygon","properties":{"STATEFP":"37","COUNTYFP":"123","COUNTYNS":"01008572","GEOIDFQ":"0500000US37123","GEOID":"37123","NAME":"Montgomery","NAMELSAD":"Montgomery County","STUSPS":"NC","STATE_NAME":"North Carolina","LSAD":"06","ALAND":1273078949,"AWATER":25883427},"id":"37123"},{"arcs":[[39,40,41,42,43,44]],"type":"Polygon","properties":{"STATEFP":"37","COUNTYFP":"119","COUNTYNS":"01008570","GEOIDFQ":"0500000US37119","GEOID":"37119","NAME":"Mecklenburg","NAMELSAD":"Mecklenburg County","STUSPS":"NC","STATE_NAME":"North Carolina","LSAD":"06","ALAND":1356122868,"AWATER":58180386},"id":"37119"},{"arcs":[[-37,45,46,47,48,49,50,51]],"type":"Polygon","properties":{"STATEFP":"37","COUNTYFP":"125","COUNTYNS":"01008573","GEOIDFQ":"0500000US37125","GEOID":"37125","NAME":"Moore","NAMELSAD":"Moore County","STUSPS":"NC","STATE_NAME":"North Carolina","LSAD":"06","ALAND":1806846435,"AWATER":20853327},"id":"37125"},{"arcs":[[52,53,54,55,56,57]],"type":"Polygon","properties":{"STATEFP":"37","COUNTYFP":"029","COUNTYNS":"01026335","GEOIDFQ":"0500000US37029","GEOID":"37029","NAME":"Camden","NAMELSAD":"Camden County","STUSPS":"NC","STATE_NAME":"North Carolina","LSAD":"06","ALAND":622441457,"AWATER":181120132},"id":"37029"},{"arcs":[[58,59,60,61,62]],"type":"Polygon","properties":{"STATEFP":"37","COUNTYFP":"033","COUNTYNS":"01008542","GEOIDFQ":"0500000US37033","GEOID":"37033","NAME":"Caswell","NAMELSAD":"Caswell County","STUSPS":"NC","STATE_NAME":"North Carolina","LSAD":"06","ALAND":1102042927,"AWATER":8293623},"id":"37033"},{"arcs":[[-56,63,64,65]],"type":"Polygon","properties":{"STATEFP":"37","COUNTYFP":"139","COUNTYNS":"01026330","GEOIDFQ":"0500000US37139","GEOID":"37139","NAME":"Pasquotank","NAMELSAD":"Pasquotank County","STUSPS":"NC","STATE_NAME":"North Carolina","LSAD":"06","ALAND":587610262,"AWATER":161751355},"id":"37139"},{"arcs":[[[66]],[[67]],[[68]],[[69,70,71,72]]],"type":"MultiPolygon","properties":{"STATEFP":"37","COUNTYFP":"031","COUNTYNS":"01026337","GEOIDFQ":"0500000US37031","GEOID":"37031","NAME":"Carteret","NAMELSAD":"Carteret County","STUSPS":"NC","STATE_NAME":"North Carolina","LSAD":"06","ALAND":1314695711,"AWATER":2131054884},"id":"37031"},{"arcs":[[-12,73,-50,74,75,76]],"type":"Polygon","properties":{"STATEFP":"37","COUNTYFP":"051","COUNTYNS":"01026124","GEOIDFQ":"0500000US37051","GEOID":"37051","NAME":"Cumberland","NAMELSAD":"Cumberland County","STUSPS":"NC","STATE_NAME":"North Carolina","LSAD":"06","ALAND":1690137277,"AWATER":15312233},"id":"37051"},{"arcs":[[-3,77,78,79,80,81]],"type":"Polygon","properties":{"STATEFP":"37","COUNTYFP":"113","COUNTYNS":"01025833","GEOIDFQ":"0500000US37113","GEOID":"37113","NAME":"Macon","NAMELSAD":"Macon County","STUSPS":"NC","STATE_NAME":"North Carolina","LSAD":"06","ALAND":1335213014,"AWATER":10598128},"id":"37113"},{"arcs":[[-76,82,83,84,85,86,87]],"type":"Polygon","properties":{"STATEFP":"37","COUNTYFP":"163","COUNTYNS":"01026131","GEOIDFQ":"0500000US37163","GEOID":"37163","NAME":"Sampson","NAMELSAD":"Sampson County","STUSPS":"NC","STATE_NAME":"North Carolina","LSAD":"06","ALAND":2449952012,"AWATER":4918354},"id":"37163"},{"arcs":[[-49,88,89,90,91,-83,-75]],"type":"Polygon","properties":{"STATEFP":"37","COUNTYFP":"085","COUNTYNS":"01008560","GEOIDFQ":"0500000US37085","GEOID":"37085","NAME":"Harnett","NAMELSAD":"Harnett County","STUSPS":"NC","STATE_NAME":"North Carolina","LSAD":"06","ALAND":1541299781,"AWATER":16361612},"id":"37085"},{"arcs":[[-9,92,93,94,95,96]],"type":"Polygon","properties":{"STATEFP":"37","COUNTYFP":"087","COUNTYNS":"01008561","GEOIDFQ":"0500000US37087","GEOID":"37087","NAME":"Haywood","NAMELSAD":"Haywood County","STUSPS":"NC","STATE_NAME":"North Carolina","LSAD":"06","ALAND":1433713848,"AWATER":2438478},"id":"37087"},{"arcs":[[97,98,99,100,101,102]],"type":"Polygon","properties":{"STATEFP":"37","COUNTYFP":"027","COUNTYNS":"01008541","GEOIDFQ":"0500000US37027","GEOID":"37027","NAME":"Caldwell","NAMELSAD":"Caldwell County","STUSPS":"NC","STATE_NAME":"North Carolina","LSAD":"06","ALAND":1222176567,"AWATER":7060445},"id":"37027"},{"arcs":[[-28,103,-87,104,105,106,107,108]],"type":"Polygon","properties":{"STATEFP":"37","COUNTYFP":"141","COUNTYNS":"01026129","GEOIDFQ":"0500000US37141","GEOID":"37141","NAME":"Pender","NAMELSAD":"Pender County","STUSPS":"NC","STATE_NAME":"North Carolina","LSAD":"06","ALAND":2256656740,"AWATER":162822100},"id":"37141"},{"arcs":[[-32,-38,-52,109,110]],"type":"Polygon","properties":{"STATEFP":"37","COUNTYFP":"153","COUNTYNS":"01008581","GEOIDFQ":"0500000US37153","GEOID":"37153","NAME":"Richmond","NAMELSAD":"Richmond County","STUSPS":"NC","STATE_NAME":"North Carolina","LSAD":"06","ALAND":1226849526,"AWATER":15575098},"id":"37153"},{"arcs":[[111,112,113,114,115]],"type":"Polygon","properties":{"STATEFP":"37","COUNTYFP":"059","COUNTYNS":"01008549","GEOIDFQ":"0500000US37059","GEOID":"37059","NAME":"Davie","NAMELSAD":"Davie County","STUSPS":"NC","STATE_NAME":"North Carolina","LSAD":"06","ALAND":682977539,"AWATER":7511429},"id":"37059"},{"arcs":[[-2,116,117,-78]],"type":"Polygon","properties":{"STATEFP":"37","COUNTYFP":"075","COUNTYNS":"01008555","GEOIDFQ":"0500000US37075","GEOID":"37075","NAME":"Graham","NAMELSAD":"Graham County","STUSPS":"NC","STATE_NAME":"North Carolina","LSAD":"06","ALAND":756203028,"AWATER":25047567},"id":"37075"},{"arcs":[[-18,118,119,120,121,122,123]],"type":"Polygon","properties":{"STATEFP":"37","COUNTYFP":"147","COUNTYNS":"01008578","GEOIDFQ":"0500000US37147","GEOID":"37147","NAME":"Pitt","NAMELSAD":"Pitt County","STUSPS":"NC","STATE_NAME":"North Carolina","LSAD":"06","ALAND":1689620170,"AWATER":8247778},"id":"37147"},{"arcs":[[124,125,126,127,128]],"type":"Polygon","properties":{"STATEFP":"37","COUNTYFP":"127","COUNTYNS":"01008574","GEOIDFQ":"0500000US37127","GEOID":"37127","NAME":"Nash","NAMELSAD":"Nash County","STUSPS":"NC","STATE_NAME":"North Carolina","LSAD":"06","ALAND":1399742908,"AWATER":6174819},"id":"37127"},{"arcs":[[[129]],[[130,131,132,133,134,135]]],"type":"MultiPolygon","properties":{"STATEFP":"37","COUNTYFP":"095","COUNTYNS":"01008564","GEOIDFQ":"0500000US37095","GEOID":"37095","NAME":"Hyde","NAMELSAD":"Hyde County","STUSPS":"NC","STATE_NAME":"North Carolina","LSAD":"06","ALAND":1585958032,"AWATER":2192938302},"id":"37095"},{"arcs":[[-122,136,137,-136,138,139,140]],"type":"Polygon","properties":{"STATEFP":"37","COUNTYFP":"013","COUNTYNS":"01026333","GEOIDFQ":"0500000US37013","GEOID":"37013","NAME":"Beaufort","NAMELSAD":"Beaufort County","STUSPS":"NC","STATE_NAME":"North Carolina","LSAD":"06","ALAND":2156710993,"AWATER":337053671},"id":"37013"},{"arcs":[[-24,141,-102,142,143,144,145]],"type":"Polygon","properties":{"STATEFP":"37","COUNTYFP":"023","COUNTYNS":"01008539","GEOIDFQ":"0500000US37023","GEOID":"37023","NAME":"Burke","NAMELSAD":"Burke County","STUSPS":"NC","STATE_NAME":"North Carolina","LSAD":"06","ALAND":1311146878,"AWATER":20719897},"id":"37023"},{"arcs":[[-22,146,147,148]],"type":"Polygon","properties":{"STATEFP":"37","COUNTYFP":"121","COUNTYNS":"01008571","GEOIDFQ":"0500000US37121","GEOID":"37121","NAME":"Mitchell","NAMELSAD":"Mitchell County","STUSPS":"NC","STATE_NAME":"North Carolina","LSAD":"06","ALAND":573036224,"AWATER":1632150},"id":"37121"},{"arcs":[[-79,-118,149,-96,150]],"type":"Polygon","properties":{"STATEFP":"37","COUNTYFP":"173","COUNTYNS":"01008588","GEOIDFQ":"0500000US37173","GEOID":"37173","NAME":"Swain","NAMELSAD":"Swain County","STUSPS":"NC","STATE_NAME":"North Carolina","LSAD":"06","ALAND":1366800396,"AWATER":32419218},"id":"37173"},{"arcs":[[-72,151,-106,152,153]],"type":"Polygon","properties":{"STATEFP":"37","COUNTYFP":"133","COUNTYNS":"01026341","GEOIDFQ":"0500000US37133","GEOID":"37133","NAME":"Onslow","NAMELSAD":"Onslow County","STUSPS":"NC","STATE_NAME":"North Carolina","LSAD":"06","ALAND":1973791492,"AWATER":370648831},"id":"37133"},{"arcs":[[-126,154,155,156,157,158]],"type":"Polygon","properties":{"STATEFP":"37","COUNTYFP":"083","COUNTYNS":"01008559","GEOIDFQ":"0500000US37083","GEOID":"37083","NAME":"Halifax","NAMELSAD":"Halifax County","STUSPS":"NC","STATE_NAME":"North Carolina","LSAD":"06","ALAND":1874473649,"AWATER":16918948},"id":"37083"},{"arcs":[[-94,159,160,161]],"type":"Polygon","properties":{"STATEFP":"37","COUNTYFP":"175","COUNTYNS":"01008589","GEOIDFQ":"0500000US37175","GEOID":"37175","NAME":"Transylvania","NAMELSAD":"Transylvania County","STUSPS":"NC","STATE_NAME":"North Carolina","LSAD":"06","ALAND":979960858,"AWATER":5073764},"id":"37175"},{"arcs":[[-29,-109,162,163]],"type":"Polygon","properties":{"STATEFP":"37","COUNTYFP":"019","COUNTYNS":"01026340","GEOIDFQ":"0500000US37019","GEOID":"37019","NAME":"Brunswick","NAMELSAD":"Brunswick County","STUSPS":"NC","STATE_NAME":"North Carolina","LSAD":"06","ALAND":2200169676,"AWATER":518091095},"id":"37019"},{"arcs":[[-140,164,165]],"type":"Polygon","properties":{"STATEFP":"37","COUNTYFP":"137","COUNTYNS":"01023355","GEOIDFQ":"0500000US37137","GEOID":"37137","NAME":"Pamlico","NAMELSAD":"Pamlico County","STUSPS":"NC","STATE_NAME":"North Carolina","LSAD":"06","ALAND":871565241,"AWATER":583042082},"id":"37137"},{"arcs":[[-120,166,-127,-159,167]],"type":"Polygon","properties":{"STATEFP":"37","COUNTYFP":"065","COUNTYNS":"01008551","GEOIDFQ":"0500000US37065","GEOID":"37065","NAME":"Edgecombe","NAMELSAD":"Edgecombe County","STUSPS":"NC","STATE_NAME":"North Carolina","LSAD":"06","ALAND":1309073895,"AWATER":3706145},"id":"37065"},{"arcs":[[168,169,170,171]],"type":"Polygon","properties":{"STATEFP":"37","COUNTYFP":"009","COUNTYNS":"01008535","GEOIDFQ":"0500000US37009","GEOID":"37009","NAME":"Ashe","NAMELSAD":"Ashe County","STUSPS":"NC","STATE_NAME":"North Carolina","LSAD":"06","ALAND":1104023356,"AWATER":8058446},"id":"37009"},{"arcs":[[-156,172,173,174,175]],"type":"Polygon","properties":{"STATEFP":"37","COUNTYFP":"131","COUNTYNS":"01008575","GEOIDFQ":"0500000US37131","GEOID":"37131","NAME":"Northampton","NAMELSAD":"Northampton County","STUSPS":"NC","STATE_NAME":"North Carolina","LSAD":"06","ALAND":1390085041,"AWATER":35838903},"id":"37131"},{"arcs":[[-157,-176,176,177,178,179]],"type":"Polygon","properties":{"STATEFP":"37","COUNTYFP":"015","COUNTYNS":"01026334","GEOIDFQ":"0500000US37015","GEOID":"37015","NAME":"Bertie","NAMELSAD":"Bertie County","STUSPS":"NC","STATE_NAME":"North Carolina","LSAD":"06","ALAND":1810858562,"AWATER":109120751},"id":"37015"},{"arcs":[[-13,-77,-88,-104,-27]],"type":"Polygon","properties":{"STATEFP":"37","COUNTYFP":"017","COUNTYNS":"01026336","GEOIDFQ":"0500000US37017","GEOID":"37017","NAME":"Bladen","NAMELSAD":"Bladen County","STUSPS":"NC","STATE_NAME":"North Carolina","LSAD":"06","ALAND":2266124565,"AWATER":33022256},"id":"37017"},{"arcs":[[180,181,182,183,-177,-175]],"type":"Polygon","properties":{"STATEFP":"37","COUNTYFP":"091","COUNTYNS":"01026127","GEOIDFQ":"0500000US37091","GEOID":"37091","NAME":"Hertford","NAMELSAD":"Hertford County","STUSPS":"NC","STATE_NAME":"North Carolina","LSAD":"06","ALAND":914689353,"AWATER":18737417},"id":"37091"},{"arcs":[[-54,184,185,186]],"type":"Polygon","properties":{"STATEFP":"37","COUNTYFP":"053","COUNTYNS":"01026125","GEOIDFQ":"0500000US37053","GEOID":"37053","NAME":"Currituck","NAMELSAD":"Currituck County","STUSPS":"NC","STATE_NAME":"North Carolina","LSAD":"06","ALAND":678344374,"AWATER":685095432},"id":"37053"},{"arcs":[[-31,187,188,189,190,-39]],"type":"Polygon","properties":{"STATEFP":"37","COUNTYFP":"167","COUNTYNS":"01025844","GEOIDFQ":"0500000US37167","GEOID":"37167","NAME":"Stanly","NAMELSAD":"Stanly County","STUSPS":"NC","STATE_NAME":"North Carolina","LSAD":"06","ALAND":1023253142,"AWATER":25183933},"id":"37167"},{"arcs":[[-108,191,-163]],"type":"Polygon","properties":{"STATEFP":"37","COUNTYFP":"129","COUNTYNS":"01026329","GEOIDFQ":"0500000US37129","GEOID":"37129","NAME":"New Hanover","NAMELSAD":"New Hanover County","STUSPS":"NC","STATE_NAME":"North Carolina","LSAD":"06","ALAND":497976887,"AWATER":353807245},"id":"37129"},{"arcs":[[-16,192,-110,193]],"type":"Polygon","properties":{"STATEFP":"37","COUNTYFP":"165","COUNTYNS":"01008585","GEOIDFQ":"0500000US37165","GEOID":"37165","NAME":"Scotland","NAMELSAD":"Scotland County","STUSPS":"NC","STATE_NAME":"North Carolina","LSAD":"06","ALAND":826569986,"AWATER":3842049},"id":"37165"},{"arcs":[[-115,194,-190,195,196]],"type":"Polygon","properties":{"STATEFP":"37","COUNTYFP":"159","COUNTYNS":"01008583","GEOIDFQ":"0500000US37159","GEOID":"37159","NAME":"Rowan","NAMELSAD":"Rowan County","STUSPS":"NC","STATE_NAME":"North Carolina","LSAD":"06","ALAND":1325062500,"AWATER":31968204},"id":"37159"},{"arcs":[[-99,197,-171,198,199,200,201,202]],"type":"Polygon","properties":{"STATEFP":"37","COUNTYFP":"193","COUNTYNS":"01008595","GEOIDFQ":"0500000US37193","GEOID":"37193","NAME":"Wilkes","NAMELSAD":"Wilkes County","STUSPS":"NC","STATE_NAME":"North Carolina","LSAD":"06","ALAND":1952016297,"AWATER":6854041},"id":"37193"},{"arcs":[[-4,-82,203]],"type":"Polygon","properties":{"STATEFP":"37","COUNTYFP":"043","COUNTYNS":"01008546","GEOIDFQ":"0500000US37043","GEOID":"37043","NAME":"Clay","NAMELSAD":"Clay County","STUSPS":"NC","STATE_NAME":"North Carolina","LSAD":"06","ALAND":556857004,"AWATER":15039033},"id":"37043"},{"arcs":[[-91,204,205,206,207,208]],"type":"Polygon","properties":{"STATEFP":"37","COUNTYFP":"183","COUNTYNS":"01008592","GEOIDFQ":"0500000US37183","GEOID":"37183","NAME":"Wake","NAMELSAD":"Wake County","STUSPS":"NC","STATE_NAME":"North Carolina","LSAD":"06","ALAND":2162064341,"AWATER":57586902},"id":"37183"},{"arcs":[[-70,209,210,-123,-141,-166,211]],"type":"Polygon","properties":{"STATEFP":"37","COUNTYFP":"049","COUNTYNS":"01026123","GEOIDFQ":"0500000US37049","GEOID":"37049","NAME":"Craven","NAMELSAD":"Craven County","STUSPS":"NC","STATE_NAME":"North Carolina","LSAD":"06","ALAND":1829932514,"AWATER":172859703},"id":"37049"},{"arcs":[[-35,-191,-195,-114,212,213,214]],"type":"Polygon","properties":{"STATEFP":"37","COUNTYFP":"057","COUNTYNS":"01008548","GEOIDFQ":"0500000US37057","GEOID":"37057","NAME":"Davidson","NAMELSAD":"Davidson County","STUSPS":"NC","STATE_NAME":"North Carolina","LSAD":"06","ALAND":1432233639,"AWATER":37603329},"id":"37057"},{"arcs":[[-7,215,-147,-21,216]],"type":"Polygon","properties":{"STATEFP":"37","COUNTYFP":"199","COUNTYNS":"01008598","GEOIDFQ":"0500000US37199","GEOID":"37199","NAME":"Yancey","NAMELSAD":"Yancey County","STUSPS":"NC","STATE_NAME":"North Carolina","LSAD":"06","ALAND":809610024,"AWATER":1524558},"id":"37199"},{"arcs":[[-25,-146,217,218,219,220,221]],"type":"Polygon","properties":{"STATEFP":"37","COUNTYFP":"161","COUNTYNS":"01008584","GEOIDFQ":"0500000US37161","GEOID":"37161","NAME":"Rutherford","NAMELSAD":"Rutherford County","STUSPS":"NC","STATE_NAME":"North Carolina","LSAD":"06","ALAND":1464475268,"AWATER":4693780},"id":"37161"},{"arcs":[[-11,-194,-51,-74]],"type":"Polygon","properties":{"STATEFP":"37","COUNTYFP":"093","COUNTYNS":"01008563","GEOIDFQ":"0500000US37093","GEOID":"37093","NAME":"Hoke","NAMELSAD":"Hoke County","STUSPS":"NC","STATE_NAME":"North Carolina","LSAD":"06","ALAND":1010491624,"AWATER":3949309},"id":"37093"},{"arcs":[[-57,-66,222,223,-182,224]],"type":"Polygon","properties":{"STATEFP":"37","COUNTYFP":"073","COUNTYNS":"01026126","GEOIDFQ":"0500000US37073","GEOID":"37073","NAME":"Gates","NAMELSAD":"Gates County","STUSPS":"NC","STATE_NAME":"North Carolina","LSAD":"06","ALAND":882181709,"AWATER":13292008},"id":"37073"},{"arcs":[[-62,225,226,227,228,229]],"type":"Polygon","properties":{"STATEFP":"37","COUNTYFP":"001","COUNTYNS":"01008531","GEOIDFQ":"0500000US37001","GEOID":"37001","NAME":"Alamance","NAMELSAD":"Alamance County","STUSPS":"NC","STATE_NAME":"North Carolina","LSAD":"06","ALAND":1096770315,"AWATER":27906243},"id":"37001"},{"arcs":[[-19,-124,-211,230,231,232]],"type":"Polygon","properties":{"STATEFP":"37","COUNTYFP":"107","COUNTYNS":"01008568","GEOIDFQ":"0500000US37107","GEOID":"37107","NAME":"Lenoir","NAMELSAD":"Lenoir County","STUSPS":"NC","STATE_NAME":"North Carolina","LSAD":"06","ALAND":1033630007,"AWATER":5900299},"id":"37107"},{"arcs":[[-98,233,234,-172,-198]],"type":"Polygon","properties":{"STATEFP":"37","COUNTYFP":"189","COUNTYNS":"01008594","GEOIDFQ":"0500000US37189","GEOID":"37189","NAME":"Watauga","NAMELSAD":"Watauga County","STUSPS":"NC","STATE_NAME":"North Carolina","LSAD":"06","ALAND":809214839,"AWATER":2271720},"id":"37189"},{"arcs":[[-20,-233,235,-85,236,237]],"type":"Polygon","properties":{"STATEFP":"37","COUNTYFP":"191","COUNTYNS":"01026128","GEOIDFQ":"0500000US37191","GEOID":"37191","NAME":"Wayne","NAMELSAD":"Wayne County","STUSPS":"NC","STATE_NAME":"North Carolina","LSAD":"06","ALAND":1434651142,"AWATER":9842326},"id":"37191"},{"arcs":[[-121,-168,-158,-180,238,-137]],"type":"Polygon","properties":{"STATEFP":"37","COUNTYFP":"117","COUNTYNS":"01026328","GEOIDFQ":"0500000US37117","GEOID":"37117","NAME":"Martin","NAMELSAD":"Martin County","STUSPS":"NC","STATE_NAME":"North Carolina","LSAD":"06","ALAND":1182102538,"AWATER":746610},"id":"37117"},{"arcs":[[-17,-238,239,-128,-167,-119]],"type":"Polygon","properties":{"STATEFP":"37","COUNTYFP":"195","COUNTYNS":"01008596","GEOIDFQ":"0500000US37195","GEOID":"37195","NAME":"Wilson","NAMELSAD":"Wilson County","STUSPS":"NC","STATE_NAME":"North Carolina","LSAD":"06","ALAND":952012864,"AWATER":14332562},"id":"37195"},{"arcs":[[-43,240,-196,-189,241]],"type":"Polygon","properties":{"STATEFP":"37","COUNTYFP":"025","COUNTYNS":"01008540","GEOIDFQ":"0500000US37025","GEOID":"37025","NAME":"Cabarrus","NAMELSAD":"Cabarrus County","STUSPS":"NC","STATE_NAME":"North Carolina","LSAD":"06","ALAND":935623728,"AWATER":6985702},"id":"37025"},{"arcs":[[-36,-215,242,-228,243,-46]],"type":"Polygon","properties":{"STATEFP":"37","COUNTYFP":"151","COUNTYNS":"01008580","GEOIDFQ":"0500000US37151","GEOID":"37151","NAME":"Randolph","NAMELSAD":"Randolph County","STUSPS":"NC","STATE_NAME":"North Carolina","LSAD":"06","ALAND":2026239783,"AWATER":19706168},"id":"37151"},{"arcs":[[-112,244,-201,245,246]],"type":"Polygon","properties":{"STATEFP":"37","COUNTYFP":"197","COUNTYNS":"01008597","GEOIDFQ":"0500000US37197","GEOID":"37197","NAME":"Yadkin","NAMELSAD":"Yadkin County","STUSPS":"NC","STATE_NAME":"North Carolina","LSAD":"06","ALAND":867498039,"AWATER":7176193},"id":"37197"},{"arcs":[[-34,247,-44,-242,-188]],"type":"Polygon","properties":{"STATEFP":"37","COUNTYFP":"179","COUNTYNS":"01008590","GEOIDFQ":"0500000US37179","GEOID":"37179","NAME":"Union","NAMELSAD":"Union County","STUSPS":"NC","STATE_NAME":"North Carolina","LSAD":"06","ALAND":1638787126,"AWATER":17883270},"id":"37179"},{"arcs":[[-125,-208,248,249,250]],"type":"Polygon","properties":{"STATEFP":"37","COUNTYFP":"069","COUNTYNS":"01008553","GEOIDFQ":"0500000US37069","GEOID":"37069","NAME":"Franklin","NAMELSAD":"Franklin County","STUSPS":"NC","STATE_NAME":"North Carolina","LSAD":"06","ALAND":1273948292,"AWATER":6987366},"id":"37069"},{"arcs":[[-183,-224,251,252]],"type":"Polygon","properties":{"STATEFP":"37","COUNTYFP":"041","COUNTYNS":"01025822","GEOIDFQ":"0500000US37041","GEOID":"37041","NAME":"Chowan","NAMELSAD":"Chowan County","STUSPS":"NC","STATE_NAME":"North Carolina","LSAD":"06","ALAND":447179939,"AWATER":157966156},"id":"37041"},{"arcs":[[-101,253,254,255,-143]],"type":"Polygon","properties":{"STATEFP":"37","COUNTYFP":"035","COUNTYNS":"01008543","GEOIDFQ":"0500000US37035","GEOID":"37035","NAME":"Catawba","NAMELSAD":"Catawba County","STUSPS":"NC","STATE_NAME":"North Carolina","LSAD":"06","ALAND":1039557077,"AWATER":37938883},"id":"37035"},{"arcs":[[256,257,258,-246,-200,259,260]],"type":"Polygon","properties":{"STATEFP":"37","COUNTYFP":"171","COUNTYNS":"01008587","GEOIDFQ":"0500000US37171","GEOID":"37171","NAME":"Surry","NAMELSAD":"Surry County","STUSPS":"NC","STATE_NAME":"North Carolina","LSAD":"06","ALAND":1379542808,"AWATER":10391699},"id":"37171"},{"arcs":[[-42,261,-255,262,-202,-245,-116,-197,-241]],"type":"Polygon","properties":{"STATEFP":"37","COUNTYFP":"097","COUNTYNS":"01008565","GEOIDFQ":"0500000US37097","GEOID":"37097","NAME":"Iredell","NAMELSAD":"Iredell County","STUSPS":"NC","STATE_NAME":"North Carolina","LSAD":"06","ALAND":1487874140,"AWATER":59364025},"id":"37097"},{"arcs":[[-48,263,-89]],"type":"Polygon","properties":{"STATEFP":"37","COUNTYFP":"105","COUNTYNS":"01008567","GEOIDFQ":"0500000US37105","GEOID":"37105","NAME":"Lee","NAMELSAD":"Lee County","STUSPS":"NC","STATE_NAME":"North Carolina","LSAD":"06","ALAND":660633162,"AWATER":10699612},"id":"37105"},{"arcs":[[264,265,-250,266]],"type":"Polygon","properties":{"STATEFP":"37","COUNTYFP":"181","COUNTYNS":"01008591","GEOIDFQ":"0500000US37181","GEOID":"37181","NAME":"Vance","NAMELSAD":"Vance County","STUSPS":"NC","STATE_NAME":"North Carolina","LSAD":"06","ALAND":653714469,"AWATER":42177687},"id":"37181"},{"arcs":[[-113,-247,-259,267,268,-213]],"type":"Polygon","properties":{"STATEFP":"37","COUNTYFP":"067","COUNTYNS":"01008552","GEOIDFQ":"0500000US37067","GEOID":"37067","NAME":"Forsyth","NAMELSAD":"Forsyth County","STUSPS":"NC","STATE_NAME":"North Carolina","LSAD":"06","ALAND":1056834331,"AWATER":11644419},"id":"37067"},{"arcs":[[-86,-236,-232,269,-153,-105]],"type":"Polygon","properties":{"STATEFP":"37","COUNTYFP":"061","COUNTYNS":"01026132","GEOIDFQ":"0500000US37061","GEOID":"37061","NAME":"Duplin","NAMELSAD":"Duplin County","STUSPS":"NC","STATE_NAME":"North Carolina","LSAD":"06","ALAND":2110115794,"AWATER":14237879},"id":"37061"},{"arcs":[[270,-218,-145,271,272,273]],"type":"Polygon","properties":{"STATEFP":"37","COUNTYFP":"045","COUNTYNS":"01008547","GEOIDFQ":"0500000US37045","GEOID":"37045","NAME":"Cleveland","NAMELSAD":"Cleveland County","STUSPS":"NC","STATE_NAME":"North Carolina","LSAD":"06","ALAND":1202438173,"AWATER":10140130},"id":"37045"},{"arcs":[[[-134,274]],[[-186,275]],[[276]],[[277]]],"type":"MultiPolygon","properties":{"STATEFP":"37","COUNTYFP":"055","COUNTYNS":"01026133","GEOIDFQ":"0500000US37055","GEOID":"37055","NAME":"Dare","NAMELSAD":"Dare County","STUSPS":"NC","STATE_NAME":"North Carolina","LSAD":"06","ALAND":992558908,"AWATER":3000512926},"id":"37055"},{"arcs":[[-206,278,279,280,281]],"type":"Polygon","properties":{"STATEFP":"37","COUNTYFP":"063","COUNTYNS":"01008550","GEOIDFQ":"0500000US37063","GEOID":"37063","NAME":"Durham","NAMELSAD":"Durham County","STUSPS":"NC","STATE_NAME":"North Carolina","LSAD":"06","ALAND":744763030,"AWATER":26697463},"id":"37063"},{"arcs":[[-170,282,-260,-199]],"type":"Polygon","properties":{"STATEFP":"37","COUNTYFP":"005","COUNTYNS":"01008533","GEOIDFQ":"0500000US37005","GEOID":"37005","NAME":"Alleghany","NAMELSAD":"Alleghany County","STUSPS":"NC","STATE_NAME":"North Carolina","LSAD":"06","ALAND":608220278,"AWATER":3687222},"id":"37005"},{"arcs":[[283,-173,-155,-251,-266]],"type":"Polygon","properties":{"STATEFP":"37","COUNTYFP":"185","COUNTYNS":"01008593","GEOIDFQ":"0500000US37185","GEOID":"37185","NAME":"Warren","NAMELSAD":"Warren County","STUSPS":"NC","STATE_NAME":"North Carolina","LSAD":"06","ALAND":1112119290,"AWATER":38613740},"id":"37185"},{"arcs":[[-23,-149,284,-234,-103,-142]],"type":"Polygon","properties":{"STATEFP":"37","COUNTYFP":"011","COUNTYNS":"01008536","GEOIDFQ":"0500000US37011","GEOID":"37011","NAME":"Avery","NAMELSAD":"Avery County","STUSPS":"NC","STATE_NAME":"North Carolina","LSAD":"06","ALAND":640602138,"AWATER":445285},"id":"37011"},{"arcs":[[-60,285,286,-281,287]],"type":"Polygon","properties":{"STATEFP":"37","COUNTYFP":"145","COUNTYNS":"01008577","GEOIDFQ":"0500000US37145","GEOID":"37145","NAME":"Person","NAMELSAD":"Person County","STUSPS":"NC","STATE_NAME":"North Carolina","LSAD":"06","ALAND":1016154884,"AWATER":31205405},"id":"37145"},{"arcs":[[288,289,-268,-258]],"type":"Polygon","properties":{"STATEFP":"37","COUNTYFP":"169","COUNTYNS":"01008586","GEOIDFQ":"0500000US37169","GEOID":"37169","NAME":"Stokes","NAMELSAD":"Stokes County","STUSPS":"NC","STATE_NAME":"North Carolina","LSAD":"06","ALAND":1163740821,"AWATER":17577923},"id":"37169"},{"arcs":[[-100,-203,-263,-254]],"type":"Polygon","properties":{"STATEFP":"37","COUNTYFP":"003","COUNTYNS":"01008532","GEOIDFQ":"0500000US37003","GEOID":"37003","NAME":"Alexander","NAMELSAD":"Alexander County","STUSPS":"NC","STATE_NAME":"North Carolina","LSAD":"06","ALAND":673368516,"AWATER":9435656},"id":"37003"},{"arcs":[[-63,-230,290,-290,291]],"type":"Polygon","properties":{"STATEFP":"37","COUNTYFP":"157","COUNTYNS":"01008582","GEOIDFQ":"0500000US37157","GEOID":"37157","NAME":"Rockingham","NAMELSAD":"Rockingham County","STUSPS":"NC","STATE_NAME":"North Carolina","LSAD":"06","ALAND":1465006648,"AWATER":18434834},"id":"37157"},{"arcs":[[-47,-244,-227,292,-279,-205,-90,-264]],"type":"Polygon","properties":{"STATEFP":"37","COUNTYFP":"037","COUNTYNS":"01008544","GEOIDFQ":"0500000US37037","GEOID":"37037","NAME":"Chatham","NAMELSAD":"Chatham County","STUSPS":"NC","STATE_NAME":"North Carolina","LSAD":"06","ALAND":1765010744,"AWATER":70580568},"id":"37037"},{"arcs":[[-65,293,-252,-223]],"type":"Polygon","properties":{"STATEFP":"37","COUNTYFP":"143","COUNTYNS":"01025841","GEOIDFQ":"0500000US37143","GEOID":"37143","NAME":"Perquimans","NAMELSAD":"Perquimans County","STUSPS":"NC","STATE_NAME":"North Carolina","LSAD":"06","ALAND":640182883,"AWATER":211746290},"id":"37143"},{"arcs":[[294,-267,-249,-207,-282,-287,295]],"type":"Polygon","properties":{"STATEFP":"37","COUNTYFP":"077","COUNTYNS":"01008556","GEOIDFQ":"0500000US37077","GEOID":"37077","NAME":"Granville","NAMELSAD":"Granville County","STUSPS":"NC","STATE_NAME":"North Carolina","LSAD":"06","ALAND":1377850207,"AWATER":14503653},"id":"37077"},{"arcs":[[-214,-269,-291,-229,-243]],"type":"Polygon","properties":{"STATEFP":"37","COUNTYFP":"081","COUNTYNS":"01008558","GEOIDFQ":"0500000US37081","GEOID":"37081","NAME":"Guilford","NAMELSAD":"Guilford County","STUSPS":"NC","STATE_NAME":"North Carolina","LSAD":"06","ALAND":1673115280,"AWATER":30266224},"id":"37081"},{"arcs":[[-41,296,-272,-144,-256,-262]],"type":"Polygon","properties":{"STATEFP":"37","COUNTYFP":"109","COUNTYNS":"01008569","GEOIDFQ":"0500000US37109","GEOID":"37109","NAME":"Lincoln","NAMELSAD":"Lincoln County","STUSPS":"NC","STATE_NAME":"North Carolina","LSAD":"06","ALAND":766251552,"AWATER":23338524},"id":"37109"},{"arcs":[[297,298,-220,299]],"type":"Polygon","properties":{"STATEFP":"37","COUNTYFP":"149","COUNTYNS":"01008579","GEOIDFQ":"0500000US37149","GEOID":"37149","NAME":"Polk","NAMELSAD":"Polk County","STUSPS":"NC","STATE_NAME":"North Carolina","LSAD":"06","ALAND":615606324,"AWATER":1964035},"id":"37149"},{"arcs":[[-131,-138,-239,-179,300,301]],"type":"Polygon","properties":{"STATEFP":"37","COUNTYFP":"187","COUNTYNS":"01026331","GEOIDFQ":"0500000US37187","GEOID":"37187","NAME":"Washington","NAMELSAD":"Washington County","STUSPS":"NC","STATE_NAME":"North Carolina","LSAD":"06","ALAND":897456201,"AWATER":195282199},"id":"37187"},{"arcs":[[-8,-217,-26,-222,302,-93]],"type":"Polygon","properties":{"STATEFP":"37","COUNTYFP":"021","COUNTYNS":"01008538","GEOIDFQ":"0500000US37021","GEOID":"37021","NAME":"Buncombe","NAMELSAD":"Buncombe County","STUSPS":"NC","STATE_NAME":"North Carolina","LSAD":"06","ALAND":1700301531,"AWATER":8941578},"id":"37021"},{"arcs":[[-132,-302,303]],"type":"Polygon","properties":{"STATEFP":"37","COUNTYFP":"177","COUNTYNS":"01026332","GEOIDFQ":"0500000US37177","GEOID":"37177","NAME":"Tyrrell","NAMELSAD":"Tyrrell County","STUSPS":"NC","STATE_NAME":"North Carolina","LSAD":"06","ALAND":1012106671,"AWATER":534571696},"id":"37177"},{"arcs":[[-40,304,-273,-297]],"type":"Polygon","properties":{"STATEFP":"37","COUNTYFP":"071","COUNTYNS":"01008554","GEOIDFQ":"0500000US37071","GEOID":"37071","NAME":"Gaston","NAMELSAD":"Gaston County","STUSPS":"NC","STATE_NAME":"North Carolina","LSAD":"06","ALAND":921389634,"AWATER":20549066},"id":"37071"},{"arcs":[[-61,-288,-280,-293,-226]],"type":"Polygon","properties":{"STATEFP":"37","COUNTYFP":"135","COUNTYNS":"01008576","GEOIDFQ":"0500000US37135","GEOID":"37135","NAME":"Orange","NAMELSAD":"Orange County","STUSPS":"NC","STATE_NAME":"North Carolina","LSAD":"06","ALAND":1029757021,"AWATER":8743914},"id":"37135"},{"arcs":[[-80,-151,-95,-162,305]],"type":"Polygon","properties":{"STATEFP":"37","COUNTYFP":"099","COUNTYNS":"01008566","GEOIDFQ":"0500000US37099","GEOID":"37099","NAME":"Jackson","NAMELSAD":"Jackson County","STUSPS":"NC","STATE_NAME":"North Carolina","LSAD":"06","ALAND":1272039052,"AWATER":9746824},"id":"37099"},{"arcs":[[-73,-154,-270,-231,-210]],"type":"Polygon","properties":{"STATEFP":"37","COUNTYFP":"103","COUNTYNS":"01026338","GEOIDFQ":"0500000US37103","GEOID":"37103","NAME":"Jones","NAMELSAD":"Jones County","STUSPS":"NC","STATE_NAME":"North Carolina","LSAD":"06","ALAND":1220836956,"AWATER":6031825},"id":"37103"},{"arcs":[[-84,-92,-209,-129,-240,-237]],"type":"Polygon","properties":{"STATEFP":"37","COUNTYFP":"101","COUNTYNS":"01026327","GEOIDFQ":"0500000US37101","GEOID":"37101","NAME":"Johnston","NAMELSAD":"Johnston County","STUSPS":"NC","STATE_NAME":"North Carolina","LSAD":"06","ALAND":2051314540,"AWATER":9406176},"id":"37101"},{"arcs":[[-160,-303,-221,-299,306]],"type":"Polygon","properties":{"STATEFP":"37","COUNTYFP":"089","COUNTYNS":"01008562","GEOIDFQ":"0500000US37089","GEOID":"37089","NAME":"Henderson","NAMELSAD":"Henderson County","STUSPS":"NC","STATE_NAME":"North Carolina","LSAD":"06","ALAND":965932193,"AWATER":5552145},"id":"37089"}]}}}