{"type":"Topology","arcs":[[[3069,2785],[145,-1],[1,199]],[[3215,2983],[247,0],[166,0]],[[3628,2983],[-1,-199],[17,0],[0,-200]],[[3644,2584],[-82,0],[0,-199],[-66,0],[0,-121]],[[3496,2264],[-63,1],[0,26],[-22,25],[-7,45],[-22,4],[-11,-7],[-8,-20],[-9,3],[-8,21],[-13,1],[-2,28],[-13,38],[-11,3],[-7,-15],[-30,-27],[-23,-8],[-6,-24],[-16,7],[-18,-9],[-14,53],[-13,11],[-29,-34],[0,98],[-24,0],[-8,24],[-50,31],[0,246]],[[3861,3505],[166,0],[290,0],[-6,-21],[3,-40],[11,-17],[6,-34],[11,-9],[-6,-17],[12,-8],[4,-26],[-3,-29],[13,-16],[0,-39],[12,-30],[-2,-15],[15,-30],[-1,-11],[12,-23],[1,-25],[-9,-33],[-19,-37],[-5,-35],[7,-19],[-14,-8],[1,-2]],[[4360,2981],[-251,1],[-234,0]],[[3875,2982],[0,198],[-14,2],[0,207],[0,116]],[[1378,2187],[163,0],[163,0],[244,1]],[[1948,2188],[245,-1]],[[2193,2187],[0,-199],[-56,0],[0,-396]],[[2137,1592],[-48,0],[0,-195],[-137,0]],[[1952,1397],[-11,19],[-6,35],[10,34],[-1,18],[-16,25],[-22,18],[-32,11],[-22,-4],[-36,-15],[-10,-36],[-12,0],[-27,18]],[[1767,1520],[-17,16],[-39,15],[-7,38],[-2,46],[-10,9],[-17,34],[-6,38],[-16,26],[-2,21],[10,17],[24,18],[9,23],[-15,11],[-25,31],[-28,-10],[-12,1],[-50,-26],[-40,-6],[-28,11],[-14,0],[-22,-10],[-44,-37],[-15,-2],[-20,10],[-16,1],[-20,21],[-25,17],[-35,-3],[-8,9],[6,18],[-9,15],[-25,2],[-53,-10],[-29,10]],[[1167,1874],[-38,57],[1,118],[-13,12],[-4,18],[19,10],[0,22],[-47,23],[-15,-12],[-17,-38]],[[1053,2084],[0,103],[162,0],[163,0]],[[1236,1196],[210,0]],[[1446,1196],[305,0],[219,2]],[[1970,1198],[2,-21],[15,-16],[4,-22],[-3,-29],[35,-80],[17,-20],[4,-31],[-12,-32],[3,-16],[10,-14],[25,-1],[0,-19],[-12,-5],[6,-27],[6,-6],[19,7],[7,-18],[-5,-13],[11,-11],[17,5],[31,23],[7,-17],[-12,-17],[-1,-18]],[[2144,800],[23,-26],[36,-21],[2,-17],[-14,-6],[27,-46],[-1,-9],[-20,-23],[-5,-14],[-8,-48],[5,-27]],[[2189,563],[-12,-12],[-11,2],[-41,-24],[-25,-9],[-3,13],[-50,-19],[-30,16],[-11,12],[-25,-16],[-15,-31],[1,-21],[-24,-23],[-16,-7],[-13,-45]],[[1914,399],[-15,1],[0,99],[-158,0],[0,296],[-266,1],[0,99],[-239,0]],[[1236,895],[-1,300],[1,1]],[[1,3086],[130,-1],[288,0],[317,0]],[[736,3085],[0,-99]],[[736,2986],[0,-199],[37,0],[0,-285]],[[773,2502],[-23,16],[-27,-18],[-20,12],[-22,7],[-23,-7],[-11,4],[-42,-9],[-9,21],[-31,-11],[-29,-1],[-32,-50],[17,-19],[-8,-17],[-25,-3],[-8,-21],[-20,1],[-36,-17],[-31,12],[-20,-13],[-16,-20],[-16,5],[-10,25],[-27,3],[-10,21],[21,27],[-24,19],[-12,22],[-16,-3],[-26,13],[-27,-15],[-16,-18],[1,-12],[20,-20],[-1,-9],[-23,-19],[-24,21],[-8,-27],[4,-26],[-6,-22],[-10,-14],[-8,21],[-17,-6],[-8,-25],[-12,-12],[-20,-7],[-15,22],[-15,11],[-13,-3],[-12,-18],[-10,26],[-14,7]],[[3,2356],[0,1],[-1,205],[-1,244],[0,280]],[[3839,1986],[65,0]],[[3904,1986],[259,0]],[[4163,1986],[-1,-397],[14,0],[0,-98]],[[4176,1491],[-161,1]],[[4015,1492],[-161,0]],[[3854,1492],[0,98],[-16,1],[1,395]],[[2189,563],[20,-52],[5,-21],[1,-39],[-6,-25],[-13,-30],[0,-10],[14,-27],[-2,-17],[-10,-30],[-25,-44],[-8,-30],[8,-32],[1,-50],[9,-25],[25,-47],[19,-10],[15,-38],[-3,-26]],[[2239,10],[-268,0],[-307,0],[-192,0],[-174,1]],[[1298,11],[0,124]],[[1298,135],[4,-7],[22,4],[9,17],[11,-10],[20,14],[20,-5],[8,10],[5,-46],[18,-6],[22,13],[32,-4],[7,-12],[29,-13],[16,1],[9,24],[14,-19],[12,-8],[12,13],[11,-16],[14,19],[25,-1],[-3,19],[42,17],[28,26],[21,-6],[7,17],[11,3],[14,16],[7,32],[26,8],[15,0],[20,24],[3,34],[30,14],[18,13],[10,17],[-4,22],[9,10],[3,20],[20,-5],[19,15]],[[3496,2264],[0,-79]],[[3496,2185],[-12,1],[-231,0],[-62,-1],[-58,2],[-125,-1]],[[3008,2186],[-164,0],[-162,0]],[[2682,2186],[0,199],[-23,0],[1,400],[224,0]],[[2884,2785],[185,0]],[[1298,135],[0,174]],[[1298,309],[0,90],[-31,-1],[-1,282],[-1,116],[-29,0]],[[1236,796],[0,99]],[[773,2502],[13,-5],[26,13],[18,-16],[3,-32],[19,-1],[25,-12],[-3,-30],[18,-16],[20,11],[9,-40],[24,-12],[3,-11],[-9,-25],[-16,-25],[-12,-10],[-22,-37],[-7,-51],[8,-44]],[[890,2159],[0,-171],[-289,1],[0,-396]],[[601,1593],[-254,0],[-105,1]],[[242,1594],[-240,1]],[[2,1595],[0,77],[2,400],[1,131],[-2,153]],[[4598,795],[-1,-13],[25,-50],[-1,-29],[9,-44],[-3,-12],[8,-33],[8,-8],[-3,-29],[16,-20],[17,-55],[15,-14],[27,-37],[3,-60],[-3,-17],[5,-55],[5,-11],[-4,-23],[7,-9],[0,-33],[7,-18],[9,-55],[-2,-22],[-12,-49],[4,-66],[4,-33],[-153,0],[-188,1],[-80,-1]],[[4317,0],[0,65],[-19,5],[0,327],[-14,0]],[[4284,397],[1,397]],[[4285,794],[305,1]],[[4590,795],[8,0]],[[3028,1889],[228,0],[256,0]],[[3512,1889],[1,-298]],[[3513,1591],[-192,0],[-294,0]],[[3027,1591],[1,298]],[[3008,2186],[0,-199],[20,0],[0,-98]],[[3027,1591],[-136,0]],[[2891,1591],[-201,1],[-148,0]],[[2542,1592],[0,396],[-23,0],[0,199]],[[2519,2187],[163,-1]],[[4163,1986],[161,0],[210,0]],[[4534,1986],[0,-22],[7,-28],[11,-20],[3,-36],[-10,-16],[12,-15],[-12,-27],[13,-34],[-10,-11],[7,-14],[-6,-45],[0,-27],[14,-18],[-7,-44],[7,-22],[6,-38],[-8,-16],[-1,-23],[8,-40]],[[4568,1490],[-298,0],[-94,1]],[[3628,2983],[82,-1],[165,0]],[[4360,2981],[7,-46],[11,-11],[-16,-12],[10,-21],[9,-4],[-8,-25],[-2,-23],[8,-13],[-17,-24],[12,-18],[-10,-7],[18,-29],[-7,-30],[8,-23],[0,-45],[-12,-8],[2,-27],[10,-5],[-10,-28]],[[4373,2582],[-154,2],[-82,0],[-247,0]],[[3890,2584],[-79,-1],[-167,1]],[[3215,2983],[0,199],[-19,0],[-1,116],[1,206]],[[3196,3504],[333,1],[169,0],[163,0]],[[1767,1520],[0,-26],[-321,-1],[0,-297]],[[1236,1196],[-31,0],[0,33]],[[1205,1229],[1,364],[-39,0],[0,281]],[[1283,3284],[1,219]],[[1284,3503],[165,0],[167,1]],[[1616,3504],[0,-320],[28,0],[0,-199],[248,0]],[[1892,2985],[0,-100]],[[1892,2885],[-248,1],[-248,0],[1,298],[-114,1],[0,99]],[[736,3085],[0,100],[-34,0],[1,319]],[[703,3504],[166,-1],[294,0],[121,0]],[[1283,3284],[-82,0],[-1,-99],[-51,0],[0,-199]],[[1149,2986],[-248,0],[-165,0]],[[2884,2785],[0,199]],[[2884,2984],[0,198],[-21,0],[0,322]],[[2863,3504],[95,0],[238,0]],[[4317,0],[0,0],[-159,0],[-188,0],[-128,1],[-18,0]],[[3824,1],[1,396]],[[3825,397],[220,0],[239,0]],[[2137,1592],[193,0],[161,0]],[[2491,1592],[-1,-395],[25,-1],[-3,-398]],[[2512,798],[-165,1],[-203,1]],[[1970,1198],[26,23],[9,14],[-2,37],[-26,33],[-7,20],[-5,52],[-13,20]],[[2640,398],[67,-1],[227,1],[238,0]],[[3172,398],[22,0]],[[3194,398],[-1,-306],[-1,-87]],[[3192,5],[-159,1],[-147,0],[-145,1],[-102,0]],[[2639,7],[1,391]],[[3824,1],[-257,1],[-197,2],[-178,1]],[[3194,398],[215,-1],[261,1],[137,-1]],[[3807,397],[18,0]],[[2891,1591],[0,-395],[23,-1],[-3,-399]],[[2911,796],[-295,2]],[[2616,798],[-104,0]],[[2491,1592],[51,0]],[[4015,1492],[0,-217],[0,-82],[16,0],[-1,-399]],[[4030,794],[-222,1]],[[3808,795],[-257,1]],[[3551,796],[0,197],[0,201],[-18,0],[0,298]],[[3533,1492],[240,1],[81,-1]],[[1205,1229],[-241,0],[0,-33],[-206,0],[-115,-1]],[[643,1195],[0,398],[-42,0]],[[890,2159],[12,-19],[39,-30],[26,3],[16,-5],[15,-16],[25,-6],[11,-9],[19,7]],[[1,3086],[-1,244],[0,174],[286,-1],[140,0],[277,1]],[[3533,1492],[0,99],[-20,0]],[[3512,1889],[0,97]],[[3512,1986],[153,0],[174,0]],[[2884,2984],[-179,0],[-234,0]],[[2471,2984],[0,199],[-24,0],[0,320]],[[2447,3503],[138,0],[278,1]],[[1298,309],[-79,0],[-237,1],[0,88],[-191,-2],[-79,0]],[[712,396],[-1,100],[0,196],[-1,103]],[[710,795],[171,-1],[161,1],[194,1]],[[2193,2187],[134,-1],[111,1]],[[2438,2187],[81,0]],[[1616,3504],[235,-1],[263,1],[176,0],[157,-1]],[[2471,2984],[-83,0]],[[2388,2984],[-82,0],[-1,99],[-200,1],[-213,0],[0,-99]],[[3551,796],[-80,0],[-298,-1]],[[3173,795],[-262,1]],[[3496,2185],[2,-80],[-2,-3],[0,-116],[16,0]],[[1948,2188],[1,199],[-29,0],[1,399],[-29,0],[0,99]],[[2388,2984],[0,-198],[25,-1],[0,-399],[25,0],[0,-199]],[[1378,2187],[0,200],[-32,0],[0,400],[-32,0],[0,199],[-165,0]],[[710,795],[-193,-1]],[[517,794],[1,401],[125,0]],[[2616,798],[0,-284],[0,-116],[24,0]],[[2639,7],[-184,1],[-208,2],[-8,0]],[[712,396],[-45,-1]],[[667,395],[-35,-1],[-139,0],[-142,0],[-194,0],[-155,0]],[[2,394],[0,119],[0,180]],[[2,693],[155,-1],[0,102],[121,0]],[[278,794],[239,0]],[[242,1594],[0,-400],[36,1],[0,-401]],[[2,693],[0,115],[0,216],[1,339],[-1,232]],[[667,11],[-183,0],[-174,0],[-308,1],[-1,62],[1,143],[0,177]],[[667,395],[0,-384]],[[3807,397],[1,299],[0,99]],[[4030,794],[255,0]],[[3173,795],[-1,-397]],[[3890,2584],[0,-199],[14,0],[0,-399]],[[4568,1490],[-2,-27],[8,-47],[-1,-21],[-10,-5],[5,-1],[10,-47],[0,-35],[-5,-26],[4,-11],[-10,-41],[9,-37],[18,-56],[21,-1],[-15,-65],[3,-16],[-12,-55],[0,-36],[13,-11],[-6,-29],[3,-22],[-3,-33],[-9,-46],[1,-27]],[[4373,2582],[-4,-23],[1,-32],[10,-14],[19,-54],[1,-17],[14,-21],[7,-62],[7,-12],[-5,-28],[4,-19],[24,-31],[-5,-28],[3,-26],[10,-2],[15,-46],[1,-30],[14,-14],[1,-20],[13,-9],[2,-34],[8,-16],[14,-55],[7,-3]],[[1298,11],[-1,0],[-208,0],[-238,0],[-150,0],[-34,0]]],"transform":{"scale":[0.0015797624367622264,0.0008745863444768335],"translate":[-104.0489,45.9351368626087]},"objects":{"38":{"type":"GeometryCollection","geometries":[{"arcs":[[0,1,2,3,4]],"type":"Polygon","properties":{"STATEFP":"38","COUNTYFP":"071","COUNTYNS":"01034215","GEOIDFQ":"0500000US38071","GEOID":"38071","NAME":"Ramsey","NAMELSAD":"Ramsey County","STUSPS":"ND","STATE_NAME":"North Dakota","LSAD":"06","ALAND":3070086482,"AWATER":299504065},"id":"38071"},{"arcs":[[5,6,7]],"type":"Polygon","properties":{"STATEFP":"38","COUNTYFP":"067","COUNTYNS":"01034212","GEOIDFQ":"0500000US38067","GEOID":"38067","NAME":"Pembina","NAMELSAD":"Pembina County","STUSPS":"ND","STATE_NAME":"North Dakota","LSAD":"06","ALAND":2896993136,"AWATER":7008436},"id":"38067"},{"arcs":[[8,9,10,11,12,13,14,15]],"type":"Polygon","properties":{"STATEFP":"38","COUNTYFP":"055","COUNTYNS":"01034232","GEOIDFQ":"0500000US38055","GEOID":"38055","NAME":"McLean","NAMELSAD":"McLean County","STUSPS":"ND","STATE_NAME":"North Dakota","LSAD":"06","ALAND":5465578838,"AWATER":563811097},"id":"38055"},{"arcs":[[16,17,18,19,20,21,22]],"type":"Polygon","properties":{"STATEFP":"38","COUNTYFP":"059","COUNTYNS":"01034207","GEOIDFQ":"0500000US38059","GEOID":"38059","NAME":"Morton","NAMELSAD":"Morton County","STUSPS":"ND","STATE_NAME":"North Dakota","LSAD":"06","ALAND":4988026403,"AWATER":49931212},"id":"38059"},{"arcs":[[23,24,25,26,27]],"type":"Polygon","properties":{"STATEFP":"38","COUNTYFP":"105","COUNTYNS":"01035306","GEOIDFQ":"0500000US38105","GEOID":"38105","NAME":"Williams","NAMELSAD":"Williams County","STUSPS":"ND","STATE_NAME":"North Dakota","LSAD":"06","ALAND":5380959360,"AWATER":181836635},"id":"38105"},{"arcs":[[28,29,30,31,32,33]],"type":"Polygon","properties":{"STATEFP":"38","COUNTYFP":"091","COUNTYNS":"01034220","GEOIDFQ":"0500000US38091","GEOID":"38091","NAME":"Steele","NAMELSAD":"Steele County","STUSPS":"ND","STATE_NAME":"North Dakota","LSAD":"06","ALAND":1844441540,"AWATER":8435674},"id":"38091"},{"arcs":[[-21,34,35,36,37]],"type":"Polygon","properties":{"STATEFP":"38","COUNTYFP":"085","COUNTYNS":"01034208","GEOIDFQ":"0500000US38085","GEOID":"38085","NAME":"Sioux","NAMELSAD":"Sioux County","STUSPS":"ND","STATE_NAME":"North Dakota","LSAD":"06","ALAND":2833580512,"AWATER":88449896},"id":"38085"},{"arcs":[[-5,38,39,40,41,42]],"type":"Polygon","properties":{"STATEFP":"38","COUNTYFP":"005","COUNTYNS":"01034216","GEOIDFQ":"0500000US38005","GEOID":"38005","NAME":"Benson","NAMELSAD":"Benson County","STUSPS":"ND","STATE_NAME":"North Dakota","LSAD":"06","ALAND":3596341580,"AWATER":131677670},"id":"38005"},{"arcs":[[-22,-38,43,44,45]],"type":"Polygon","properties":{"STATEFP":"38","COUNTYFP":"037","COUNTYNS":"01035300","GEOIDFQ":"0500000US38037","GEOID":"38037","NAME":"Grant","NAMELSAD":"Grant County","STUSPS":"ND","STATE_NAME":"North Dakota","LSAD":"06","ALAND":4297393832,"AWATER":17563451},"id":"38037"},{"arcs":[[-27,46,47,48,49,50]],"type":"Polygon","properties":{"STATEFP":"38","COUNTYFP":"053","COUNTYNS":"01035299","GEOIDFQ":"0500000US38053","GEOID":"38053","NAME":"McKenzie","NAMELSAD":"McKenzie County","STUSPS":"ND","STATE_NAME":"North Dakota","LSAD":"06","ALAND":7148711644,"AWATER":260120464},"id":"38053"},{"arcs":[[51,52,53,54,55]],"type":"Polygon","properties":{"STATEFP":"38","COUNTYFP":"077","COUNTYNS":"01035302","GEOIDFQ":"0500000US38077","GEOID":"38077","NAME":"Richland","NAMELSAD":"Richland County","STUSPS":"ND","STATE_NAME":"North Dakota","LSAD":"06","ALAND":3718378993,"AWATER":25035244},"id":"38077"},{"arcs":[[56,57,58,59]],"type":"Polygon","properties":{"STATEFP":"38","COUNTYFP":"031","COUNTYNS":"01034223","GEOIDFQ":"0500000US38031","GEOID":"38031","NAME":"Foster","NAMELSAD":"Foster County","STUSPS":"ND","STATE_NAME":"North Dakota","LSAD":"06","ALAND":1642258760,"AWATER":33103934},"id":"38031"},{"arcs":[[-41,60,-60,61,62,63,64]],"type":"Polygon","properties":{"STATEFP":"38","COUNTYFP":"103","COUNTYNS":"01034204","GEOIDFQ":"0500000US38103","GEOID":"38103","NAME":"Wells","NAMELSAD":"Wells County","STUSPS":"ND","STATE_NAME":"North Dakota","LSAD":"06","ALAND":3290670801,"AWATER":51160941},"id":"38103"},{"arcs":[[-31,65,66,67]],"type":"Polygon","properties":{"STATEFP":"38","COUNTYFP":"097","COUNTYNS":"01034221","GEOIDFQ":"0500000US38097","GEOID":"38097","NAME":"Traill","NAMELSAD":"Traill County","STUSPS":"ND","STATE_NAME":"North Dakota","LSAD":"06","ALAND":2232235425,"AWATER":1462184},"id":"38097"},{"arcs":[[-3,68,-7,69,70,71]],"type":"Polygon","properties":{"STATEFP":"38","COUNTYFP":"099","COUNTYNS":"01034214","GEOIDFQ":"0500000US38099","GEOID":"38099","NAME":"Walsh","NAMELSAD":"Walsh County","STUSPS":"ND","STATE_NAME":"North Dakota","LSAD":"06","ALAND":3319346398,"AWATER":32181390},"id":"38099"},{"arcs":[[-2,72,73,-8,-69]],"type":"Polygon","properties":{"STATEFP":"38","COUNTYFP":"019","COUNTYNS":"01035304","GEOIDFQ":"0500000US38019","GEOID":"38019","NAME":"Cavalier","NAMELSAD":"Cavalier County","STUSPS":"ND","STATE_NAME":"North Dakota","LSAD":"06","ALAND":3856816536,"AWATER":53639348},"id":"38019"},{"arcs":[[-14,74,-17,75,76]],"type":"Polygon","properties":{"STATEFP":"38","COUNTYFP":"057","COUNTYNS":"01034233","GEOIDFQ":"0500000US38057","GEOID":"38057","NAME":"Mercer","NAMELSAD":"Mercer County","STUSPS":"ND","STATE_NAME":"North Dakota","LSAD":"06","ALAND":2700792521,"AWATER":180821039},"id":"38057"},{"arcs":[[77,78,79,80,81]],"type":"Polygon","properties":{"STATEFP":"38","COUNTYFP":"075","COUNTYNS":"01034229","GEOIDFQ":"0500000US38075","GEOID":"38075","NAME":"Renville","NAMELSAD":"Renville County","STUSPS":"ND","STATE_NAME":"North Dakota","LSAD":"06","ALAND":2272050274,"AWATER":40658500},"id":"38075"},{"arcs":[[-25,82,83,-78,84,85]],"type":"Polygon","properties":{"STATEFP":"38","COUNTYFP":"013","COUNTYNS":"01034235","GEOIDFQ":"0500000US38013","GEOID":"38013","NAME":"Burke","NAMELSAD":"Burke County","STUSPS":"ND","STATE_NAME":"North Dakota","LSAD":"06","ALAND":2858360397,"AWATER":65734594},"id":"38013"},{"arcs":[[-1,-43,86,87,88,-73]],"type":"Polygon","properties":{"STATEFP":"38","COUNTYFP":"095","COUNTYNS":"01034213","GEOIDFQ":"0500000US38095","GEOID":"38095","NAME":"Towner","NAMELSAD":"Towner County","STUSPS":"ND","STATE_NAME":"North Dakota","LSAD":"06","ALAND":2655072411,"AWATER":42752343},"id":"38095"},{"arcs":[[-53,89,90,91]],"type":"Polygon","properties":{"STATEFP":"38","COUNTYFP":"081","COUNTYNS":"01035303","GEOIDFQ":"0500000US38081","GEOID":"38081","NAME":"Sargent","NAMELSAD":"Sargent County","STUSPS":"ND","STATE_NAME":"North Dakota","LSAD":"06","ALAND":2223480251,"AWATER":21713307},"id":"38081"},{"arcs":[[-12,92,93,94,-19,95]],"type":"Polygon","properties":{"STATEFP":"38","COUNTYFP":"015","COUNTYNS":"01035614","GEOIDFQ":"0500000US38015","GEOID":"38015","NAME":"Burleigh","NAMELSAD":"Burleigh County","STUSPS":"ND","STATE_NAME":"North Dakota","LSAD":"06","ALAND":4228659202,"AWATER":92691315},"id":"38015"},{"arcs":[[96,97,98,99,100]],"type":"Polygon","properties":{"STATEFP":"38","COUNTYFP":"051","COUNTYNS":"01034211","GEOIDFQ":"0500000US38051","GEOID":"38051","NAME":"McIntosh","NAMELSAD":"McIntosh County","STUSPS":"ND","STATE_NAME":"North Dakota","LSAD":"06","ALAND":2524106796,"AWATER":51795568},"id":"38051"},{"arcs":[[-91,101,-99,102,103]],"type":"Polygon","properties":{"STATEFP":"38","COUNTYFP":"021","COUNTYNS":"01035622","GEOIDFQ":"0500000US38021","GEOID":"38021","NAME":"Dickey","NAMELSAD":"Dickey County","STUSPS":"ND","STATE_NAME":"North Dakota","LSAD":"06","ALAND":2930554403,"AWATER":27619632},"id":"38021"},{"arcs":[[-63,104,105,106,-94,107]],"type":"Polygon","properties":{"STATEFP":"38","COUNTYFP":"043","COUNTYNS":"01034206","GEOIDFQ":"0500000US38043","GEOID":"38043","NAME":"Kidder","NAMELSAD":"Kidder County","STUSPS":"ND","STATE_NAME":"North Dakota","LSAD":"06","ALAND":3499233900,"AWATER":211737414},"id":"38043"},{"arcs":[[-33,108,109,110,111,112]],"type":"Polygon","properties":{"STATEFP":"38","COUNTYFP":"003","COUNTYNS":"01034225","GEOIDFQ":"0500000US38003","GEOID":"38003","NAME":"Barnes","NAMELSAD":"Barnes County","STUSPS":"ND","STATE_NAME":"North Dakota","LSAD":"06","ALAND":3863120964,"AWATER":56577969},"id":"38003"},{"arcs":[[-15,-77,113,114,-48,115]],"type":"Polygon","properties":{"STATEFP":"38","COUNTYFP":"025","COUNTYNS":"01035623","GEOIDFQ":"0500000US38025","GEOID":"38025","NAME":"Dunn","NAMELSAD":"Dunn County","STUSPS":"ND","STATE_NAME":"North Dakota","LSAD":"06","ALAND":5201969458,"AWATER":190528747},"id":"38025"},{"arcs":[[-24,116,-83]],"type":"Polygon","properties":{"STATEFP":"38","COUNTYFP":"023","COUNTYNS":"01034234","GEOIDFQ":"0500000US38023","GEOID":"38023","NAME":"Divide","NAMELSAD":"Divide County","STUSPS":"ND","STATE_NAME":"North Dakota","LSAD":"06","ALAND":3266310793,"AWATER":86676913},"id":"38023"},{"arcs":[[-34,-113,117,-58,118,119]],"type":"Polygon","properties":{"STATEFP":"38","COUNTYFP":"039","COUNTYNS":"01034219","GEOIDFQ":"0500000US38039","GEOID":"38039","NAME":"Griggs","NAMELSAD":"Griggs County","STUSPS":"ND","STATE_NAME":"North Dakota","LSAD":"06","ALAND":1835486232,"AWATER":20446712},"id":"38039"},{"arcs":[[-88,120,121,122]],"type":"Polygon","properties":{"STATEFP":"38","COUNTYFP":"079","COUNTYNS":"01034228","GEOIDFQ":"0500000US38079","GEOID":"38079","NAME":"Rolette","NAMELSAD":"Rolette County","STUSPS":"ND","STATE_NAME":"North Dakota","LSAD":"06","ALAND":2338867334,"AWATER":94423047},"id":"38079"},{"arcs":[[-45,123,124,125]],"type":"Polygon","properties":{"STATEFP":"38","COUNTYFP":"041","COUNTYNS":"01034209","GEOIDFQ":"0500000US38041","GEOID":"38041","NAME":"Hettinger","NAMELSAD":"Hettinger County","STUSPS":"ND","STATE_NAME":"North Dakota","LSAD":"06","ALAND":2932485805,"AWATER":4008872},"id":"38041"},{"arcs":[[-13,-96,-18,-75]],"type":"Polygon","properties":{"STATEFP":"38","COUNTYFP":"065","COUNTYNS":"01034205","GEOIDFQ":"0500000US38065","GEOID":"38065","NAME":"Oliver","NAMELSAD":"Oliver County","STUSPS":"ND","STATE_NAME":"North Dakota","LSAD":"06","ALAND":1871017446,"AWATER":22475760},"id":"38065"},{"arcs":[[-11,126,127,-64,-108,-93]],"type":"Polygon","properties":{"STATEFP":"38","COUNTYFP":"083","COUNTYNS":"01034203","GEOIDFQ":"0500000US38083","GEOID":"38083","NAME":"Sheridan","NAMELSAD":"Sheridan County","STUSPS":"ND","STATE_NAME":"North Dakota","LSAD":"06","ALAND":2518053313,"AWATER":86198847},"id":"38083"},{"arcs":[[-80,128,-122,129,130]],"type":"Polygon","properties":{"STATEFP":"38","COUNTYFP":"009","COUNTYNS":"01034227","GEOIDFQ":"0500000US38009","GEOID":"38009","NAME":"Bottineau","NAMELSAD":"Bottineau County","STUSPS":"ND","STATE_NAME":"North Dakota","LSAD":"06","ALAND":4322326018,"AWATER":74686137},"id":"38009"},{"arcs":[[-59,-118,-112,131,132,-105,-62]],"type":"Polygon","properties":{"STATEFP":"38","COUNTYFP":"093","COUNTYNS":"01034224","GEOIDFQ":"0500000US38093","GEOID":"38093","NAME":"Stutsman","NAMELSAD":"Stutsman County","STUSPS":"ND","STATE_NAME":"North Dakota","LSAD":"06","ALAND":5754703470,"AWATER":197271625},"id":"38093"},{"arcs":[[-40,133,-119,-57,-61]],"type":"Polygon","properties":{"STATEFP":"38","COUNTYFP":"027","COUNTYNS":"01034222","GEOIDFQ":"0500000US38027","GEOID":"38027","NAME":"Eddy","NAMELSAD":"Eddy County","STUSPS":"ND","STATE_NAME":"North Dakota","LSAD":"06","ALAND":1632310790,"AWATER":36012924},"id":"38027"},{"arcs":[[-10,134,-81,-131,135,-127]],"type":"Polygon","properties":{"STATEFP":"38","COUNTYFP":"049","COUNTYNS":"01035305","GEOIDFQ":"0500000US38049","GEOID":"38049","NAME":"McHenry","NAMELSAD":"McHenry County","STUSPS":"ND","STATE_NAME":"North Dakota","LSAD":"06","ALAND":4853487861,"AWATER":97323497},"id":"38049"},{"arcs":[[-9,136,-85,-82,-135]],"type":"Polygon","properties":{"STATEFP":"38","COUNTYFP":"101","COUNTYNS":"01034231","GEOIDFQ":"0500000US38101","GEOID":"38101","NAME":"Ward","NAMELSAD":"Ward County","STUSPS":"ND","STATE_NAME":"North Dakota","LSAD":"06","ALAND":5213721393,"AWATER":111242326},"id":"38101"},{"arcs":[[-23,-46,-126,137,138,-114,-76]],"type":"Polygon","properties":{"STATEFP":"38","COUNTYFP":"089","COUNTYNS":"01035618","GEOIDFQ":"0500000US38089","GEOID":"38089","NAME":"Stark","NAMELSAD":"Stark County","STUSPS":"ND","STATE_NAME":"North Dakota","LSAD":"06","ALAND":3457411411,"AWATER":14021458},"id":"38089"},{"arcs":[[-20,-95,-107,139,-101,140,-35]],"type":"Polygon","properties":{"STATEFP":"38","COUNTYFP":"029","COUNTYNS":"01035615","GEOIDFQ":"0500000US38029","GEOID":"38029","NAME":"Emmons","NAMELSAD":"Emmons County","STUSPS":"ND","STATE_NAME":"North Dakota","LSAD":"06","ALAND":3906739856,"AWATER":121497556},"id":"38029"},{"arcs":[[-125,141,142,143,144,145,-138]],"type":"Polygon","properties":{"STATEFP":"38","COUNTYFP":"087","COUNTYNS":"01035896","GEOIDFQ":"0500000US38087","GEOID":"38087","NAME":"Slope","NAMELSAD":"Slope County","STUSPS":"ND","STATE_NAME":"North Dakota","LSAD":"06","ALAND":3147520245,"AWATER":10980612},"id":"38087"},{"arcs":[[-50,146,-145,147]],"type":"Polygon","properties":{"STATEFP":"38","COUNTYFP":"033","COUNTYNS":"01035617","GEOIDFQ":"0500000US38033","GEOID":"38033","NAME":"Golden Valley","NAMELSAD":"Golden Valley County","STUSPS":"ND","STATE_NAME":"North Dakota","LSAD":"06","ALAND":2592286034,"AWATER":4143286},"id":"38033"},{"arcs":[[148,-143,149]],"type":"Polygon","properties":{"STATEFP":"38","COUNTYFP":"011","COUNTYNS":"01035619","GEOIDFQ":"0500000US38011","GEOID":"38011","NAME":"Bowman","NAMELSAD":"Bowman County","STUSPS":"ND","STATE_NAME":"North Dakota","LSAD":"06","ALAND":3009070648,"AWATER":13583664},"id":"38011"},{"arcs":[[-54,-92,-104,150,-110,151]],"type":"Polygon","properties":{"STATEFP":"38","COUNTYFP":"073","COUNTYNS":"01035301","GEOIDFQ":"0500000US38073","GEOID":"38073","NAME":"Ransom","NAMELSAD":"Ransom County","STUSPS":"ND","STATE_NAME":"North Dakota","LSAD":"06","ALAND":2233792810,"AWATER":3582338},"id":"38073"},{"arcs":[[-97,-140,-106,-133,152]],"type":"Polygon","properties":{"STATEFP":"38","COUNTYFP":"047","COUNTYNS":"01035620","GEOIDFQ":"0500000US38047","GEOID":"38047","NAME":"Logan","NAMELSAD":"Logan County","STUSPS":"ND","STATE_NAME":"North Dakota","LSAD":"06","ALAND":2570819013,"AWATER":47710154},"id":"38047"},{"arcs":[[-16,-116,-47,-26,-86,-137]],"type":"Polygon","properties":{"STATEFP":"38","COUNTYFP":"061","COUNTYNS":"01035307","GEOIDFQ":"0500000US38061","GEOID":"38061","NAME":"Mountrail","NAMELSAD":"Mountrail County","STUSPS":"ND","STATE_NAME":"North Dakota","LSAD":"06","ALAND":4727150574,"AWATER":301102217},"id":"38061"},{"arcs":[[-49,-115,-139,-146,-147]],"type":"Polygon","properties":{"STATEFP":"38","COUNTYFP":"007","COUNTYNS":"01035616","GEOIDFQ":"0500000US38007","GEOID":"38007","NAME":"Billings","NAMELSAD":"Billings County","STUSPS":"ND","STATE_NAME":"North Dakota","LSAD":"06","ALAND":2974571266,"AWATER":11986464},"id":"38007"},{"arcs":[[-42,-65,-128,-136,-130,-121,-87]],"type":"Polygon","properties":{"STATEFP":"38","COUNTYFP":"069","COUNTYNS":"01034230","GEOIDFQ":"0500000US38069","GEOID":"38069","NAME":"Pierce","NAMELSAD":"Pierce County","STUSPS":"ND","STATE_NAME":"North Dakota","LSAD":"06","ALAND":2637345078,"AWATER":166227811},"id":"38069"},{"arcs":[[-98,-153,-132,-111,-151,-103]],"type":"Polygon","properties":{"STATEFP":"38","COUNTYFP":"045","COUNTYNS":"01035621","GEOIDFQ":"0500000US38045","GEOID":"38045","NAME":"LaMoure","NAMELSAD":"LaMoure County","STUSPS":"ND","STATE_NAME":"North Dakota","LSAD":"06","ALAND":2968139581,"AWATER":12824671},"id":"38045"},{"arcs":[[-4,-72,153,-29,-120,-134,-39]],"type":"Polygon","properties":{"STATEFP":"38","COUNTYFP":"063","COUNTYNS":"01034217","GEOIDFQ":"0500000US38063","GEOID":"38063","NAME":"Nelson","NAMELSAD":"Nelson County","STUSPS":"ND","STATE_NAME":"North Dakota","LSAD":"06","ALAND":2542889240,"AWATER":70073746},"id":"38063"},{"arcs":[[-32,-68,154,-55,-152,-109]],"type":"Polygon","properties":{"STATEFP":"38","COUNTYFP":"017","COUNTYNS":"01034226","GEOIDFQ":"0500000US38017","GEOID":"38017","NAME":"Cass","NAMELSAD":"Cass County","STUSPS":"ND","STATE_NAME":"North Dakota","LSAD":"06","ALAND":4571159605,"AWATER":7449098},"id":"38017"},{"arcs":[[-30,-154,-71,155,-66]],"type":"Polygon","properties":{"STATEFP":"38","COUNTYFP":"035","COUNTYNS":"01034218","GEOIDFQ":"0500000US38035","GEOID":"38035","NAME":"Grand Forks","NAMELSAD":"Grand Forks County","STUSPS":"ND","STATE_NAME":"North Dakota","LSAD":"06","ALAND":3719781797,"AWATER":8292175},"id":"38035"},{"arcs":[[-37,156,-150,-142,-124,-44]],"type":"Polygon","properties":{"STATEFP":"38","COUNTYFP":"001","COUNTYNS":"01034210","GEOIDFQ":"0500000US38001","GEOID":"38001","NAME":"Adams","NAMELSAD":"Adams County","STUSPS":"ND","STATE_NAME":"North Dakota","LSAD":"06","ALAND":2557733898,"AWATER":2894336},"id":"38001"}]}}}