{"type":"Topology","arcs":[[[478,4205],[266,1],[193,2]],[[937,4208],[0,-100]],[[937,4108],[0,-117],[2,-219]],[[939,3772],[-347,-3]],[[592,3769],[1,238],[-1,120],[-113,-1]],[[479,4126],[-1,79]],[[1,1231],[177,-1],[12,10],[68,-5],[39,-7],[19,4],[75,-10],[38,-2],[38,-7]],[[467,1213],[56,-1],[35,-4],[3,-24]],[[561,1184],[-34,-30],[-6,-19],[-21,-16],[11,-20],[25,6],[8,-13],[-23,-41],[-21,-207]],[[500,844],[-26,21],[-61,12],[-23,17],[-3,49],[-12,27],[-25,10],[-36,-36],[-18,-4],[-27,10],[-21,-24],[-36,-12],[-15,2],[-27,23],[-40,17],[-28,45],[-36,13],[-30,-39],[-36,-17],[1,273]],[[2086,4366],[12,18],[41,-7],[-4,-32],[-39,11],[-10,10]],[[2472,4127],[6,-196]],[[2478,3931],[-100,-1],[-219,4],[-180,5]],[[1979,3939],[-6,191],[-55,0]],[[1918,4130],[65,27],[25,27],[46,-33],[36,6],[29,18],[28,-13],[-8,32],[80,-79],[38,-24],[51,-26],[31,-2],[50,21],[68,41],[15,2]],[[1057,4530],[308,13],[-12,-14],[-10,-33],[22,-1],[32,-12],[30,4],[14,-9],[28,2],[15,25],[128,-95],[39,-17]],[[1651,4393],[-247,-5]],[[1404,4388],[-154,-3],[-42,-63],[-13,-1],[-40,-29],[-29,-14],[-15,-21],[-2,-38],[-21,-15],[-22,-30],[-19,1],[-7,-18],[-26,-19],[-39,-15],[-9,-15],[-29,0]],[[937,4208],[1,177],[5,0],[-3,140]],[[940,4525],[117,5]],[[1651,4393],[34,-11],[32,-3],[28,-17],[37,-52],[69,-52],[43,-14],[38,11],[31,34],[4,50],[20,5],[12,-22],[36,-42],[35,8],[30,-5],[8,-20],[-14,-22],[-21,1],[-18,-13],[-41,5],[-15,-21],[-23,15],[-39,-18],[-76,-1],[-15,-29],[-27,-6],[-8,9],[-29,-16]],[[1782,4167],[-144,1],[-156,-1],[-1,60],[-75,-2]],[[1406,4225],[-2,163]],[[1977,4425],[9,14],[22,-3],[-14,-28],[-17,17]],[[2013,743],[8,120],[14,181]],[[2035,1044],[19,-1],[4,55]],[[2058,1098],[112,-8],[-1,-17],[77,-6],[38,-6],[-4,-50],[116,-9],[-11,-140]],[[2385,862],[-4,-69],[-16,-191],[-119,12],[-1,-12]],[[2245,602],[-75,6]],[[2170,608],[-110,8],[7,124],[-54,3]],[[2852,4232],[24,-17],[81,-14],[51,18],[31,0],[37,-12],[35,20],[21,23],[61,35],[28,23],[70,72],[41,24]],[[3332,4404],[1,-83],[97,-1]],[[3430,4320],[-1,-170],[17,0],[0,-28],[-17,0],[0,-104]],[[3429,4018],[-206,4],[12,-58],[13,-11],[9,-30],[-121,-2]],[[3136,3921],[-194,-3]],[[2942,3918],[2,103],[-95,1],[3,210]],[[3699,1439],[-17,-19],[-32,-7],[-15,-11],[-38,-61],[-18,6],[-29,-6],[-27,-16],[-50,-39],[-24,-5],[-24,18],[-11,45],[-22,23],[-28,6],[-17,-13],[-30,-37],[-39,-27],[-15,-20],[-13,-97],[-38,12],[-48,2],[-22,-5],[-18,-23],[5,-40],[-34,-16]],[[3095,1109],[4,73],[-97,4],[2,40],[-19,1],[1,20],[-19,1],[9,180]],[[2976,1428],[19,-1],[2,61],[40,-2],[23,-13],[52,-3],[3,69],[-17,0],[-1,22],[9,50],[26,9],[100,-5]],[[3232,1615],[115,-5],[0,86],[22,-1],[-1,-20],[39,-1],[0,-20],[19,0],[0,-19],[38,-1],[0,-10],[73,-2],[1,19]],[[3538,1641],[18,-1],[-1,-39],[19,3],[210,-9],[-2,-44]],[[3782,1551],[-32,-33],[-30,-39],[-21,-40]],[[3987,1798],[0,-24],[-28,-13],[-5,-56],[-14,-44],[-37,-3],[-26,-16],[-95,-91]],[[3538,1641],[2,138],[-39,1],[6,220],[76,-2]],[[3583,1998],[87,-3],[134,-8],[112,-9],[83,-4]],[[3999,1974],[-5,-11],[4,-41],[-3,-18],[-37,-32],[-3,-30],[32,-44]],[[3818,4227],[192,-1],[192,-3],[99,1]],[[4301,4224],[0,-14],[1,-328],[0,-157]],[[4302,3725],[-339,1],[-145,0]],[[3818,3726],[-1,291]],[[3817,4017],[1,210]],[[818,2838],[8,-1],[0,72],[86,0],[28,4]],[[940,2913],[0,-9],[361,-30],[-1,-8]],[[1300,2866],[-31,-375]],[[1269,2491],[-234,22],[1,20],[-231,19]],[[805,2552],[12,53],[1,107],[0,126]],[[4302,3725],[0,-11],[-1,-307]],[[4301,3407],[-112,-1],[-190,2],[0,39],[-74,1],[0,-40],[-191,1]],[[3734,3409],[0,118]],[[3734,3527],[85,-1],[-1,200]],[[2058,1098],[14,219]],[[2072,1317],[113,-9],[1,19],[117,-9],[3,36],[225,-16]],[[2531,1338],[-9,-121],[38,-3],[-8,-122]],[[2552,1092],[-38,3],[-16,-243]],[[2498,852],[-113,10]],[[805,2552],[-8,-123]],[[797,2429],[-196,16],[1,6],[-214,-4]],[[388,2447],[-2,215]],[[386,2662],[0,33],[96,0],[-1,140],[232,3],[105,0]],[[17,3437],[0,91]],[[17,3528],[404,2]],[[421,3530],[1,-119],[57,0],[1,-60]],[[480,3351],[0,-59],[-57,0],[0,-179]],[[423,3113],[-59,0]],[[364,3113],[0,59],[-178,-1],[-168,1]],[[18,3172],[-1,265]],[[1553,293],[-27,-29],[-23,17],[-5,29],[-18,21],[-26,17],[-102,23],[-18,20],[-35,18],[-28,-6],[-78,-26],[-10,-18],[-8,-41],[-26,-12],[-34,17]],[[1115,323],[2,60],[17,250],[13,209]],[[1147,842],[62,-2],[96,23],[130,27]],[[1435,890],[71,-5],[6,-16],[38,-33]],[[1550,836],[2,-182],[0,-360],[1,-1]],[[2478,3931],[2,-100],[0,-112],[4,-86]],[[2484,3633],[-100,-1],[4,-99]],[[2388,3533],[-292,4]],[[2096,3537],[-105,1]],[[1991,3538],[-11,353]],[[1980,3891],[-1,48]],[[769,2015],[15,218]],[[784,2233],[238,-18],[166,-14],[116,-8]],[[1304,2193],[4,-1],[-41,-176],[-37,-153],[-57,6]],[[1173,1869],[-94,11],[2,11],[-90,12],[2,33],[-114,9],[1,20],[-113,10]],[[767,1975],[2,40]],[[1800,2770],[4,70],[58,8],[1,211],[98,1],[1,80]],[[1962,3140],[0,10],[131,-1]],[[2093,3149],[100,-3],[1,-59],[-19,1],[1,-40],[20,0],[1,-119]],[[2197,2929],[-19,0],[9,-37],[-13,-243],[-99,6]],[[2075,2655],[-184,12],[5,78],[-98,5],[2,20]],[[1300,2866],[102,2]],[[1402,2868],[170,2],[0,-86]],[[1572,2784],[-1,-85],[1,-187],[76,0],[2,-138]],[[1650,2374],[0,-49],[-36,1]],[[1614,2326],[-297,5]],[[1317,2331],[9,155],[-57,5]],[[2388,3533],[15,0],[1,-157],[0,-86],[28,-9],[10,-28],[0,-82],[39,-1],[3,-234]],[[2484,2936],[-38,-6],[-249,-1]],[[2093,3149],[3,299],[0,89]],[[2035,1044],[-290,21],[-183,13],[-95,6]],[[1467,1084],[10,48],[-38,23],[-12,23],[12,16],[-2,25],[3,82],[8,28]],[[1448,1329],[106,190]],[[1554,1519],[274,-14],[12,-22],[-18,-14],[248,-16],[10,0]],[[2080,1453],[-8,-136]],[[2636,2801],[291,-11],[184,-5]],[[3111,2785],[-3,-101],[96,-3],[-6,-201]],[[3198,2480],[-45,2],[-3,-97],[-46,1]],[[3104,2386],[0,1],[-376,13],[-95,6]],[[2633,2406],[5,98],[-13,1]],[[2625,2505],[11,296]],[[1650,2374],[409,-24]],[[2059,2350],[-12,-204],[-9,-50]],[[2038,2096],[-28,2],[-3,-40],[19,-1],[-8,-120],[-19,2],[-3,-40]],[[1996,1899],[-213,14],[-131,5],[-75,5]],[[1577,1923],[-9,143],[27,20],[-16,28],[-9,42],[-11,26],[10,8],[-2,56],[41,-2],[6,82]],[[1448,1329],[-219,2]],[[1229,1331],[15,226],[-94,8]],[[1150,1565],[17,227]],[[1167,1792],[193,-16],[208,-13]],[[1568,1763],[-14,-244]],[[1406,4225],[-1,-98],[-5,-238]],[[1400,3889],[-1,-119]],[[1399,3770],[-79,-1],[-227,4],[-154,-1]],[[1173,1869],[-6,-77]],[[1150,1565],[-307,26]],[[843,1591],[-137,12]],[[706,1603],[9,175],[12,180],[38,-3],[2,20]],[[1317,2331],[-13,-138]],[[784,2233],[13,196]],[[2498,852],[-1,-20],[228,-14],[-3,-61]],[[2722,757],[-13,-35],[-32,-47],[4,-45],[-5,-33],[-17,-22],[-30,-13],[-26,-27],[1,-37],[18,-14],[16,-67],[-8,-39],[18,-74],[-5,-30],[-11,-12],[-30,-5],[-27,9],[-29,-6],[-13,-15]],[[2533,245],[-74,3],[7,124],[-118,9],[6,81],[-20,2],[3,40],[-99,9],[7,89]],[[1147,842],[-144,0],[-55,1],[4,113],[3,196]],[[955,1152],[31,-3],[-2,-30],[28,2],[23,52],[194,158]],[[1467,1084],[-32,-194]],[[2013,743],[-163,10],[-242,7],[-3,43],[-23,19],[-32,14]],[[1980,3891],[-291,2],[-85,-5],[-107,3],[-97,-2]],[[1782,4167],[35,-28],[27,23],[19,-39],[32,-9],[23,16]],[[3503,3067],[76,-1],[4,100],[39,7],[111,-2]],[[3733,3171],[170,-1],[0,-114],[57,-1],[-1,-59]],[[3959,2996],[-2,-60],[-57,2],[-4,-121],[-16,1],[-1,-60]],[[3879,2758],[-158,6],[-113,6],[-57,0]],[[3551,2770],[5,179],[-57,3],[4,115]],[[1399,3770],[1,-238]],[[1400,3532],[-38,-1],[1,-58],[-19,-1],[0,-59],[-38,0],[-2,-118]],[[1304,3295],[-135,2],[-229,0]],[[940,3297],[0,137]],[[940,3434],[-1,338]],[[3232,1615],[2,105],[-57,2],[4,120],[-58,3]],[[3123,1845],[3,119]],[[3126,1964],[114,-5],[2,80],[114,-4],[2,39],[76,-3],[1,40],[38,4],[114,-3]],[[3587,2112],[-4,-114]],[[940,2913],[0,145]],[[940,3058],[0,239]],[[1304,3295],[20,-1],[1,-158],[55,1],[0,-20],[20,-1]],[[1400,3116],[0,-137],[5,-97],[-3,-14]],[[769,2015],[-106,8],[-10,36],[10,14],[-269,-4]],[[394,2069],[0,70],[-6,308]],[[940,3434],[-115,-1],[0,-20],[-114,0],[0,-60],[-116,-2],[-115,0]],[[421,3530],[57,0],[1,239]],[[479,3769],[113,0]],[[3879,2758],[76,-2],[-6,-60],[-11,-300]],[[3938,2396],[-229,12],[0,4],[-114,2],[0,-3]],[[3595,2411],[-114,2],[2,58]],[[3483,2471],[3,123],[59,-1],[6,177]],[[17,3528],[0,359]],[[17,3887],[244,1],[102,1],[0,-60],[116,-1],[0,-59]],[[706,1603],[-171,16],[-80,-1]],[[455,1618],[-114,3]],[[341,1621],[-6,446]],[[335,2067],[59,2]],[[3104,2386],[-12,-301],[37,-1],[-3,-120]],[[3123,1845],[-379,21]],[[2744,1866],[4,62],[-98,6],[8,121],[-71,5]],[[2587,2060],[2,52],[33,-1],[11,295]],[[2484,2936],[116,18]],[[2600,2954],[42,6],[-6,-159]],[[2625,2505],[-122,0],[-160,9],[1,26],[-274,16]],[[2070,2556],[5,99]],[[386,2662],[-21,6],[0,146],[-1,299]],[[423,3113],[174,1],[0,-39],[115,1],[0,-20],[228,2]],[[955,1152],[-125,9]],[[830,1161],[-17,1]],[[813,1162],[10,131],[20,298]],[[3111,2785],[40,-1],[7,250],[13,10]],[[3171,3044],[180,28],[152,-5]],[[3483,2471],[-285,9]],[[2691,3532],[301,-5],[140,0]],[[3132,3527],[41,0],[0,-101]],[[3173,3426],[-1,-336]],[[3172,3090],[-283,-1],[-195,1]],[[2694,3090],[-1,186],[2,112],[-2,20],[-2,124]],[[1,1231],[4,295],[0,63]],[[5,1589],[52,-2],[284,3],[0,31]],[[455,1618],[1,-62],[32,5],[-8,-124],[3,-1],[-16,-223]],[[3429,4018],[-2,-491]],[[3427,3527],[-23,0],[-4,-112],[-227,11]],[[3132,3527],[4,394]],[[3595,2411],[-8,-299]],[[3430,4320],[95,0],[1,97],[193,1],[-1,99],[100,1]],[[3818,4518],[0,-291]],[[3817,4017],[-295,0],[-93,1]],[[2533,245],[-6,-14],[-2,-46],[-7,-21],[-2,-37],[-20,-64],[-16,-12],[-49,-8],[-15,6],[-103,-39],[-42,-10],[-22,3],[-22,22],[-11,52],[-9,20],[-24,14],[-28,29],[-25,41],[-34,30],[-55,2],[-37,16]],[[2004,229],[76,36],[-26,64],[3,49],[57,-4],[5,18],[6,81],[33,-3],[3,20],[9,118]],[[1577,1923],[-9,-160]],[[1996,1899],[-13,-199],[3,0],[-9,-120],[112,-9]],[[2089,1571],[-9,-118]],[[1115,323],[-15,9],[-42,8],[-10,8],[-11,51],[-39,19],[-18,17],[-6,28],[-13,19],[-45,16],[-23,5],[-17,16],[-35,5],[-65,-23],[-8,1]],[[768,502],[26,283],[21,207],[15,169]],[[1800,2770],[-140,7],[-88,7]],[[1400,3116],[116,0],[0,20],[193,2]],[[1709,3138],[154,0],[99,2]],[[2691,3532],[-44,0],[2,98]],[[2649,3630],[2,100],[95,-1],[2,87],[99,-1],[1,103],[94,0]],[[2484,3633],[165,-3]],[[2694,3090],[-95,-1],[1,-135]],[[2587,2060],[-185,13],[-44,11]],[[2358,2084],[-11,-8],[-208,13],[-101,7]],[[2059,2350],[11,206]],[[561,1184],[252,-22]],[[768,502],[-19,-1],[-38,12],[-47,21],[-57,15],[-17,30],[-2,64],[-2,26],[-23,40],[-31,45],[-16,69],[-16,21]],[[3818,4518],[0,189]],[[3818,4707],[102,21],[57,28],[18,6],[25,22],[28,-2],[25,11],[36,8],[58,25],[23,4],[111,46],[0,-174],[0,-478]],[[17,3887],[0,25],[-1,212]],[[16,4124],[463,2]],[[2472,4127],[57,0],[37,8],[77,51],[58,23],[107,37],[44,-14]],[[3095,1109],[-16,-36],[-14,-12]],[[3065,1061],[-294,16],[-219,15]],[[2531,1338],[9,121],[113,-9],[8,124]],[[2661,1574],[112,-8]],[[2773,1566],[-8,-124],[211,-14]],[[3734,3409],[-1,-238]],[[3171,3044],[1,46]],[[3427,3527],[307,0]],[[16,4124],[-1,142],[-1,227],[56,2],[351,11]],[[421,4506],[1,-121],[17,-1],[0,-140],[39,0],[0,-39]],[[16,2660],[2,299],[0,213]],[[386,2662],[-166,-4],[-204,2]],[[5,1589],[1,217],[2,259]],[[8,2065],[216,0],[111,2]],[[421,4506],[39,1],[226,9],[254,9]],[[1709,3138],[-1,396]],[[1708,3534],[259,0],[24,4]],[[2004,229],[-31,33],[-8,35],[-1,34],[-7,32],[-14,29],[8,51],[-10,32],[-15,7],[-49,-18],[-36,-24],[-32,6],[-20,-6],[-22,-41],[-31,-20],[-18,-5],[-20,-25],[-13,-37],[-18,-18],[-50,-3],[-42,16],[-22,-14]],[[1400,3532],[308,2]],[[3332,4404],[46,57],[54,47],[102,71],[24,-2],[39,14],[95,58],[126,58]],[[2744,1866],[-4,-59],[56,-4],[-15,-238],[-8,1]],[[2661,1574],[-104,7],[2,39],[-118,8],[5,80]],[[2446,1708],[8,119],[-38,3],[8,121],[-76,5],[10,128]],[[4301,3407],[1,-67],[0,-290],[-58,-33],[-22,15],[-36,-13],[-33,-46]],[[4153,2973],[-80,1],[1,19],[-115,3]],[[4153,2973],[40,-63],[10,-47],[18,-26],[1,-33],[-13,-28],[0,-46],[-18,-13],[22,-34],[-5,-30],[13,-41],[-15,-35],[-8,-41],[-22,-15],[-17,-29],[-6,-41],[-14,-19],[-21,-39]],[[4118,2393],[-63,4],[-1,-7],[-116,6]],[[16,2602],[0,58]],[[8,2065],[1,120],[7,417]],[[2446,1708],[-116,9],[-6,-80],[-121,8],[-3,-61],[-110,7],[-1,-20]],[[4118,2393],[-7,-26],[-1,-53],[-28,-32],[8,-36],[-3,-22],[-8,-38],[2,-47],[-25,-33],[9,-41],[-13,-10],[-35,13],[-5,-21],[19,-43],[-10,-18],[-22,-12]],[[3065,1061],[11,-44],[2,-57],[-5,-16],[-28,-23],[-32,8],[-4,-33],[8,-17],[39,-44],[-17,-69],[25,-42],[-29,-10],[-29,27],[-17,-4],[-13,-20],[-4,-37],[-10,-16],[-31,-21],[-19,5],[-18,18],[0,14],[27,32],[-1,17],[-33,68],[-18,12],[-26,-5],[-17,41],[-28,9],[-15,-7],[-14,-40],[-38,-26],[-9,-24]]],"transform":{"scale":[0.0009998754067875397,0.0007329700574241184],"translate":[-84.820157,38.403202]},"objects":{"39":{"type":"GeometryCollection","geometries":[{"arcs":[[0,1,2,3,4,5]],"type":"Polygon","properties":{"STATEFP":"39","COUNTYFP":"069","COUNTYNS":"01074047","GEOIDFQ":"0500000US39069","GEOID":"39069","NAME":"Henry","NAMELSAD":"Henry County","STUSPS":"OH","STATE_NAME":"Ohio","LSAD":"06","ALAND":1077469004,"AWATER":9680060},"id":"39069"},{"arcs":[[6,7,8,9]],"type":"Polygon","properties":{"STATEFP":"39","COUNTYFP":"061","COUNTYNS":"01074043","GEOIDFQ":"0500000US39061","GEOID":"39061","NAME":"Hamilton","NAMELSAD":"Hamilton County","STUSPS":"OH","STATE_NAME":"Ohio","LSAD":"06","ALAND":1050120459,"AWATER":18612564},"id":"39061"},{"arcs":[[[10]],[[11,12,13,14]]],"type":"MultiPolygon","properties":{"STATEFP":"39","COUNTYFP":"043","COUNTYNS":"01074034","GEOIDFQ":"0500000US39043","GEOID":"39043","NAME":"Erie","NAMELSAD":"Erie County","STUSPS":"OH","STATE_NAME":"Ohio","LSAD":"06","ALAND":650833153,"AWATER":969939816},"id":"39043"},{"arcs":[[15,16,17,-2,18,19]],"type":"Polygon","properties":{"STATEFP":"39","COUNTYFP":"095","COUNTYNS":"01074060","GEOIDFQ":"0500000US39095","GEOID":"39095","NAME":"Lucas","NAMELSAD":"Lucas County","STUSPS":"OH","STATE_NAME":"Ohio","LSAD":"06","ALAND":879736348,"AWATER":663476626},"id":"39095"},{"arcs":[[[-17,20,21,22]],[[23]]],"type":"MultiPolygon","properties":{"STATEFP":"39","COUNTYFP":"123","COUNTYNS":"01074074","GEOIDFQ":"0500000US39123","GEOID":"39123","NAME":"Ottawa","NAMELSAD":"Ottawa County","STUSPS":"OH","STATE_NAME":"Ohio","LSAD":"06","ALAND":659630330,"AWATER":855711441},"id":"39123"},{"arcs":[[24,25,26,27,28,29]],"type":"Polygon","properties":{"STATEFP":"39","COUNTYFP":"079","COUNTYNS":"01074052","GEOIDFQ":"0500000US39079","GEOID":"39079","NAME":"Jackson","NAMELSAD":"Jackson County","STUSPS":"OH","STATE_NAME":"Ohio","LSAD":"06","ALAND":1088598927,"AWATER":3167846},"id":"39079"},{"arcs":[[30,31,32,33,34,35]],"type":"Polygon","properties":{"STATEFP":"39","COUNTYFP":"035","COUNTYNS":"01074030","GEOIDFQ":"0500000US39035","GEOID":"39035","NAME":"Cuyahoga","NAMELSAD":"Cuyahoga County","STUSPS":"OH","STATE_NAME":"Ohio","LSAD":"06","ALAND":1184224634,"AWATER":2041679906},"id":"39035"},{"arcs":[[36,37,38,39,40,41]],"type":"Polygon","properties":{"STATEFP":"39","COUNTYFP":"167","COUNTYNS":"01074095","GEOIDFQ":"0500000US39167","GEOID":"39167","NAME":"Washington","NAMELSAD":"Washington County","STUSPS":"OH","STATE_NAME":"Ohio","LSAD":"06","ALAND":1637293170,"AWATER":20665052},"id":"39167"},{"arcs":[[42,-41,43,44,45]],"type":"Polygon","properties":{"STATEFP":"39","COUNTYFP":"111","COUNTYNS":"01074068","GEOIDFQ":"0500000US39111","GEOID":"39111","NAME":"Monroe","NAMELSAD":"Monroe County","STUSPS":"OH","STATE_NAME":"Ohio","LSAD":"06","ALAND":1179949519,"AWATER":4488375},"id":"39111"},{"arcs":[[46,47,48,49,50]],"type":"Polygon","properties":{"STATEFP":"39","COUNTYFP":"155","COUNTYNS":"01074089","GEOIDFQ":"0500000US39155","GEOID":"39155","NAME":"Trumbull","NAMELSAD":"Trumbull County","STUSPS":"OH","STATE_NAME":"Ohio","LSAD":"06","ALAND":1599556452,"AWATER":47773885},"id":"39155"},{"arcs":[[51,52,53,54,55]],"type":"Polygon","properties":{"STATEFP":"39","COUNTYFP":"091","COUNTYNS":"01074058","GEOIDFQ":"0500000US39091","GEOID":"39091","NAME":"Logan","NAMELSAD":"Logan County","STUSPS":"OH","STATE_NAME":"Ohio","LSAD":"06","ALAND":1187529021,"AWATER":21588083},"id":"39091"},{"arcs":[[-49,56,57,58,59]],"type":"Polygon","properties":{"STATEFP":"39","COUNTYFP":"099","COUNTYNS":"01074062","GEOIDFQ":"0500000US39099","GEOID":"39099","NAME":"Mahoning","NAMELSAD":"Mahoning County","STUSPS":"OH","STATE_NAME":"Ohio","LSAD":"06","ALAND":1065833169,"AWATER":35542847},"id":"39099"},{"arcs":[[-27,60,61,62,63,64]],"type":"Polygon","properties":{"STATEFP":"39","COUNTYFP":"163","COUNTYNS":"01074093","GEOIDFQ":"0500000US39163","GEOID":"39163","NAME":"Vinton","NAMELSAD":"Vinton County","STUSPS":"OH","STATE_NAME":"Ohio","LSAD":"06","ALAND":1068008168,"AWATER":6781751},"id":"39163"},{"arcs":[[-56,65,66,67,68]],"type":"Polygon","properties":{"STATEFP":"39","COUNTYFP":"149","COUNTYNS":"01074087","GEOIDFQ":"0500000US39149","GEOID":"39149","NAME":"Shelby","NAMELSAD":"Shelby County","STUSPS":"OH","STATE_NAME":"Ohio","LSAD":"06","ALAND":1055914218,"AWATER":7811001},"id":"39149"},{"arcs":[[69,70,71,72,73,74,75]],"type":"Polygon","properties":{"STATEFP":"39","COUNTYFP":"161","COUNTYNS":"01074092","GEOIDFQ":"0500000US39161","GEOID":"39161","NAME":"Van Wert","NAMELSAD":"Van Wert County","STUSPS":"OH","STATE_NAME":"Ohio","LSAD":"06","ALAND":1059692858,"AWATER":3287921},"id":"39161"},{"arcs":[[76,77,78,79,80]],"type":"Polygon","properties":{"STATEFP":"39","COUNTYFP":"001","COUNTYNS":"01074014","GEOIDFQ":"0500000US39001","GEOID":"39001","NAME":"Adams","NAMELSAD":"Adams County","STUSPS":"OH","STATE_NAME":"Ohio","LSAD":"06","ALAND":1512221260,"AWATER":6250109},"id":"39001"},{"arcs":[[-13,81,82,83,84,85,86]],"type":"Polygon","properties":{"STATEFP":"39","COUNTYFP":"077","COUNTYNS":"01074051","GEOIDFQ":"0500000US39077","GEOID":"39077","NAME":"Huron","NAMELSAD":"Huron County","STUSPS":"OH","STATE_NAME":"Ohio","LSAD":"06","ALAND":1274906336,"AWATER":8626249},"id":"39077"},{"arcs":[[87,88,89,90,91]],"type":"Polygon","properties":{"STATEFP":"39","COUNTYFP":"023","COUNTYNS":"01074024","GEOIDFQ":"0500000US39023","GEOID":"39023","NAME":"Clark","NAMELSAD":"Clark County","STUSPS":"OH","STATE_NAME":"Ohio","LSAD":"06","ALAND":1025322039,"AWATER":14608568},"id":"39023"},{"arcs":[[92,93,94,95,96]],"type":"Polygon","properties":{"STATEFP":"39","COUNTYFP":"117","COUNTYNS":"01074071","GEOIDFQ":"0500000US39117","GEOID":"39117","NAME":"Morrow","NAMELSAD":"Morrow County","STUSPS":"OH","STATE_NAME":"Ohio","LSAD":"06","ALAND":1051881044,"AWATER":2819351},"id":"39117"},{"arcs":[[-54,97,98,99,100,101,102]],"type":"Polygon","properties":{"STATEFP":"39","COUNTYFP":"159","COUNTYNS":"01074091","GEOIDFQ":"0500000US39159","GEOID":"39159","NAME":"Union","NAMELSAD":"Union County","STUSPS":"OH","STATE_NAME":"Ohio","LSAD":"06","ALAND":1118131407,"AWATER":13415724},"id":"39159"},{"arcs":[[-84,103,104,-95,105]],"type":"Polygon","properties":{"STATEFP":"39","COUNTYFP":"139","COUNTYNS":"01074082","GEOIDFQ":"0500000US39139","GEOID":"39139","NAME":"Richland","NAMELSAD":"Richland County","STUSPS":"OH","STATE_NAME":"Ohio","LSAD":"06","ALAND":1282631596,"AWATER":12560134},"id":"39139"},{"arcs":[[-26,106,107,108,109,110,-61]],"type":"Polygon","properties":{"STATEFP":"39","COUNTYFP":"141","COUNTYNS":"01074083","GEOIDFQ":"0500000US39141","GEOID":"39141","NAME":"Ross","NAMELSAD":"Ross County","STUSPS":"OH","STATE_NAME":"Ohio","LSAD":"06","ALAND":1784931095,"AWATER":9994410},"id":"39141"},{"arcs":[[111,112,113,114,115,116]],"type":"Polygon","properties":{"STATEFP":"39","COUNTYFP":"031","COUNTYNS":"01074028","GEOIDFQ":"0500000US39031","GEOID":"39031","NAME":"Coshocton","NAMELSAD":"Coshocton County","STUSPS":"OH","STATE_NAME":"Ohio","LSAD":"06","ALAND":1460521586,"AWATER":9127208},"id":"39031"},{"arcs":[[-101,117,118,119,120,121]],"type":"Polygon","properties":{"STATEFP":"39","COUNTYFP":"049","COUNTYNS":"01074037","GEOIDFQ":"0500000US39049","GEOID":"39049","NAME":"Franklin","NAMELSAD":"Franklin County","STUSPS":"OH","STATE_NAME":"Ohio","LSAD":"06","ALAND":1378952503,"AWATER":29018708},"id":"39049"},{"arcs":[[-109,122,123,124,125,126]],"type":"Polygon","properties":{"STATEFP":"39","COUNTYFP":"047","COUNTYNS":"01074036","GEOIDFQ":"0500000US39047","GEOID":"39047","NAME":"Fayette","NAMELSAD":"Fayette County","STUSPS":"OH","STATE_NAME":"Ohio","LSAD":"06","ALAND":1052469886,"AWATER":1694038},"id":"39047"},{"arcs":[[-3,-18,-23,127,128,129]],"type":"Polygon","properties":{"STATEFP":"39","COUNTYFP":"173","COUNTYNS":"01074098","GEOIDFQ":"0500000US39173","GEOID":"39173","NAME":"Wood","NAMELSAD":"Wood County","STUSPS":"OH","STATE_NAME":"Ohio","LSAD":"06","ALAND":1598454612,"AWATER":8706879},"id":"39173"},{"arcs":[[-91,130,-125,131,132,133]],"type":"Polygon","properties":{"STATEFP":"39","COUNTYFP":"057","COUNTYNS":"01074041","GEOIDFQ":"0500000US39057","GEOID":"39057","NAME":"Greene","NAMELSAD":"Greene County","STUSPS":"OH","STATE_NAME":"Ohio","LSAD":"06","ALAND":1071302625,"AWATER":6798109},"id":"39057"},{"arcs":[[-55,-103,134,-89,135,-66]],"type":"Polygon","properties":{"STATEFP":"39","COUNTYFP":"021","COUNTYNS":"01074023","GEOIDFQ":"0500000US39021","GEOID":"39021","NAME":"Champaign","NAMELSAD":"Champaign County","STUSPS":"OH","STATE_NAME":"Ohio","LSAD":"06","ALAND":1111045219,"AWATER":2180178},"id":"39021"},{"arcs":[[-28,-65,136,137,138]],"type":"Polygon","properties":{"STATEFP":"39","COUNTYFP":"053","COUNTYNS":"01074039","GEOIDFQ":"0500000US39053","GEOID":"39053","NAME":"Gallia","NAMELSAD":"Gallia County","STUSPS":"OH","STATE_NAME":"Ohio","LSAD":"06","ALAND":1208305869,"AWATER":12087309},"id":"39053"},{"arcs":[[-79,139,140,-123,-108,141]],"type":"Polygon","properties":{"STATEFP":"39","COUNTYFP":"071","COUNTYNS":"01074048","GEOIDFQ":"0500000US39071","GEOID":"39071","NAME":"Highland","NAMELSAD":"Highland County","STUSPS":"OH","STATE_NAME":"Ohio","LSAD":"06","ALAND":1432479977,"AWATER":12194983},"id":"39071"},{"arcs":[[-25,142,-80,-142,-107]],"type":"Polygon","properties":{"STATEFP":"39","COUNTYFP":"131","COUNTYNS":"01074078","GEOIDFQ":"0500000US39131","GEOID":"39131","NAME":"Pike","NAMELSAD":"Pike County","STUSPS":"OH","STATE_NAME":"Ohio","LSAD":"06","ALAND":1140325073,"AWATER":9566957},"id":"39131"},{"arcs":[[-14,-87,143,-128,-22,144]],"type":"Polygon","properties":{"STATEFP":"39","COUNTYFP":"143","COUNTYNS":"01074084","GEOIDFQ":"0500000US39143","GEOID":"39143","NAME":"Sandusky","NAMELSAD":"Sandusky County","STUSPS":"OH","STATE_NAME":"Ohio","LSAD":"06","ALAND":1057352836,"AWATER":24511837},"id":"39143"},{"arcs":[[145,146,147,148,149]],"type":"Polygon","properties":{"STATEFP":"39","COUNTYFP":"019","COUNTYNS":"01074022","GEOIDFQ":"0500000US39019","GEOID":"39019","NAME":"Carroll","NAMELSAD":"Carroll County","STUSPS":"OH","STATE_NAME":"Ohio","LSAD":"06","ALAND":1022198379,"AWATER":11183048},"id":"39019"},{"arcs":[[-130,150,151,152,153,154]],"type":"Polygon","properties":{"STATEFP":"39","COUNTYFP":"063","COUNTYNS":"01074044","GEOIDFQ":"0500000US39063","GEOID":"39063","NAME":"Hancock","NAMELSAD":"Hancock County","STUSPS":"OH","STATE_NAME":"Ohio","LSAD":"06","ALAND":1376122056,"AWATER":6024245},"id":"39063"},{"arcs":[[-40,155,156,157,158,-44]],"type":"Polygon","properties":{"STATEFP":"39","COUNTYFP":"121","COUNTYNS":"01074073","GEOIDFQ":"0500000US39121","GEOID":"39121","NAME":"Noble","NAMELSAD":"Noble County","STUSPS":"OH","STATE_NAME":"Ohio","LSAD":"06","ALAND":1030735773,"AWATER":16984489},"id":"39121"},{"arcs":[[-53,159,160,-153,161,162,-98]],"type":"Polygon","properties":{"STATEFP":"39","COUNTYFP":"065","COUNTYNS":"01074045","GEOIDFQ":"0500000US39065","GEOID":"39065","NAME":"Hardin","NAMELSAD":"Hardin County","STUSPS":"OH","STATE_NAME":"Ohio","LSAD":"06","ALAND":1218033118,"AWATER":630279},"id":"39065"},{"arcs":[[-67,-136,-88,163,164]],"type":"Polygon","properties":{"STATEFP":"39","COUNTYFP":"109","COUNTYNS":"01074067","GEOIDFQ":"0500000US39109","GEOID":"39109","NAME":"Miami","NAMELSAD":"Miami County","STUSPS":"OH","STATE_NAME":"Ohio","LSAD":"06","ALAND":1053040429,"AWATER":7924793},"id":"39109"},{"arcs":[[-4,-155,165,-72,166,167]],"type":"Polygon","properties":{"STATEFP":"39","COUNTYFP":"137","COUNTYNS":"01074081","GEOIDFQ":"0500000US39137","GEOID":"39137","NAME":"Putnam","NAMELSAD":"Putnam County","STUSPS":"OH","STATE_NAME":"Ohio","LSAD":"06","ALAND":1249784142,"AWATER":4544339},"id":"39137"},{"arcs":[[-149,168,169,170,171]],"type":"Polygon","properties":{"STATEFP":"39","COUNTYFP":"067","COUNTYNS":"01074046","GEOIDFQ":"0500000US39067","GEOID":"39067","NAME":"Harrison","NAMELSAD":"Harrison County","STUSPS":"OH","STATE_NAME":"Ohio","LSAD":"06","ALAND":1042032639,"AWATER":21847163},"id":"39067"},{"arcs":[[172,173,-167,-71]],"type":"Polygon","properties":{"STATEFP":"39","COUNTYFP":"125","COUNTYNS":"01074075","GEOIDFQ":"0500000US39125","GEOID":"39125","NAME":"Paulding","NAMELSAD":"Paulding County","STUSPS":"OH","STATE_NAME":"Ohio","LSAD":"06","ALAND":1078563693,"AWATER":6242939},"id":"39125"},{"arcs":[[-92,-134,174,175,176,177,-164]],"type":"Polygon","properties":{"STATEFP":"39","COUNTYFP":"113","COUNTYNS":"01074069","GEOIDFQ":"0500000US39113","GEOID":"39113","NAME":"Montgomery","NAMELSAD":"Montgomery County","STUSPS":"OH","STATE_NAME":"Ohio","LSAD":"06","ALAND":1194897299,"AWATER":7492172},"id":"39113"},{"arcs":[[-115,178,-157,179,180,181]],"type":"Polygon","properties":{"STATEFP":"39","COUNTYFP":"119","COUNTYNS":"01074072","GEOIDFQ":"0500000US39119","GEOID":"39119","NAME":"Muskingum","NAMELSAD":"Muskingum County","STUSPS":"OH","STATE_NAME":"Ohio","LSAD":"06","ALAND":1721165819,"AWATER":20823923},"id":"39119"},{"arcs":[[-96,-105,182,183,-117,184,185]],"type":"Polygon","properties":{"STATEFP":"39","COUNTYFP":"083","COUNTYNS":"01074054","GEOIDFQ":"0500000US39083","GEOID":"39083","NAME":"Knox","NAMELSAD":"Knox County","STUSPS":"OH","STATE_NAME":"Ohio","LSAD":"06","ALAND":1361036423,"AWATER":10721050},"id":"39083"},{"arcs":[[-52,-69,186,-74,187,-160]],"type":"Polygon","properties":{"STATEFP":"39","COUNTYFP":"011","COUNTYNS":"01074019","GEOIDFQ":"0500000US39011","GEOID":"39011","NAME":"Auglaize","NAMELSAD":"Auglaize County","STUSPS":"OH","STATE_NAME":"Ohio","LSAD":"06","ALAND":1039590221,"AWATER":1339586},"id":"39011"},{"arcs":[[-124,-141,188,189,190,-132]],"type":"Polygon","properties":{"STATEFP":"39","COUNTYFP":"027","COUNTYNS":"01074026","GEOIDFQ":"0500000US39027","GEOID":"39027","NAME":"Clinton","NAMELSAD":"Clinton County","STUSPS":"OH","STATE_NAME":"Ohio","LSAD":"06","ALAND":1058609499,"AWATER":9329331},"id":"39027"},{"arcs":[[-113,191,192,-150,-172,193]],"type":"Polygon","properties":{"STATEFP":"39","COUNTYFP":"157","COUNTYNS":"01074090","GEOIDFQ":"0500000US39157","GEOID":"39157","NAME":"Tuscarawas","NAMELSAD":"Tuscarawas County","STUSPS":"OH","STATE_NAME":"Ohio","LSAD":"06","ALAND":1470097268,"AWATER":10250140},"id":"39157"},{"arcs":[[194,195,196,197,198]],"type":"Polygon","properties":{"STATEFP":"39","COUNTYFP":"169","COUNTYNS":"01074096","GEOIDFQ":"0500000US39169","GEOID":"39169","NAME":"Wayne","NAMELSAD":"Wayne County","STUSPS":"OH","STATE_NAME":"Ohio","LSAD":"06","ALAND":1437488513,"AWATER":5040384},"id":"39169"},{"arcs":[[-7,199,200,-176,201]],"type":"Polygon","properties":{"STATEFP":"39","COUNTYFP":"017","COUNTYNS":"01074021","GEOIDFQ":"0500000US39017","GEOID":"39017","NAME":"Butler","NAMELSAD":"Butler County","STUSPS":"OH","STATE_NAME":"Ohio","LSAD":"06","ALAND":1208310917,"AWATER":9155717},"id":"39017"},{"arcs":[[-34,202,203,-196,204]],"type":"Polygon","properties":{"STATEFP":"39","COUNTYFP":"153","COUNTYNS":"01074088","GEOIDFQ":"0500000US39153","GEOID":"39153","NAME":"Summit","NAMELSAD":"Summit County","STUSPS":"OH","STATE_NAME":"Ohio","LSAD":"06","ALAND":1068850952,"AWATER":18982378},"id":"39153"},{"arcs":[[-114,-194,-171,205,-158,-179]],"type":"Polygon","properties":{"STATEFP":"39","COUNTYFP":"059","COUNTYNS":"01074042","GEOIDFQ":"0500000US39059","GEOID":"39059","NAME":"Guernsey","NAMELSAD":"Guernsey County","STUSPS":"OH","STATE_NAME":"Ohio","LSAD":"06","ALAND":1352599514,"AWATER":15666081},"id":"39059"},{"arcs":[[-33,206,207,-51,208]],"type":"Polygon","properties":{"STATEFP":"39","COUNTYFP":"055","COUNTYNS":"01074040","GEOIDFQ":"0500000US39055","GEOID":"39055","NAME":"Geauga","NAMELSAD":"Geauga County","STUSPS":"OH","STATE_NAME":"Ohio","LSAD":"06","ALAND":1037134792,"AWATER":20674141},"id":"39055"},{"arcs":[[-29,-139,209,210]],"type":"Polygon","properties":{"STATEFP":"39","COUNTYFP":"087","COUNTYNS":"01074056","GEOIDFQ":"0500000US39087","GEOID":"39087","NAME":"Lawrence","NAMELSAD":"Lawrence County","STUSPS":"OH","STATE_NAME":"Ohio","LSAD":"06","ALAND":1174285730,"AWATER":10026362},"id":"39087"},{"arcs":[[-90,-135,-102,-122,211,-126,-131]],"type":"Polygon","properties":{"STATEFP":"39","COUNTYFP":"097","COUNTYNS":"01074061","GEOIDFQ":"0500000US39097","GEOID":"39097","NAME":"Madison","NAMELSAD":"Madison County","STUSPS":"OH","STATE_NAME":"Ohio","LSAD":"06","ALAND":1208715720,"AWATER":2129636},"id":"39097"},{"arcs":[[-110,-127,-212,-121,212,213]],"type":"Polygon","properties":{"STATEFP":"39","COUNTYFP":"129","COUNTYNS":"01074077","GEOIDFQ":"0500000US39129","GEOID":"39129","NAME":"Pickaway","NAMELSAD":"Pickaway County","STUSPS":"OH","STATE_NAME":"Ohio","LSAD":"06","ALAND":1298270767,"AWATER":13694541},"id":"39129"},{"arcs":[[-78,214,215,-189,-140]],"type":"Polygon","properties":{"STATEFP":"39","COUNTYFP":"015","COUNTYNS":"01074020","GEOIDFQ":"0500000US39015","GEOID":"39015","NAME":"Brown","NAMELSAD":"Brown County","STUSPS":"OH","STATE_NAME":"Ohio","LSAD":"06","ALAND":1267932495,"AWATER":8858347},"id":"39015"},{"arcs":[[-93,216,-99,-163,217,218]],"type":"Polygon","properties":{"STATEFP":"39","COUNTYFP":"101","COUNTYNS":"01074063","GEOIDFQ":"0500000US39101","GEOID":"39101","NAME":"Marion","NAMELSAD":"Marion County","STUSPS":"OH","STATE_NAME":"Ohio","LSAD":"06","ALAND":1045855309,"AWATER":908577},"id":"39101"},{"arcs":[[-35,-205,-195,219,220]],"type":"Polygon","properties":{"STATEFP":"39","COUNTYFP":"103","COUNTYNS":"01074064","GEOIDFQ":"0500000US39103","GEOID":"39103","NAME":"Medina","NAMELSAD":"Medina County","STUSPS":"OH","STATE_NAME":"Ohio","LSAD":"06","ALAND":1091573519,"AWATER":4193803},"id":"39103"},{"arcs":[[-83,221,-220,-199,222,-183,-104]],"type":"Polygon","properties":{"STATEFP":"39","COUNTYFP":"005","COUNTYNS":"01074016","GEOIDFQ":"0500000US39005","GEOID":"39005","NAME":"Ashland","NAMELSAD":"Ashland County","STUSPS":"OH","STATE_NAME":"Ohio","LSAD":"06","ALAND":1095528195,"AWATER":9969109},"id":"39005"},{"arcs":[[-73,-166,-154,-161,-188]],"type":"Polygon","properties":{"STATEFP":"39","COUNTYFP":"003","COUNTYNS":"01074015","GEOIDFQ":"0500000US39003","GEOID":"39003","NAME":"Allen","NAMELSAD":"Allen County","STUSPS":"OH","STATE_NAME":"Ohio","LSAD":"06","ALAND":1042587385,"AWATER":11152061},"id":"39003"},{"arcs":[[-116,-182,223,224,-119,225,-185]],"type":"Polygon","properties":{"STATEFP":"39","COUNTYFP":"089","COUNTYNS":"01074057","GEOIDFQ":"0500000US39089","GEOID":"39089","NAME":"Licking","NAMELSAD":"Licking County","STUSPS":"OH","STATE_NAME":"Ohio","LSAD":"06","ALAND":1767486181,"AWATER":12753670},"id":"39089"},{"arcs":[[-9,226,-190,-216,227]],"type":"Polygon","properties":{"STATEFP":"39","COUNTYFP":"025","COUNTYNS":"01074025","GEOIDFQ":"0500000US39025","GEOID":"39025","NAME":"Clermont","NAMELSAD":"Clermont County","STUSPS":"OH","STATE_NAME":"Ohio","LSAD":"06","ALAND":1172125416,"AWATER":19874908},"id":"39025"},{"arcs":[[-47,-208,228,229]],"type":"Polygon","properties":{"STATEFP":"39","COUNTYFP":"007","COUNTYNS":"01074017","GEOIDFQ":"0500000US39007","GEOID":"39007","NAME":"Ashtabula","NAMELSAD":"Ashtabula County","STUSPS":"OH","STATE_NAME":"Ohio","LSAD":"06","ALAND":1819252266,"AWATER":1724330055},"id":"39007"},{"arcs":[[-5,-168,-174,230,231]],"type":"Polygon","properties":{"STATEFP":"39","COUNTYFP":"039","COUNTYNS":"01074032","GEOIDFQ":"0500000US39039","GEOID":"39039","NAME":"Defiance","NAMELSAD":"Defiance County","STUSPS":"OH","STATE_NAME":"Ohio","LSAD":"06","ALAND":1065623070,"AWATER":7100811},"id":"39039"},{"arcs":[[-97,-186,-226,-118,-100,-217]],"type":"Polygon","properties":{"STATEFP":"39","COUNTYFP":"041","COUNTYNS":"01074033","GEOIDFQ":"0500000US39041","GEOID":"39041","NAME":"Delaware","NAMELSAD":"Delaware County","STUSPS":"OH","STATE_NAME":"Ohio","LSAD":"06","ALAND":1147751355,"AWATER":36699318},"id":"39041"},{"arcs":[[-12,232,-36,-221,-222,-82]],"type":"Polygon","properties":{"STATEFP":"39","COUNTYFP":"093","COUNTYNS":"01074059","GEOIDFQ":"0500000US39093","GEOID":"39093","NAME":"Lorain","NAMELSAD":"Lorain County","STUSPS":"OH","STATE_NAME":"Ohio","LSAD":"06","ALAND":1270483158,"AWATER":1119495059},"id":"39093"},{"arcs":[[233,234,-63,235,236,237,-38]],"type":"Polygon","properties":{"STATEFP":"39","COUNTYFP":"009","COUNTYNS":"01074018","GEOIDFQ":"0500000US39009","GEOID":"39009","NAME":"Athens","NAMELSAD":"Athens County","STUSPS":"OH","STATE_NAME":"Ohio","LSAD":"06","ALAND":1304429458,"AWATER":12364206},"id":"39009"},{"arcs":[[-59,238,-146,-193,239,-197,-204,240]],"type":"Polygon","properties":{"STATEFP":"39","COUNTYFP":"151","COUNTYNS":"01065576","GEOIDFQ":"0500000US39151","GEOID":"39151","NAME":"Stark","NAMELSAD":"Stark County","STUSPS":"OH","STATE_NAME":"Ohio","LSAD":"06","ALAND":1489087345,"AWATER":13606591},"id":"39151"},{"arcs":[[-6,-232,241,242]],"type":"Polygon","properties":{"STATEFP":"39","COUNTYFP":"171","COUNTYNS":"01074097","GEOIDFQ":"0500000US39171","GEOID":"39171","NAME":"Williams","NAMELSAD":"Williams County","STUSPS":"OH","STATE_NAME":"Ohio","LSAD":"06","ALAND":1089504761,"AWATER":6298923},"id":"39171"},{"arcs":[[243,-75,-187,244]],"type":"Polygon","properties":{"STATEFP":"39","COUNTYFP":"107","COUNTYNS":"01074066","GEOIDFQ":"0500000US39107","GEOID":"39107","NAME":"Mercer","NAMELSAD":"Mercer County","STUSPS":"OH","STATE_NAME":"Ohio","LSAD":"06","ALAND":1197732209,"AWATER":28431995},"id":"39107"},{"arcs":[[-177,-201,245,246]],"type":"Polygon","properties":{"STATEFP":"39","COUNTYFP":"135","COUNTYNS":"01074080","GEOIDFQ":"0500000US39135","GEOID":"39135","NAME":"Preble","NAMELSAD":"Preble County","STUSPS":"OH","STATE_NAME":"Ohio","LSAD":"06","ALAND":1098741137,"AWATER":6062721},"id":"39135"},{"arcs":[[-1,-243,247,-19]],"type":"Polygon","properties":{"STATEFP":"39","COUNTYFP":"051","COUNTYNS":"01074038","GEOIDFQ":"0500000US39051","GEOID":"39051","NAME":"Fulton","NAMELSAD":"Fulton County","STUSPS":"OH","STATE_NAME":"Ohio","LSAD":"06","ALAND":1050110446,"AWATER":4579039},"id":"39051"},{"arcs":[[-85,-106,-94,-219,248,249]],"type":"Polygon","properties":{"STATEFP":"39","COUNTYFP":"033","COUNTYNS":"01074029","GEOIDFQ":"0500000US39033","GEOID":"39033","NAME":"Crawford","NAMELSAD":"Crawford County","STUSPS":"OH","STATE_NAME":"Ohio","LSAD":"06","ALAND":1040619655,"AWATER":2359514},"id":"39033"},{"arcs":[[-30,-211,250,-81,-143]],"type":"Polygon","properties":{"STATEFP":"39","COUNTYFP":"145","COUNTYNS":"01074085","GEOIDFQ":"0500000US39145","GEOID":"39145","NAME":"Scioto","NAMELSAD":"Scioto County","STUSPS":"OH","STATE_NAME":"Ohio","LSAD":"06","ALAND":1580293393,"AWATER":16072294},"id":"39145"},{"arcs":[[-152,251,-249,-218,-162]],"type":"Polygon","properties":{"STATEFP":"39","COUNTYFP":"175","COUNTYNS":"01074099","GEOIDFQ":"0500000US39175","GEOID":"39175","NAME":"Wyandot","NAMELSAD":"Wyandot County","STUSPS":"OH","STATE_NAME":"Ohio","LSAD":"06","ALAND":1053812244,"AWATER":1783532},"id":"39175"},{"arcs":[[-32,252,-229,-207]],"type":"Polygon","properties":{"STATEFP":"39","COUNTYFP":"085","COUNTYNS":"01074055","GEOIDFQ":"0500000US39085","GEOID":"39085","NAME":"Lake","NAMELSAD":"Lake County","STUSPS":"OH","STATE_NAME":"Ohio","LSAD":"06","ALAND":594129620,"AWATER":1942308103},"id":"39085"},{"arcs":[[-86,-250,-252,-151,-129,-144]],"type":"Polygon","properties":{"STATEFP":"39","COUNTYFP":"147","COUNTYNS":"01074086","GEOIDFQ":"0500000US39147","GEOID":"39147","NAME":"Seneca","NAMELSAD":"Seneca County","STUSPS":"OH","STATE_NAME":"Ohio","LSAD":"06","ALAND":1427151724,"AWATER":4576816},"id":"39147"},{"arcs":[[-181,253,-237,254,255,-224]],"type":"Polygon","properties":{"STATEFP":"39","COUNTYFP":"127","COUNTYNS":"01074076","GEOIDFQ":"0500000US39127","GEOID":"39127","NAME":"Perry","NAMELSAD":"Perry County","STUSPS":"OH","STATE_NAME":"Ohio","LSAD":"06","ALAND":1056560150,"AWATER":11774320},"id":"39127"},{"arcs":[[-8,-202,-175,-133,-191,-227]],"type":"Polygon","properties":{"STATEFP":"39","COUNTYFP":"165","COUNTYNS":"01074094","GEOIDFQ":"0500000US39165","GEOID":"39165","NAME":"Warren","NAMELSAD":"Warren County","STUSPS":"OH","STATE_NAME":"Ohio","LSAD":"06","ALAND":1039659283,"AWATER":15711767},"id":"39165"},{"arcs":[[-58,256,257,-147,-239]],"type":"Polygon","properties":{"STATEFP":"39","COUNTYFP":"029","COUNTYNS":"01074027","GEOIDFQ":"0500000US39029","GEOID":"39029","NAME":"Columbiana","NAMELSAD":"Columbiana County","STUSPS":"OH","STATE_NAME":"Ohio","LSAD":"06","ALAND":1377692484,"AWATER":7277033},"id":"39029"},{"arcs":[[-39,-238,-254,-180,-156]],"type":"Polygon","properties":{"STATEFP":"39","COUNTYFP":"115","COUNTYNS":"01074070","GEOIDFQ":"0500000US39115","GEOID":"39115","NAME":"Morgan","NAMELSAD":"Morgan County","STUSPS":"OH","STATE_NAME":"Ohio","LSAD":"06","ALAND":1078538280,"AWATER":13868572},"id":"39115"},{"arcs":[[-50,-60,-241,-203,-209]],"type":"Polygon","properties":{"STATEFP":"39","COUNTYFP":"133","COUNTYNS":"01074079","GEOIDFQ":"0500000US39133","GEOID":"39133","NAME":"Portage","NAMELSAD":"Portage County","STUSPS":"OH","STATE_NAME":"Ohio","LSAD":"06","ALAND":1262500481,"AWATER":43060220},"id":"39133"},{"arcs":[[-148,-258,258,259,-169]],"type":"Polygon","properties":{"STATEFP":"39","COUNTYFP":"081","COUNTYNS":"01074053","GEOIDFQ":"0500000US39081","GEOID":"39081","NAME":"Jefferson","NAMELSAD":"Jefferson County","STUSPS":"OH","STATE_NAME":"Ohio","LSAD":"06","ALAND":1057037098,"AWATER":7335056},"id":"39081"},{"arcs":[[260,-245,-68,-165,-178,-247,261]],"type":"Polygon","properties":{"STATEFP":"39","COUNTYFP":"037","COUNTYNS":"01074031","GEOIDFQ":"0500000US39037","GEOID":"39037","NAME":"Darke","NAMELSAD":"Darke County","STUSPS":"OH","STATE_NAME":"Ohio","LSAD":"06","ALAND":1549077543,"AWATER":4244897},"id":"39037"},{"arcs":[[-120,-225,-256,262,-213]],"type":"Polygon","properties":{"STATEFP":"39","COUNTYFP":"045","COUNTYNS":"01074035","GEOIDFQ":"0500000US39045","GEOID":"39045","NAME":"Fairfield","NAMELSAD":"Fairfield County","STUSPS":"OH","STATE_NAME":"Ohio","LSAD":"06","ALAND":1306299917,"AWATER":10869534},"id":"39045"},{"arcs":[[-45,-159,-206,-170,-260,263]],"type":"Polygon","properties":{"STATEFP":"39","COUNTYFP":"013","COUNTYNS":"01065575","GEOIDFQ":"0500000US39013","GEOID":"39013","NAME":"Belmont","NAMELSAD":"Belmont County","STUSPS":"OH","STATE_NAME":"Ohio","LSAD":"06","ALAND":1378321843,"AWATER":23691593},"id":"39013"},{"arcs":[[-112,-184,-223,-198,-240,-192]],"type":"Polygon","properties":{"STATEFP":"39","COUNTYFP":"075","COUNTYNS":"01074050","GEOIDFQ":"0500000US39075","GEOID":"39075","NAME":"Holmes","NAMELSAD":"Holmes County","STUSPS":"OH","STATE_NAME":"Ohio","LSAD":"06","ALAND":1094566304,"AWATER":3694365},"id":"39075"},{"arcs":[[-62,-111,-214,-263,-255,-236]],"type":"Polygon","properties":{"STATEFP":"39","COUNTYFP":"073","COUNTYNS":"01074049","GEOIDFQ":"0500000US39073","GEOID":"39073","NAME":"Hocking","NAMELSAD":"Hocking County","STUSPS":"OH","STATE_NAME":"Ohio","LSAD":"06","ALAND":1091289822,"AWATER":5955974},"id":"39073"},{"arcs":[[264,-137,-64,-235]],"type":"Polygon","properties":{"STATEFP":"39","COUNTYFP":"105","COUNTYNS":"01074065","GEOIDFQ":"0500000US39105","GEOID":"39105","NAME":"Meigs","NAMELSAD":"Meigs County","STUSPS":"OH","STATE_NAME":"Ohio","LSAD":"06","ALAND":1113957874,"AWATER":7519818},"id":"39105"}]}}}