{"type":"Topology","arcs":[[[5631,2392],[355,0],[204,0]],[[6190,2392],[1,-237],[-1,-374]],[[6190,1781],[-13,4],[-44,-4],[1,10],[-54,18],[-16,-5],[-11,22],[-29,4],[-23,-14],[-21,13],[-6,47],[-12,48],[8,24],[-4,35],[-10,11],[-40,2],[0,52],[-6,19],[-33,12],[-4,18],[-119,87],[-12,31],[12,20],[-2,36],[-26,19],[-38,4],[-37,38],[-20,6]],[[5631,2338],[0,54]],[[6605,4601],[236,-1],[344,1],[211,0]],[[7396,4601],[0,-440],[-1,-344]],[[7395,3817],[0,-357],[-87,-1],[-195,2]],[[7113,3461],[-1,16],[23,24],[5,18],[-12,26],[-14,5],[-63,-1],[-26,15],[-37,40],[-38,14],[-12,12],[-12,48],[-12,15],[-29,-2],[-18,-32],[-15,-12],[-39,2],[-22,21],[1,23],[14,22],[26,10],[17,29],[-9,23],[-15,9],[-37,-36],[-27,11],[-5,28],[-31,31],[-41,-7],[-38,23],[-8,23],[13,33],[-20,34],[1,23],[-14,40],[-34,21],[-54,-35],[-18,-25],[-15,-41],[-25,-27],[-39,-5],[-30,-16],[-44,14],[-26,32],[-3,24]],[[6330,3931],[14,30],[40,7],[36,25],[27,1],[11,30],[-26,32],[-37,-12],[-59,-10],[-34,5],[-23,10]],[[6279,4049],[14,12],[-9,56],[-9,9],[-2,46],[35,24],[7,-11],[30,-7],[67,-3],[12,42],[34,47],[23,2],[35,-13],[13,9],[-1,24],[35,0],[1,19],[38,0],[0,217],[3,79]],[[8529,1958],[0,196],[120,0],[1,165]],[[8650,2319],[20,5],[17,32],[30,9],[21,-7],[27,-27],[21,-7],[17,-44],[22,-5],[34,18],[22,32],[27,-3],[15,-21],[23,-8],[15,5],[26,-9],[14,11],[-15,28],[0,17],[16,13],[-4,24],[51,22]],[[9049,2404],[4,-22],[-7,-249],[-10,-344],[-7,-280],[-7,-301]],[[9022,1208],[-225,-1],[-278,0]],[[8519,1207],[0,237],[-129,0]],[[8390,1444],[0,237],[65,0],[0,118],[74,0],[0,159]],[[7648,3462],[151,0],[15,-40],[39,-6],[0,-29],[16,-22],[-20,-22],[139,0]],[[7988,3343],[245,-1]],[[8233,3342],[0,-47],[-18,0],[0,-42],[-14,-29],[-15,0],[-28,-33],[10,-47],[-14,-29],[27,-42],[26,-6],[1,-29],[-23,-24],[-13,-28]],[[8172,2986],[-83,0],[-17,12],[-63,-31],[-61,7],[-45,-17],[-45,-6],[-23,-30],[-18,17],[-21,-1],[-19,19],[1,57],[-12,32],[-122,0]],[[7644,3045],[-57,0]],[[7587,3045],[0,61],[61,0],[0,356]],[[3336,1207],[188,0],[-1,296]],[[3523,1503],[258,1],[-15,16],[0,44],[33,0],[0,60],[168,-2],[0,14]],[[3967,1636],[37,13],[20,17],[12,21],[30,-32],[-1,-60],[-12,-5],[8,-32],[-16,-13],[12,-18],[13,-54],[54,-10],[48,9],[10,-33],[-55,-11],[-8,-43]],[[4119,1385],[15,-31],[6,-33],[-18,5],[-23,-9],[-20,7],[-24,-7],[-22,-35],[9,-23],[-22,-4],[-14,-55],[-11,-10],[-1,-41],[-18,-54],[10,-50],[16,9],[6,-28],[16,-26],[-15,-23]],[[4009,977],[-29,21],[-3,18],[-60,66],[-27,-9],[-9,19],[-30,27],[2,13],[-28,7],[-14,-20],[-3,-31],[10,-10],[-9,-45],[-11,-9],[-72,32],[-26,18],[-66,11],[-19,-1],[-5,-35],[-16,-22],[-26,-2],[-25,12],[-15,-12],[-34,7],[-19,17],[-4,16],[-40,25],[-12,22],[-30,23],[-21,30],[-9,30],[-23,12]],[[8390,1444],[-149,-1],[-332,1]],[[7909,1444],[1,237],[7,0],[0,237],[167,0],[0,40]],[[8084,1958],[306,-1],[139,1]],[[6854,1205],[2,0],[0,238],[111,0],[0,119]],[[6967,1562],[158,-1],[174,1]],[[7299,1562],[0,-119]],[[7299,1443],[0,-237],[-56,0],[0,-120],[-276,0]],[[6967,1086],[-113,2],[0,117]],[[7113,3461],[-31,0]],[[7082,3461],[-341,2],[-2,-5]],[[6739,3458],[-208,-1],[0,119],[-112,0]],[[6419,3576],[1,118],[-114,0],[0,237],[24,0]],[[8519,1207],[-116,0],[1,-358],[-111,0],[0,-119],[-6,0]],[[8287,730],[-238,0],[-419,0]],[[7630,730],[0,477],[113,0],[0,118]],[[7743,1325],[166,1],[0,118]],[[5137,911],[148,-1],[461,0]],[[5746,910],[0,-297],[2,0]],[[5748,613],[0,-233]],[[5748,380],[-30,6],[-8,22],[8,43],[-47,40],[-40,14],[-28,-19],[-20,-41],[-16,-15],[-32,-3],[3,-21],[-45,-33],[-1,-20],[-33,-30],[-33,-12],[-33,12],[-42,29],[-33,4],[-11,11],[-7,14],[29,19],[-3,51],[15,50],[-27,23],[-51,-16],[-22,0],[-44,12],[-17,29],[15,24],[-32,28],[-5,31],[16,18],[14,33],[-13,18],[-7,25],[-14,1],[-17,-17]],[[5137,710],[0,201]],[[4119,1385],[108,0],[0,-59],[185,0]],[[4412,1326],[-1,-118],[174,0],[0,-139]],[[4585,1069],[0,-98],[55,0],[0,-240]],[[4640,731],[-41,10],[-44,-43],[-47,3],[-24,-15],[-9,16],[-41,24],[-34,4],[-37,11],[-52,25],[-33,40],[-23,-12],[-8,19],[-20,0],[-13,-20],[-25,5],[-7,-11],[-38,18],[-42,-14],[-30,11],[-44,6],[-9,41],[1,51],[-12,3],[-6,37],[7,37]],[[3824,3464],[135,0],[315,-4]],[[4274,3460],[65,0],[272,5]],[[4611,3465],[1,-363],[4,0],[0,-117]],[[4616,2985],[-96,-1],[-304,1],[-385,0]],[[3831,2985],[0,118],[-6,0],[0,155]],[[3825,3258],[-1,206]],[[7396,4601],[38,0],[188,0]],[[7622,4601],[0,-78],[-25,0],[1,-469]],[[7598,4054],[-3,0],[0,-237]],[[7595,3817],[-200,0]],[[5746,910],[0,297]],[[5746,1207],[222,0]],[[5968,1207],[0,-178],[332,-1],[3,-27],[-8,-15],[14,-17],[102,0]],[[6411,969],[0,-217]],[[6411,752],[-37,0],[-2,-139]],[[6372,613],[-342,0],[-282,0]],[[6190,1781],[27,9],[31,-5],[19,-16],[18,2],[38,-19],[22,11],[30,26],[11,23],[28,18]],[[6414,1830],[-2,-150]],[[6412,1680],[-278,1],[-316,0],[-183,0]],[[5635,1681],[-3,20],[0,287],[0,343],[-1,5]],[[5631,2336],[0,2]],[[8650,2319],[-15,19],[-2,33],[-13,13],[-26,-20],[-48,-13],[-4,16],[22,20],[-7,33],[-26,-7],[-24,20],[-40,2],[-35,22],[-6,38],[-26,8]],[[8400,2503],[-12,9],[-28,-1],[-9,29],[-26,27],[-12,28],[5,35],[0,118]],[[8318,2748],[338,0]],[[8656,2748],[354,0]],[[9010,2748],[24,-193],[20,-141],[-5,-10]],[[7649,344],[10,-17],[-20,-21],[-32,22],[-22,-7],[-7,-28],[-19,6],[-84,61],[-16,-32],[-61,-14],[-22,-15],[-31,-5],[-54,16],[1,-24],[-25,13],[-27,-3],[-1,-26],[-17,-2],[3,-39],[-17,-39],[-23,-11],[-30,-6],[-37,27],[-35,-2],[-11,-42],[-3,-34],[-12,-21],[-17,-8],[-26,4],[-8,34],[-10,12],[-36,44],[-10,25],[-27,6],[-11,-8],[-44,-3],[-16,21],[-12,45],[-49,-3],[-53,31],[-6,15],[34,30],[9,27]],[[6775,373],[8,41],[-13,11],[17,43],[-18,9],[-27,39],[28,23],[11,-13],[9,48],[28,29],[-13,14],[-27,55]],[[6778,672],[139,0],[0,59],[49,0]],[[6966,731],[197,-1],[242,0]],[[7405,730],[38,-10],[7,-28],[12,-4],[0,-242],[20,-31],[43,-13],[18,-39],[26,-19],[80,0]],[[9005,436],[-9,-413],[-20,-23],[-49,11],[6,24],[-4,19],[-23,-11],[-10,36],[-24,-21],[-15,24],[-22,-22],[-33,-1],[22,27],[-24,13],[-14,-12],[-54,10],[-11,15],[12,32],[-41,1],[-16,11],[-64,6],[-27,13],[-14,27],[-10,0],[-26,31],[-3,23],[-16,-4],[-14,15],[10,17],[-22,11],[-4,32],[-25,-11],[-57,13],[-15,54],[-19,2],[-2,-29],[-20,12],[11,32],[-30,-15],[-15,17],[11,21],[-37,8]],[[8288,431],[-1,299]],[[9022,1208],[-10,-432],[-7,-340]],[[4917,4599],[249,1]],[[5166,4600],[2,-77],[-1,-237],[2,-237],[5,0]],[[5174,4049],[0,-178]],[[5174,3871],[-454,0]],[[4720,3871],[1,179],[-8,0],[0,473],[-5,0],[1,78]],[[4709,4601],[208,-2]],[[6190,2392],[1,118]],[[6191,2510],[317,0],[229,-1]],[[6737,2509],[1,-85]],[[6738,2424],[-32,-12],[-37,16],[-38,29],[-22,-25],[-33,-1],[0,-158],[2,-336],[-1,-195]],[[6577,1742],[-24,8],[0,33],[-24,22],[-34,-24],[-34,-3],[-26,44],[-21,8]],[[6411,752],[278,0],[14,-16],[46,-12],[26,-35],[3,-17]],[[6775,373],[-42,0],[-33,30],[-15,-6],[-8,-22],[-1,-30],[-9,-33],[-23,-25],[-52,-10],[-8,5],[-11,41],[-15,15],[-40,8],[-10,-30],[-27,1],[-17,20],[-14,39],[-4,50],[-6,19],[-17,17],[-14,-8]],[[6409,454],[0,80],[-37,0],[0,79]],[[8125,350],[-26,-1],[-29,-14],[-42,-3],[-27,8],[-14,-5],[-33,19],[-35,-5],[-6,29],[-23,-23],[-19,16],[-4,48],[-44,19],[-21,-20],[-11,-27],[-35,3],[-27,-27],[-27,-7],[-23,15],[-25,-5],[-5,-26]],[[7405,730],[225,0]],[[8288,431],[-16,13],[-45,21],[-38,-32],[-3,-60],[-14,1],[-25,-30],[-22,6]],[[3967,1636],[-10,20],[-53,29],[-11,18],[1,20],[26,1],[2,21],[-9,30],[-33,38],[-5,28],[-15,15],[23,48],[-1,31],[-24,3],[-16,24],[-3,35],[-32,10],[-12,27]],[[3795,2034],[52,3]],[[3847,2037],[440,0],[206,0],[11,-13],[21,6],[43,-5],[6,16],[45,-4],[9,-25]],[[4628,2012],[1,-331]],[[4629,1681],[-218,0],[1,-355]],[[8172,2986],[146,-1],[0,-237]],[[8400,2503],[-20,-13],[-12,-22],[-3,-29],[-20,-19],[-22,-35],[-17,11],[-20,-12],[18,-21],[-10,-14],[-26,7],[-8,-19],[11,-42],[-29,-3],[-10,-27],[-24,-24],[-15,-6],[-17,10],[-27,35],[-25,11],[-35,-13]],[[8089,2278],[0,352],[-389,0]],[[7700,2630],[0,237],[-57,0],[1,178]],[[4628,2012],[3,5],[0,139],[-6,0],[1,355]],[[4626,2511],[0,119]],[[4626,2630],[327,0]],[[4953,2630],[7,-21],[0,-217],[102,0],[121,1]],[[5183,2393],[1,-237],[4,0],[0,-156],[-2,-3],[0,-316]],[[5186,1681],[-389,0],[-168,0]],[[5137,710],[-16,-26],[-16,-12],[-32,4],[-33,23],[-27,-6],[-46,7],[-27,22],[-40,9],[-19,-11],[-14,-25],[-4,-36],[-14,-6],[-12,-24],[-22,-1],[-45,-26],[-19,13],[-33,48],[-26,22],[0,13],[-18,21],[-24,16],[-10,-4]],[[4585,1069],[55,1],[0,19],[111,0],[0,40],[220,-1],[0,20],[55,0],[0,59],[108,0]],[[5134,1207],[3,0],[0,-296]],[[5627,3465],[227,-1]],[[5854,3464],[112,0],[0,-7]],[[5966,3457],[0,-237],[32,35],[31,-7],[18,-43],[36,-3],[24,-10],[18,-27],[33,-5],[31,18],[3,-17]],[[6192,3161],[-1,-99],[0,-197]],[[6191,2865],[-349,1],[-214,1]],[[5628,2867],[0,235],[-1,79],[0,284]],[[3824,3464],[-226,0],[0,112],[-9,0],[-1,138],[0,334]],[[3588,4048],[323,3],[5,2],[0,303]],[[3916,4356],[1,-18],[25,-22],[21,-7],[90,8],[27,-10],[14,-28],[31,-28],[13,-28],[25,-8],[18,-28],[-4,-11],[27,-38],[0,-23],[23,-17],[31,-40],[12,-2],[0,-125]],[[4270,3931],[-1,-355],[5,0],[0,-116]],[[8856,3920],[34,-271],[25,-188]],[[8915,3461],[-248,-1]],[[8667,3460],[-226,1]],[[8441,3461],[1,118],[5,0],[0,356]],[[8447,3935],[0,119],[6,1],[0,99]],[[8453,4154],[230,0],[3,-4],[170,0]],[[8856,4150],[0,-230]],[[6409,454],[-10,-7],[-30,-18],[-23,-5],[11,-56],[-14,-27],[-25,-34],[-26,-9],[-24,29],[-20,-10],[4,-18],[27,-5],[10,-26],[-32,-6],[-17,-20],[10,-45],[-1,-29],[-11,-22],[-31,-15],[-25,7],[-24,21],[-19,60],[-16,29],[2,26],[24,13],[15,22],[-13,61],[-34,32],[-16,-2],[-21,-19],[-3,-35],[-22,-23],[-37,39],[-10,-27],[-26,-6],[-20,-44],[-16,-14],[-56,0],[-28,12],[-11,18],[12,40],[1,28],[-10,17],[-25,16],[-18,5],[-53,-29],[-10,2]],[[0,4602],[16,-2],[185,2],[121,-6],[362,-1],[330,-2],[15,0]],[[1029,4593],[0,-196],[-4,0],[0,-475]],[[1025,3922],[-138,0],[-431,0],[-456,0],[0,238],[0,442]],[[5134,1207],[0,237],[56,0]],[[5190,1444],[97,1],[347,-1]],[[5634,1444],[112,0],[0,-237]],[[8856,4284],[0,-134]],[[8453,4154],[1,371],[-31,32],[-6,37],[28,7]],[[8445,4601],[285,-1],[126,1],[0,-317]],[[3588,4048],[-420,0]],[[3168,4048],[-1,248],[2,308]],[[3169,4604],[134,0],[353,-2],[90,-1]],[[3746,4601],[13,-5],[25,-74],[23,-27],[25,-57],[56,-30],[14,-39],[14,-13]],[[3831,2985],[-2,-355],[14,0],[0,-59]],[[3843,2571],[-223,0],[0,-118],[-449,1]],[[3171,2454],[0,268],[0,357]],[[3171,3079],[30,10],[13,15],[37,19],[20,31],[-7,25],[25,45],[21,4],[15,17],[18,5],[30,-10],[7,-38],[-6,-16],[-2,-43],[9,-24],[43,-41],[15,2],[31,-31],[42,-12],[63,-11],[17,18],[46,14],[9,46],[36,35],[21,72],[19,10],[27,27],[32,9],[43,1]],[[5186,1681],[4,-19],[0,-218]],[[6191,2510],[0,355]],[[6192,3161],[244,0],[94,1],[212,-1]],[[6742,3161],[0,-214],[-1,-198]],[[6741,2749],[-1,-119],[-3,-121]],[[7299,1443],[222,0],[0,-118],[222,0]],[[6966,731],[1,355]],[[3523,1503],[0,40],[-19,0],[0,20],[-37,0],[0,121],[-11,0],[0,118],[-166,0],[-1,117]],[[3289,1919],[112,0],[0,119],[362,0],[32,-4]],[[8233,3342],[95,0],[0,118],[113,1]],[[8667,3460],[0,-355],[-11,0],[0,-357]],[[5631,2392],[0,237],[-3,0],[0,238]],[[5634,1444],[1,237]],[[6412,1680],[0,-296]],[[6412,1384],[-222,0],[0,-20],[-61,1],[11,-37],[14,0],[9,-32],[-6,-10],[14,-48],[17,-31],[-220,0]],[[6741,2749],[452,0]],[[7193,2749],[0,-119],[111,0],[0,-238],[112,0]],[[7416,2392],[0,-119]],[[7416,2273],[-317,0],[-169,1]],[[6930,2274],[0,241],[-5,-12],[-26,6],[-18,-19],[-9,-27],[-23,3],[-23,30],[-16,-26],[6,-26],[13,-6],[2,-27],[-44,15],[-49,-2]],[[7648,3462],[-56,0],[0,118],[3,0],[0,198],[19,0],[0,39],[-19,0]],[[7598,4054],[399,0]],[[7997,4054],[109,0],[0,-119]],[[8106,3935],[-113,0],[0,-355],[-5,-59],[0,-178]],[[7299,1562],[0,118],[4,1],[0,265],[20,9],[7,43],[35,44],[22,3],[-5,27],[32,13]],[[7414,2085],[39,-2],[19,-9],[24,1],[14,11],[23,46],[34,-3],[48,18],[26,-25],[13,-2],[13,20],[29,-4],[10,18],[29,2],[-1,23],[69,39],[17,-38],[28,31],[31,10],[32,23],[-7,16],[20,28],[41,-11],[11,5]],[[7976,2282],[0,-127],[-4,-58],[112,-1],[0,-138]],[[2025,3920],[-297,0],[-272,1],[-214,0],[-217,1]],[[1029,4593],[213,1],[287,2],[287,2],[229,1],[128,1]],[[2173,4600],[0,-204],[-9,-1],[-1,-241],[1,-233]],[[2164,3921],[-139,-1]],[[4720,3871],[0,-89],[-20,6],[-43,-14],[-34,1],[-78,32],[-29,40],[-53,4],[-32,17],[-13,14],[-25,48],[-123,1]],[[3746,4601],[481,0],[302,0],[180,0]],[[5631,2336],[-37,-15],[-33,-2],[-37,30],[-9,-13],[-27,7],[-36,-9],[-31,38],[-15,-18],[-20,-5],[-18,11],[-12,27],[-16,2],[0,-25],[-9,-14],[-56,28],[-16,15],[-76,0]],[[4953,2630],[0,236],[112,0]],[[5065,2866],[234,1],[329,0]],[[4616,2985],[0,-355],[10,0]],[[4626,2511],[-224,1],[-335,0],[-224,0]],[[3843,2512],[0,59]],[[6412,1384],[0,-59],[111,-1],[0,-118]],[[6523,1206],[-57,0],[0,-236],[-55,-1]],[[8915,3461],[11,-82],[31,-228],[31,-239],[22,-164]],[[6967,1562],[1,227],[-9,-25],[-23,-19],[-26,20],[-32,-8]],[[6878,1757],[1,279],[51,0],[0,238]],[[7416,2273],[0,-118],[-2,-70]],[[4611,3465],[451,0]],[[5062,3465],[0,-363],[4,0],[-1,-236]],[[6523,1206],[331,-1]],[[8089,2278],[-12,15],[-40,32],[-18,-6],[-17,-25],[-26,-12]],[[7416,2392],[112,-1],[0,119],[56,0],[0,120],[116,0]],[[5174,4049],[349,-1],[329,1]],[[5852,4049],[1,0]],[[5853,4049],[0,-336],[1,-249]],[[5627,3465],[-298,-1],[-155,1]],[[5174,3465],[0,406]],[[2503,4602],[210,2],[364,1],[92,-1]],[[3168,4048],[-1,-127]],[[3167,3921],[-349,-1],[-223,0],[-431,1]],[[2173,4600],[330,2]],[[7587,3045],[-225,0]],[[7362,3045],[3,61],[0,237],[-283,0],[0,118]],[[7622,4601],[279,0],[121,0]],[[8022,4601],[0,-77],[-25,0],[0,-470]],[[3847,2037],[0,120],[-4,0],[0,355]],[[7193,2749],[1,297],[168,-1]],[[5062,3465],[112,0]],[[3174,1280],[-3,0],[0,253],[0,386]],[[3171,1919],[118,0]],[[3336,1207],[-9,6],[-36,51],[-37,29],[-25,12],[-27,-23],[-28,-2]],[[8106,3935],[229,1],[112,-1]],[[6279,4049],[-426,0]],[[5852,4049],[0,335],[0,216]],[[5852,4600],[332,1],[421,0]],[[8375,4601],[70,0]],[[8022,4601],[353,0]],[[6419,3576],[-228,0],[1,-119],[-226,0]],[[6742,3161],[-3,162],[0,135]],[[3171,3079],[0,237],[0,297],[0,308],[-4,0]],[[6577,1742],[22,0],[14,-41],[20,-18],[30,16],[6,37],[-24,28],[21,24],[25,-5],[23,-39],[14,-4],[39,10],[20,15],[21,-3],[1,-22],[29,-39],[17,8],[23,48]],[[3171,1919],[0,208],[0,327]],[[5166,4600],[327,0],[359,0]]],"transform":{"scale":[0.000946728234865142,0.0007342908843481644],"translate":[-103.002518,33.620682]},"objects":{"40":{"type":"GeometryCollection","geometries":[{"arcs":[[0,1,2,3]],"type":"Polygon","properties":{"STATEFP":"40","COUNTYFP":"027","COUNTYNS":"01101801","GEOIDFQ":"0500000US40027","GEOID":"40027","NAME":"Cleveland","NAMELSAD":"Cleveland County","STUSPS":"OK","STATE_NAME":"Oklahoma","LSAD":"06","ALAND":1395767206,"AWATER":49207240},"id":"40027"},{"arcs":[[4,5,6,7,8,9]],"type":"Polygon","properties":{"STATEFP":"40","COUNTYFP":"113","COUNTYNS":"01101844","GEOIDFQ":"0500000US40113","GEOID":"40113","NAME":"Osage","NAMELSAD":"Osage County","STUSPS":"OK","STATE_NAME":"Oklahoma","LSAD":"06","ALAND":5818886089,"AWATER":148522835},"id":"40113"},{"arcs":[[10,11,12,13,14,15]],"type":"Polygon","properties":{"STATEFP":"40","COUNTYFP":"079","COUNTYNS":"01101827","GEOIDFQ":"0500000US40079","GEOID":"40079","NAME":"Le Flore","NAMELSAD":"Le Flore County","STUSPS":"OK","STATE_NAME":"Oklahoma","LSAD":"06","ALAND":4116601316,"AWATER":49706582},"id":"40079"},{"arcs":[[16,17,18,19,20,21]],"type":"Polygon","properties":{"STATEFP":"40","COUNTYFP":"145","COUNTYNS":"01101860","GEOIDFQ":"0500000US40145","GEOID":"40145","NAME":"Wagoner","NAMELSAD":"Wagoner County","STUSPS":"OK","STATE_NAME":"Oklahoma","LSAD":"06","ALAND":1455356135,"AWATER":74815302},"id":"40145"},{"arcs":[[22,23,24,25,26]],"type":"Polygon","properties":{"STATEFP":"40","COUNTYFP":"065","COUNTYNS":"01101820","GEOIDFQ":"0500000US40065","GEOID":"40065","NAME":"Jackson","NAMELSAD":"Jackson County","STUSPS":"OK","STATE_NAME":"Oklahoma","LSAD":"06","ALAND":2078860497,"AWATER":4114418},"id":"40065"},{"arcs":[[-16,27,28,29]],"type":"Polygon","properties":{"STATEFP":"40","COUNTYFP":"077","COUNTYNS":"01101826","GEOIDFQ":"0500000US40077","GEOID":"40077","NAME":"Latimer","NAMELSAD":"Latimer County","STUSPS":"OK","STATE_NAME":"Oklahoma","LSAD":"06","ALAND":1870264428,"AWATER":18222341},"id":"40077"},{"arcs":[[30,31,32,33,34]],"type":"Polygon","properties":{"STATEFP":"40","COUNTYFP":"029","COUNTYNS":"01101802","GEOIDFQ":"0500000US40029","GEOID":"40029","NAME":"Coal","NAMELSAD":"Coal County","STUSPS":"OK","STATE_NAME":"Oklahoma","LSAD":"06","ALAND":1338434462,"AWATER":12075986},"id":"40029"},{"arcs":[[-8,35,36,37,38]],"type":"Polygon","properties":{"STATEFP":"40","COUNTYFP":"117","COUNTYNS":"01101846","GEOIDFQ":"0500000US40117","GEOID":"40117","NAME":"Pawnee","NAMELSAD":"Pawnee County","STUSPS":"OK","STATE_NAME":"Oklahoma","LSAD":"06","ALAND":1472027963,"AWATER":68849518},"id":"40117"},{"arcs":[[-15,39,40,41,42,-28]],"type":"Polygon","properties":{"STATEFP":"40","COUNTYFP":"127","COUNTYNS":"01101851","GEOIDFQ":"0500000US40127","GEOID":"40127","NAME":"Pushmataha","NAMELSAD":"Pushmataha County","STUSPS":"OK","STATE_NAME":"Oklahoma","LSAD":"06","ALAND":3614558573,"AWATER":69862774},"id":"40127"},{"arcs":[[43,44,45,46,47]],"type":"Polygon","properties":{"STATEFP":"40","COUNTYFP":"067","COUNTYNS":"01101821","GEOIDFQ":"0500000US40067","GEOID":"40067","NAME":"Jefferson","NAMELSAD":"Jefferson County","STUSPS":"OK","STATE_NAME":"Oklahoma","LSAD":"06","ALAND":1965685987,"AWATER":39417589},"id":"40067"},{"arcs":[[-26,48,49,50,51]],"type":"Polygon","properties":{"STATEFP":"40","COUNTYFP":"141","COUNTYNS":"01101858","GEOIDFQ":"0500000US40141","GEOID":"40141","NAME":"Tillman","NAMELSAD":"Tillman County","STUSPS":"OK","STATE_NAME":"Oklahoma","LSAD":"06","ALAND":2256226950,"AWATER":20895054},"id":"40141"},{"arcs":[[52,53,54,55,56,57]],"type":"Polygon","properties":{"STATEFP":"40","COUNTYFP":"043","COUNTYNS":"01101809","GEOIDFQ":"0500000US40043","GEOID":"40043","NAME":"Dewey","NAMELSAD":"Dewey County","STUSPS":"OK","STATE_NAME":"Oklahoma","LSAD":"06","ALAND":2589024032,"AWATER":22668882},"id":"40043"},{"arcs":[[-6,58,59,60,61]],"type":"Polygon","properties":{"STATEFP":"40","COUNTYFP":"147","COUNTYNS":"01101861","GEOIDFQ":"0500000US40147","GEOID":"40147","NAME":"Washington","NAMELSAD":"Washington County","STUSPS":"OK","STATE_NAME":"Oklahoma","LSAD":"06","ALAND":1076201514,"AWATER":22871165},"id":"40147"},{"arcs":[[-45,62,63,64,65,66,67]],"type":"Polygon","properties":{"STATEFP":"40","COUNTYFP":"019","COUNTYNS":"01101797","GEOIDFQ":"0500000US40019","GEOID":"40019","NAME":"Carter","NAMELSAD":"Carter County","STUSPS":"OK","STATE_NAME":"Oklahoma","LSAD":"06","ALAND":2129750449,"AWATER":29733323},"id":"40019"},{"arcs":[[-3,68,69,70,71,72]],"type":"Polygon","properties":{"STATEFP":"40","COUNTYFP":"087","COUNTYNS":"01101834","GEOIDFQ":"0500000US40087","GEOID":"40087","NAME":"McClain","NAMELSAD":"McClain County","STUSPS":"OK","STATE_NAME":"Oklahoma","LSAD":"06","ALAND":1478156679,"AWATER":24706038},"id":"40087"},{"arcs":[[-12,73,74,75,76,77]],"type":"Polygon","properties":{"STATEFP":"40","COUNTYFP":"135","COUNTYNS":"01101855","GEOIDFQ":"0500000US40135","GEOID":"40135","NAME":"Sequoyah","NAMELSAD":"Sequoyah County","STUSPS":"OK","STATE_NAME":"Oklahoma","LSAD":"06","ALAND":1744550842,"AWATER":105076072},"id":"40135"},{"arcs":[[78,79,80,81,82]],"type":"Polygon","properties":{"STATEFP":"40","COUNTYFP":"013","COUNTYNS":"01101794","GEOIDFQ":"0500000US40013","GEOID":"40013","NAME":"Bryan","NAMELSAD":"Bryan County","STUSPS":"OK","STATE_NAME":"Oklahoma","LSAD":"06","ALAND":2342251263,"AWATER":101807803},"id":"40013"},{"arcs":[[83,84,-40,-14,85]],"type":"Polygon","properties":{"STATEFP":"40","COUNTYFP":"089","COUNTYNS":"01101835","GEOIDFQ":"0500000US40089","GEOID":"40089","NAME":"McCurtain","NAMELSAD":"McCurtain County","STUSPS":"OK","STATE_NAME":"Oklahoma","LSAD":"06","ALAND":4793503043,"AWATER":133936249},"id":"40089"},{"arcs":[[86,87,88,89,90,91]],"type":"Polygon","properties":{"STATEFP":"40","COUNTYFP":"003","COUNTYNS":"01101789","GEOIDFQ":"0500000US40003","GEOID":"40003","NAME":"Alfalfa","NAMELSAD":"Alfalfa County","STUSPS":"OK","STATE_NAME":"Oklahoma","LSAD":"06","ALAND":2244392664,"AWATER":38546676},"id":"40003"},{"arcs":[[-2,92,93,94,95,96,-69]],"type":"Polygon","properties":{"STATEFP":"40","COUNTYFP":"125","COUNTYNS":"01101850","GEOIDFQ":"0500000US40125","GEOID":"40125","NAME":"Pottawatomie","NAMELSAD":"Pottawatomie County","STUSPS":"OK","STATE_NAME":"Oklahoma","LSAD":"06","ALAND":2040435223,"AWATER":14786082},"id":"40125"},{"arcs":[[-67,97,-80,98,99]],"type":"Polygon","properties":{"STATEFP":"40","COUNTYFP":"095","COUNTYNS":"01101832","GEOIDFQ":"0500000US40095","GEOID":"40095","NAME":"Marshall","NAMELSAD":"Marshall County","STUSPS":"OK","STATE_NAME":"Oklahoma","LSAD":"06","ALAND":962153982,"AWATER":143719930},"id":"40095"},{"arcs":[[100,-83,101,-41,-85,102]],"type":"Polygon","properties":{"STATEFP":"40","COUNTYFP":"023","COUNTYNS":"01101799","GEOIDFQ":"0500000US40023","GEOID":"40023","NAME":"Choctaw","NAMELSAD":"Choctaw County","STUSPS":"OK","STATE_NAME":"Oklahoma","LSAD":"06","ALAND":1995281898,"AWATER":75475686},"id":"40023"},{"arcs":[[-25,103,104,105,106,107,-49]],"type":"Polygon","properties":{"STATEFP":"40","COUNTYFP":"075","COUNTYNS":"01101825","GEOIDFQ":"0500000US40075","GEOID":"40075","NAME":"Kiowa","NAMELSAD":"Kiowa County","STUSPS":"OK","STATE_NAME":"Oklahoma","LSAD":"06","ALAND":2629039892,"AWATER":40296743},"id":"40075"},{"arcs":[[-20,108,-75,109,110,111]],"type":"Polygon","properties":{"STATEFP":"40","COUNTYFP":"101","COUNTYNS":"01101838","GEOIDFQ":"0500000US40101","GEOID":"40101","NAME":"Muskogee","NAMELSAD":"Muskogee County","STUSPS":"OK","STATE_NAME":"Oklahoma","LSAD":"06","ALAND":2099556315,"AWATER":76069746},"id":"40101"},{"arcs":[[-107,112,113,114,115,116,117]],"type":"Polygon","properties":{"STATEFP":"40","COUNTYFP":"015","COUNTYNS":"01101795","GEOIDFQ":"0500000US40015","GEOID":"40015","NAME":"Caddo","NAMELSAD":"Caddo County","STUSPS":"OK","STATE_NAME":"Oklahoma","LSAD":"06","ALAND":3309366440,"AWATER":32099077},"id":"40015"},{"arcs":[[-48,118,-51,119,120]],"type":"Polygon","properties":{"STATEFP":"40","COUNTYFP":"033","COUNTYNS":"01101804","GEOIDFQ":"0500000US40033","GEOID":"40033","NAME":"Cotton","NAMELSAD":"Cotton County","STUSPS":"OK","STATE_NAME":"Oklahoma","LSAD":"06","ALAND":1638523153,"AWATER":23986260},"id":"40033"},{"arcs":[[121,122,123,124,125,126]],"type":"Polygon","properties":{"STATEFP":"40","COUNTYFP":"083","COUNTYNS":"01101829","GEOIDFQ":"0500000US40083","GEOID":"40083","NAME":"Logan","NAMELSAD":"Logan County","STUSPS":"OK","STATE_NAME":"Oklahoma","LSAD":"06","ALAND":1926294789,"AWATER":13176989},"id":"40083"},{"arcs":[[-53,127,128,129,130]],"type":"Polygon","properties":{"STATEFP":"40","COUNTYFP":"153","COUNTYNS":"01101864","GEOIDFQ":"0500000US40153","GEOID":"40153","NAME":"Woodward","NAMELSAD":"Woodward County","STUSPS":"OK","STATE_NAME":"Oklahoma","LSAD":"06","ALAND":3218801192,"AWATER":9693573},"id":"40153"},{"arcs":[[131,132,133,134,135,136,137]],"type":"Polygon","properties":{"STATEFP":"40","COUNTYFP":"041","COUNTYNS":"01101808","GEOIDFQ":"0500000US40041","GEOID":"40041","NAME":"Delaware","NAMELSAD":"Delaware County","STUSPS":"OK","STATE_NAME":"Oklahoma","LSAD":"06","ALAND":1910765789,"AWATER":140496501},"id":"40041"},{"arcs":[[-46,-68,-100,138]],"type":"Polygon","properties":{"STATEFP":"40","COUNTYFP":"085","COUNTYNS":"01101830","GEOIDFQ":"0500000US40085","GEOID":"40085","NAME":"Love","NAMELSAD":"Love County","STUSPS":"OK","STATE_NAME":"Oklahoma","LSAD":"06","ALAND":1331031195,"AWATER":47500219},"id":"40085"},{"arcs":[[139,140,141]],"type":"Polygon","properties":{"STATEFP":"40","COUNTYFP":"025","COUNTYNS":"01101800","GEOIDFQ":"0500000US40025","GEOID":"40025","NAME":"Cimarron","NAMELSAD":"Cimarron County","STUSPS":"OK","STATE_NAME":"Oklahoma","LSAD":"06","ALAND":4752131826,"AWATER":15923999},"id":"40025"},{"arcs":[[-44,-121,142,143,144,-63]],"type":"Polygon","properties":{"STATEFP":"40","COUNTYFP":"137","COUNTYNS":"01101856","GEOIDFQ":"0500000US40137","GEOID":"40137","NAME":"Stephens","NAMELSAD":"Stephens County","STUSPS":"OK","STATE_NAME":"Oklahoma","LSAD":"06","ALAND":2253839329,"AWATER":54824750},"id":"40137"},{"arcs":[[145,-137,146,147]],"type":"Polygon","properties":{"STATEFP":"40","COUNTYFP":"115","COUNTYNS":"01101845","GEOIDFQ":"0500000US40115","GEOID":"40115","NAME":"Ottawa","NAMELSAD":"Ottawa County","STUSPS":"OK","STATE_NAME":"Oklahoma","LSAD":"06","ALAND":1219410531,"AWATER":35714103},"id":"40115"},{"arcs":[[-129,148,149,150,151]],"type":"Polygon","properties":{"STATEFP":"40","COUNTYFP":"059","COUNTYNS":"01101817","GEOIDFQ":"0500000US40059","GEOID":"40059","NAME":"Harper","NAMELSAD":"Harper County","STUSPS":"OK","STATE_NAME":"Oklahoma","LSAD":"06","ALAND":2689919587,"AWATER":5259447},"id":"40059"},{"arcs":[[-57,152,153,154,155]],"type":"Polygon","properties":{"STATEFP":"40","COUNTYFP":"129","COUNTYNS":"01101852","GEOIDFQ":"0500000US40129","GEOID":"40129","NAME":"Roger Mills","NAMELSAD":"Roger Mills County","STUSPS":"OK","STATE_NAME":"Oklahoma","LSAD":"06","ALAND":2955524816,"AWATER":13688537},"id":"40129"},{"arcs":[[-50,-108,-118,156,-143,-120]],"type":"Polygon","properties":{"STATEFP":"40","COUNTYFP":"031","COUNTYNS":"01101803","GEOIDFQ":"0500000US40031","GEOID":"40031","NAME":"Comanche","NAMELSAD":"Comanche County","STUSPS":"OK","STATE_NAME":"Oklahoma","LSAD":"06","ALAND":2769531010,"AWATER":37661894},"id":"40031"},{"arcs":[[-94,157,-125,158,159,160]],"type":"Polygon","properties":{"STATEFP":"40","COUNTYFP":"081","COUNTYNS":"01101828","GEOIDFQ":"0500000US40081","GEOID":"40081","NAME":"Lincoln","NAMELSAD":"Lincoln County","STUSPS":"OK","STATE_NAME":"Oklahoma","LSAD":"06","ALAND":2466633130,"AWATER":34719299},"id":"40081"},{"arcs":[[-34,161,-42,-102,-82,162]],"type":"Polygon","properties":{"STATEFP":"40","COUNTYFP":"005","COUNTYNS":"01101790","GEOIDFQ":"0500000US40005","GEOID":"40005","NAME":"Atoka","NAMELSAD":"Atoka County","STUSPS":"OK","STATE_NAME":"Oklahoma","LSAD":"06","ALAND":2526413615,"AWATER":37268120},"id":"40005"},{"arcs":[[-24,163,164,-104]],"type":"Polygon","properties":{"STATEFP":"40","COUNTYFP":"055","COUNTYNS":"01101815","GEOIDFQ":"0500000US40055","GEOID":"40055","NAME":"Greer","NAMELSAD":"Greer County","STUSPS":"OK","STATE_NAME":"Oklahoma","LSAD":"06","ALAND":1655740232,"AWATER":11148547},"id":"40055"},{"arcs":[[-19,165,-134,166,-76,-109]],"type":"Polygon","properties":{"STATEFP":"40","COUNTYFP":"021","COUNTYNS":"01101798","GEOIDFQ":"0500000US40021","GEOID":"40021","NAME":"Cherokee","NAMELSAD":"Cherokee County","STUSPS":"OK","STATE_NAME":"Oklahoma","LSAD":"06","ALAND":1940229532,"AWATER":69660639},"id":"40021"},{"arcs":[[-1,167,-126,-158,-93]],"type":"Polygon","properties":{"STATEFP":"40","COUNTYFP":"109","COUNTYNS":"01101842","GEOIDFQ":"0500000US40109","GEOID":"40109","NAME":"Oklahoma","NAMELSAD":"Oklahoma County","STUSPS":"OK","STATE_NAME":"Oklahoma","LSAD":"06","ALAND":1836043258,"AWATER":24713348},"id":"40109"},{"arcs":[[-64,-145,168,-71,169,170]],"type":"Polygon","properties":{"STATEFP":"40","COUNTYFP":"049","COUNTYNS":"01101812","GEOIDFQ":"0500000US40049","GEOID":"40049","NAME":"Garvin","NAMELSAD":"Garvin County","STUSPS":"OK","STATE_NAME":"Oklahoma","LSAD":"06","ALAND":2077548907,"AWATER":30017504},"id":"40049"},{"arcs":[[-95,-161,171,172,173,174,175]],"type":"Polygon","properties":{"STATEFP":"40","COUNTYFP":"107","COUNTYNS":"01101841","GEOIDFQ":"0500000US40107","GEOID":"40107","NAME":"Okfuskee","NAMELSAD":"Okfuskee County","STUSPS":"OK","STATE_NAME":"Oklahoma","LSAD":"06","ALAND":1601800031,"AWATER":26649343},"id":"40107"},{"arcs":[[-17,176,-61,177,178,179]],"type":"Polygon","properties":{"STATEFP":"40","COUNTYFP":"131","COUNTYNS":"01101853","GEOIDFQ":"0500000US40131","GEOID":"40131","NAME":"Rogers","NAMELSAD":"Rogers County","STUSPS":"OK","STATE_NAME":"Oklahoma","LSAD":"06","ALAND":1750176501,"AWATER":92946097},"id":"40131"},{"arcs":[[-29,-43,-162,-33,180,181,182]],"type":"Polygon","properties":{"STATEFP":"40","COUNTYFP":"121","COUNTYNS":"01101848","GEOIDFQ":"0500000US40121","GEOID":"40121","NAME":"Pittsburg","NAMELSAD":"Pittsburg County","STUSPS":"OK","STATE_NAME":"Oklahoma","LSAD":"06","ALAND":3381261513,"AWATER":187443330},"id":"40121"},{"arcs":[[183,-141,184,185,186]],"type":"Polygon","properties":{"STATEFP":"40","COUNTYFP":"139","COUNTYNS":"01101857","GEOIDFQ":"0500000US40139","GEOID":"40139","NAME":"Texas","NAMELSAD":"Texas County","STUSPS":"OK","STATE_NAME":"Oklahoma","LSAD":"06","ALAND":5286923170,"AWATER":19169341},"id":"40139"},{"arcs":[[-91,187,-130,-152,188]],"type":"Polygon","properties":{"STATEFP":"40","COUNTYFP":"151","COUNTYNS":"01101863","GEOIDFQ":"0500000US40151","GEOID":"40151","NAME":"Woods","NAMELSAD":"Woods County","STUSPS":"OK","STATE_NAME":"Oklahoma","LSAD":"06","ALAND":3331971784,"AWATER":9081295},"id":"40151"},{"arcs":[[-4,-73,189,-116,190,191,-168]],"type":"Polygon","properties":{"STATEFP":"40","COUNTYFP":"017","COUNTYNS":"01101796","GEOIDFQ":"0500000US40017","GEOID":"40017","NAME":"Canadian","NAMELSAD":"Canadian County","STUSPS":"OK","STATE_NAME":"Oklahoma","LSAD":"06","ALAND":2322127928,"AWATER":23131579},"id":"40017"},{"arcs":[[-56,192,-114,193,194,-153]],"type":"Polygon","properties":{"STATEFP":"40","COUNTYFP":"039","COUNTYNS":"01101807","GEOIDFQ":"0500000US40039","GEOID":"40039","NAME":"Custer","NAMELSAD":"Custer County","STUSPS":"OK","STATE_NAME":"Oklahoma","LSAD":"06","ALAND":2560924936,"AWATER":34326632},"id":"40039"},{"arcs":[[-65,-171,195,196]],"type":"Polygon","properties":{"STATEFP":"40","COUNTYFP":"099","COUNTYNS":"01101837","GEOIDFQ":"0500000US40099","GEOID":"40099","NAME":"Murray","NAMELSAD":"Murray County","STUSPS":"OK","STATE_NAME":"Oklahoma","LSAD":"06","ALAND":1078405796,"AWATER":22710693},"id":"40099"},{"arcs":[[197,-77,-167,-133]],"type":"Polygon","properties":{"STATEFP":"40","COUNTYFP":"001","COUNTYNS":"01101788","GEOIDFQ":"0500000US40001","GEOID":"40001","NAME":"Adair","NAMELSAD":"Adair County","STUSPS":"OK","STATE_NAME":"Oklahoma","LSAD":"06","ALAND":1486345558,"AWATER":8864933},"id":"40001"},{"arcs":[[-32,198,199,-175,200,-181]],"type":"Polygon","properties":{"STATEFP":"40","COUNTYFP":"063","COUNTYNS":"01101819","GEOIDFQ":"0500000US40063","GEOID":"40063","NAME":"Hughes","NAMELSAD":"Hughes County","STUSPS":"OK","STATE_NAME":"Oklahoma","LSAD":"06","ALAND":2083575246,"AWATER":26461993},"id":"40063"},{"arcs":[[-72,-169,-144,-157,-117,-190]],"type":"Polygon","properties":{"STATEFP":"40","COUNTYFP":"051","COUNTYNS":"01101813","GEOIDFQ":"0500000US40051","GEOID":"40051","NAME":"Grady","NAMELSAD":"Grady County","STUSPS":"OK","STATE_NAME":"Oklahoma","LSAD":"06","ALAND":2850386657,"AWATER":11374380},"id":"40051"},{"arcs":[[-55,201,202,-191,-115,-193]],"type":"Polygon","properties":{"STATEFP":"40","COUNTYFP":"011","COUNTYNS":"01101793","GEOIDFQ":"0500000US40011","GEOID":"40011","NAME":"Blaine","NAMELSAD":"Blaine County","STUSPS":"OK","STATE_NAME":"Oklahoma","LSAD":"06","ALAND":2404706846,"AWATER":26921320},"id":"40011"},{"arcs":[[-35,-163,-81,-98,-66,-197,203]],"type":"Polygon","properties":{"STATEFP":"40","COUNTYFP":"069","COUNTYNS":"01101822","GEOIDFQ":"0500000US40069","GEOID":"40069","NAME":"Johnston","NAMELSAD":"Johnston County","STUSPS":"OK","STATE_NAME":"Oklahoma","LSAD":"06","ALAND":1665492479,"AWATER":39645099},"id":"40069"},{"arcs":[[-111,204,-182,-201,-174,205]],"type":"Polygon","properties":{"STATEFP":"40","COUNTYFP":"091","COUNTYNS":"01101836","GEOIDFQ":"0500000US40091","GEOID":"40091","NAME":"McIntosh","NAMELSAD":"McIntosh County","STUSPS":"OK","STATE_NAME":"Oklahoma","LSAD":"06","ALAND":1601369690,"AWATER":242857176},"id":"40091"},{"arcs":[[-89,206,207,208,-122,209,210]],"type":"Polygon","properties":{"STATEFP":"40","COUNTYFP":"047","COUNTYNS":"01101811","GEOIDFQ":"0500000US40047","GEOID":"40047","NAME":"Garfield","NAMELSAD":"Garfield County","STUSPS":"OK","STATE_NAME":"Oklahoma","LSAD":"06","ALAND":2741521321,"AWATER":4075930},"id":"40047"},{"arcs":[[211,-150,212,213,-186,214]],"type":"Polygon","properties":{"STATEFP":"40","COUNTYFP":"007","COUNTYNS":"01101791","GEOIDFQ":"0500000US40007","GEOID":"40007","NAME":"Beaver","NAMELSAD":"Beaver County","STUSPS":"OK","STATE_NAME":"Oklahoma","LSAD":"06","ALAND":4700407091,"AWATER":7347161},"id":"40007"},{"arcs":[[-7,-62,-177,-22,215,216,-36]],"type":"Polygon","properties":{"STATEFP":"40","COUNTYFP":"143","COUNTYNS":"01101859","GEOIDFQ":"0500000US40143","GEOID":"40143","NAME":"Tulsa","NAMELSAD":"Tulsa County","STUSPS":"OK","STATE_NAME":"Oklahoma","LSAD":"06","ALAND":1476919088,"AWATER":42923482},"id":"40143"},{"arcs":[[-60,217,218,-178]],"type":"Polygon","properties":{"STATEFP":"40","COUNTYFP":"105","COUNTYNS":"01101840","GEOIDFQ":"0500000US40105","GEOID":"40105","NAME":"Nowata","NAMELSAD":"Nowata County","STUSPS":"OK","STATE_NAME":"Oklahoma","LSAD":"06","ALAND":1465460404,"AWATER":38903890},"id":"40105"},{"arcs":[[-106,219,-194,-113]],"type":"Polygon","properties":{"STATEFP":"40","COUNTYFP":"149","COUNTYNS":"01101862","GEOIDFQ":"0500000US40149","GEOID":"40149","NAME":"Washita","NAMELSAD":"Washita County","STUSPS":"OK","STATE_NAME":"Oklahoma","LSAD":"06","ALAND":2597989571,"AWATER":14579003},"id":"40149"},{"arcs":[[-21,-112,-206,-173,220,-216]],"type":"Polygon","properties":{"STATEFP":"40","COUNTYFP":"111","COUNTYNS":"01101843","GEOIDFQ":"0500000US40111","GEOID":"40111","NAME":"Okmulgee","NAMELSAD":"Okmulgee County","STUSPS":"OK","STATE_NAME":"Oklahoma","LSAD":"06","ALAND":1806369916,"AWATER":12960866},"id":"40111"},{"arcs":[[-127,-192,-203,221,-210]],"type":"Polygon","properties":{"STATEFP":"40","COUNTYFP":"073","COUNTYNS":"01101824","GEOIDFQ":"0500000US40073","GEOID":"40073","NAME":"Kingfisher","NAMELSAD":"Kingfisher County","STUSPS":"OK","STATE_NAME":"Oklahoma","LSAD":"06","ALAND":2326048560,"AWATER":20569584},"id":"40073"},{"arcs":[[222,223,-164,-23,224]],"type":"Polygon","properties":{"STATEFP":"40","COUNTYFP":"057","COUNTYNS":"01101816","GEOIDFQ":"0500000US40057","GEOID":"40057","NAME":"Harmon","NAMELSAD":"Harmon County","STUSPS":"OK","STATE_NAME":"Oklahoma","LSAD":"06","ALAND":1391491973,"AWATER":3800411},"id":"40057"},{"arcs":[[-18,-180,225,-135,-166]],"type":"Polygon","properties":{"STATEFP":"40","COUNTYFP":"097","COUNTYNS":"01101833","GEOIDFQ":"0500000US40097","GEOID":"40097","NAME":"Mayes","NAMELSAD":"Mayes County","STUSPS":"OK","STATE_NAME":"Oklahoma","LSAD":"06","ALAND":1697286671,"AWATER":73073740},"id":"40097"},{"arcs":[[-10,226,-208,227,228]],"type":"Polygon","properties":{"STATEFP":"40","COUNTYFP":"071","COUNTYNS":"01101823","GEOIDFQ":"0500000US40071","GEOID":"40071","NAME":"Kay","NAMELSAD":"Kay County","STUSPS":"OK","STATE_NAME":"Oklahoma","LSAD":"06","ALAND":2381778881,"AWATER":65545215},"id":"40071"},{"arcs":[[229,-147,-136,-226,-179,-219,230]],"type":"Polygon","properties":{"STATEFP":"40","COUNTYFP":"035","COUNTYNS":"01101805","GEOIDFQ":"0500000US40035","GEOID":"40035","NAME":"Craig","NAMELSAD":"Craig County","STUSPS":"OK","STATE_NAME":"Oklahoma","LSAD":"06","ALAND":1971665628,"AWATER":3626706},"id":"40035"},{"arcs":[[-9,-39,231,-123,-209,-227]],"type":"Polygon","properties":{"STATEFP":"40","COUNTYFP":"103","COUNTYNS":"01101839","GEOIDFQ":"0500000US40103","GEOID":"40103","NAME":"Noble","NAMELSAD":"Noble County","STUSPS":"OK","STATE_NAME":"Oklahoma","LSAD":"06","ALAND":1895126494,"AWATER":28100441},"id":"40103"},{"arcs":[[-54,-131,-188,-90,-211,-222,-202]],"type":"Polygon","properties":{"STATEFP":"40","COUNTYFP":"093","COUNTYNS":"01101831","GEOIDFQ":"0500000US40093","GEOID":"40093","NAME":"Major","NAMELSAD":"Major County","STUSPS":"OK","STATE_NAME":"Oklahoma","LSAD":"06","ALAND":2473438577,"AWATER":7651009},"id":"40093"},{"arcs":[[-37,-217,-221,-172,-160,232]],"type":"Polygon","properties":{"STATEFP":"40","COUNTYFP":"037","COUNTYNS":"01101806","GEOIDFQ":"0500000US40037","GEOID":"40037","NAME":"Creek","NAMELSAD":"Creek County","STUSPS":"OK","STATE_NAME":"Oklahoma","LSAD":"06","ALAND":2460215786,"AWATER":50816260},"id":"40037"},{"arcs":[[-58,-156,233,-213,-149,-128]],"type":"Polygon","properties":{"STATEFP":"40","COUNTYFP":"045","COUNTYNS":"01101810","GEOIDFQ":"0500000US40045","GEOID":"40045","NAME":"Ellis","NAMELSAD":"Ellis County","STUSPS":"OK","STATE_NAME":"Oklahoma","LSAD":"06","ALAND":3189509978,"AWATER":952235},"id":"40045"},{"arcs":[[-11,-30,-183,-205,-110,-74]],"type":"Polygon","properties":{"STATEFP":"40","COUNTYFP":"061","COUNTYNS":"01101818","GEOIDFQ":"0500000US40061","GEOID":"40061","NAME":"Haskell","NAMELSAD":"Haskell County","STUSPS":"OK","STATE_NAME":"Oklahoma","LSAD":"06","ALAND":1493711224,"AWATER":126247870},"id":"40061"},{"arcs":[[-31,-204,-196,-170,-70,-97,234,-199]],"type":"Polygon","properties":{"STATEFP":"40","COUNTYFP":"123","COUNTYNS":"01101849","GEOIDFQ":"0500000US40123","GEOID":"40123","NAME":"Pontotoc","NAMELSAD":"Pontotoc County","STUSPS":"OK","STATE_NAME":"Oklahoma","LSAD":"06","ALAND":1865705450,"AWATER":12725534},"id":"40123"},{"arcs":[[-96,-176,-200,-235]],"type":"Polygon","properties":{"STATEFP":"40","COUNTYFP":"133","COUNTYNS":"01101854","GEOIDFQ":"0500000US40133","GEOID":"40133","NAME":"Seminole","NAMELSAD":"Seminole County","STUSPS":"OK","STATE_NAME":"Oklahoma","LSAD":"06","ALAND":1638993888,"AWATER":19960707},"id":"40133"},{"arcs":[[-38,-233,-159,-124,-232]],"type":"Polygon","properties":{"STATEFP":"40","COUNTYFP":"119","COUNTYNS":"01101847","GEOIDFQ":"0500000US40119","GEOID":"40119","NAME":"Payne","NAMELSAD":"Payne County","STUSPS":"OK","STATE_NAME":"Oklahoma","LSAD":"06","ALAND":1773885843,"AWATER":31991880},"id":"40119"},{"arcs":[[235,-154,-195,-220,-105,-165,-224]],"type":"Polygon","properties":{"STATEFP":"40","COUNTYFP":"009","COUNTYNS":"01101792","GEOIDFQ":"0500000US40009","GEOID":"40009","NAME":"Beckham","NAMELSAD":"Beckham County","STUSPS":"OK","STATE_NAME":"Oklahoma","LSAD":"06","ALAND":2335328722,"AWATER":5521744},"id":"40009"},{"arcs":[[236,-228,-207,-88]],"type":"Polygon","properties":{"STATEFP":"40","COUNTYFP":"053","COUNTYNS":"01101814","GEOIDFQ":"0500000US40053","GEOID":"40053","NAME":"Grant","NAMELSAD":"Grant County","STUSPS":"OK","STATE_NAME":"Oklahoma","LSAD":"06","ALAND":2591904433,"AWATER":7042653},"id":"40053"}]}}}