{"type":"Topology","arcs":[[[2767,1841],[0,131],[251,0],[-21,16],[20,76],[14,33],[-2,26],[17,14],[-1,26],[18,36],[13,52],[31,26],[27,57],[-25,30],[-9,36],[12,14],[-21,28],[10,24],[-17,45],[-42,36],[-9,46],[-25,29],[-33,12],[-25,21]],[[2950,2655],[-8,27],[12,77],[-4,24],[-21,19],[22,67],[46,40],[13,-2],[53,44],[45,25]],[[3108,2976],[489,2],[324,0]],[[3921,2978],[1,-476],[-19,0],[-1,-489],[-3,-312],[3,-158],[-1,-159],[429,-1],[0,-5],[138,1],[1,-472],[2,-106],[1,-797]],[[4472,4],[-173,-1],[-185,7],[-207,-2],[-125,2],[-174,4],[-424,8],[-272,6],[-153,2]],[[2759,30],[-1,218],[3,0],[1,296],[-1,341],[4,0],[1,427],[0,373],[1,156]],[[1812,5651],[39,42],[22,6],[27,31],[-39,42],[1,38],[24,-4],[-14,68],[-27,4],[-12,22],[18,22],[45,2],[-3,60],[46,52],[20,-32],[40,-1],[18,-19],[40,-7],[21,12]],[[2078,5989],[18,27],[61,0],[0,-27],[55,0],[-15,-31],[8,-49],[-14,-79],[-32,-53],[-3,-30],[43,-36],[37,-51],[18,-38],[66,-43],[66,-29],[5,-57],[30,-11],[9,-32],[37,-56],[37,-31],[16,9],[33,-14],[21,-21],[51,1],[-2,-34],[175,0],[636,0]],[[3434,5304],[-21,-53],[11,-17],[-13,-32]],[[3411,5202],[-14,-18],[-58,-16],[-10,-21],[10,-32],[33,-20],[15,-21],[-23,-26],[-11,-77],[1,-37]],[[3354,4934],[-199,0],[-20,18],[-64,-15],[-105,47],[-24,26],[-97,-59],[-16,10],[-19,41],[-31,27],[-24,34],[-40,8],[-114,-9],[-74,4],[-28,-11],[-34,31],[-40,2],[-43,19],[-25,20],[-87,-25],[-34,25],[-34,-3],[-21,10],[-43,-2],[-31,-37],[-26,-8],[-61,-41],[-45,-53],[-28,9],[-22,-43],[-38,-19],[-14,24],[5,27],[-34,42],[-24,2],[-73,23],[-27,-5]],[[1720,5053],[-2,39],[29,44],[24,6],[11,31],[-40,22],[-49,5],[-16,13],[-1,39],[38,7],[28,86],[21,17],[-1,25],[46,-5],[33,29],[8,73],[-33,12],[-13,44],[8,50],[1,61]],[[1981,6836],[176,-1],[27,14]],[[2184,6849],[-15,-88],[13,-43],[62,-36],[46,-36],[38,-15],[50,-4],[66,-20],[90,-34],[44,-27],[70,23],[34,-12],[26,-39],[44,-8],[56,7],[58,30],[21,25],[53,13],[47,-2],[70,48],[49,11],[49,31],[9,20],[41,10]],[[3205,6703],[5,-116],[20,-54],[-18,-24],[12,-41],[39,-9],[30,-54],[37,-45]],[[3330,6360],[-3,-3],[-321,1],[-399,1],[-276,0],[-24,-6],[15,-46],[-115,1]],[[2207,6308],[0,158],[-25,0],[0,26],[-25,0],[0,27],[-25,26],[-25,0],[-1,27],[-25,0],[0,26],[-25,0],[0,27],[-25,0],[1,26],[-26,0],[0,27],[-25,0],[0,158]],[[4428,6689],[25,3],[49,52],[81,27],[121,54],[43,40]],[[4747,6865],[9,-25],[34,-4],[19,-34],[40,-17],[27,-45],[20,5],[52,-31],[25,-65],[26,-10],[17,-29],[25,-4],[11,-48],[-6,-19],[37,-40],[-4,-26],[25,-28],[-6,-20],[-70,6],[1,-60],[-40,32],[-43,-30],[10,-23],[-9,-73],[-21,-16],[-31,-67],[-2,-50],[10,-70],[-28,-14],[17,-78],[-24,-5],[15,-38],[1,-41],[42,-25],[30,-5],[-5,-25],[20,-27],[13,-84],[-62,-33],[7,-33]],[[4929,5666],[-274,1],[11,42],[-3,44],[-47,26],[-12,32],[-30,4],[-37,21],[-39,35],[-59,15],[-56,-13],[-35,7],[-45,23],[-7,115],[11,58],[31,4],[21,21],[20,-19],[40,68],[4,22],[63,77],[11,107],[29,21],[-4,82],[-31,24],[-22,-3],[-32,57],[16,57],[-20,29],[10,22],[-15,44]],[[2950,2655],[-168,2],[-289,0],[-139,-6],[-145,-1],[0,196],[-232,0],[-67,-10],[-145,2],[0,120],[-37,0],[0,319],[-256,1],[0,53],[-148,2],[0,38],[-72,-2],[0,70],[-61,0],[0,42],[-49,1],[1,54],[-49,1],[1,27],[-55,2],[0,13],[-150,1],[-31,-45],[-24,-7],[-37,-37],[-28,4],[0,-60],[-25,-6],[-144,-1],[-114,3]],[[487,3431],[25,241],[1,51],[16,152],[-4,29],[13,92],[9,171],[-6,21]],[[541,4188],[210,1],[6,10],[196,1]],[[953,4200],[73,-6],[148,-6],[0,9],[270,-1],[0,5],[232,0]],[[1676,4201],[8,-32],[-6,-28],[35,-45],[-19,-49],[316,2],[2,107],[47,-1],[0,52],[37,-7],[71,1],[17,12],[114,-39],[26,-5],[9,-31],[56,-9],[32,-28],[39,10],[39,-24],[46,2],[98,-10],[21,-15],[49,40],[0,40],[76,2],[288,0],[82,6],[195,2]],[[3354,4154],[12,-16],[15,-56],[-10,-20],[15,-41],[2,-33],[-15,-35],[14,-16],[6,-45],[-6,-44],[-36,-71],[-40,-28],[16,-46],[-6,-27],[-37,-59],[-15,-98],[-44,3],[-27,-8],[-5,-27],[-49,-61],[-6,-60],[20,-118],[-25,-38],[18,-71],[-24,-78],[7,-41],[-23,-24],[-3,-20]],[[1230,7821],[56,22],[26,-3],[39,-36],[24,-37],[-4,-88],[50,-50],[32,-15]],[[1453,7614],[-4,-195],[9,-1],[-1,-316],[2,-55],[-3,-105]],[[1456,6942],[-150,1],[0,-8],[-286,-5],[0,19],[-303,0]],[[717,6949],[10,99],[-8,129],[-32,71],[23,18],[6,24],[40,15],[11,59],[-6,114],[-17,81],[-33,97],[-44,100],[13,24],[33,-44],[82,-59],[3,-21],[58,-21],[14,26],[-20,16],[17,22],[29,-4],[47,15],[31,27],[48,-44],[30,1],[24,16],[9,36],[57,-5],[87,62],[1,18]],[[5940,5505],[619,2]],[[6559,5507],[263,2],[330,0],[190,-3]],[[7342,5506],[61,-1],[38,-19],[1,-41],[38,23],[71,22],[73,-41],[13,-13],[38,1]],[[7675,5437],[0,-24],[26,-15],[-17,-52],[15,-61],[-14,-25],[-38,14],[-34,-12],[3,-18],[-31,-31],[27,-36],[-4,-37],[20,-47],[-2,-36],[-49,-17],[-51,10],[-35,-39],[-58,-3],[-21,-31],[-38,12],[-29,-21],[-2,-23],[16,-44],[33,-8],[38,-21],[26,9],[18,-22],[43,6],[38,-26],[2,-28],[27,-21],[17,-30],[-25,-51],[-24,-2],[-16,-44],[-15,-9],[-4,-42],[20,-44],[-21,-46],[-57,-18],[5,-31],[-21,-56],[27,-52],[-21,-6],[-12,-35],[-34,-30],[-35,-106],[0,-40],[322,2]],[[7690,4150],[4,-80],[2,-316]],[[7696,3754],[-437,0],[0,13],[-279,1],[0,-159],[-140,-1],[-830,-1],[-52,-2]],[[5958,3605],[1,479],[1,159]],[[5960,4243],[2,151],[0,266],[2,530],[-23,0],[-1,315]],[[1024,1452],[0,-81],[164,0],[24,-41],[24,-14],[58,-1],[0,-13],[60,2],[0,14],[47,6],[8,20],[41,13],[112,0],[30,-14],[0,-41],[24,1]],[[1616,1303],[1,-501],[-1,-254],[1,-298],[-3,-228]],[[1614,22],[-140,-8],[-208,2],[-129,-1],[-41,-9],[-86,4],[-114,-3]],[[896,7],[-20,36],[3,26],[-16,25],[33,80],[-12,39],[-32,49],[22,33],[30,24],[-4,69],[31,32],[-26,76],[-40,75],[10,16],[-37,20],[-10,40],[-18,16],[-33,-13],[-18,17],[-112,6],[-18,49],[7,29],[28,20],[-2,40],[16,22],[3,98],[33,-8],[31,11],[22,-13],[46,12],[19,23],[-5,21],[29,47],[-6,23],[13,38],[23,21],[11,45],[-12,23],[90,162],[29,88],[20,28]],[[4747,6865],[23,15],[53,2],[39,-15],[65,-70],[28,-11],[96,9],[91,22],[57,18],[86,9],[49,66],[36,21],[86,22],[86,50]],[[5542,7003],[2,-229],[-1,-312],[-7,-1],[-2,-475],[151,-2],[-2,-160],[151,0],[-2,-162],[-36,0],[0,-24]],[[5796,5638],[-289,-5],[-122,0],[-4,4],[-441,2]],[[4940,5639],[-11,27]],[[953,4200],[-1,60],[-49,-1],[0,53],[99,2],[0,27],[24,0],[-6,54],[0,80],[149,-1],[2,82],[-1,318],[-7,0],[0,128]],[[1163,5002],[365,-2],[186,1]],[[1714,5001],[34,-53],[5,-27],[30,-2],[22,-32],[-8,-23],[-24,-11],[-78,-4],[-8,-30],[-29,-30],[12,-32],[-44,-5],[-36,-18],[-11,-36],[22,-19],[5,-31],[31,-42],[-5,-67],[14,-46],[-27,-24],[4,-67],[-19,-34],[27,-112],[24,-10],[21,-45]],[[8920,4233],[4,-24],[57,-54],[39,1],[21,33],[20,5],[18,-40],[40,-50],[30,32],[68,-10],[5,-84],[57,-10],[36,-37],[-3,-35],[-20,-46],[-35,-61],[-42,-16],[6,-67],[36,-24],[11,-26],[-12,-33],[7,-35],[-46,-18],[20,-20],[-10,-53],[6,-32],[-20,-4],[4,-37],[-9,-27],[-1,-24],[-43,-15],[11,-17],[-27,-36],[8,-40],[0,-233],[-1,-670],[1,-532],[0,-399],[0,-335],[0,-451],[0,-389],[0,-305],[-208,1],[-521,-4],[-301,0],[-393,-2]],[[7733,10],[2,511],[-23,0],[-3,971],[0,200],[-15,-1],[1,334],[0,462],[-5,0],[0,483],[1,306],[4,0],[1,478]],[[7690,4150],[47,0],[0,27],[50,0],[0,53],[25,0],[0,27],[24,0],[0,26],[25,0],[6,53],[18,26],[24,0],[0,34],[25,-1],[0,47],[25,0],[0,26],[48,-1],[0,27],[121,0],[342,1],[0,-26],[26,0],[0,-26],[49,0],[-1,-27],[25,0],[0,-26],[27,0],[0,-159],[324,2]],[[896,7],[-215,1],[-258,4],[-72,87],[-35,11],[-36,62],[-17,16],[-17,43],[6,31],[-18,43],[7,41],[-15,28],[-5,42],[-41,58],[4,55],[-5,49],[-26,31],[8,20],[2,136],[-13,51],[17,44],[0,65],[27,77],[12,66],[-12,32],[-2,65],[-14,56],[-46,33],[4,16],[-32,88],[-48,24],[-14,81],[-14,44],[-28,37],[28,52],[44,101],[25,67]],[[97,1764],[269,1],[23,-39],[24,0],[6,-54],[65,-38],[-1,-25],[19,-14],[6,-62],[-29,-19],[6,-51],[0,-92],[26,0],[0,-126],[60,26],[113,1],[0,26],[24,0],[0,27],[24,0],[0,26],[24,0],[14,20],[0,64],[70,0],[22,26],[47,0]],[[909,1461],[34,19],[62,-35],[19,7]],[[2078,5989],[-22,0],[0,106]],[[2056,6095],[26,0],[0,53],[48,0],[2,-26],[75,0],[0,186]],[[3330,6360],[15,-13],[0,-35],[38,-60],[63,-17],[32,-40],[-7,-74],[30,-63],[-21,-72]],[[3480,5986],[19,-13],[-7,-32],[-36,-41],[-39,-11],[-1,-24],[30,-61],[14,-9],[6,-36],[17,-31],[34,5],[17,-61],[-8,-37],[-35,2],[-29,-21],[-33,-41],[-40,11],[-42,-61],[7,-55],[24,-75],[21,11],[19,-49],[38,-27],[-22,-26]],[[3411,5202],[34,-8],[453,-2],[316,1],[3,-3],[486,-2],[387,-1]],[[5090,5187],[-12,-39],[-28,-14],[23,-58],[-1,-362]],[[5072,4714],[-256,-1],[-280,-1],[1,-158],[-197,0],[0,-158],[-145,1]],[[4195,4397],[-148,0],[0,4],[-296,1],[-198,-2],[-46,2],[-206,-2]],[[3301,4400],[-4,76],[7,20],[-10,43],[3,42],[45,41],[-8,38],[16,38],[11,71],[-20,38],[13,45],[0,82]],[[9310,5221],[-41,-76],[-2,-28],[-39,-16],[-39,-34],[-18,1],[-37,-22],[-22,-33],[1,-37],[-21,-27],[-3,-34],[-18,-16],[-2,-44],[-28,-48],[-5,-56],[-26,-28],[3,-42],[-21,-38],[-25,-4],[-15,-42],[-39,-38],[14,-57],[0,-38],[-15,-40],[-19,-17],[9,-41],[48,-51],[7,-17],[-16,-44],[-21,-21]],[[7675,5437],[38,57],[1,29],[22,22],[41,-3],[22,22],[15,32],[46,-7],[28,-45],[80,-40],[43,2],[76,63],[25,48],[51,4],[31,-60],[23,6],[21,-29],[5,-39],[259,1],[1,159],[362,2]],[[8865,5661],[295,-2],[291,-2]],[[9451,5657],[-17,-33],[-61,-69],[4,-39],[-15,-31],[7,-48],[19,-32],[-21,-98],[-15,-31],[-37,-27],[-5,-28]],[[3301,4400],[7,-63],[1,-101],[-5,-25],[20,-12],[6,-38],[24,-7]],[[1714,5001],[19,34],[-13,18]],[[7342,5506],[0,155],[-35,0],[1,213],[-133,0],[0,112],[-50,0],[-1,161],[51,-10],[52,-1],[0,28],[225,0],[0,136],[28,0],[0,25],[47,-25],[120,0],[85,-4],[0,80],[99,0],[-2,81],[1,319],[62,-1],[0,156],[26,0],[0,80],[87,0],[0,80]],[[8005,7091],[275,1],[-1,-161],[-49,0],[1,-154],[25,0],[0,-53],[25,0],[0,-80],[23,0],[0,-187],[53,1],[0,-159],[24,0],[1,-115],[24,-1],[0,-52],[74,2],[0,-51],[25,0],[0,-26],[24,0],[0,-52],[24,0],[2,-106],[53,0],[1,-79],[256,0],[0,-158]],[[541,4188],[6,76],[11,25],[20,181],[0,129],[10,56],[11,118],[-3,31],[13,84],[-12,45],[12,95],[-13,60],[-6,55],[9,60],[15,14],[27,115],[28,212],[0,52]],[[669,5596],[119,1],[226,-2]],[[1014,5595],[0,-290],[0,-270],[25,0],[0,-33],[124,0]],[[1456,6942],[0,-130],[-150,1],[0,-55],[25,0],[0,-25],[25,0],[0,-27],[25,0],[0,-27],[52,0],[0,-26],[48,1],[1,-27],[49,-1],[1,-26],[-26,0],[0,-26],[-50,0],[0,-53],[-49,1],[-1,-27],[-24,-26],[-25,0],[2,-55],[-24,0],[-5,-106]],[[1330,6308],[3,-175],[-1,-223],[-390,0],[0,-256],[73,-1]],[[1015,5653],[-1,-58]],[[669,5596],[-11,9],[7,49],[28,32],[17,94],[8,102],[-5,28],[12,119],[-2,66],[-19,56],[17,70],[7,82],[-17,67],[15,55],[15,88],[-9,48],[21,150],[-4,135],[-24,30],[-2,27],[-23,18],[17,28]],[[9568,6004],[-19,-49],[-8,-69],[-18,-58],[-8,-58],[-18,-13],[-11,-35],[-24,-15],[-11,-50]],[[8005,7091],[-5,0],[0,257]],[[8000,7348],[454,-4],[151,-2],[173,2],[427,-3],[85,-3],[28,-35],[3,-30],[18,-10],[11,-69],[28,-45],[36,-27],[24,-39],[14,-57],[23,-16],[33,18],[47,-10],[22,-50],[18,-21],[40,5],[48,-12],[69,-81],[1,-78],[8,-19],[49,-58],[30,-62],[0,-24],[-24,-47],[-24,-19],[-25,-37],[-25,-59],[-15,-15],[2,-79],[-41,-37],[-11,-55],[-26,-27],[-67,-140],[0,-83],[-16,-16]],[[1015,5653],[270,-2],[527,0]],[[2759,30],[-108,2],[-207,-3],[-200,-6],[-402,-2],[-124,10],[-104,-9]],[[1616,1303],[60,64],[34,0],[0,33],[48,-6],[125,0],[0,13],[48,3],[24,25],[119,0],[-1,13],[72,-7],[0,27],[24,26],[-1,40],[48,-10],[0,26],[24,0],[0,27],[24,0],[0,26],[24,0],[0,27],[48,0],[-1,29],[46,-2],[0,28],[25,-1],[24,26],[0,26],[121,2],[0,26],[24,0],[0,27],[24,0],[0,27],[24,24],[144,-1]],[[2056,6095],[-50,0],[0,53],[-75,0],[0,27],[-25,0],[0,27],[-25,1],[1,27],[-26,0],[0,26],[-100,-1],[0,26],[-24,0],[-1,27],[-401,0]],[[1456,6942],[299,1],[103,-1],[-1,-51],[50,-1],[0,-27],[75,-1],[-1,-26]],[[6232,7196],[82,7],[51,21],[79,12],[75,-22],[85,9],[40,18],[38,29],[65,38],[26,38],[55,1],[540,0],[451,0],[157,1],[24,0]],[[6559,5507],[0,159],[20,-1],[-1,318],[3,476],[-126,0],[0,158],[-226,2],[0,480],[3,97]],[[97,1764],[40,142],[17,120],[-2,34],[12,20],[28,107],[7,71],[16,85],[-8,37],[-17,28],[36,61],[24,7],[47,84],[34,88],[38,120],[29,111],[16,89]],[[414,2968],[417,-5],[0,-170],[72,1],[-2,-156],[65,1],[4,-17],[-4,-142],[0,-159],[73,-1],[3,-159],[0,-154],[-6,-6],[-66,-1],[0,-159],[-73,0],[0,-132],[3,-73],[-2,-111],[11,0],[0,-64]],[[7733,10],[-369,-3],[-238,-7],[-370,4],[-252,-1],[-141,1],[-44,1]],[[6319,5],[1,262],[-5,0],[0,641],[-2,480],[-414,-1],[0,-4],[-289,0],[0,313],[15,0],[-2,480],[44,0],[0,320],[2,393],[-2,79]],[[5667,2968],[-1,160]],[[5666,3128],[146,-1],[3,479],[143,-1]],[[3205,6703],[25,40],[42,41],[68,25],[93,-23],[33,1],[48,19],[45,-1],[119,40],[12,-3],[29,-7],[45,-36],[26,-7]],[[3790,6792],[1,-327],[-51,1],[0,-479],[-260,-1]],[[414,2968],[15,115],[15,60],[20,111],[23,177]],[[3921,2978],[436,2],[125,-4],[600,1],[0,-8],[585,-1]],[[6319,5],[-102,2],[-342,1],[-183,2],[-149,-4],[-230,-1],[-168,-4],[-198,2],[-154,-1],[-321,2]],[[5702,7046],[79,21],[37,-4],[125,21],[56,89],[28,26],[35,11],[57,-31],[45,-4],[68,21]],[[5940,5505],[-145,-1],[1,134]],[[5542,7003],[41,21],[71,7],[48,15]],[[4195,4397],[-1,-316],[7,0],[0,-147],[141,-8],[0,-317],[290,-7],[1,-157],[448,2],[1,-160],[146,0],[0,-158],[24,-3],[414,2]],[[1453,7614],[102,-2],[81,51],[57,30],[61,-7],[14,-14],[122,-80],[51,-54],[71,-38],[24,-43],[7,-53],[27,-31],[23,-62],[28,-36],[10,-53],[-7,-36],[33,-82],[-1,-32],[-12,-74],[31,-54],[10,-39],[-1,-56]],[[5960,4243],[-296,0],[0,152],[-148,0],[-1,90],[-148,-2],[-271,-1],[-24,-2],[0,234]],[[5090,5187],[-35,15],[-15,41],[-52,24],[-4,29],[24,12],[-1,22],[-35,25],[-5,40],[-20,29],[15,56],[-12,45],[7,27],[-3,59],[-14,28]],[[3790,6792],[48,-9],[35,19],[43,4],[31,-10],[30,-23],[87,-29],[19,-39],[4,-61],[16,-19],[63,6],[14,25],[43,45],[25,8],[69,2],[29,-9],[48,15],[34,-28]]],"transform":{"scale":[0.0008227432926829267,0.000545608823154405],"translate":[-124.559298,41.991794]},"objects":{"41":{"type":"GeometryCollection","geometries":[{"arcs":[[0,1,2,3,4,5]],"type":"Polygon","properties":{"STATEFP":"41","COUNTYFP":"035","COUNTYNS":"01155134","GEOIDFQ":"0500000US41035","GEOID":"41035","NAME":"Klamath","NAMELSAD":"Klamath County","STUSPS":"OR","STATE_NAME":"Oregon","LSAD":"06","ALAND":15410161575,"AWATER":485164893},"id":"41035"},{"arcs":[[6,7,8,9,10,11]],"type":"Polygon","properties":{"STATEFP":"41","COUNTYFP":"047","COUNTYNS":"01135859","GEOIDFQ":"0500000US41047","GEOID":"41047","NAME":"Marion","NAMELSAD":"Marion County","STUSPS":"OR","STATE_NAME":"Oregon","LSAD":"06","ALAND":3058360784,"AWATER":26468479},"id":"41047"},{"arcs":[[12,13,14,15,16]],"type":"Polygon","properties":{"STATEFP":"41","COUNTYFP":"051","COUNTYNS":"01135861","GEOIDFQ":"0500000US41051","GEOID":"41051","NAME":"Multnomah","NAMELSAD":"Multnomah County","STUSPS":"OR","STATE_NAME":"Oregon","LSAD":"06","ALAND":1116316722,"AWATER":88049891},"id":"41051"},{"arcs":[[17,18,19]],"type":"Polygon","properties":{"STATEFP":"41","COUNTYFP":"055","COUNTYNS":"01135863","GEOIDFQ":"0500000US41055","GEOID":"41055","NAME":"Sherman","NAMELSAD":"Sherman County","STUSPS":"OR","STATE_NAME":"Oregon","LSAD":"06","ALAND":2133151631,"AWATER":19617472},"id":"41055"},{"arcs":[[-2,20,21,22,23,24,25]],"type":"Polygon","properties":{"STATEFP":"41","COUNTYFP":"039","COUNTYNS":"01135855","GEOIDFQ":"0500000US41039","GEOID":"41039","NAME":"Lane","NAMELSAD":"Lane County","STUSPS":"OR","STATE_NAME":"Oregon","LSAD":"06","ALAND":11795044812,"AWATER":436058217},"id":"41039"},{"arcs":[[26,27,28,29]],"type":"Polygon","properties":{"STATEFP":"41","COUNTYFP":"007","COUNTYNS":"01135846","GEOIDFQ":"0500000US41007","GEOID":"41007","NAME":"Clatsop","NAMELSAD":"Clatsop County","STUSPS":"OR","STATE_NAME":"Oregon","LSAD":"06","ALAND":2145134305,"AWATER":661367181},"id":"41007"},{"arcs":[[30,31,32,33,34,35,36,37]],"type":"Polygon","properties":{"STATEFP":"41","COUNTYFP":"023","COUNTYNS":"01135851","GEOIDFQ":"0500000US41023","GEOID":"41023","NAME":"Grant","NAMELSAD":"Grant County","STUSPS":"OR","STATE_NAME":"Oregon","LSAD":"06","ALAND":11726925885,"AWATER":1893807},"id":"41023"},{"arcs":[[38,39,40,41]],"type":"Polygon","properties":{"STATEFP":"41","COUNTYFP":"033","COUNTYNS":"01155133","GEOIDFQ":"0500000US41033","GEOID":"41033","NAME":"Josephine","NAMELSAD":"Josephine County","STUSPS":"OR","STATE_NAME":"Oregon","LSAD":"06","ALAND":4244080749,"AWATER":5631773},"id":"41033"},{"arcs":[[-19,42,43,44,45]],"type":"Polygon","properties":{"STATEFP":"41","COUNTYFP":"021","COUNTYNS":"01135850","GEOIDFQ":"0500000US41021","GEOID":"41021","NAME":"Gilliam","NAMELSAD":"Gilliam County","STUSPS":"OR","STATE_NAME":"Oregon","LSAD":"06","ALAND":3120213762,"AWATER":46914702},"id":"41021"},{"arcs":[[-24,46,47,48]],"type":"Polygon","properties":{"STATEFP":"41","COUNTYFP":"003","COUNTYNS":"01155126","GEOIDFQ":"0500000US41003","GEOID":"41003","NAME":"Benton","NAMELSAD":"Benton County","STUSPS":"OR","STATE_NAME":"Oregon","LSAD":"06","ALAND":1748781835,"AWATER":7655317},"id":"41003"},{"arcs":[[49,50,-35,51]],"type":"Polygon","properties":{"STATEFP":"41","COUNTYFP":"045","COUNTYNS":"01135858","GEOIDFQ":"0500000US41045","GEOID":"41045","NAME":"Malheur","NAMELSAD":"Malheur County","STUSPS":"OR","STATE_NAME":"Oregon","LSAD":"06","ALAND":25609041961,"AWATER":109006699},"id":"41045"},{"arcs":[[-42,52,53,54]],"type":"Polygon","properties":{"STATEFP":"41","COUNTYFP":"015","COUNTYNS":"01155129","GEOIDFQ":"0500000US41015","GEOID":"41015","NAME":"Curry","NAMELSAD":"Curry County","STUSPS":"OR","STATE_NAME":"Oregon","LSAD":"06","ALAND":4217523680,"AWATER":934580666},"id":"41015"},{"arcs":[[-8,55,56,-16,57,58]],"type":"Polygon","properties":{"STATEFP":"41","COUNTYFP":"005","COUNTYNS":"01155127","GEOIDFQ":"0500000US41005","GEOID":"41005","NAME":"Clackamas","NAMELSAD":"Clackamas County","STUSPS":"OR","STATE_NAME":"Oregon","LSAD":"06","ALAND":4845121456,"AWATER":31861089},"id":"41005"},{"arcs":[[-10,59,60,61,62,63]],"type":"Polygon","properties":{"STATEFP":"41","COUNTYFP":"031","COUNTYNS":"01155132","GEOIDFQ":"0500000US41031","GEOID":"41031","NAME":"Jefferson","NAMELSAD":"Jefferson County","STUSPS":"OR","STATE_NAME":"Oregon","LSAD":"06","ALAND":4614570975,"AWATER":26212115},"id":"41031"},{"arcs":[[64,-52,-34,65,66,67]],"type":"Polygon","properties":{"STATEFP":"41","COUNTYFP":"001","COUNTYNS":"01135845","GEOIDFQ":"0500000US41001","GEOID":"41001","NAME":"Baker","NAMELSAD":"Baker County","STUSPS":"OR","STATE_NAME":"Oregon","LSAD":"06","ALAND":7945997815,"AWATER":51831633},"id":"41001"},{"arcs":[[-11,-64,68,-25,-49,69]],"type":"Polygon","properties":{"STATEFP":"41","COUNTYFP":"043","COUNTYNS":"01135857","GEOIDFQ":"0500000US41043","GEOID":"41043","NAME":"Linn","NAMELSAD":"Linn County","STUSPS":"OR","STATE_NAME":"Oregon","LSAD":"06","ALAND":5929797331,"AWATER":50146297},"id":"41043"},{"arcs":[[-33,70,71,-66]],"type":"Polygon","properties":{"STATEFP":"41","COUNTYFP":"061","COUNTYNS":"01164165","GEOIDFQ":"0500000US41061","GEOID":"41061","NAME":"Union","NAMELSAD":"Union County","STUSPS":"OR","STATE_NAME":"Oregon","LSAD":"06","ALAND":5275651503,"AWATER":4936782},"id":"41061"},{"arcs":[[-23,72,73,74,-47]],"type":"Polygon","properties":{"STATEFP":"41","COUNTYFP":"041","COUNTYNS":"01135856","GEOIDFQ":"0500000US41041","GEOID":"41041","NAME":"Lincoln","NAMELSAD":"Lincoln County","STUSPS":"OR","STATE_NAME":"Oregon","LSAD":"06","ALAND":2540749718,"AWATER":553128891},"id":"41041"},{"arcs":[[-29,75,76,77,-74,78]],"type":"Polygon","properties":{"STATEFP":"41","COUNTYFP":"057","COUNTYNS":"01135864","GEOIDFQ":"0500000US41057","GEOID":"41057","NAME":"Tillamook","NAMELSAD":"Tillamook County","STUSPS":"OR","STATE_NAME":"Oregon","LSAD":"06","ALAND":2857236639,"AWATER":593685168},"id":"41057"},{"arcs":[[79,-67,-72,80,81]],"type":"Polygon","properties":{"STATEFP":"41","COUNTYFP":"063","COUNTYNS":"01155135","GEOIDFQ":"0500000US41063","GEOID":"41063","NAME":"Wallowa","NAMELSAD":"Wallowa County","STUSPS":"OR","STATE_NAME":"Oregon","LSAD":"06","ALAND":8147835334,"AWATER":14191752},"id":"41063"},{"arcs":[[-12,-70,-48,-75,-78,82]],"type":"Polygon","properties":{"STATEFP":"41","COUNTYFP":"053","COUNTYNS":"01135862","GEOIDFQ":"0500000US41053","GEOID":"41053","NAME":"Polk","NAMELSAD":"Polk County","STUSPS":"OR","STATE_NAME":"Oregon","LSAD":"06","ALAND":1918983622,"AWATER":8331775},"id":"41053"},{"arcs":[[-6,83,-40,84]],"type":"Polygon","properties":{"STATEFP":"41","COUNTYFP":"029","COUNTYNS":"01135853","GEOIDFQ":"0500000US41029","GEOID":"41029","NAME":"Jackson","NAMELSAD":"Jackson County","STUSPS":"OR","STATE_NAME":"Oregon","LSAD":"06","ALAND":7208596398,"AWATER":46767956},"id":"41029"},{"arcs":[[-17,-57,85,-76,86]],"type":"Polygon","properties":{"STATEFP":"41","COUNTYFP":"067","COUNTYNS":"01155137","GEOIDFQ":"0500000US41067","GEOID":"41067","NAME":"Washington","NAMELSAD":"Washington County","STUSPS":"OR","STATE_NAME":"Oregon","LSAD":"06","ALAND":1875855597,"AWATER":6118186},"id":"41067"},{"arcs":[[-7,-83,-77,-86,-56]],"type":"Polygon","properties":{"STATEFP":"41","COUNTYFP":"071","COUNTYNS":"01135866","GEOIDFQ":"0500000US41071","GEOID":"41071","NAME":"Yamhill","NAMELSAD":"Yamhill County","STUSPS":"OR","STATE_NAME":"Oregon","LSAD":"06","ALAND":1854269940,"AWATER":6382616},"id":"41071"},{"arcs":[[87,-81,-71,-32,88]],"type":"Polygon","properties":{"STATEFP":"41","COUNTYFP":"059","COUNTYNS":"01156673","GEOIDFQ":"0500000US41059","GEOID":"41059","NAME":"Umatilla","NAMELSAD":"Umatilla County","STUSPS":"OR","STATE_NAME":"Oregon","LSAD":"06","ALAND":8327976986,"AWATER":41618632},"id":"41059"},{"arcs":[[-54,89,90]],"type":"Polygon","properties":{"STATEFP":"41","COUNTYFP":"011","COUNTYNS":"01135848","GEOIDFQ":"0500000US41011","GEOID":"41011","NAME":"Coos","NAMELSAD":"Coos County","STUSPS":"OR","STATE_NAME":"Oregon","LSAD":"06","ALAND":4133753719,"AWATER":544687804},"id":"41011"},{"arcs":[[-36,-51,91,92,93,94]],"type":"Polygon","properties":{"STATEFP":"41","COUNTYFP":"025","COUNTYNS":"01135852","GEOIDFQ":"0500000US41025","GEOID":"41025","NAME":"Harney","NAMELSAD":"Harney County","STUSPS":"OR","STATE_NAME":"Oregon","LSAD":"06","ALAND":26248128949,"AWATER":241512209},"id":"41025"},{"arcs":[[-15,95,96,-58]],"type":"Polygon","properties":{"STATEFP":"41","COUNTYFP":"027","COUNTYNS":"01155131","GEOIDFQ":"0500000US41027","GEOID":"41027","NAME":"Hood River","NAMELSAD":"Hood River County","STUSPS":"OR","STATE_NAME":"Oregon","LSAD":"06","ALAND":1352477354,"AWATER":29044350},"id":"41027"},{"arcs":[[-1,-85,-39,-55,-91,97,-21]],"type":"Polygon","properties":{"STATEFP":"41","COUNTYFP":"019","COUNTYNS":"01135849","GEOIDFQ":"0500000US41019","GEOID":"41019","NAME":"Douglas","NAMELSAD":"Douglas County","STUSPS":"OR","STATE_NAME":"Oregon","LSAD":"06","ALAND":13042545736,"AWATER":251754374},"id":"41019"},{"arcs":[[-4,98,-93,99]],"type":"Polygon","properties":{"STATEFP":"41","COUNTYFP":"037","COUNTYNS":"01135854","GEOIDFQ":"0500000US41037","GEOID":"41037","NAME":"Lake","NAMELSAD":"Lake County","STUSPS":"OR","STATE_NAME":"Oregon","LSAD":"06","ALAND":21078901115,"AWATER":568489460},"id":"41037"},{"arcs":[[100,-89,-31,101,-44,102]],"type":"Polygon","properties":{"STATEFP":"41","COUNTYFP":"049","COUNTYNS":"01135860","GEOIDFQ":"0500000US41049","GEOID":"41049","NAME":"Morrow","NAMELSAD":"Morrow County","STUSPS":"OR","STATE_NAME":"Oregon","LSAD":"06","ALAND":5259046262,"AWATER":44372727},"id":"41049"},{"arcs":[[-3,-26,-69,-63,103,-94,-99]],"type":"Polygon","properties":{"STATEFP":"41","COUNTYFP":"017","COUNTYNS":"01155130","GEOIDFQ":"0500000US41017","GEOID":"41017","NAME":"Deschutes","NAMELSAD":"Deschutes County","STUSPS":"OR","STATE_NAME":"Oregon","LSAD":"06","ALAND":7815573278,"AWATER":94727627},"id":"41017"},{"arcs":[[-13,-87,-28,104]],"type":"Polygon","properties":{"STATEFP":"41","COUNTYFP":"009","COUNTYNS":"01135847","GEOIDFQ":"0500000US41009","GEOID":"41009","NAME":"Columbia","NAMELSAD":"Columbia County","STUSPS":"OR","STATE_NAME":"Oregon","LSAD":"06","ALAND":1705989599,"AWATER":78475793},"id":"41009"},{"arcs":[[-38,105,-61,106,-45,-102]],"type":"Polygon","properties":{"STATEFP":"41","COUNTYFP":"069","COUNTYNS":"01135865","GEOIDFQ":"0500000US41069","GEOID":"41069","NAME":"Wheeler","NAMELSAD":"Wheeler County","STUSPS":"OR","STATE_NAME":"Oregon","LSAD":"06","ALAND":4444475010,"AWATER":1241033},"id":"41069"},{"arcs":[[-9,-59,-97,107,-20,-46,-107,-60]],"type":"Polygon","properties":{"STATEFP":"41","COUNTYFP":"065","COUNTYNS":"01155136","GEOIDFQ":"0500000US41065","GEOID":"41065","NAME":"Wasco","NAMELSAD":"Wasco County","STUSPS":"OR","STATE_NAME":"Oregon","LSAD":"06","ALAND":6167070395,"AWATER":35741911},"id":"41065"},{"arcs":[[-37,-95,-104,-62,-106]],"type":"Polygon","properties":{"STATEFP":"41","COUNTYFP":"013","COUNTYNS":"01155128","GEOIDFQ":"0500000US41013","GEOID":"41013","NAME":"Crook","NAMELSAD":"Crook County","STUSPS":"OR","STATE_NAME":"Oregon","LSAD":"06","ALAND":7715399764,"AWATER":20995585},"id":"41013"}]}}}