{"type":"Topology","arcs":[[[3581,0],[-12,0],[-298,2],[-176,2],[-263,0]],[[2832,4],[35,46],[8,21],[70,118],[32,79],[24,86],[20,51],[20,91],[52,96],[14,12]],[[3107,604],[6,6],[74,180],[32,66],[52,81],[25,24]],[[3296,961],[36,46]],[[3332,1007],[18,-34],[20,-93],[27,26],[14,-14],[0,-34],[-12,-12]],[[3399,846],[-15,-18],[22,-63],[54,-59],[10,-42],[13,-11],[1,-35],[11,-37],[17,-19],[27,-58],[48,-58],[-20,-50]],[[3567,396],[9,-218],[5,-178]],[[5756,2547],[2,18],[26,11],[8,37],[35,47],[27,-11],[13,23]],[[5867,2672],[171,12]],[[6038,2684],[269,23],[-32,-180],[93,-16],[45,-93],[12,-10],[43,17]],[[6468,2425],[29,3],[-18,-27],[-36,-22],[-16,-48],[-96,-62],[-25,-23],[-4,-36],[16,-4]],[[6318,2206],[-11,-17],[-104,-55],[-27,-32],[11,-17],[-41,-31],[-7,-16],[-32,-24],[-97,-51],[-70,-22],[-36,-7]],[[5904,1934],[-16,41],[-102,201],[92,63],[-76,109],[-26,42],[-34,38],[-4,19],[-33,14],[-6,17]],[[5699,2478],[54,52],[3,17]],[[4178,1605],[28,-34],[45,15],[26,18],[29,-4],[14,15],[148,43]],[[4468,1658],[194,-182]],[[4662,1476],[-167,-142],[62,-240],[15,-55],[24,-95],[26,-104],[4,2]],[[4626,842],[-6,-4],[-9,1],[-4,-7],[-28,-1],[-44,-45],[-60,-19],[-31,-60]],[[4444,707],[-27,23],[-6,66],[-59,52],[-33,9],[-13,29],[-23,9]],[[4283,895],[-53,60],[-23,52],[11,68]],[[4218,1075],[-26,52],[-71,-2],[-25,14],[-12,39],[19,28],[-4,40],[16,3],[26,36],[33,27],[-1,50],[-18,12],[-19,33],[4,48],[-13,43],[32,34],[14,31],[5,42]],[[1862,5],[-137,0],[-406,-2]],[[1319,3],[-7,65],[8,35],[27,41],[3,34],[-18,28],[-42,31],[22,82],[17,43],[33,59],[72,145]],[[1434,566],[31,45],[14,40],[34,18],[7,25],[28,10],[14,-15],[20,32],[8,59],[24,3],[-3,28],[22,27],[44,85],[8,28],[28,47]],[[1713,998],[151,0],[38,-30],[11,-41],[265,-2]],[[2178,925],[-22,-57],[-73,-250],[-15,9],[-13,-32],[7,-412],[-11,-50],[-49,-128]],[[2002,5],[-140,0]],[[2006,2096],[2,118],[-1,281],[45,125],[65,-2]],[[2117,2618],[73,28],[2,64],[139,-13],[340,-28]],[[2671,2669],[168,-24]],[[2839,2645],[38,-75],[27,-37]],[[2904,2533],[-20,-34],[-40,-32],[-27,-5],[31,-79],[33,-52],[-27,-15],[18,-48],[-30,-40],[11,-46],[-33,-9],[-12,-14],[-23,27],[-24,7],[-3,-34],[-20,-32],[-35,-11],[-19,-18],[6,-28],[-33,-64],[-25,-15],[-16,7],[-21,-31],[-14,-44],[-30,-18],[-4,-29],[-39,-48],[18,-38]],[[2526,1790],[14,-17]],[[2540,1773],[-63,3],[-194,1],[-78,-5],[-195,3]],[[2010,1775],[-5,9],[1,312]],[[1,524],[0,253],[0,322],[1,102],[-1,137]],[[1,1338],[185,1]],[[186,1339],[188,-231],[18,-25],[185,-84],[131,-58],[-27,-19],[-29,-5],[-10,-21],[15,-23],[68,-34],[34,5]],[[759,844],[18,-10],[6,-25],[-10,-26],[-48,-1],[-2,-24],[28,-39]],[[751,719],[30,-19],[15,-42],[-60,-74],[14,-22],[-13,-27],[-29,-3],[-23,-38],[-24,-7],[-19,32],[-29,-15],[-2,-39]],[[611,465],[-24,-10],[-38,22],[-11,35],[-31,-34],[-50,-4],[-55,35],[-17,-11],[-58,14],[-31,-14],[-24,31],[-27,-3],[-12,-21],[-57,-15],[-31,-32],[-55,-5],[-38,-43],[-51,18]],[[1,428],[0,96]],[[2904,2533],[24,-1],[52,35],[0,55],[16,24],[42,16],[29,46],[1,-134],[126,1],[1,-62],[13,8],[37,-72],[47,14],[99,-40],[70,-59],[-21,-19],[83,-149],[80,20],[55,7],[63,16],[229,101]],[[3950,2340],[-70,-91],[-88,-147],[-100,-111]],[[3692,1991],[-87,-40],[-181,-111],[-69,-29],[-34,-27]],[[3321,1784],[-34,-27],[-9,23],[-59,-14],[-66,43],[-81,-49],[-58,-43],[-202,84]],[[2812,1801],[-18,7],[-268,-18]],[[1064,4026],[161,-1],[482,2],[166,-2]],[[1873,4025],[4,-80],[-2,-161],[-5,-54],[-32,-1],[-8,-366]],[[1830,3363],[-159,5],[-363,-1],[-129,-2]],[[1179,3365],[-118,-1]],[[1061,3364],[1,400]],[[1062,3764],[2,262]],[[2671,2669],[3,164],[-23,0],[0,144],[-194,0],[-1,122],[0,226]],[[2456,3325],[0,27],[254,1]],[[2710,3353],[179,-251],[72,-2]],[[2961,3100],[0,-189],[-122,-266]],[[6388,480],[-18,-24],[-31,-10],[-33,-24],[-5,-55],[8,-28],[-14,-41],[-58,-14],[-26,-24]],[[6211,260],[-10,15],[-50,2],[18,65],[8,51],[-42,61]],[[6135,454],[83,62],[-47,45],[-22,30],[48,68],[41,-36],[14,22],[79,-69],[14,41],[45,65],[51,57]],[[6441,739],[24,-21],[37,-17],[8,-38],[-4,-23],[-25,-28],[8,-32]],[[6489,580],[-45,-48],[-48,-29],[-8,-23]],[[4444,707],[29,-31],[39,-69],[108,-31],[43,10],[9,-45],[33,-51],[4,-37],[25,-51],[29,-23],[69,-40],[16,-81],[30,-33],[15,-44],[26,-22],[46,-60],[11,-29],[31,-51],[1,-16]],[[5008,3],[-386,-1],[-254,0],[-249,-2]],[[4119,0],[0,197],[25,29],[27,16],[-20,28],[-14,52],[20,25],[1,33],[-61,140],[-61,28],[-25,42],[-53,29]],[[3958,619],[127,137],[22,2],[68,30],[26,-8],[21,42],[-8,23],[23,29],[44,8],[2,13]],[[6318,2206],[3,-27],[26,-51],[19,-19],[4,-32],[26,-39],[-12,-42],[-32,-1],[-8,-14],[16,-29],[-28,-59],[-31,-31],[-43,7],[-7,-24],[-22,-22],[16,-39],[-25,-67],[31,-25],[-27,-54],[11,-20],[-7,-48]],[[6228,1570],[-71,-47],[-89,-79]],[[6068,1444],[-83,78],[16,27],[9,49],[-55,78],[-60,-23],[-4,28],[-15,14],[-32,72],[-1,22],[-38,-20],[-21,25],[-19,1],[-10,24],[-9,67]],[[5746,1886],[37,21],[42,13],[79,14]],[[972,2561],[10,-24],[-1,-88],[6,-38],[23,-35],[-11,-27],[54,-28],[24,3],[-12,-47],[4,-25],[-21,-28],[27,-17],[33,29],[35,-3],[24,-16],[32,20],[8,16],[34,-23],[40,12],[6,27],[40,-25],[23,19],[24,-5],[31,7],[19,21],[21,-8],[28,35],[53,38]],[[1526,2351],[6,-3],[-6,-243]],[[1526,2105],[0,-239],[-167,-268],[-107,-166]],[[1252,1432],[-17,6],[-29,-14],[-27,30],[-16,-1],[-41,37],[-34,95],[-22,16],[-5,31],[-27,19],[-2,20],[-36,25],[-29,-18]],[[967,1678],[0,127],[4,381],[0,258],[1,117]],[[1319,3],[-98,-1],[-336,0],[-179,0]],[[706,2],[15,30],[-13,25],[-18,9],[-5,43],[30,22],[-14,34],[-5,74],[-6,20],[17,24],[-16,49],[5,29],[-34,48],[-19,7],[-29,-10],[-17,16],[-1,27],[15,16]],[[751,719],[33,3],[121,0],[47,-37],[17,10],[62,-54],[21,18],[34,1],[7,15],[53,21],[41,47],[51,7],[28,-50],[42,-24],[10,-21],[44,-29],[15,-53],[57,-7]],[[972,2561],[-7,6]],[[965,2567],[-3,21],[32,0],[2,25],[22,34],[-1,63],[21,0],[6,41],[27,0],[0,79],[74,-1],[0,26],[74,0],[0,89]],[[1219,2944],[91,1],[0,87],[50,-6],[176,-3],[-2,-175]],[[1534,2848],[-3,-447],[-5,-50]],[[5867,2672],[11,19],[32,2],[32,26],[-13,374],[-11,302]],[[5918,3395],[-17,409],[-8,223]],[[5893,4027],[145,0],[21,-12],[-1,-32],[37,-45],[20,10],[17,-28],[14,-56],[-5,-35],[9,-29],[47,-24],[30,20],[43,-33],[19,3],[36,-14],[1,-37],[32,-20],[-22,-66],[34,-4],[26,-34],[4,-66],[-22,-12],[19,-35],[-7,-25],[10,-21],[2,-54],[-25,-53]],[[6377,3325],[-116,-224],[-21,-29],[1,-28],[-38,-33],[-18,1],[-21,-22],[6,-17],[-22,-54],[-68,-11],[-14,17],[-18,-21],[15,-27],[32,-30],[-4,-37],[-32,-99],[-21,-27]],[[3332,1007],[46,62],[79,75],[39,15],[-10,41],[73,58],[76,51],[145,102],[106,60],[36,12],[-18,40],[89,19],[76,20],[22,0],[87,43]],[[4218,1075],[-72,-33],[-53,-10],[-87,-6],[-64,-16],[-63,-8],[-76,-15],[-55,-19],[-16,14],[2,29],[-66,-52],[-42,-13],[21,44],[45,39],[-35,2],[-38,-30],[-55,-57],[-74,-62],[-23,0],[-57,-60],[-11,24]],[[4626,842],[153,74],[149,30],[184,107]],[[5112,1053],[325,-316]],[[5437,737],[-82,-49],[8,-54],[1,-73],[-60,-124],[-9,-26],[16,-34],[-17,-9],[-3,-32],[13,-31],[-20,-35],[-3,-33],[-16,-1],[-3,-40],[-32,-83],[-20,-42],[-41,-36],[0,-27],[-39,-5]],[[5130,3],[-114,0],[-8,0]],[[2961,3100],[458,7]],[[3419,3107],[1,-66],[14,0],[68,-146],[31,-8],[29,-29],[5,-43],[34,-48],[37,-35],[14,-23],[57,-59],[34,-2],[35,-42],[-2,-15],[24,-25],[126,-183],[24,0]],[[3950,2383],[0,-43]],[[2010,1775],[-8,-6],[-49,-167],[-83,-252],[-61,-156]],[[1809,1194],[-16,27],[-34,16],[-49,-69],[-29,15],[-16,-33],[-29,0],[-8,25],[-24,22],[-8,25],[-41,7],[-66,29],[-19,-27],[-11,40],[-33,-7],[-2,47],[-60,-18],[-47,8],[-15,32],[-19,-2],[-9,28],[-27,-9],[-7,58],[12,24]],[[1526,2105],[304,-5],[176,-4]],[[706,2],[-187,1],[-404,-1],[-114,1],[0,425]],[[6211,260],[-27,-18],[-44,-14],[-68,0],[-28,-16],[-71,-67],[-10,8],[-35,25],[-53,22],[-47,9],[-48,1],[-15,-2],[-2,0]],[[5763,208],[-8,33],[4,32],[31,24],[-2,15],[31,23],[5,31],[27,13],[-5,17],[102,72],[-20,16],[57,59],[-12,26],[63,42]],[[6036,611],[47,-87],[11,6],[41,-76]],[[759,844],[104,53],[-29,16],[23,45],[-9,35],[7,28],[21,137],[45,43],[7,26],[26,21],[3,172],[-40,45],[-34,0],[-10,58],[14,22],[45,22],[40,68],[-4,43]],[[968,1678],[-1,0]],[[1809,1194],[-43,-98],[-11,-8],[-42,-90]],[[6441,739],[-134,120],[-181,163],[-234,213]],[[5892,1235],[87,122],[89,87]],[[6228,1570],[8,-30],[-4,-27],[21,-20],[20,1],[26,18],[42,-14],[37,-45],[7,-107],[-9,-47],[14,-65],[40,-26],[33,12],[38,-27],[18,-54],[6,-40],[41,-44],[25,-12],[22,-27],[30,-78],[55,-38],[28,-25],[19,-50],[25,-22],[14,-42],[-22,-27],[-21,-2],[-27,-24],[-40,13],[-12,-7],[-14,-41],[-25,-28],[-58,-26],[-28,-2],[-48,-37]],[[3107,604],[-72,71],[-178,55],[-66,57]],[[2791,787],[-119,105],[-25,129]],[[2647,1021],[26,64],[92,181],[26,65],[5,35],[-27,7],[7,64],[-23,-3],[-35,48],[22,44],[-7,21],[21,40],[-36,36],[-2,16],[-27,48],[20,37],[77,50],[26,27]],[[3321,1784],[6,-23],[-29,-21],[-3,-44],[19,-5],[-75,-79],[-24,-11],[-57,-82],[-25,-52],[30,-88],[-23,-29],[-91,-151],[29,0],[36,-57],[23,5],[90,-1],[11,18]],[[3238,1164],[58,-203]],[[186,1339],[214,233],[38,7],[-4,106]],[[434,1685],[274,-1],[260,-6]],[[3238,1164],[37,55],[88,103],[39,40],[0,41],[93,80],[41,40],[0,49],[54,41],[79,51],[113,56]],[[3782,1720],[160,-29],[48,26],[19,-27],[30,6],[38,-5],[1,-30],[24,4],[13,-42],[66,20],[8,-21]],[[4189,1622],[-11,-17]],[[6377,3325],[27,-33],[7,-24],[26,-32],[-7,-21],[24,-28],[5,-29],[18,-1],[3,-48],[27,-6],[30,11],[28,-18],[16,-25],[8,-35],[35,11],[25,-23],[37,19],[12,-32],[48,1],[21,-47],[27,-15],[26,-39],[-4,-18],[-31,-18],[-38,-2],[-21,-37],[-24,-5],[-1,-21],[-34,-29],[-19,-30],[-13,-46],[-21,-41],[9,-13],[-26,-70],[-49,-75],[-69,-53],[-11,-28]],[[3405,4027],[122,1],[446,-1],[185,4],[46,0]],[[4204,4031],[15,-153],[18,-213],[23,-307],[5,-42]],[[4265,3316],[-4,-11],[-76,-38],[-20,-31],[-245,-9],[-151,-4],[-352,-3]],[[3417,3220],[-7,470],[-5,337]],[[2710,3353],[-1,210],[-2,262],[0,203]],[[2707,4028],[95,1],[149,-3],[290,0],[164,1]],[[3417,3220],[2,-113]],[[434,1685],[-11,321]],[[423,2006],[-10,257],[80,124]],[[493,2387],[60,88],[55,90]],[[608,2565],[208,2],[149,0]],[[2647,1021],[-37,-98],[-170,106],[-16,-102],[-67,75],[-28,10],[-105,60]],[[2224,1072],[20,48],[47,28],[10,115],[-5,12],[20,60],[1,54],[25,40],[46,33],[44,88],[-6,48],[9,38],[35,-3],[70,140]],[[4539,2537],[56,3],[83,100],[87,109]],[[4765,2749],[46,57],[114,4]],[[4925,2810],[-11,-168],[1,-13],[49,-135],[57,12],[0,-150],[-3,-6],[27,-177]],[[5045,2173],[-49,-60],[-41,-57],[-26,-145],[-86,-46]],[[4843,1865],[-36,102],[-102,-17],[-11,33],[2,72],[-25,-1]],[[4671,2054],[9,78],[-11,24],[20,10],[-19,48],[-43,47],[4,61],[-9,35],[-58,17],[-2,46],[-23,117]],[[2117,2618],[1,50],[-33,1],[3,57],[-262,175],[-12,25],[-40,-30],[-39,-3],[-18,-11],[-34,3],[-16,-22]],[[1667,2863],[2,146],[33,0],[2,53],[102,-2],[20,-26],[1,156],[3,173]],[[1830,3363],[165,-1],[78,4],[84,0],[225,11],[1,-51],[73,-1]],[[3958,619],[-57,-72],[-50,-8],[-205,-54],[-79,-89]],[[2224,1072],[-20,-37],[-9,-82],[-17,-28]],[[1061,3364],[0,-13],[-182,2],[-71,8],[-1,-36],[-23,-26],[-50,-23],[-19,-21],[-1,-21],[-57,-65],[-27,-1],[-1,-23],[-21,-18]],[[608,3127],[-147,-6],[0,-11],[-234,7],[-226,9]],[[1,3126],[0,18],[0,618]],[[1,3762],[436,0],[545,4],[80,-2]],[[5437,737],[152,141],[54,44]],[[5643,922],[54,1],[37,-22],[26,12],[28,-73],[18,22],[20,-56],[13,-13],[3,-34],[39,-41],[37,-2],[-8,-31],[15,-35],[42,17],[32,-64],[37,8]],[[5763,208],[-55,-16],[-70,-46],[-30,-32],[-31,-47],[-24,-63],[-17,0],[-406,-1]],[[5756,2547],[-42,17],[-15,28],[-4,124],[-31,13],[-12,41],[1,91],[-63,16],[-30,30],[-61,40],[-15,21],[-2,48]],[[5482,3016],[74,139],[-37,33],[39,78],[-5,10],[53,109],[10,11]],[[5616,3396],[302,-1]],[[5482,3016],[-5,-4],[-194,-71],[-180,-8],[-145,-5]],[[4958,2928],[64,237],[9,53]],[[5031,3218],[26,188],[97,7]],[[5154,3413],[1,-15],[150,3],[311,-5]],[[1,2497],[0,204],[0,425]],[[608,3127],[0,-562]],[[493,2387],[-57,76],[-130,6],[0,19],[-305,-5]],[[1,2483],[0,14]],[[3864,0],[-283,0]],[[4119,0],[-255,0]],[[2791,787],[-28,-76],[-57,-63],[5,-31],[25,-18],[-27,-29],[0,-56],[-18,-31],[-56,-159],[-37,-137],[-34,-78],[-61,-104]],[[2503,5],[-184,0],[-317,0]],[[5746,1886],[-79,-22],[-61,-37],[-34,-33]],[[5572,1794],[-150,143],[-131,171]],[[5291,2108],[175,94],[34,29],[21,1],[81,44],[-12,41],[-18,0],[-15,33],[-2,47],[27,49],[19,-2],[19,26],[29,23],[29,5],[21,-20]],[[3950,2383],[35,1],[54,28],[105,5],[21,107],[75,-17]],[[4240,2507],[0,-33],[14,-47],[31,-38],[1,-44],[-13,-86],[-17,-48],[7,-36],[26,-63],[37,-45],[26,-14]],[[4352,2053],[-29,11],[-39,2],[-23,-8],[-74,6],[-81,-33],[-10,-20],[-38,20],[-26,-2],[-65,-26],[-224,-64],[-42,-18]],[[3701,1921],[0,66],[-9,4]],[[1667,2863],[-20,-27],[-32,29],[-10,-17],[-46,10],[-25,-10]],[[1219,2944],[0,95],[-51,1],[11,44],[0,281]],[[4671,2054],[-27,0],[-20,58],[13,41],[-52,6],[-29,34],[-41,12],[-86,-24],[-68,-14],[22,95],[-2,14],[47,146],[5,111],[-2,33]],[[4431,2566],[63,-32],[45,3]],[[5112,1053],[-64,79],[-31,10],[-244,229]],[[4773,1371],[26,0],[94,35],[96,2],[43,21],[56,11],[19,18],[58,30],[30,7],[17,24],[27,8],[35,-11],[22,109],[119,66]],[[5415,1691],[132,-128],[292,-278]],[[5839,1285],[-196,-363]],[[3701,1921],[3,-186],[78,-15]],[[887,4505],[0,-478],[177,-1]],[[1,3762],[-1,226],[97,50],[40,13],[46,26],[38,14],[74,44],[32,28],[29,12],[58,40],[14,16],[22,61],[21,28],[36,13],[30,-49],[88,60],[64,49],[35,18],[33,27],[33,6],[78,53],[19,8]],[[4204,4031],[207,0],[225,-2],[250,-4],[232,1]],[[5118,4026],[31,-510],[5,-103]],[[5031,3218],[-292,36],[-378,46],[-25,4]],[[4336,3304],[-71,12]],[[4336,3304],[76,-326],[183,-179],[52,-20],[118,-30]],[[4431,2566],[-68,6],[-44,-18],[-65,-15],[-14,-32]],[[4189,1622],[32,52],[38,35],[27,63],[-3,96],[12,57],[42,66],[15,62]],[[4843,1865],[-224,-124],[-143,-75],[-8,-8]],[[5892,1235],[-53,50]],[[5415,1691],[43,29],[55,25],[14,17],[45,32]],[[1,1338],[0,285],[0,376]],[[1,1999],[180,2],[242,5]],[[5291,2108],[-35,-19],[-211,84]],[[4925,2810],[33,118]],[[5118,4026],[47,0],[275,0],[150,-2],[303,3]],[[0,2086],[1,397]],[[1,1999],[-1,87]],[[2832,4],[-285,1],[-44,0]],[[1873,4025],[198,0],[179,3],[338,-1],[119,1]],[[4773,1371],[-111,105]]],"transform":{"scale":[0.0008546405312654991,0.0005660444063080362],"translate":[-80.5197774232307,39.7198299495823]},"objects":{"42":{"type":"GeometryCollection","geometries":[{"arcs":[[0,1,2,3,4,5,6]],"type":"Polygon","properties":{"STATEFP":"42","COUNTYFP":"055","COUNTYNS":"01213670","GEOIDFQ":"0500000US42055","GEOID":"42055","NAME":"Franklin","NAMELSAD":"Franklin County","STUSPS":"PA","STATE_NAME":"Pennsylvania","LSAD":"06","ALAND":2000193444,"AWATER":1553435},"id":"42055"},{"arcs":[[7,8,9,10,11,12,13]],"type":"Polygon","properties":{"STATEFP":"42","COUNTYFP":"089","COUNTYNS":"01209184","GEOIDFQ":"0500000US42089","GEOID":"42089","NAME":"Monroe","NAMELSAD":"Monroe County","STUSPS":"PA","STATE_NAME":"Pennsylvania","LSAD":"06","ALAND":1575647528,"AWATER":22664084},"id":"42089"},{"arcs":[[14,15,16,17,18,19,20]],"type":"Polygon","properties":{"STATEFP":"42","COUNTYFP":"043","COUNTYNS":"01213667","GEOIDFQ":"0500000US42043","GEOID":"42043","NAME":"Dauphin","NAMELSAD":"Dauphin County","STUSPS":"PA","STATE_NAME":"Pennsylvania","LSAD":"06","ALAND":1359407362,"AWATER":86047350},"id":"42043"},{"arcs":[[21,22,23,24,25,26]],"type":"Polygon","properties":{"STATEFP":"42","COUNTYFP":"111","COUNTYNS":"01209188","GEOIDFQ":"0500000US42111","GEOID":"42111","NAME":"Somerset","NAMELSAD":"Somerset County","STUSPS":"PA","STATE_NAME":"Pennsylvania","LSAD":"06","ALAND":2784359433,"AWATER":17101197},"id":"42111"},{"arcs":[[27,28,29,30,31,32,33,34]],"type":"Polygon","properties":{"STATEFP":"42","COUNTYFP":"033","COUNTYNS":"01209175","GEOIDFQ":"0500000US42033","GEOID":"42033","NAME":"Clearfield","NAMELSAD":"Clearfield County","STUSPS":"PA","STATE_NAME":"Pennsylvania","LSAD":"06","ALAND":2965691644,"AWATER":24125719},"id":"42033"},{"arcs":[[35,36,37,38,39,40,41]],"type":"Polygon","properties":{"STATEFP":"42","COUNTYFP":"125","COUNTYNS":"01209190","GEOIDFQ":"0500000US42125","GEOID":"42125","NAME":"Washington","NAMELSAD":"Washington County","STUSPS":"PA","STATE_NAME":"Pennsylvania","LSAD":"06","ALAND":2219644651,"AWATER":9945723},"id":"42125"},{"arcs":[[-32,42,43,44,45,46]],"type":"Polygon","properties":{"STATEFP":"42","COUNTYFP":"027","COUNTYNS":"01214720","GEOIDFQ":"0500000US42027","GEOID":"42027","NAME":"Centre","NAMELSAD":"Centre County","STUSPS":"PA","STATE_NAME":"Pennsylvania","LSAD":"06","ALAND":2867787629,"AWATER":11295680},"id":"42027"},{"arcs":[[47,48,49,50,51,52]],"type":"Polygon","properties":{"STATEFP":"42","COUNTYFP":"123","COUNTYNS":"01213691","GEOIDFQ":"0500000US42123","GEOID":"42123","NAME":"Warren","NAMELSAD":"Warren County","STUSPS":"PA","STATE_NAME":"Pennsylvania","LSAD":"06","ALAND":2290308796,"AWATER":37339464},"id":"42123"},{"arcs":[[-30,53,54,55,56]],"type":"Polygon","properties":{"STATEFP":"42","COUNTYFP":"023","COUNTYNS":"01213663","GEOIDFQ":"0500000US42023","GEOID":"42023","NAME":"Cameron","NAMELSAD":"Cameron County","STUSPS":"PA","STATE_NAME":"Pennsylvania","LSAD":"06","ALAND":1026241974,"AWATER":5651188},"id":"42023"},{"arcs":[[57,58,59,60,61]],"type":"Polygon","properties":{"STATEFP":"42","COUNTYFP":"101","COUNTYNS":"01209187","GEOIDFQ":"0500000US42101","GEOID":"42101","NAME":"Philadelphia","NAMELSAD":"Philadelphia County","STUSPS":"PA","STATE_NAME":"Pennsylvania","LSAD":"06","ALAND":347900745,"AWATER":20969567},"id":"42101"},{"arcs":[[-19,62,63,64,65]],"type":"Polygon","properties":{"STATEFP":"42","COUNTYFP":"133","COUNTYNS":"01209193","GEOIDFQ":"0500000US42133","GEOID":"42133","NAME":"York","NAMELSAD":"York County","STUSPS":"PA","STATE_NAME":"Pennsylvania","LSAD":"06","ALAND":2342261949,"AWATER":16503410},"id":"42133"},{"arcs":[[-12,66,67,68,69]],"type":"Polygon","properties":{"STATEFP":"42","COUNTYFP":"095","COUNTYNS":"01209185","GEOIDFQ":"0500000US42095","GEOID":"42095","NAME":"Northampton","NAMELSAD":"Northampton County","STUSPS":"PA","STATE_NAME":"Pennsylvania","LSAD":"06","ALAND":957743868,"AWATER":19060207},"id":"42095"},{"arcs":[[70,71,72,73,74]],"type":"Polygon","properties":{"STATEFP":"42","COUNTYFP":"005","COUNTYNS":"01213658","GEOIDFQ":"0500000US42005","GEOID":"42005","NAME":"Armstrong","NAMELSAD":"Armstrong County","STUSPS":"PA","STATE_NAME":"Pennsylvania","LSAD":"06","ALAND":1692093660,"AWATER":27586719},"id":"42005"},{"arcs":[[75,76,-40,77,-23]],"type":"Polygon","properties":{"STATEFP":"42","COUNTYFP":"051","COUNTYNS":"01209179","GEOIDFQ":"0500000US42051","GEOID":"42051","NAME":"Fayette","NAMELSAD":"Fayette County","STUSPS":"PA","STATE_NAME":"Pennsylvania","LSAD":"06","ALAND":2048053995,"AWATER":20636974},"id":"42051"},{"arcs":[[-71,78,79,80,81]],"type":"Polygon","properties":{"STATEFP":"42","COUNTYFP":"031","COUNTYNS":"01210234","GEOIDFQ":"0500000US42031","GEOID":"42031","NAME":"Clarion","NAMELSAD":"Clarion County","STUSPS":"PA","STATE_NAME":"Pennsylvania","LSAD":"06","ALAND":1556156936,"AWATER":23330903},"id":"42031"},{"arcs":[[-9,82,83,84,85]],"type":"Polygon","properties":{"STATEFP":"42","COUNTYFP":"127","COUNTYNS":"01213692","GEOIDFQ":"0500000US42127","GEOID":"42127","NAME":"Wayne","NAMELSAD":"Wayne County","STUSPS":"PA","STATE_NAME":"Pennsylvania","LSAD":"06","ALAND":1879734049,"AWATER":64785689},"id":"42127"},{"arcs":[[-5,86,-21,87]],"type":"Polygon","properties":{"STATEFP":"42","COUNTYFP":"099","COUNTYNS":"01213682","GEOIDFQ":"0500000US42099","GEOID":"42099","NAME":"Perry","NAMELSAD":"Perry County","STUSPS":"PA","STATE_NAME":"Pennsylvania","LSAD":"06","ALAND":1428247598,"AWATER":10591133},"id":"42099"},{"arcs":[[-18,88,89,90,91,-63]],"type":"Polygon","properties":{"STATEFP":"42","COUNTYFP":"071","COUNTYNS":"01209181","GEOIDFQ":"0500000US42071","GEOID":"42071","NAME":"Lancaster","NAMELSAD":"Lancaster County","STUSPS":"PA","STATE_NAME":"Pennsylvania","LSAD":"06","ALAND":2444751650,"AWATER":103368817},"id":"42071"},{"arcs":[[-31,-57,92,93,94,-43]],"type":"Polygon","properties":{"STATEFP":"42","COUNTYFP":"035","COUNTYNS":"01214721","GEOIDFQ":"0500000US42035","GEOID":"42035","NAME":"Clinton","NAMELSAD":"Clinton County","STUSPS":"PA","STATE_NAME":"Pennsylvania","LSAD":"06","ALAND":2304129980,"AWATER":23182058},"id":"42035"},{"arcs":[[-35,95,96,-73,97]],"type":"Polygon","properties":{"STATEFP":"42","COUNTYFP":"063","COUNTYNS":"01213673","GEOIDFQ":"0500000US42063","GEOID":"42063","NAME":"Indiana","NAMELSAD":"Indiana County","STUSPS":"PA","STATE_NAME":"Pennsylvania","LSAD":"06","ALAND":2142939379,"AWATER":18085569},"id":"42063"},{"arcs":[[-41,-77,98]],"type":"Polygon","properties":{"STATEFP":"42","COUNTYFP":"059","COUNTYNS":"01214033","GEOIDFQ":"0500000US42059","GEOID":"42059","NAME":"Greene","NAMELSAD":"Greene County","STUSPS":"PA","STATE_NAME":"Pennsylvania","LSAD":"06","ALAND":1491658046,"AWATER":5296803},"id":"42059"},{"arcs":[[-59,99,100,101]],"type":"Polygon","properties":{"STATEFP":"42","COUNTYFP":"045","COUNTYNS":"01209177","GEOIDFQ":"0500000US42045","GEOID":"42045","NAME":"Delaware","NAMELSAD":"Delaware County","STUSPS":"PA","STATE_NAME":"Pennsylvania","LSAD":"06","ALAND":476060051,"AWATER":17591825},"id":"42045"},{"arcs":[[-24,-78,-39,102,103,-74,-97,104]],"type":"Polygon","properties":{"STATEFP":"42","COUNTYFP":"129","COUNTYNS":"01209191","GEOIDFQ":"0500000US42129","GEOID":"42129","NAME":"Westmoreland","NAMELSAD":"Westmoreland County","STUSPS":"PA","STATE_NAME":"Pennsylvania","LSAD":"06","ALAND":2661763964,"AWATER":21288098},"id":"42129"},{"arcs":[[-61,105,106,-68,107]],"type":"Polygon","properties":{"STATEFP":"42","COUNTYFP":"017","COUNTYNS":"01209173","GEOIDFQ":"0500000US42017","GEOID":"42017","NAME":"Bucks","NAMELSAD":"Bucks County","STUSPS":"PA","STATE_NAME":"Pennsylvania","LSAD":"06","ALAND":1565482375,"AWATER":45320537},"id":"42017"},{"arcs":[[-3,108,109,110,-46,111,112]],"type":"Polygon","properties":{"STATEFP":"42","COUNTYFP":"061","COUNTYNS":"01213672","GEOIDFQ":"0500000US42061","GEOID":"42061","NAME":"Huntingdon","NAMELSAD":"Huntingdon County","STUSPS":"PA","STATE_NAME":"Pennsylvania","LSAD":"06","ALAND":2265182331,"AWATER":37851956},"id":"42061"},{"arcs":[[-38,113,114,-103]],"type":"Polygon","properties":{"STATEFP":"42","COUNTYFP":"003","COUNTYNS":"01213657","GEOIDFQ":"0500000US42003","GEOID":"42003","NAME":"Allegheny","NAMELSAD":"Allegheny County","STUSPS":"PA","STATE_NAME":"Pennsylvania","LSAD":"06","ALAND":1890567447,"AWATER":37048381},"id":"42003"},{"arcs":[[-4,-113,115,116,117,-87]],"type":"Polygon","properties":{"STATEFP":"42","COUNTYFP":"067","COUNTYNS":"01209180","GEOIDFQ":"0500000US42067","GEOID":"42067","NAME":"Juniata","NAMELSAD":"Juniata County","STUSPS":"PA","STATE_NAME":"Pennsylvania","LSAD":"06","ALAND":1013697485,"AWATER":5502986},"id":"42067"},{"arcs":[[-10,-86,118]],"type":"Polygon","properties":{"STATEFP":"42","COUNTYFP":"103","COUNTYNS":"01213683","GEOIDFQ":"0500000US42103","GEOID":"42103","NAME":"Pike","NAMELSAD":"Pike County","STUSPS":"PA","STATE_NAME":"Pennsylvania","LSAD":"06","ALAND":1411273942,"AWATER":56779544},"id":"42103"},{"arcs":[[119,120,121,122]],"type":"Polygon","properties":{"STATEFP":"42","COUNTYFP":"117","COUNTYNS":"01209189","GEOIDFQ":"0500000US42117","GEOID":"42117","NAME":"Tioga","NAMELSAD":"Tioga County","STUSPS":"PA","STATE_NAME":"Pennsylvania","LSAD":"06","ALAND":2936765817,"AWATER":8279717},"id":"42117"},{"arcs":[[-56,123,124,-123,125,-93]],"type":"Polygon","properties":{"STATEFP":"42","COUNTYFP":"105","COUNTYNS":"01213684","GEOIDFQ":"0500000US42105","GEOID":"42105","NAME":"Potter","NAMELSAD":"Potter County","STUSPS":"PA","STATE_NAME":"Pennsylvania","LSAD":"06","ALAND":2800422689,"AWATER":558970},"id":"42105"},{"arcs":[[-75,-104,-115,126,127,128,129,-79]],"type":"Polygon","properties":{"STATEFP":"42","COUNTYFP":"019","COUNTYNS":"01213661","GEOIDFQ":"0500000US42019","GEOID":"42019","NAME":"Butler","NAMELSAD":"Butler County","STUSPS":"PA","STATE_NAME":"Pennsylvania","LSAD":"06","ALAND":2044750103,"AWATER":16004632},"id":"42019"},{"arcs":[[-33,-47,-111,130,131]],"type":"Polygon","properties":{"STATEFP":"42","COUNTYFP":"013","COUNTYNS":"01213659","GEOIDFQ":"0500000US42013","GEOID":"42013","NAME":"Blair","NAMELSAD":"Blair County","STUSPS":"PA","STATE_NAME":"Pennsylvania","LSAD":"06","ALAND":1359916303,"AWATER":3294804},"id":"42013"},{"arcs":[[132,133,134,135,136,137]],"type":"Polygon","properties":{"STATEFP":"42","COUNTYFP":"037","COUNTYNS":"01213665","GEOIDFQ":"0500000US42037","GEOID":"42037","NAME":"Columbia","NAMELSAD":"Columbia County","STUSPS":"PA","STATE_NAME":"Pennsylvania","LSAD":"06","ALAND":1251636166,"AWATER":18574480},"id":"42037"},{"arcs":[[-29,138,139,140,-54]],"type":"Polygon","properties":{"STATEFP":"42","COUNTYFP":"047","COUNTYNS":"01213668","GEOIDFQ":"0500000US42047","GEOID":"42047","NAME":"Elk","NAMELSAD":"Elk County","STUSPS":"PA","STATE_NAME":"Pennsylvania","LSAD":"06","ALAND":2141664028,"AWATER":12792134},"id":"42047"},{"arcs":[[-6,-88,-20,-66,141]],"type":"Polygon","properties":{"STATEFP":"42","COUNTYFP":"041","COUNTYNS":"01209176","GEOIDFQ":"0500000US42041","GEOID":"42041","NAME":"Cumberland","NAMELSAD":"Cumberland County","STUSPS":"PA","STATE_NAME":"Pennsylvania","LSAD":"06","ALAND":1412794359,"AWATER":12664178},"id":"42041"},{"arcs":[[-25,-105,-96,-34,-132,142]],"type":"Polygon","properties":{"STATEFP":"42","COUNTYFP":"021","COUNTYNS":"01213662","GEOIDFQ":"0500000US42021","GEOID":"42021","NAME":"Cambria","NAMELSAD":"Cambria County","STUSPS":"PA","STATE_NAME":"Pennsylvania","LSAD":"06","ALAND":1781816299,"AWATER":13645124},"id":"42021"},{"arcs":[[-52,143,144,145,146]],"type":"Polygon","properties":{"STATEFP":"42","COUNTYFP":"039","COUNTYNS":"01213666","GEOIDFQ":"0500000US42039","GEOID":"42039","NAME":"Crawford","NAMELSAD":"Crawford County","STUSPS":"PA","STATE_NAME":"Pennsylvania","LSAD":"06","ALAND":2621989181,"AWATER":65388878},"id":"42039"},{"arcs":[[-91,147,148,-101,149]],"type":"Polygon","properties":{"STATEFP":"42","COUNTYFP":"029","COUNTYNS":"01209174","GEOIDFQ":"0500000US42029","GEOID":"42029","NAME":"Chester","NAMELSAD":"Chester County","STUSPS":"PA","STATE_NAME":"Pennsylvania","LSAD":"06","ALAND":1943922308,"AWATER":22395764},"id":"42029"},{"arcs":[[-8,150,151,152,-83]],"type":"Polygon","properties":{"STATEFP":"42","COUNTYFP":"069","COUNTYNS":"01213675","GEOIDFQ":"0500000US42069","GEOID":"42069","NAME":"Lackawanna","NAMELSAD":"Lackawanna County","STUSPS":"PA","STATE_NAME":"Pennsylvania","LSAD":"06","ALAND":1188514795,"AWATER":15902853},"id":"42069"},{"arcs":[[-152,153,154,155,156]],"type":"Polygon","properties":{"STATEFP":"42","COUNTYFP":"131","COUNTYNS":"01209192","GEOIDFQ":"0500000US42131","GEOID":"42131","NAME":"Wyoming","NAMELSAD":"Wyoming County","STUSPS":"PA","STATE_NAME":"Pennsylvania","LSAD":"06","ALAND":1028894324,"AWATER":20019505},"id":"42131"},{"arcs":[[157,-145,158,-129,159,160]],"type":"Polygon","properties":{"STATEFP":"42","COUNTYFP":"085","COUNTYNS":"01213678","GEOIDFQ":"0500000US42085","GEOID":"42085","NAME":"Mercer","NAMELSAD":"Mercer County","STUSPS":"PA","STATE_NAME":"Pennsylvania","LSAD":"06","ALAND":1741866411,"AWATER":25964036},"id":"42085"},{"arcs":[[161,-7,-142,-65,162]],"type":"Polygon","properties":{"STATEFP":"42","COUNTYFP":"001","COUNTYNS":"01213656","GEOIDFQ":"0500000US42001","GEOID":"42001","NAME":"Adams","NAMELSAD":"Adams County","STUSPS":"PA","STATE_NAME":"Pennsylvania","LSAD":"06","ALAND":1343104813,"AWATER":8147590},"id":"42001"},{"arcs":[[-26,-143,-131,-110,163,164]],"type":"Polygon","properties":{"STATEFP":"42","COUNTYFP":"009","COUNTYNS":"01209171","GEOIDFQ":"0500000US42009","GEOID":"42009","NAME":"Bedford","NAMELSAD":"Bedford County","STUSPS":"PA","STATE_NAME":"Pennsylvania","LSAD":"06","ALAND":2621042814,"AWATER":11994012},"id":"42009"},{"arcs":[[-13,-70,165,166,167]],"type":"Polygon","properties":{"STATEFP":"42","COUNTYFP":"025","COUNTYNS":"01213664","GEOIDFQ":"0500000US42025","GEOID":"42025","NAME":"Carbon","NAMELSAD":"Carbon County","STUSPS":"PA","STATE_NAME":"Pennsylvania","LSAD":"06","ALAND":987706483,"AWATER":15918751},"id":"42025"},{"arcs":[[-44,-95,168,169,170,171]],"type":"Polygon","properties":{"STATEFP":"42","COUNTYFP":"119","COUNTYNS":"01213689","GEOIDFQ":"0500000US42119","GEOID":"42119","NAME":"Union","NAMELSAD":"Union County","STUSPS":"PA","STATE_NAME":"Pennsylvania","LSAD":"06","ALAND":818323669,"AWATER":4611409},"id":"42119"},{"arcs":[[-50,-140,172,-81,173]],"type":"Polygon","properties":{"STATEFP":"42","COUNTYFP":"053","COUNTYNS":"01213669","GEOIDFQ":"0500000US42053","GEOID":"42053","NAME":"Forest","NAMELSAD":"Forest County","STUSPS":"PA","STATE_NAME":"Pennsylvania","LSAD":"06","ALAND":1106595596,"AWATER":8369676},"id":"42053"},{"arcs":[[-138,174,175]],"type":"Polygon","properties":{"STATEFP":"42","COUNTYFP":"093","COUNTYNS":"01213681","GEOIDFQ":"0500000US42093","GEOID":"42093","NAME":"Montour","NAMELSAD":"Montour County","STUSPS":"PA","STATE_NAME":"Pennsylvania","LSAD":"06","ALAND":337556585,"AWATER":5174319},"id":"42093"},{"arcs":[[-90,176,177,178,179,-148]],"type":"Polygon","properties":{"STATEFP":"42","COUNTYFP":"011","COUNTYNS":"01209172","GEOIDFQ":"0500000US42011","GEOID":"42011","NAME":"Berks","NAMELSAD":"Berks County","STUSPS":"PA","STATE_NAME":"Pennsylvania","LSAD":"06","ALAND":2218077225,"AWATER":24220127},"id":"42011"},{"arcs":[[-45,-172,180,-116,-112]],"type":"Polygon","properties":{"STATEFP":"42","COUNTYFP":"087","COUNTYNS":"01213679","GEOIDFQ":"0500000US42087","GEOID":"42087","NAME":"Mifflin","NAMELSAD":"Mifflin County","STUSPS":"PA","STATE_NAME":"Pennsylvania","LSAD":"06","ALAND":1064581430,"AWATER":9507557},"id":"42087"},{"arcs":[[181,-53,-147,182]],"type":"Polygon","properties":{"STATEFP":"42","COUNTYFP":"049","COUNTYNS":"01209178","GEOIDFQ":"0500000US42049","GEOID":"42049","NAME":"Erie","NAMELSAD":"Erie County","STUSPS":"PA","STATE_NAME":"Pennsylvania","LSAD":"06","ALAND":2069152928,"AWATER":1966263897},"id":"42049"},{"arcs":[[-121,183,184,-156,185,186]],"type":"Polygon","properties":{"STATEFP":"42","COUNTYFP":"015","COUNTYNS":"01213660","GEOIDFQ":"0500000US42015","GEOID":"42015","NAME":"Bradford","NAMELSAD":"Bradford County","STUSPS":"PA","STATE_NAME":"Pennsylvania","LSAD":"06","ALAND":2971688852,"AWATER":35331261},"id":"42015"},{"arcs":[[-94,-126,-122,-187,187,-133,-176,188,-169]],"type":"Polygon","properties":{"STATEFP":"42","COUNTYFP":"081","COUNTYNS":"01213677","GEOIDFQ":"0500000US42081","GEOID":"42081","NAME":"Lycoming","NAMELSAD":"Lycoming County","STUSPS":"PA","STATE_NAME":"Pennsylvania","LSAD":"06","ALAND":3182887151,"AWATER":38917209},"id":"42081"},{"arcs":[[-15,-118,189,-170,-189,-175,-137,190]],"type":"Polygon","properties":{"STATEFP":"42","COUNTYFP":"097","COUNTYNS":"01209186","GEOIDFQ":"0500000US42097","GEOID":"42097","NAME":"Northumberland","NAMELSAD":"Northumberland County","STUSPS":"PA","STATE_NAME":"Pennsylvania","LSAD":"06","ALAND":1185380640,"AWATER":50638539},"id":"42097"},{"arcs":[[-69,-107,191,-179,192,-166]],"type":"Polygon","properties":{"STATEFP":"42","COUNTYFP":"077","COUNTYNS":"01209182","GEOIDFQ":"0500000US42077","GEOID":"42077","NAME":"Lehigh","NAMELSAD":"Lehigh County","STUSPS":"PA","STATE_NAME":"Pennsylvania","LSAD":"06","ALAND":894414858,"AWATER":7450564},"id":"42077"},{"arcs":[[-37,193,194,-127,-114]],"type":"Polygon","properties":{"STATEFP":"42","COUNTYFP":"007","COUNTYNS":"01214112","GEOIDFQ":"0500000US42007","GEOID":"42007","NAME":"Beaver","NAMELSAD":"Beaver County","STUSPS":"PA","STATE_NAME":"Pennsylvania","LSAD":"06","ALAND":1125854809,"AWATER":24162293},"id":"42007"},{"arcs":[[-51,-174,-80,-130,-159,-144]],"type":"Polygon","properties":{"STATEFP":"42","COUNTYFP":"121","COUNTYNS":"01213690","GEOIDFQ":"0500000US42121","GEOID":"42121","NAME":"Venango","NAMELSAD":"Venango County","STUSPS":"PA","STATE_NAME":"Pennsylvania","LSAD":"06","ALAND":1746337769,"AWATER":22149577},"id":"42121"},{"arcs":[[-14,-168,195,-135,196,-154,-151]],"type":"Polygon","properties":{"STATEFP":"42","COUNTYFP":"079","COUNTYNS":"01209183","GEOIDFQ":"0500000US42079","GEOID":"42079","NAME":"Luzerne","NAMELSAD":"Luzerne County","STUSPS":"PA","STATE_NAME":"Pennsylvania","LSAD":"06","ALAND":2304589524,"AWATER":42011601},"id":"42079"},{"arcs":[[-84,-153,-157,-185,197]],"type":"Polygon","properties":{"STATEFP":"42","COUNTYFP":"115","COUNTYNS":"01213688","GEOIDFQ":"0500000US42115","GEOID":"42115","NAME":"Susquehanna","NAMELSAD":"Susquehanna County","STUSPS":"PA","STATE_NAME":"Pennsylvania","LSAD":"06","ALAND":2132840104,"AWATER":22389171},"id":"42115"},{"arcs":[[198,-160,-128,-195,199]],"type":"Polygon","properties":{"STATEFP":"42","COUNTYFP":"073","COUNTYNS":"01213676","GEOIDFQ":"0500000US42073","GEOID":"42073","NAME":"Lawrence","NAMELSAD":"Lawrence County","STUSPS":"PA","STATE_NAME":"Pennsylvania","LSAD":"06","ALAND":925643090,"AWATER":11372291},"id":"42073"},{"arcs":[[-28,-98,-72,-82,-173,-139]],"type":"Polygon","properties":{"STATEFP":"42","COUNTYFP":"065","COUNTYNS":"01213674","GEOIDFQ":"0500000US42065","GEOID":"42065","NAME":"Jefferson","NAMELSAD":"Jefferson County","STUSPS":"PA","STATE_NAME":"Pennsylvania","LSAD":"06","ALAND":1689811407,"AWATER":11294609},"id":"42065"},{"arcs":[[-2,200,-164,-109]],"type":"Polygon","properties":{"STATEFP":"42","COUNTYFP":"057","COUNTYNS":"01213671","GEOIDFQ":"0500000US42057","GEOID":"42057","NAME":"Fulton","NAMELSAD":"Fulton County","STUSPS":"PA","STATE_NAME":"Pennsylvania","LSAD":"06","ALAND":1133252798,"AWATER":1305486},"id":"42057"},{"arcs":[[-117,-181,-171,-190]],"type":"Polygon","properties":{"STATEFP":"42","COUNTYFP":"109","COUNTYNS":"01213686","GEOIDFQ":"0500000US42109","GEOID":"42109","NAME":"Snyder","NAMELSAD":"Snyder County","STUSPS":"PA","STATE_NAME":"Pennsylvania","LSAD":"06","ALAND":851547197,"AWATER":7158854},"id":"42109"},{"arcs":[[-49,201,-124,-55,-141]],"type":"Polygon","properties":{"STATEFP":"42","COUNTYFP":"083","COUNTYNS":"01210235","GEOIDFQ":"0500000US42083","GEOID":"42083","NAME":"McKean","NAMELSAD":"McKean County","STUSPS":"PA","STATE_NAME":"Pennsylvania","LSAD":"06","ALAND":2537396735,"AWATER":13033864},"id":"42083"},{"arcs":[[-16,-191,-136,-196,-167,-193,-178,202]],"type":"Polygon","properties":{"STATEFP":"42","COUNTYFP":"107","COUNTYNS":"01213685","GEOIDFQ":"0500000US42107","GEOID":"42107","NAME":"Schuylkill","NAMELSAD":"Schuylkill County","STUSPS":"PA","STATE_NAME":"Pennsylvania","LSAD":"06","ALAND":2017009022,"AWATER":10321176},"id":"42107"},{"arcs":[[-134,-188,-186,-155,-197]],"type":"Polygon","properties":{"STATEFP":"42","COUNTYFP":"113","COUNTYNS":"01213687","GEOIDFQ":"0500000US42113","GEOID":"42113","NAME":"Sullivan","NAMELSAD":"Sullivan County","STUSPS":"PA","STATE_NAME":"Pennsylvania","LSAD":"06","ALAND":1165337810,"AWATER":6617028},"id":"42113"},{"arcs":[[-17,-203,-177,-89]],"type":"Polygon","properties":{"STATEFP":"42","COUNTYFP":"075","COUNTYNS":"01214034","GEOIDFQ":"0500000US42075","GEOID":"42075","NAME":"Lebanon","NAMELSAD":"Lebanon County","STUSPS":"PA","STATE_NAME":"Pennsylvania","LSAD":"06","ALAND":937148927,"AWATER":1722125},"id":"42075"},{"arcs":[[-60,-102,-149,-180,-192,-106]],"type":"Polygon","properties":{"STATEFP":"42","COUNTYFP":"091","COUNTYNS":"01213680","GEOIDFQ":"0500000US42091","GEOID":"42091","NAME":"Montgomery","NAMELSAD":"Montgomery County","STUSPS":"PA","STATE_NAME":"Pennsylvania","LSAD":"06","ALAND":1250800652,"AWATER":10999407},"id":"42091"}]}}}