{"type":"Topology","arcs":[[[724,1896],[233,3],[0,-73],[-1,-201],[86,12],[10,-79],[-27,-85],[39,-93],[20,-9]],[[1084,1371],[-76,-68]],[[1008,1303],[-31,83],[-41,-5],[16,-49]],[[952,1332],[-31,21],[-76,-18],[-36,-60],[-377,-10],[-291,-5]],[[141,1260],[-16,457],[-3,159],[67,3],[476,12],[59,5]],[[0,377],[62,49],[-16,50],[10,47],[-22,41],[46,29],[45,-5],[9,194],[8,198]],[[142,980],[271,4],[21,5],[317,3],[-7,30],[31,35],[46,10],[33,32],[48,5]],[[902,1104],[10,-140],[-70,-18],[-6,-38],[49,-60],[5,-43],[-13,-39],[6,-57],[-25,-55],[-50,-31],[6,-51],[-62,-82],[-95,10],[-170,-29],[-143,-44],[-55,-26],[-72,-12],[-44,5],[-83,-17],[-84,-30],[-6,30]],[[494,29],[31,54],[70,85],[17,-24],[-25,-54],[44,-51],[-5,-24],[-106,-15],[-26,29]],[[1084,1371],[113,-52],[73,-92],[-33,-27],[13,-44],[-37,-37],[-103,-3],[4,49],[23,45],[-32,42],[-64,7],[-33,44]],[[1328,1150],[125,-32],[-15,-120],[19,-28],[21,-207],[-37,-30],[-110,-59],[8,61],[-32,32],[11,33],[-31,72],[22,102],[-20,68],[-51,-13],[-6,-69],[15,-28],[-1,-85],[17,-16],[-48,-93],[-90,-2],[-14,-66],[-39,12],[-22,-23],[-43,2],[-10,31],[90,28],[-23,90],[33,8],[2,53],[74,131],[3,37],[41,32],[29,-1],[57,33],[25,47]],[[919,684],[12,14],[-10,56],[41,26],[-24,21],[13,92],[49,-1],[-13,-134],[15,-39],[-36,-5],[-47,-30]],[[1012,1090],[91,-46],[11,-45],[-28,-49],[-38,6],[21,83],[-51,22],[-6,29]],[[952,1332],[6,-68],[33,-49],[-27,-83],[-25,38],[-119,5],[7,-44],[44,9],[31,-36]],[[142,980],[5,129],[-6,151]]],"transform":{"scale":[0.0005006380243572372,0.0004591184834123208],"translate":[-71.860513,41.146932]},"objects":{"44":{"type":"GeometryCollection","geometries":[{"arcs":[[0,1,2,3,4]],"type":"Polygon","properties":{"STATEFP":"44","COUNTYFP":"007","COUNTYNS":"01219781","GEOIDFQ":"0500000US44007","GEOID":"44007","NAME":"Providence","NAMELSAD":"Providence County","STUSPS":"RI","STATE_NAME":"Rhode Island","LSAD":"06","ALAND":1060558464,"AWATER":67864195},"id":"44007"},{"arcs":[[[5,6,7]],[[8]]],"type":"MultiPolygon","properties":{"STATEFP":"44","COUNTYFP":"009","COUNTYNS":"01219782","GEOIDFQ":"0500000US44009","GEOID":"44009","NAME":"Washington","NAMELSAD":"Washington County","STUSPS":"RI","STATE_NAME":"Rhode Island","LSAD":"06","ALAND":852827600,"AWATER":604769731},"id":"44009"},{"arcs":[[-2,9]],"type":"Polygon","properties":{"STATEFP":"44","COUNTYFP":"001","COUNTYNS":"01219777","GEOIDFQ":"0500000US44001","GEOID":"44001","NAME":"Bristol","NAMELSAD":"Bristol County","STUSPS":"RI","STATE_NAME":"Rhode Island","LSAD":"06","ALAND":62500772,"AWATER":53359117},"id":"44001"},{"arcs":[[[10]],[[11]],[[12]]],"type":"MultiPolygon","properties":{"STATEFP":"44","COUNTYFP":"005","COUNTYNS":"01219779","GEOIDFQ":"0500000US44005","GEOID":"44005","NAME":"Newport","NAMELSAD":"Newport County","STUSPS":"RI","STATE_NAME":"Rhode Island","LSAD":"06","ALAND":265294693,"AWATER":547000887},"id":"44005"},{"arcs":[[-4,13,-7,14]],"type":"Polygon","properties":{"STATEFP":"44","COUNTYFP":"003","COUNTYNS":"01219778","GEOIDFQ":"0500000US44003","GEOID":"44003","NAME":"Kent","NAMELSAD":"Kent County","STUSPS":"RI","STATE_NAME":"Rhode Island","LSAD":"06","ALAND":436588768,"AWATER":50686110},"id":"44003"}]}}}