{"type":"Topology","arcs":[[[887,5777],[19,21],[2,2],[4,4],[3,5]],[[915,5809],[94,111],[536,328]],[[1545,6248],[47,-50],[17,-62],[-21,-54],[-4,-53],[14,-88],[-16,-38],[22,-49],[2,-44],[44,-56],[16,-94],[49,-30],[48,-54],[92,-80]],[[1855,5496],[-349,-284],[-198,-159],[-218,-169]],[[1090,4884],[-2,89],[-19,54],[-36,30],[-24,49],[-13,67],[-72,58],[-2,33],[-52,178],[-65,60],[-44,-12],[-32,9],[-86,-14]],[[643,5485],[244,292]],[[5472,5226],[0,5]],[[5472,5231],[434,284],[34,-14],[80,34],[29,-31],[44,1],[38,17],[62,-10],[38,39],[8,26],[52,26]],[[6291,5603],[-6,-48],[43,-55],[47,27],[51,14],[48,-17],[10,-19],[-49,-45],[-2,-70],[60,-75],[46,-31],[31,-35],[-23,-45],[45,-68],[7,-42]],[[6599,5094],[-23,-3],[-27,-44],[-79,24],[-41,-100],[-12,-10],[-69,19],[-37,-21],[-448,-357]],[[5863,4602],[-26,11],[-39,50],[-44,28],[-50,80],[82,80],[2,71],[-43,98],[1,27],[-53,48],[-18,46],[-4,90],[-25,1],[-27,-62],[-66,-33],[-17,37],[-23,8],[-41,44]],[[4887,4632],[64,1],[179,154]],[[5130,4787],[-2,-126],[135,-70],[18,18],[30,-20],[102,0],[33,-39],[15,-53],[46,-10],[20,-37],[8,-53],[18,-8],[98,30],[14,-119],[28,12],[169,114],[78,1],[46,89]],[[5986,4516],[68,-57],[88,-35],[36,-43],[-145,-93]],[[6033,4288],[-146,-89],[-117,-84],[-25,-2],[-107,-67],[-107,-78],[-28,-40],[-225,-42],[9,-117],[-75,-8],[15,27],[-9,32],[-33,-2],[-9,-54],[-44,2],[-33,-90],[-65,-68]],[[5034,3608],[-56,50],[5,27],[-50,15],[-44,61],[-22,43],[13,27]],[[4880,3831],[40,77],[-6,50],[-25,37],[-32,77],[24,64],[-9,60],[-17,26],[24,42],[-15,13],[10,60],[-32,34],[1,36],[71,90],[-24,54],[-39,44],[36,37]],[[5863,4602],[53,-17],[62,-50],[8,-19]],[[5130,4787],[28,22],[60,109],[0,112],[18,37],[35,4],[34,23],[52,-4],[-23,55],[4,26],[67,11],[67,44]],[[2829,7060],[333,-16],[385,-18]],[[3547,7026],[-65,-63],[-11,-202],[-112,2],[-30,-42],[23,-104],[-30,-81],[34,-26],[6,-46],[-14,-42],[37,-128]],[[3385,6294],[-49,50],[-54,35],[-51,-16],[-78,39],[-71,-29],[-25,15],[-7,34],[-34,5],[-42,31],[-48,1]],[[2926,6459],[-37,45],[-36,-5],[-55,199],[-15,37],[-24,0],[3,49],[-123,285]],[[2639,7069],[190,-9]],[[7207,3914],[44,-67],[2,-48],[29,-45],[51,-30],[101,23]],[[7434,3747],[68,-64],[-4,-33],[55,-31],[-11,-21],[13,-76],[46,-12],[-8,-61],[26,-4],[151,3]],[[7770,3448],[-51,-91],[-97,-109],[-55,-100],[-57,-137],[-27,-106],[-32,-173],[9,-97],[-34,-92],[-52,-45],[-41,-54],[-52,-20]],[[7281,2424],[12,43],[-40,24],[-42,-2],[-33,22],[-29,-5],[-60,49],[-37,19],[-19,34],[-41,37],[-16,-4]],[[6976,2641],[-65,73],[-20,-22],[-74,30],[-48,52],[-59,15],[-63,30],[-60,12],[-23,15]],[[6564,2846],[0,72],[42,54],[34,25],[16,40],[53,71],[11,50],[92,120],[81,53],[17,36],[85,81],[-12,52],[41,120],[17,87],[32,54],[31,29],[51,68],[25,49],[27,7]],[[5034,3608],[-12,-36],[34,-26],[3,-43],[29,-12],[-21,-38],[34,-37]],[[5101,3416],[-27,-45],[-51,53],[-22,8],[-88,-21],[24,-40],[-65,-89],[24,-64],[-50,10],[-36,-9],[-33,36],[-33,53],[4,26],[-203,185],[-132,35],[-68,-32],[-36,7],[-8,78],[-38,-41],[-138,184]],[[4125,3750],[92,56],[63,13],[40,61],[-51,32],[-93,5],[-33,-39],[-6,-42],[-40,4],[-1,53],[21,42],[16,128],[1,55],[45,21]],[[4179,4139],[29,-14],[-6,-30],[25,-27],[35,-2],[46,-43],[43,-8],[1,-31],[31,-6],[33,16],[25,-29],[51,-20],[53,-44],[64,-5],[43,8],[35,-31],[74,-13],[49,38],[5,-26],[42,-40],[23,-1]],[[4887,4632],[-35,-4],[-86,-37],[-35,-1],[-28,-27],[-236,236],[-30,24],[75,189]],[[4512,5012],[100,243],[-20,20],[-3,46],[-19,16],[-57,-3],[-23,16],[-73,87]],[[4417,5437],[243,184],[6,-36],[-10,-73],[19,-22],[38,13],[8,40],[36,23],[23,-50],[31,-32],[80,47],[32,5],[35,-28],[49,8],[44,45],[-34,55],[-13,50],[254,123]],[[5258,5789],[45,-50],[19,-102],[36,-60],[44,-50],[3,-136],[72,-98],[-5,-62]],[[4125,3750],[-75,-25],[-183,-97]],[[3867,3628],[-36,14],[-61,43],[-79,33],[-45,35],[-99,45],[-27,-7],[-54,12],[-21,24],[-22,77],[-44,49],[-98,36],[-29,39],[-35,67],[-36,38]],[[3181,4133],[177,447]],[[3358,4580],[12,24],[37,-21],[35,12],[19,-20],[47,11],[-87,114],[59,107],[52,3],[40,40],[24,2]],[[3596,4852],[44,-24],[22,-55],[-23,-37],[70,-109],[31,10],[108,-13],[80,-42],[50,-49],[39,-72],[24,-23],[63,-28],[16,-54],[51,-103],[-21,-43],[36,-17],[-23,-36],[16,-18]],[[7281,2424],[-72,-40],[-25,-28],[-20,-74],[-38,-100],[-96,-5],[0,20],[-120,-14],[-42,52],[-45,5],[-70,-48],[-63,-93],[-20,-44],[18,-60],[61,4],[-13,-48],[-90,-40],[-119,-84],[-11,-34],[-28,-23],[-12,-45],[-109,-48],[-65,-49],[-45,-20],[-26,39],[-40,38],[-66,-14],[-10,-62],[88,-8],[16,-46],[-30,-64],[0,-42],[-51,-41],[-97,-55],[-30,-31],[-25,-46],[-65,9],[-71,-15],[-79,-29],[-62,-42],[-14,-22],[-56,-4],[-106,-63]],[[5533,1110],[-45,-17],[-20,6],[-35,-30],[-48,27],[-10,-19],[33,-31],[-4,-24],[-44,13],[-54,71],[-60,36],[5,23],[33,15],[8,24],[-14,37],[18,50],[-29,9],[-40,-12],[1,34],[35,5],[1,53],[-28,40],[9,55],[-28,63],[-39,37],[6,41],[30,47],[-5,21],[50,52],[15,56],[-3,51]],[[5271,1843],[181,-16],[42,-17],[212,-57],[-11,81],[34,75],[70,13],[14,-15],[32,93],[-109,116],[54,13],[-45,30],[-18,-33],[-39,41],[33,43]],[[5721,2210],[91,-76],[75,26],[29,-38],[-3,-62],[53,-124],[109,25],[-21,-47],[11,-67],[45,-23],[3,-60],[33,-16],[25,24],[2,74],[66,25],[31,58],[10,52],[18,-3],[74,54],[23,-1],[15,36],[-11,24],[13,46],[59,56],[13,37],[34,34],[51,78],[25,23],[32,76],[54,31],[110,38],[30,-26],[28,12],[45,96],[39,42],[44,7]],[[6564,2846],[-58,37],[-56,2],[-95,125],[-35,10],[-73,47],[-16,36],[-25,21],[-5,32],[-127,99],[-23,27],[-39,-2],[-46,16],[-125,2],[-35,-20]],[[5806,3278],[144,334],[50,132],[33,39],[-38,104],[92,95],[52,19],[71,149]],[[6210,4150],[37,15],[35,-21],[66,-105],[98,-2],[33,-46],[130,-1],[31,-12],[247,-75],[41,19],[57,2],[15,19],[60,17],[30,40],[54,-7],[22,-28],[28,-8]],[[7194,3957],[13,-43]],[[5271,1843],[14,60],[-23,56],[14,38],[-17,58],[-20,33],[18,39],[4,77],[34,31],[-23,45],[-20,-14],[-113,40],[-62,-16],[-42,25],[-81,-25],[-81,22],[-89,92],[-32,66],[-38,43],[-44,31],[-61,3],[-33,21]],[[4576,2568],[513,345],[16,-30],[0,-53],[17,-40],[63,-23],[40,-27],[58,16],[58,-16]],[[5341,2740],[24,-19],[20,-47],[12,-67],[59,-37],[-24,-53],[-45,-29],[334,-278]],[[3804,3150],[29,-6],[30,-58],[40,-5],[65,-46],[99,-35],[35,-43],[91,-40],[73,-57],[27,-7],[81,-74],[25,-31],[77,-51],[4,-59],[48,-38],[34,-41]],[[4562,2559],[-174,-116],[12,-52],[22,-20],[-35,-72],[-36,24],[-37,69],[-260,-171]],[[4054,2221],[-33,51],[-42,9],[-43,62],[-40,33],[-40,52]],[[3856,2428],[-61,99],[12,97],[0,119],[14,312],[-17,95]],[[6033,4288],[40,-118],[11,-18],[78,7],[48,-9]],[[5806,3278],[-46,-8],[-44,-33],[36,-33],[-29,-32],[-133,-14]],[[5590,3158],[-47,15],[-34,-28],[-16,20],[-83,-35],[-56,-2],[-70,35],[-77,72],[-10,56],[-45,30],[26,16],[10,39],[-37,1],[-30,43],[-20,-4]],[[4125,6990],[-14,-41],[31,-38],[-43,-62],[-1,-54],[29,-40],[191,141],[51,-69]],[[4369,6827],[0,-67],[13,-41],[-19,-27],[26,-37],[29,-85],[18,-26],[2,-85],[-19,-22],[-1,-92],[20,-20],[-11,-33],[-44,-40]],[[4383,6252],[-500,1],[-533,3]],[[3350,6256],[35,38]],[[3547,7026],[68,-4],[391,-21],[119,-11]],[[4369,6827],[117,-168],[105,-148],[-28,-261],[421,-5]],[[4984,6245],[6,-36],[25,-39],[50,-57],[41,-76],[9,-43],[24,-15],[25,-50],[52,-38],[-6,-40],[38,-32],[10,-30]],[[4417,5437],[-32,76],[28,19],[7,97]],[[4420,5629],[8,30],[-9,55],[-25,38],[5,45],[-13,31],[16,46],[-2,36],[51,61],[-26,81],[-6,62],[3,66],[-39,72]],[[7646,5081],[0,0],[351,-371],[401,-427],[184,-197],[-13,-17],[-66,-13],[-136,-54],[-122,-67],[-107,-77],[-126,-117],[-129,-142],[-113,-151]],[[7434,3747],[-10,50],[-59,67],[-35,60],[-21,68],[13,48],[-20,14],[13,70],[-12,42],[-87,58],[1,59],[-48,55],[11,59],[41,23],[12,61],[26,1],[72,54],[9,25],[-13,50],[49,51],[30,45],[-5,39],[28,55],[38,15],[13,36],[52,45],[13,81]],[[7545,4978],[35,44],[66,59]],[[1975,5329],[67,-77],[22,-1],[42,-55],[7,-45],[63,-15],[25,-45],[17,9],[48,-20],[94,-82],[43,-47],[51,-8],[13,-36],[47,-42]],[[2514,4865],[32,-17],[51,-108],[50,-28]],[[2647,4712],[-31,-39],[-23,-51],[-27,-9],[-54,-117],[-77,-91],[-34,-83]],[[2401,4322],[-70,-19]],[[2331,4303],[4,68],[-56,-11],[-133,18],[-30,-30],[-58,12],[-53,48],[-25,40],[-85,-84],[-26,-19],[-38,207]],[[1831,4552],[104,97],[34,61],[17,65],[0,65],[-14,64],[-54,86],[-52,42],[-6,96],[-23,11],[-19,39],[157,151]],[[3478,1588],[20,0],[46,35],[53,18],[21,50],[116,109],[-27,119],[30,24],[40,9],[1,75],[31,29],[245,165]],[[4054,2221],[32,-29],[20,-54],[59,-58],[38,-73],[21,-68],[34,-24],[19,-32],[22,0],[81,-98],[8,-49],[52,-79],[12,-52],[35,-81],[25,-27]],[[4512,1497],[-20,-10],[-58,-88]],[[4434,1399],[-58,-88],[-48,33],[-53,14],[16,43],[7,58],[-33,16],[-22,59],[-33,22],[-35,50],[-150,-144],[-194,-176],[-27,-15],[-105,-106]],[[3699,1165],[-30,14],[-42,-7],[-66,31],[-55,49],[-51,74],[42,48],[-12,63],[-35,50],[7,65],[21,36]],[[1545,6248],[5,57],[-6,92],[-59,95],[-11,76],[-28,35],[15,16],[-16,46],[-23,24],[-67,-16],[10,29],[-19,45],[16,74],[-105,-31],[-15,13],[-104,-16],[-61,-25],[-26,46]],[[1051,6808],[46,26],[92,64],[-1,38],[44,-16],[94,47],[64,11],[58,41],[83,6],[14,18],[49,12],[36,-27],[36,73],[52,38],[34,-76],[32,24],[54,-17],[13,13],[73,22],[106,-10]],[[2030,7095],[-12,-602],[-7,-169],[55,-40],[64,-100],[25,-12]],[[2155,6172],[-92,-243],[-67,-198],[-2,-120],[-139,-115]],[[3234,2264],[-36,0],[-30,46],[-25,15],[-38,50]],[[3105,2375],[129,142],[156,-52],[160,-61],[145,1],[77,23],[84,0]],[[3478,1588],[-12,41],[-33,42],[15,120],[-41,35],[-22,4],[7,48],[-41,8],[-13,99],[-34,38],[19,153],[-34,43],[-55,45]],[[5341,2740],[5,32],[26,13],[49,-30],[40,16],[70,64],[14,86],[14,32],[3,87],[28,0],[-5,41],[5,77]],[[3867,3628],[-275,-305],[-57,-60]],[[3535,3263],[-256,-243],[-430,-414]],[[2849,2606],[-19,41],[-40,-17],[-32,11],[-78,77],[14,42],[-4,40],[-41,66],[-22,1],[-67,43],[-8,26],[-38,43],[25,36],[-8,39],[20,29],[-12,42],[31,21],[-23,55],[-107,53],[-27,76],[-20,27]],[[2393,3357],[346,340],[298,294]],[[3037,3991],[144,142]],[[2926,6459],[-80,-99],[-43,-71],[-28,-125],[-37,-208],[-34,-96],[-24,-115]],[[2680,5745],[-68,1],[-36,17],[-75,105],[-35,20],[-59,8],[-111,87],[-21,42],[-15,57],[-51,9],[-26,53],[-28,28]],[[2030,7095],[225,-11],[215,-8],[169,-7]],[[1975,5329],[-35,53],[-21,7],[-18,38],[-47,36],[1,33]],[[2680,5745],[60,-15],[8,-18],[96,-32],[19,5],[59,-38],[99,-6],[31,-34]],[[3052,5607],[-11,-36],[-27,-27],[-67,-111],[-36,-15],[-45,-67],[-18,-47],[-30,-33],[-14,-43],[-58,-40],[-38,-9],[-45,-62],[-39,-8],[-22,-26],[-14,-83],[-42,-98],[-32,-37]],[[4366,0],[-31,9],[-51,63],[-53,21],[-37,51],[-61,-42],[-89,37],[-6,24],[-43,9],[-8,43],[10,41],[-24,38],[18,37],[-10,36],[-38,56],[-21,39],[17,13],[38,77],[6,48],[-16,69],[-18,32],[-36,1],[-12,40],[-24,25],[5,32],[-48,67],[-5,30],[15,70],[-60,68],[-17,49],[-52,23],[-16,59]],[[4434,1399],[39,-70],[-1,-33],[30,-48],[-13,-81],[2,-41],[-18,-21],[49,-88],[3,-60],[-20,-4],[-32,-75],[0,-39],[33,0],[-22,-60],[-57,-35],[-7,-53],[-26,18],[-53,-4],[-22,-69],[-1,-47],[-128,14],[22,-36],[3,-40],[-22,-49],[-20,-15],[6,-58],[22,-50],[63,-24],[26,-42],[-7,-40],[-27,-13],[14,-38],[36,25],[51,-22],[29,-56],[-24,-33],[4,-22],[51,6]],[[4417,96],[-51,-73],[0,-23]],[[3596,4852],[-11,17],[50,77]],[[3635,4946],[67,-20],[51,-62],[44,6],[86,-70],[17,45],[-22,58],[152,-14],[23,24],[78,18],[138,43],[243,38]],[[4984,6245],[111,-1],[319,-7],[156,-2],[541,-14]],[[6111,6221],[-7,-21],[17,-72],[60,-57],[35,-104],[37,-51],[37,-31],[25,3],[38,-28],[-9,-19],[39,-51],[-44,-12],[-10,-56],[-16,-26],[-22,-93]],[[2331,4303],[-194,-55],[13,-58],[-11,-48],[54,-89],[2,-32],[-37,-74],[-23,-16],[-28,-50],[15,-50],[-33,-44],[30,-75],[37,-9],[24,-60],[38,-9],[27,-49],[-36,-83]],[[2209,3502],[-32,-14],[-44,43],[-32,9],[-37,38],[-6,70],[-33,55],[-29,32],[-8,68],[-15,49],[-92,72],[0,32],[-84,79],[-40,19],[-71,54],[-37,-1],[-114,98],[-36,61],[-54,9],[-38,34],[-53,130]],[[1354,4439],[114,131],[55,0],[29,21],[55,-47],[136,-7],[88,15]],[[1354,4439],[-3,39],[-21,16],[-34,57],[-34,28],[10,24],[-33,39],[-30,58],[-75,46],[-23,56],[-21,82]],[[6599,5094],[43,-16]],[[6642,5078],[58,-17],[70,-72],[25,-62]],[[6795,4927],[-5,-66],[-38,-40],[29,-54],[21,-18],[45,-91],[-18,-25],[3,-84],[28,-56],[4,-71],[-14,-27],[37,-56],[27,-12],[-19,-39],[32,-37],[39,-12],[0,-22],[41,-39],[50,-11],[8,-39],[51,-73],[53,-5],[30,-22],[13,-54],[-18,-17]],[[4420,5629],[-227,11],[-99,11],[-330,24],[-318,18]],[[3446,5693],[-7,15],[16,57],[3,67],[-46,45],[-22,48],[0,103],[-45,7],[-5,46],[52,37],[-11,82],[-31,56]],[[3358,4580],[-18,12],[-36,-18],[-20,19],[-45,-1],[-17,27],[-41,13],[-43,42],[-53,23],[-21,40],[-64,22],[-34,38],[-48,8],[-23,25],[-22,-19],[-89,-22],[-31,13],[-50,-7],[-26,18],[-41,-28],[11,-73]],[[3052,5607],[46,-19],[52,-64],[64,-45],[3,-55],[19,-16],[100,101],[46,-7],[27,18],[36,-1]],[[3445,5519],[19,-59],[-15,-32],[42,-119],[5,-31],[42,-83],[9,-55],[22,-51],[26,-29],[-5,-52],[45,-62]],[[3037,3991],[-223,71],[-85,48],[-22,-2],[-60,57],[-43,188],[-67,3],[-136,-34]],[[2393,3357],[-28,29],[-32,42],[-48,31],[-38,12],[-38,31]],[[3105,2375],[-51,-5],[-29,23],[-82,30],[-71,58],[-34,38],[-9,43],[20,44]],[[3535,3263],[52,-21],[81,-4],[63,-62],[30,-20],[43,-6]],[[3445,5519],[-7,79],[8,95]],[[915,5809],[2,76],[-22,25],[-16,66],[8,62],[-31,25],[-42,0],[17,87],[12,14],[-30,53],[2,72],[-15,51],[-4,59],[11,37],[-14,37],[9,36],[-28,56],[5,28],[-40,19],[1,34],[31,43],[41,92]],[[812,6781],[204,66],[3,-42],[32,3]],[[6795,4927],[-11,37],[53,9],[78,82],[94,15],[30,13],[55,0],[134,-70],[20,17],[40,-16],[22,-24],[81,-8],[73,72],[81,-76]],[[5533,1110],[-139,-121],[-26,36],[-28,3],[-91,-56],[-9,42],[-46,35],[-50,-18],[-9,-26]],[[5135,1005],[-46,23],[-26,53],[-34,22],[-27,83],[-56,0],[-51,54],[-65,14],[-36,60],[-30,74],[-38,39],[-59,20],[-10,-18],[-47,6],[-27,24],[-38,4],[-33,34]],[[4562,2559],[14,9]],[[5135,1005],[-13,-55],[9,-34],[39,-80],[39,5],[12,-51],[-27,-78],[-33,-49],[17,-25],[-91,-33],[-79,-49],[-50,-23],[-22,16],[-63,-55],[-38,6],[1,69],[-78,26],[-35,47],[-46,-10],[-35,-28],[-22,-47],[42,-50],[27,15],[72,-59],[26,-33],[1,-36],[-26,-23],[-50,-78],[-46,-50],[-146,-85],[-37,21],[-53,-79],[-13,-4]],[[6970,5804],[164,-171],[193,-214],[319,-338]],[[6642,5078],[328,726]],[[6949,5824],[21,-20]],[[6111,6221],[6,-1],[101,-2],[318,-1],[31,-1],[382,-392]],[[25,5952],[-25,65],[6,46],[40,32],[13,32],[-9,51],[61,69],[39,6],[-7,31],[30,21],[22,75],[66,5],[66,88],[23,-4],[80,42],[-16,73],[39,53],[-19,21],[1,0],[179,59],[198,64]],[[643,5485],[-12,-15],[-94,48],[-32,18],[-27,65],[-33,13],[-13,23],[-54,35],[-4,24],[-45,40],[-3,37],[-45,-9],[-25,16],[-40,1],[-41,59],[-69,38],[-21,35],[-60,39]]],"transform":{"scale":[0.0005598926827211602,0.00044505448942428936],"translate":[-83.352323003113,32.038151]},"objects":{"45":{"type":"GeometryCollection","geometries":[{"arcs":[[0,1,2,3,4,5]],"type":"Polygon","properties":{"STATEFP":"45","COUNTYFP":"007","COUNTYNS":"01247981","GEOIDFQ":"0500000US45007","GEOID":"45007","NAME":"Anderson","NAMELSAD":"Anderson County","STUSPS":"SC","STATE_NAME":"South Carolina","LSAD":"06","ALAND":1848873639,"AWATER":108547580},"id":"45007"},{"arcs":[[6,7,8,9,10]],"type":"Polygon","properties":{"STATEFP":"45","COUNTYFP":"031","COUNTYNS":"01247992","GEOIDFQ":"0500000US45031","GEOID":"45031","NAME":"Darlington","NAMELSAD":"Darlington County","STUSPS":"SC","STATE_NAME":"South Carolina","LSAD":"06","ALAND":1452022422,"AWATER":14563154},"id":"45031"},{"arcs":[[11,12,13,14,15,16]],"type":"Polygon","properties":{"STATEFP":"45","COUNTYFP":"085","COUNTYNS":"01244717","GEOIDFQ":"0500000US45085","GEOID":"45085","NAME":"Sumter","NAMELSAD":"Sumter County","STUSPS":"SC","STATE_NAME":"South Carolina","LSAD":"06","ALAND":1722544867,"AWATER":44046815},"id":"45085"},{"arcs":[[-11,17,-13,18]],"type":"Polygon","properties":{"STATEFP":"45","COUNTYFP":"061","COUNTYNS":"01245652","GEOIDFQ":"0500000US45061","GEOID":"45061","NAME":"Lee","NAMELSAD":"Lee County","STUSPS":"SC","STATE_NAME":"South Carolina","LSAD":"06","ALAND":1062378291,"AWATER":2709092},"id":"45061"},{"arcs":[[19,20,21,22,23]],"type":"Polygon","properties":{"STATEFP":"45","COUNTYFP":"021","COUNTYNS":"01247987","GEOIDFQ":"0500000US45021","GEOID":"45021","NAME":"Cherokee","NAMELSAD":"Cherokee County","STUSPS":"SC","STATE_NAME":"South Carolina","LSAD":"06","ALAND":1017779531,"AWATER":11794021},"id":"45021"},{"arcs":[[24,25,26,27,28,29]],"type":"Polygon","properties":{"STATEFP":"45","COUNTYFP":"043","COUNTYNS":"01248002","GEOIDFQ":"0500000US45043","GEOID":"45043","NAME":"Georgetown","NAMELSAD":"Georgetown County","STUSPS":"SC","STATE_NAME":"South Carolina","LSAD":"06","ALAND":2107383728,"AWATER":550477432},"id":"45043"},{"arcs":[[-16,30,31,32,33]],"type":"Polygon","properties":{"STATEFP":"45","COUNTYFP":"017","COUNTYNS":"01247986","GEOIDFQ":"0500000US45017","GEOID":"45017","NAME":"Calhoun","NAMELSAD":"Calhoun County","STUSPS":"SC","STATE_NAME":"South Carolina","LSAD":"06","ALAND":987164243,"AWATER":29365859},"id":"45017"},{"arcs":[[-7,-19,-12,34,35,36,37]],"type":"Polygon","properties":{"STATEFP":"45","COUNTYFP":"055","COUNTYNS":"01248007","GEOIDFQ":"0500000US45055","GEOID":"45055","NAME":"Kershaw","NAMELSAD":"Kershaw County","STUSPS":"SC","STATE_NAME":"South Carolina","LSAD":"06","ALAND":1881916509,"AWATER":35348695},"id":"45055"},{"arcs":[[-33,38,39,40,41,42]],"type":"Polygon","properties":{"STATEFP":"45","COUNTYFP":"063","COUNTYNS":"01244251","GEOIDFQ":"0500000US45063","GEOID":"45063","NAME":"Lexington","NAMELSAD":"Lexington County","STUSPS":"SC","STATE_NAME":"South Carolina","LSAD":"06","ALAND":1809230947,"AWATER":151630912},"id":"45063"},{"arcs":[[-28,43,44,45,46]],"type":"Polygon","properties":{"STATEFP":"45","COUNTYFP":"019","COUNTYNS":"01252740","GEOIDFQ":"0500000US45019","GEOID":"45019","NAME":"Charleston","NAMELSAD":"Charleston County","STUSPS":"SC","STATE_NAME":"South Carolina","LSAD":"06","ALAND":2377988545,"AWATER":1162356386},"id":"45019"},{"arcs":[[-30,47,48,49,50]],"type":"Polygon","properties":{"STATEFP":"45","COUNTYFP":"089","COUNTYNS":"01248018","GEOIDFQ":"0500000US45089","GEOID":"45089","NAME":"Williamsburg","NAMELSAD":"Williamsburg County","STUSPS":"SC","STATE_NAME":"South Carolina","LSAD":"06","ALAND":2419477850,"AWATER":7461200},"id":"45089"},{"arcs":[[-46,51,52,53]],"type":"Polygon","properties":{"STATEFP":"45","COUNTYFP":"035","COUNTYNS":"01247998","GEOIDFQ":"0500000US45035","GEOID":"45035","NAME":"Dorchester","NAMELSAD":"Dorchester County","STUSPS":"SC","STATE_NAME":"South Carolina","LSAD":"06","ALAND":1472130993,"AWATER":6775985},"id":"45035"},{"arcs":[[54,55,56,57]],"type":"Polygon","properties":{"STATEFP":"45","COUNTYFP":"009","COUNTYNS":"01247982","GEOIDFQ":"0500000US45009","GEOID":"45009","NAME":"Bamberg","NAMELSAD":"Bamberg County","STUSPS":"SC","STATE_NAME":"South Carolina","LSAD":"06","ALAND":1018815101,"AWATER":5686290},"id":"45009"},{"arcs":[[-15,58,-49,59,60,-31]],"type":"Polygon","properties":{"STATEFP":"45","COUNTYFP":"027","COUNTYNS":"01247990","GEOIDFQ":"0500000US45027","GEOID":"45027","NAME":"Clarendon","NAMELSAD":"Clarendon County","STUSPS":"SC","STATE_NAME":"South Carolina","LSAD":"06","ALAND":1572660721,"AWATER":229093475},"id":"45027"},{"arcs":[[61,62,63,64,-21,65]],"type":"Polygon","properties":{"STATEFP":"45","COUNTYFP":"091","COUNTYNS":"01248019","GEOIDFQ":"0500000US45091","GEOID":"45091","NAME":"York","NAMELSAD":"York County","STUSPS":"SC","STATE_NAME":"South Carolina","LSAD":"06","ALAND":1762763980,"AWATER":38995688},"id":"45091"},{"arcs":[[66,67,-37,68,69,-63]],"type":"Polygon","properties":{"STATEFP":"45","COUNTYFP":"057","COUNTYNS":"01248008","GEOIDFQ":"0500000US45057","GEOID":"45057","NAME":"Lancaster","NAMELSAD":"Lancaster County","STUSPS":"SC","STATE_NAME":"South Carolina","LSAD":"06","ALAND":1422349847,"AWATER":15704470},"id":"45057"},{"arcs":[[70,-26,71,72]],"type":"Polygon","properties":{"STATEFP":"45","COUNTYFP":"051","COUNTYNS":"01248005","GEOIDFQ":"0500000US45051","GEOID":"45051","NAME":"Horry","NAMELSAD":"Horry County","STUSPS":"SC","STATE_NAME":"South Carolina","LSAD":"06","ALAND":2934846232,"AWATER":314878229},"id":"45051"},{"arcs":[[73,74,75,76,77,78]],"type":"Polygon","properties":{"STATEFP":"45","COUNTYFP":"047","COUNTYNS":"01248003","GEOIDFQ":"0500000US45047","GEOID":"45047","NAME":"Greenwood","NAMELSAD":"Greenwood County","STUSPS":"SC","STATE_NAME":"South Carolina","LSAD":"06","ALAND":1180013604,"AWATER":21255542},"id":"45047"},{"arcs":[[79,80,81,82,83]],"type":"Polygon","properties":{"STATEFP":"45","COUNTYFP":"049","COUNTYNS":"01248004","GEOIDFQ":"0500000US45049","GEOID":"45049","NAME":"Hampton","NAMELSAD":"Hampton County","STUSPS":"SC","STATE_NAME":"South Carolina","LSAD":"06","ALAND":1450327688,"AWATER":7072733},"id":"45049"},{"arcs":[[-3,84,85,86,87]],"type":"Polygon","properties":{"STATEFP":"45","COUNTYFP":"045","COUNTYNS":"01245489","GEOIDFQ":"0500000US45045","GEOID":"45045","NAME":"Greenville","NAMELSAD":"Greenville County","STUSPS":"SC","STATE_NAME":"South Carolina","LSAD":"06","ALAND":2035584628,"AWATER":24947053},"id":"45045"},{"arcs":[[88,89,-57,-80,90]],"type":"Polygon","properties":{"STATEFP":"45","COUNTYFP":"005","COUNTYNS":"01247980","GEOIDFQ":"0500000US45005","GEOID":"45005","NAME":"Allendale","NAMELSAD":"Allendale County","STUSPS":"SC","STATE_NAME":"South Carolina","LSAD":"06","ALAND":1056960701,"AWATER":11194313},"id":"45005"},{"arcs":[[-29,-47,-54,91,-60,-48]],"type":"Polygon","properties":{"STATEFP":"45","COUNTYFP":"015","COUNTYNS":"01247985","GEOIDFQ":"0500000US45015","GEOID":"45015","NAME":"Berkeley","NAMELSAD":"Berkeley County","STUSPS":"SC","STATE_NAME":"South Carolina","LSAD":"06","ALAND":2858335679,"AWATER":339019658},"id":"45015"},{"arcs":[[-40,92,93,94,95,96]],"type":"Polygon","properties":{"STATEFP":"45","COUNTYFP":"003","COUNTYNS":"01247979","GEOIDFQ":"0500000US45003","GEOID":"45003","NAME":"Aiken","NAMELSAD":"Aiken County","STUSPS":"SC","STATE_NAME":"South Carolina","LSAD":"06","ALAND":2773038892,"AWATER":24555794},"id":"45003"},{"arcs":[[-23,97,98,-87,99]],"type":"Polygon","properties":{"STATEFP":"45","COUNTYFP":"083","COUNTYNS":"01248592","GEOIDFQ":"0500000US45083","GEOID":"45083","NAME":"Spartanburg","NAMELSAD":"Spartanburg County","STUSPS":"SC","STATE_NAME":"South Carolina","LSAD":"06","ALAND":2093774834,"AWATER":29428928},"id":"45083"},{"arcs":[[-74,100,-88,-99,101,102]],"type":"Polygon","properties":{"STATEFP":"45","COUNTYFP":"059","COUNTYNS":"01248009","GEOIDFQ":"0500000US45059","GEOID":"45059","NAME":"Laurens","NAMELSAD":"Laurens County","STUSPS":"SC","STATE_NAME":"South Carolina","LSAD":"06","ALAND":1846335748,"AWATER":26052637},"id":"45059"},{"arcs":[[103,-83,104,105]],"type":"Polygon","properties":{"STATEFP":"45","COUNTYFP":"053","COUNTYNS":"01248006","GEOIDFQ":"0500000US45053","GEOID":"45053","NAME":"Jasper","NAMELSAD":"Jasper County","STUSPS":"SC","STATE_NAME":"South Carolina","LSAD":"06","ALAND":1696790801,"AWATER":120163760},"id":"45053"},{"arcs":[[-17,-34,-43,106,107,-35]],"type":"Polygon","properties":{"STATEFP":"45","COUNTYFP":"079","COUNTYNS":"01249299","GEOIDFQ":"0500000US45079","GEOID":"45079","NAME":"Richland","NAMELSAD":"Richland County","STUSPS":"SC","STATE_NAME":"South Carolina","LSAD":"06","ALAND":1961420505,"AWATER":37960911},"id":"45079"},{"arcs":[[-8,-38,-68,108,109]],"type":"Polygon","properties":{"STATEFP":"45","COUNTYFP":"025","COUNTYNS":"01247989","GEOIDFQ":"0500000US45025","GEOID":"45025","NAME":"Chesterfield","NAMELSAD":"Chesterfield County","STUSPS":"SC","STATE_NAME":"South Carolina","LSAD":"06","ALAND":2069364023,"AWATER":17265236},"id":"45025"},{"arcs":[[-78,110,111,112]],"type":"Polygon","properties":{"STATEFP":"45","COUNTYFP":"065","COUNTYNS":"01248012","GEOIDFQ":"0500000US45065","GEOID":"45065","NAME":"McCormick","NAMELSAD":"McCormick County","STUSPS":"SC","STATE_NAME":"South Carolina","LSAD":"06","ALAND":929521238,"AWATER":89977092},"id":"45065"},{"arcs":[[-4,-101,-79,-113,113]],"type":"Polygon","properties":{"STATEFP":"45","COUNTYFP":"001","COUNTYNS":"01245666","GEOIDFQ":"0500000US45001","GEOID":"45001","NAME":"Abbeville","NAMELSAD":"Abbeville County","STUSPS":"SC","STATE_NAME":"South Carolina","LSAD":"06","ALAND":1272188745,"AWATER":53216416},"id":"45001"},{"arcs":[[-10,114,115,116,-50,-59,-14,-18]],"type":"Polygon","properties":{"STATEFP":"45","COUNTYFP":"041","COUNTYNS":"01248001","GEOIDFQ":"0500000US45041","GEOID":"45041","NAME":"Florence","NAMELSAD":"Florence County","STUSPS":"SC","STATE_NAME":"South Carolina","LSAD":"06","ALAND":2073166821,"AWATER":9899580},"id":"45041"},{"arcs":[[-64,-70,117,118]],"type":"Polygon","properties":{"STATEFP":"45","COUNTYFP":"023","COUNTYNS":"01247988","GEOIDFQ":"0500000US45023","GEOID":"45023","NAME":"Chester","NAMELSAD":"Chester County","STUSPS":"SC","STATE_NAME":"South Carolina","LSAD":"06","ALAND":1504432381,"AWATER":14514845},"id":"45023"},{"arcs":[[-42,119,-75,-103,120,121,-107]],"type":"Polygon","properties":{"STATEFP":"45","COUNTYFP":"071","COUNTYNS":"01248013","GEOIDFQ":"0500000US45071","GEOID":"45071","NAME":"Newberry","NAMELSAD":"Newberry County","STUSPS":"SC","STATE_NAME":"South Carolina","LSAD":"06","ALAND":1632569400,"AWATER":44077688},"id":"45071"},{"arcs":[[-41,-97,122,-76,-120]],"type":"Polygon","properties":{"STATEFP":"45","COUNTYFP":"081","COUNTYNS":"01248016","GEOIDFQ":"0500000US45081","GEOID":"45081","NAME":"Saluda","NAMELSAD":"Saluda County","STUSPS":"SC","STATE_NAME":"South Carolina","LSAD":"06","ALAND":1173817178,"AWATER":22979792},"id":"45081"},{"arcs":[[-77,-123,-96,123,-111]],"type":"Polygon","properties":{"STATEFP":"45","COUNTYFP":"037","COUNTYNS":"01247999","GEOIDFQ":"0500000US45037","GEOID":"45037","NAME":"Edgefield","NAMELSAD":"Edgefield County","STUSPS":"SC","STATE_NAME":"South Carolina","LSAD":"06","ALAND":1296776318,"AWATER":16307326},"id":"45037"},{"arcs":[[124,-94,125,-58,-90]],"type":"Polygon","properties":{"STATEFP":"45","COUNTYFP":"011","COUNTYNS":"01247983","GEOIDFQ":"0500000US45011","GEOID":"45011","NAME":"Barnwell","NAMELSAD":"Barnwell County","STUSPS":"SC","STATE_NAME":"South Carolina","LSAD":"06","ALAND":1420305103,"AWATER":22997961},"id":"45011"},{"arcs":[[-36,-108,-122,126,-118,-69]],"type":"Polygon","properties":{"STATEFP":"45","COUNTYFP":"039","COUNTYNS":"01248000","GEOIDFQ":"0500000US45039","GEOID":"45039","NAME":"Fairfield","NAMELSAD":"Fairfield County","STUSPS":"SC","STATE_NAME":"South Carolina","LSAD":"06","ALAND":1777525443,"AWATER":61045167},"id":"45039"},{"arcs":[[-22,-65,-119,-127,-121,-102,-98]],"type":"Polygon","properties":{"STATEFP":"45","COUNTYFP":"087","COUNTYNS":"01248017","GEOIDFQ":"0500000US45087","GEOID":"45087","NAME":"Union","NAMELSAD":"Union County","STUSPS":"SC","STATE_NAME":"South Carolina","LSAD":"06","ALAND":1330228699,"AWATER":4488751},"id":"45087"},{"arcs":[[-2,127,128,-85]],"type":"Polygon","properties":{"STATEFP":"45","COUNTYFP":"077","COUNTYNS":"01248015","GEOIDFQ":"0500000US45077","GEOID":"45077","NAME":"Pickens","NAMELSAD":"Pickens County","STUSPS":"SC","STATE_NAME":"South Carolina","LSAD":"06","ALAND":1287095068,"AWATER":40933025},"id":"45077"},{"arcs":[[-25,-51,-117,129,-72]],"type":"Polygon","properties":{"STATEFP":"45","COUNTYFP":"067","COUNTYNS":"01248010","GEOIDFQ":"0500000US45067","GEOID":"45067","NAME":"Marion","NAMELSAD":"Marion County","STUSPS":"SC","STATE_NAME":"South Carolina","LSAD":"06","ALAND":1267466472,"AWATER":12418901},"id":"45067"},{"arcs":[[-45,130,131,-81,-56,132,-52]],"type":"Polygon","properties":{"STATEFP":"45","COUNTYFP":"029","COUNTYNS":"01247991","GEOIDFQ":"0500000US45029","GEOID":"45029","NAME":"Colleton","NAMELSAD":"Colleton County","STUSPS":"SC","STATE_NAME":"South Carolina","LSAD":"06","ALAND":2736346212,"AWATER":196858156},"id":"45029"},{"arcs":[[-82,-132,133,-105]],"type":"Polygon","properties":{"STATEFP":"45","COUNTYFP":"013","COUNTYNS":"01247984","GEOIDFQ":"0500000US45013","GEOID":"45013","NAME":"Beaufort","NAMELSAD":"Beaufort County","STUSPS":"SC","STATE_NAME":"South Carolina","LSAD":"06","ALAND":1491889127,"AWATER":900045223},"id":"45013"},{"arcs":[[-32,-61,-92,-53,-133,-55,-126,-93,-39]],"type":"Polygon","properties":{"STATEFP":"45","COUNTYFP":"075","COUNTYNS":"01248014","GEOIDFQ":"0500000US45075","GEOID":"45075","NAME":"Orangeburg","NAMELSAD":"Orangeburg County","STUSPS":"SC","STATE_NAME":"South Carolina","LSAD":"06","ALAND":2865509337,"AWATER":55697625},"id":"45075"},{"arcs":[[134,-73,-130,-116,135]],"type":"Polygon","properties":{"STATEFP":"45","COUNTYFP":"033","COUNTYNS":"01247993","GEOIDFQ":"0500000US45033","GEOID":"45033","NAME":"Dillon","NAMELSAD":"Dillon County","STUSPS":"SC","STATE_NAME":"South Carolina","LSAD":"06","ALAND":1049143223,"AWATER":4515866},"id":"45033"},{"arcs":[[136,-136,-115,-9,-110,137]],"type":"Polygon","properties":{"STATEFP":"45","COUNTYFP":"069","COUNTYNS":"01248011","GEOIDFQ":"0500000US45069","GEOID":"45069","NAME":"Marlboro","NAMELSAD":"Marlboro County","STUSPS":"SC","STATE_NAME":"South Carolina","LSAD":"06","ALAND":1242867248,"AWATER":14489019},"id":"45069"},{"arcs":[[138,-128,-1,-6,139]],"type":"Polygon","properties":{"STATEFP":"45","COUNTYFP":"073","COUNTYNS":"01244832","GEOIDFQ":"0500000US45073","GEOID":"45073","NAME":"Oconee","NAMELSAD":"Oconee County","STUSPS":"SC","STATE_NAME":"South Carolina","LSAD":"06","ALAND":1622868957,"AWATER":121638261},"id":"45073"}]}}}