{"type":"Topology","arcs":[[[1346,1066],[244,-1],[177,0],[189,0]],[[1956,1065],[0,-187],[0,-271]],[[1956,607],[-274,-2],[-61,0],[-95,3],[-160,0]],[[1366,608],[0,152],[-19,0],[-1,306]],[[1789,3505],[256,0],[342,0],[182,1]],[[2569,3506],[7,-34],[24,-37],[16,-36],[-6,-31],[-18,-27],[-6,-17],[7,-30],[27,-36],[5,-17]],[[2625,3241],[0,-27],[-10,-30],[-3,-46],[-8,-24],[-24,-46],[7,-47],[24,-30],[1,-18],[-25,-3],[-33,16],[-20,-4],[-22,-42],[6,-78],[8,-30]],[[2526,2832],[8,-27],[-18,-37],[-39,-31],[-26,-36],[-12,-23],[-9,-6],[-46,10],[-22,26],[-24,37],[-18,6],[-15,-25],[-4,-23],[8,-20]],[[2309,2683],[-41,2],[-11,-9],[-13,4],[-13,18],[-40,-16],[-13,16],[-7,-16],[-26,-18],[-14,-4],[-8,-22],[-25,-9],[-22,18],[-20,-2],[-37,11]],[[2019,2656],[1,289],[-57,-1],[-195,0],[0,53],[10,0],[-1,228],[1,178],[10,0],[1,102]],[[339,2488],[222,1],[195,-1],[0,101],[4,0],[0,333],[1,76]],[[761,2998],[223,-1],[154,0],[285,0]],[[1423,2997],[-1,-239],[0,-378]],[[1422,2380],[0,-1]],[[1422,2379],[-25,-9],[-12,-24],[-35,-43],[-5,-12],[-29,11],[-3,-18],[-21,-3],[-23,19],[0,10],[-43,-13],[-13,-25],[3,-48],[-9,-17],[-20,-18],[-1,-23],[-18,-61],[7,-13],[1,-42],[-22,-28],[-9,-33],[9,-21],[0,-23],[-138,0],[-236,0],[-181,0],[-180,0]],[[419,1945],[-1,136],[-84,-1],[0,104],[4,0],[1,304]],[[3963,1606],[248,-1]],[[4211,1605],[-1,-104],[3,-307]],[[4213,1194],[-104,-1]],[[4109,1193],[-143,0]],[[3966,1193],[-3,103],[0,119],[0,191]],[[3100,3239],[247,0],[256,-1],[86,-1]],[[3689,3237],[3,0]],[[3692,3237],[0,-185],[1,-221]],[[3693,2831],[-160,0],[-252,0]],[[3281,2831],[-180,0]],[[3101,2831],[-1,408]],[[3966,1193],[-81,0],[-185,1]],[[3700,1194],[-61,0]],[[3639,1194],[0,203],[-2,206],[-7,0],[0,102]],[[3630,1705],[164,1],[165,1]],[[3959,1707],[0,-101],[4,0]],[[1346,1066],[0,102],[-19,-1],[-1,263]],[[1326,1430],[15,10],[15,-18],[30,-6],[24,23],[-1,335],[9,0]],[[1418,1774],[239,0],[261,0],[152,0]],[[2070,1774],[0,-180]],[[2070,1594],[-17,10],[-13,-15],[-12,9],[-12,-28],[-14,11],[-13,-13],[-17,-8],[-16,-19],[0,-272],[0,-204]],[[3959,1707],[0,304]],[[3959,2011],[84,0],[166,-3],[80,1]],[[4289,2009],[3,0]],[[4292,2009],[-1,-124],[0,-280]],[[4291,1605],[-80,0]],[[4135,806],[222,2],[82,-1]],[[4439,807],[1,-203],[0,-169]],[[4440,435],[-35,-11],[-24,6],[-37,3],[-49,21],[-21,-10],[-9,-49],[-11,-22],[-31,-34],[-19,1],[-16,-8],[-24,1],[-65,67],[-17,21]],[[4082,421],[-1,9],[28,39],[2,65],[12,50],[-13,26],[7,43],[-5,59],[5,29],[7,8],[2,39],[9,18]],[[2019,2656],[-8,-6],[-10,-25],[-46,-34],[-13,8],[-21,-17],[-11,6],[-17,-10],[-6,12],[-20,-20],[-17,-24],[-11,3],[-10,-14],[-23,-7],[-15,-22],[-18,-38],[-26,-22],[-35,11],[-32,-4],[-13,13],[-20,-6],[-4,-11],[-23,10],[-20,-27],[-26,-23],[-13,6],[-22,-21],[-34,11],[-6,6],[-25,-10],[-12,4],[-40,-25]],[[1423,2997],[0,305],[0,203]],[[1423,3505],[259,0],[107,0]],[[2848,2009],[19,-47],[18,-30],[17,-7],[63,14],[13,-3],[66,-36],[17,-5],[12,7],[10,23],[-8,30],[-33,23],[-26,4],[-11,15],[7,22],[26,16]],[[3038,2035],[22,-2],[26,-14],[12,-13]],[[3098,2006],[18,-25],[7,-25],[-14,-47],[2,-21],[32,-43],[50,-10],[12,-8],[47,-52],[5,-39],[-6,-32]],[[3251,1704],[-5,-23],[7,-27],[16,-11],[14,-18],[-1,-14],[-20,-42],[-18,-32],[-31,-21],[-6,-35],[8,-19],[0,-27],[-30,-18],[-12,-17],[5,-21],[22,-6],[37,5],[14,-17],[8,-30],[3,-41],[11,-24],[28,-35],[0,-15],[-10,-21]],[[3291,1195],[0,-1]],[[3291,1194],[-164,0]],[[3127,1194],[-61,1],[0,284],[-13,-8],[-1,27],[-17,5],[4,-32],[-23,27],[-11,-30],[-11,-16],[-9,32],[-16,-12],[6,-22],[-58,-34],[-10,14],[-6,-26],[-16,-2],[-6,25],[-22,-14],[-21,14],[-4,-11],[-16,6],[-20,16],[-12,-12],[-34,-7],[-30,6],[-12,9],[-38,1],[-9,-25],[-15,35]],[[2646,1445],[-15,-12],[-9,7],[-18,-12],[-7,25],[-26,-4]],[[2571,1449],[0,152],[-19,0],[0,377]],[[2552,1978],[-1,30],[297,1]],[[3128,607],[-266,0],[-194,0],[0,0]],[[2668,607],[0,153],[-10,0],[-1,306]],[[2657,1066],[0,102],[-11,1],[0,276]],[[3127,1194],[1,-285],[0,-302]],[[2019,2656],[0,-67],[-12,0],[0,-407],[-8,0],[0,-205],[83,1]],[[2082,1978],[0,-204],[-12,0]],[[1418,1774],[-1,153],[1,256],[4,0],[0,196]],[[3281,2831],[0,-205],[0,-204],[8,0],[0,-413]],[[3289,2009],[-191,-3]],[[3038,2035],[0,387],[-9,0]],[[3029,2422],[1,289],[1,121]],[[3031,2832],[70,-1]],[[1326,1430],[-24,-15],[-127,-1],[-174,0],[-138,0]],[[863,1414],[4,27],[18,13],[7,21],[41,59],[6,15],[1,24],[8,38],[-272,2],[-207,-1],[-205,-1],[-262,-2]],[[2,1609],[0,337]],[[2,1946],[228,-1],[189,0]],[[3321,607],[-193,0]],[[3291,1194],[-9,-30],[4,-16],[17,-18],[17,-9],[54,1],[20,-19],[15,-48],[12,-9],[28,-61],[34,-36],[27,-37],[21,-11],[37,-3],[13,-23],[0,-55],[6,-21],[21,-11],[45,-8],[16,-19],[25,-48],[17,-14],[31,-6],[18,3],[43,-18],[22,-23],[13,-23],[5,-25]],[[3843,607],[-277,0],[-245,0]],[[761,2998],[0,203]],[[761,3201],[0,203],[5,0],[-1,204],[1,200],[5,2],[0,249]],[[771,4059],[164,0],[261,-1],[226,0]],[[1422,4058],[0,-249],[1,-304]],[[4201,3233],[1,408]],[[4202,3641],[268,-1],[151,0],[6,-34],[95,0]],[[4722,3606],[1,-306]],[[4723,3300],[0,-170]],[[4723,3130],[-185,-1]],[[4538,3129],[-244,1],[-93,1]],[[4201,3131],[0,102]],[[5157,1195],[8,-11],[3,-28],[-12,-12],[4,-26],[13,-3],[1,-15],[25,-28],[9,-1],[0,-55],[-7,-13],[6,-28],[-10,-20],[-28,-7],[3,-25],[15,-9],[1,-15],[-12,-10],[11,-14],[25,-11],[23,8],[10,-23],[4,-27],[-1,-37],[16,-19],[3,-24],[-15,-22],[5,-13]],[[5257,707],[-243,0]],[[5014,707],[-82,0]],[[4932,707],[0,204],[-1,284]],[[4931,1195],[226,0]],[[4213,1194],[247,1]],[[4460,1195],[142,-1]],[[4602,1194],[1,-387]],[[4603,807],[-164,0]],[[4135,806],[5,20],[-28,14]],[[4112,840],[0,66],[-2,270],[-1,17]],[[863,1414],[-3,-23],[-12,-12],[-11,9],[-38,12],[-12,-16],[-9,-50],[-18,-6],[-11,6],[-18,-15],[0,-151]],[[731,1168],[-154,0],[-250,1],[-160,0],[-83,1],[-82,-1]],[[2,1169],[0,30],[0,410]],[[2,1946],[0,46],[0,161],[-1,296]],[[1,2449],[15,12],[22,-9],[21,8],[27,-1],[25,21],[14,0],[9,-13],[16,2],[14,20],[175,-1]],[[5258,2925],[1,-201],[-1,-204],[0,-103]],[[5258,2417],[-299,0]],[[4959,2417],[0,306]],[[4959,2723],[2,202]],[[4961,2925],[84,-1],[213,1]],[[4722,4047],[86,1],[206,-1],[167,0],[-4,-27],[-3,-81],[-4,-20],[-23,-37],[-9,-7],[-18,-49],[-14,-16],[-54,-40],[-7,-13],[-56,-49],[-11,-46],[15,-24],[29,-41],[20,-35],[23,-75],[27,-46],[8,-8],[44,-3],[49,-32],[17,-6],[23,-22],[13,-36]],[[5246,3334],[-271,0],[-91,1],[-10,-36],[-151,1]],[[4722,3606],[0,203],[0,238]],[[2888,4055],[112,-1]],[[3000,4054],[1,-407]],[[3001,3647],[-243,0],[-250,1]],[[2508,3648],[9,47],[7,18],[18,13],[30,3],[14,12],[6,40],[-29,75],[-17,51],[-8,63],[-21,17],[-31,42],[-18,12],[-8,16]],[[2460,4057],[227,-1],[201,-1]],[[2848,2009],[2,13],[20,23],[10,19],[-8,19],[-12,9],[-27,-2],[-17,5],[-39,21],[-31,26],[-55,19],[-46,1],[-83,25],[-9,10],[-15,99],[-14,20],[-47,4],[-42,-19],[-26,13],[-5,22],[3,20],[16,21],[15,7],[10,16],[-7,22]],[[2441,2422],[337,1],[251,-1]],[[4291,1605],[168,-1]],[[4459,1604],[-1,-104],[2,-102],[0,-203]],[[3693,2831],[7,0],[0,-308]],[[3700,2523],[0,-102],[3,0],[0,-308],[1,-102]],[[3704,2011],[-156,0]],[[3548,2011],[-215,-1],[-44,-1]],[[3639,1194],[-348,1]],[[3251,1704],[73,-2],[223,2]],[[3547,1704],[83,1]],[[5258,3267],[0,-342]],[[4961,2925],[-1,203],[-237,2]],[[5246,3334],[12,-33],[0,-34]],[[1422,4058],[2,0],[190,0],[210,-1],[335,0],[292,0],[9,0]],[[2508,3648],[-7,-18],[-24,-23],[-8,-27],[5,-13],[24,-18],[43,1],[12,-12],[16,-32]],[[1,2449],[0,356],[-1,144],[13,0],[-1,252]],[[12,3201],[368,0],[381,0]],[[4202,3641],[1,407]],[[4203,4048],[139,-1],[206,0],[174,0]],[[4538,3129],[-1,-254],[3,-51],[0,-102]],[[4540,2722],[-1,-305]],[[4539,2417],[-249,1]],[[4290,2418],[-3,102],[-84,0]],[[4203,2520],[1,306],[-4,0],[1,305]],[[3692,3237],[210,-2],[214,-1],[85,-1]],[[4203,2520],[-251,2],[-252,1]],[[3959,2011],[-255,0]],[[4290,2418],[-1,-409]],[[4959,2723],[-168,-2],[-83,1],[-168,0]],[[3689,3237],[0,407],[-2,0]],[[3687,3644],[0,407]],[[3687,4051],[214,-2],[281,-1],[21,0]],[[4624,2009],[166,1]],[[4790,2010],[166,0]],[[4956,2010],[0,-68],[0,-339]],[[4956,1603],[-166,-1]],[[4790,1602],[-166,1]],[[4624,1603],[0,170],[0,236]],[[5258,2417],[0,-406]],[[5258,2011],[-51,-1],[-251,0]],[[4790,2010],[1,407]],[[4791,2417],[168,0]],[[2082,1978],[101,-1],[193,1],[176,0]],[[2571,1449],[-20,26],[-9,-15],[-24,11],[-3,-21],[-19,16],[-9,-12],[-14,8],[-25,3],[-4,18],[-22,-10],[2,20],[-15,-2],[-10,19],[-16,-12],[1,-11],[-47,-31],[-46,-4],[-1,17],[-31,-10],[2,17],[-12,5],[-1,22],[-26,5],[-12,25],[-20,3],[-5,24],[-13,3],[-10,19],[-10,-17],[-17,2],[-18,37],[-11,-10],[-27,13],[-9,-13]],[[3000,4054],[158,-1],[161,0],[174,0],[194,-2]],[[3687,3644],[-81,1],[-173,1],[-201,0],[-225,1]],[[3007,3647],[-6,0]],[[1956,1065],[130,0],[200,0],[289,1],[82,0]],[[2668,607],[-189,1],[-110,-1],[-255,-1],[-158,1]],[[1366,608],[0,0],[-280,1],[-211,0],[-144,1]],[[731,610],[0,335],[0,223]],[[12,3201],[0,189],[-1,215],[0,225],[-1,155],[-1,74],[336,0],[190,0],[200,0],[36,0]],[[4459,1604],[165,-1]],[[4790,1602],[0,-408]],[[4790,1194],[-188,0]],[[3007,3647],[0,-407]],[[3007,3240],[-242,0],[-140,1]],[[5257,1195],[-100,0]],[[4931,1195],[-141,-1]],[[4956,1603],[247,-1],[54,2]],[[5257,1604],[0,-409]],[[4603,807],[165,1],[0,-102]],[[4768,706],[1,-332]],[[4769,374],[-35,12],[-6,42],[-20,12],[-29,0],[-12,14],[-23,-14],[-13,-1],[-12,12],[-28,1],[-17,-23],[-30,5],[-14,9],[-18,-10],[-21,-3],[-29,13],[-22,-8]],[[2526,2832],[321,0],[184,0]],[[2441,2422],[-7,6],[-39,4],[-19,12],[-13,20],[-4,17],[2,28],[12,35],[8,42],[0,23],[-11,35],[-35,12],[-26,27]],[[3100,3239],[-93,1]],[[731,610],[-349,0],[-213,1],[-166,-1],[0,279],[-1,280]],[[5014,707],[0,-186],[-1,-258]],[[5013,263],[-25,9],[-12,10],[-32,15],[-21,-16],[-18,1],[1,23],[-14,24],[-24,1],[-38,12],[-41,0],[-20,32]],[[4768,706],[164,1]],[[4791,2417],[-252,0]],[[4292,2009],[122,0],[210,0]],[[3548,2011],[-1,-307]],[[5258,2011],[-1,-407],[0,0]],[[4112,840],[-178,92],[-148,79],[-69,35],[-18,-3],[1,151]],[[5199,502],[7,-21],[-16,-32],[1,-27],[-23,-8],[-7,-38],[-19,-20],[-10,-24],[0,-27],[7,-17],[-1,-18],[14,-10],[47,-55],[0,-10],[15,-19],[-1,-17],[9,-13],[7,-30],[-3,-21],[15,-6],[-2,-37],[3,-41],[21,1],[-21,-12],[-18,3],[-16,32],[-23,12],[-31,-18],[-16,10],[-4,13],[-4,32],[-33,31],[-18,35],[3,20],[13,33],[-28,16],[-24,-6],[-27,12],[-3,38]],[[5257,707],[-5,-23],[-20,-15],[-14,-1],[-1,-30],[14,-18],[-20,-37],[14,-22],[-6,-16],[-22,-24],[2,-19]],[[4082,421],[-12,-3],[-34,19],[-27,25],[-35,9],[-23,22],[-54,36],[-13,-4],[-19,23],[-16,35],[-6,24]]],"transform":{"scale":[0.0014464674387696982,0.0008537260408967728],"translate":[-104.057879,42.480036]},"objects":{"46":{"type":"GeometryCollection","geometries":[{"arcs":[[0,1,2,3]],"type":"Polygon","properties":{"STATEFP":"46","COUNTYFP":"007","COUNTYNS":"01265812","GEOIDFQ":"0500000US46007","GEOID":"46007","NAME":"Bennett","NAMELSAD":"Bennett County","STUSPS":"SD","STATE_NAME":"South Dakota","LSAD":"06","ALAND":3068208298,"AWATER":15044356},"id":"46007"},{"arcs":[[4,5,6,7,8,9]],"type":"Polygon","properties":{"STATEFP":"46","COUNTYFP":"041","COUNTYNS":"01266994","GEOIDFQ":"0500000US46041","GEOID":"46041","NAME":"Dewey","NAMELSAD":"Dewey County","STUSPS":"SD","STATE_NAME":"South Dakota","LSAD":"06","ALAND":5963127472,"AWATER":370089902},"id":"46041"},{"arcs":[[10,11,12,13,14,15]],"type":"Polygon","properties":{"STATEFP":"46","COUNTYFP":"093","COUNTYNS":"01266991","GEOIDFQ":"0500000US46093","GEOID":"46093","NAME":"Meade","NAMELSAD":"Meade County","STUSPS":"SD","STATE_NAME":"South Dakota","LSAD":"06","ALAND":8989677173,"AWATER":30742173},"id":"46093"},{"arcs":[[16,17,18,19,20]],"type":"Polygon","properties":{"STATEFP":"46","COUNTYFP":"035","COUNTYNS":"01266980","GEOIDFQ":"0500000US46035","GEOID":"46035","NAME":"Davison","NAMELSAD":"Davison County","STUSPS":"SD","STATE_NAME":"South Dakota","LSAD":"06","ALAND":1128285061,"AWATER":3404450},"id":"46035"},{"arcs":[[21,22,23,24,25,26]],"type":"Polygon","properties":{"STATEFP":"46","COUNTYFP":"049","COUNTYNS":"01265760","GEOIDFQ":"0500000US46049","GEOID":"46049","NAME":"Faulk","NAMELSAD":"Faulk County","STUSPS":"SD","STATE_NAME":"South Dakota","LSAD":"06","ALAND":2542625556,"AWATER":62622903},"id":"46049"},{"arcs":[[-21,27,28,29,30,31]],"type":"Polygon","properties":{"STATEFP":"46","COUNTYFP":"003","COUNTYNS":"01266983","GEOIDFQ":"0500000US46003","GEOID":"46003","NAME":"Aurora","NAMELSAD":"Aurora County","STUSPS":"SD","STATE_NAME":"South Dakota","LSAD":"06","ALAND":1834902864,"AWATER":11201379},"id":"46003"},{"arcs":[[-1,32,33,34,35,36]],"type":"Polygon","properties":{"STATEFP":"46","COUNTYFP":"071","COUNTYNS":"01265794","GEOIDFQ":"0500000US46071","GEOID":"46071","NAME":"Jackson","NAMELSAD":"Jackson County","STUSPS":"SD","STATE_NAME":"South Dakota","LSAD":"06","ALAND":4827433507,"AWATER":19106096},"id":"46071"},{"arcs":[[-17,-32,37,38,39,40,41]],"type":"Polygon","properties":{"STATEFP":"46","COUNTYFP":"111","COUNTYNS":"01266977","GEOIDFQ":"0500000US46111","GEOID":"46111","NAME":"Sanborn","NAMELSAD":"Sanborn County","STUSPS":"SD","STATE_NAME":"South Dakota","LSAD":"06","ALAND":1474329217,"AWATER":3132216},"id":"46111"},{"arcs":[[42,43,44,45]],"type":"Polygon","properties":{"STATEFP":"46","COUNTYFP":"009","COUNTYNS":"01266997","GEOIDFQ":"0500000US46009","GEOID":"46009","NAME":"Bon Homme","NAMELSAD":"Bon Homme County","STUSPS":"SD","STATE_NAME":"South Dakota","LSAD":"06","ALAND":1459586276,"AWATER":46799495},"id":"46009"},{"arcs":[[-10,46,-13,47,48]],"type":"Polygon","properties":{"STATEFP":"46","COUNTYFP":"137","COUNTYNS":"01266993","GEOIDFQ":"0500000US46137","GEOID":"46137","NAME":"Ziebach","NAMELSAD":"Ziebach County","STUSPS":"SD","STATE_NAME":"South Dakota","LSAD":"06","ALAND":5079608332,"AWATER":24212305},"id":"46137"},{"arcs":[[49,50,51,52,53,54,55,56,57,58]],"type":"Polygon","properties":{"STATEFP":"46","COUNTYFP":"085","COUNTYNS":"01265789","GEOIDFQ":"0500000US46085","GEOID":"46085","NAME":"Lyman","NAMELSAD":"Lyman County","STUSPS":"SD","STATE_NAME":"South Dakota","LSAD":"06","ALAND":4253498698,"AWATER":167300444},"id":"46085"},{"arcs":[[59,60,61,-56,62]],"type":"Polygon","properties":{"STATEFP":"46","COUNTYFP":"123","COUNTYNS":"01265784","GEOIDFQ":"0500000US46123","GEOID":"46123","NAME":"Tripp","NAMELSAD":"Tripp County","STUSPS":"SD","STATE_NAME":"South Dakota","LSAD":"06","ALAND":4175808486,"AWATER":13340585},"id":"46123"},{"arcs":[[-14,-47,63,64,-35,65]],"type":"Polygon","properties":{"STATEFP":"46","COUNTYFP":"055","COUNTYNS":"01266988","GEOIDFQ":"0500000US46055","GEOID":"46055","NAME":"Haakon","NAMELSAD":"Haakon County","STUSPS":"SD","STATE_NAME":"South Dakota","LSAD":"06","ALAND":4689279888,"AWATER":42452623},"id":"46055"},{"arcs":[[-26,66,67,-51,68,69,70]],"type":"Polygon","properties":{"STATEFP":"46","COUNTYFP":"069","COUNTYNS":"01266984","GEOIDFQ":"0500000US46069","GEOID":"46069","NAME":"Hyde","NAMELSAD":"Hyde County","STUSPS":"SD","STATE_NAME":"South Dakota","LSAD":"06","ALAND":2229019408,"AWATER":14541548},"id":"46069"},{"arcs":[[-15,-66,-34,71,72,73,74]],"type":"Polygon","properties":{"STATEFP":"46","COUNTYFP":"103","COUNTYNS":"01266995","GEOIDFQ":"0500000US46103","GEOID":"46103","NAME":"Pennington","NAMELSAD":"Pennington County","STUSPS":"SD","STATE_NAME":"South Dakota","LSAD":"06","ALAND":7191788276,"AWATER":19926710},"id":"46103"},{"arcs":[[75,-63,-55,76,77]],"type":"Polygon","properties":{"STATEFP":"46","COUNTYFP":"053","COUNTYNS":"01265765","GEOIDFQ":"0500000US46053","GEOID":"46053","NAME":"Gregory","NAMELSAD":"Gregory County","STUSPS":"SD","STATE_NAME":"South Dakota","LSAD":"06","ALAND":2628707540,"AWATER":99900744},"id":"46053"},{"arcs":[[-12,78,79,80,81,-48]],"type":"Polygon","properties":{"STATEFP":"46","COUNTYFP":"105","COUNTYNS":"01266990","GEOIDFQ":"0500000US46105","GEOID":"46105","NAME":"Perkins","NAMELSAD":"Perkins County","STUSPS":"SD","STATE_NAME":"South Dakota","LSAD":"06","ALAND":7434457140,"AWATER":50539948},"id":"46105"},{"arcs":[[82,83,84,85,86,87,88]],"type":"Polygon","properties":{"STATEFP":"46","COUNTYFP":"037","COUNTYNS":"01265790","GEOIDFQ":"0500000US46037","GEOID":"46037","NAME":"Day","NAMELSAD":"Day County","STUSPS":"SD","STATE_NAME":"South Dakota","LSAD":"06","ALAND":2663775896,"AWATER":162141021},"id":"46037"},{"arcs":[[89,90,91,92,93]],"type":"Polygon","properties":{"STATEFP":"46","COUNTYFP":"083","COUNTYNS":"01265769","GEOIDFQ":"0500000US46083","GEOID":"46083","NAME":"Lincoln","NAMELSAD":"Lincoln County","STUSPS":"SD","STATE_NAME":"South Dakota","LSAD":"06","ALAND":1495182110,"AWATER":1179561},"id":"46083"},{"arcs":[[-19,94,95,96,97,-43,98,99]],"type":"Polygon","properties":{"STATEFP":"46","COUNTYFP":"067","COUNTYNS":"01265771","GEOIDFQ":"0500000US46067","GEOID":"46067","NAME":"Hutchinson","NAMELSAD":"Hutchinson County","STUSPS":"SD","STATE_NAME":"South Dakota","LSAD":"06","ALAND":2105694662,"AWATER":3644220},"id":"46067"},{"arcs":[[-73,100,101,102]],"type":"Polygon","properties":{"STATEFP":"46","COUNTYFP":"033","COUNTYNS":"01265788","GEOIDFQ":"0500000US46033","GEOID":"46033","NAME":"Custer","NAMELSAD":"Custer County","STUSPS":"SD","STATE_NAME":"South Dakota","LSAD":"06","ALAND":4032464143,"AWATER":5490769},"id":"46033"},{"arcs":[[-16,-75,103,104]],"type":"Polygon","properties":{"STATEFP":"46","COUNTYFP":"081","COUNTYNS":"01266996","GEOIDFQ":"0500000US46081","GEOID":"46081","NAME":"Lawrence","NAMELSAD":"Lawrence County","STUSPS":"SD","STATE_NAME":"South Dakota","LSAD":"06","ALAND":2072127358,"AWATER":667509},"id":"46081"},{"arcs":[[105,106,107,108,109]],"type":"Polygon","properties":{"STATEFP":"46","COUNTYFP":"039","COUNTYNS":"01265781","GEOIDFQ":"0500000US46039","GEOID":"46039","NAME":"Deuel","NAMELSAD":"Deuel County","STUSPS":"SD","STATE_NAME":"South Dakota","LSAD":"06","ALAND":1612885717,"AWATER":35935423},"id":"46039"},{"arcs":[[110,111,-85,112]],"type":"Polygon","properties":{"STATEFP":"46","COUNTYFP":"109","COUNTYNS":"01265786","GEOIDFQ":"0500000US46109","GEOID":"46109","NAME":"Roberts","NAMELSAD":"Roberts County","STUSPS":"SD","STATE_NAME":"South Dakota","LSAD":"06","ALAND":2851720399,"AWATER":89929974},"id":"46109"},{"arcs":[[113,114,115,116,117]],"type":"Polygon","properties":{"STATEFP":"46","COUNTYFP":"021","COUNTYNS":"01266974","GEOIDFQ":"0500000US46021","GEOID":"46021","NAME":"Campbell","NAMELSAD":"Campbell County","STUSPS":"SD","STATE_NAME":"South Dakota","LSAD":"06","ALAND":1900447672,"AWATER":96010194},"id":"46021"},{"arcs":[[-50,118,119,-69]],"type":"Polygon","properties":{"STATEFP":"46","COUNTYFP":"065","COUNTYNS":"01265774","GEOIDFQ":"0500000US46065","GEOID":"46065","NAME":"Hughes","NAMELSAD":"Hughes County","STUSPS":"SD","STATE_NAME":"South Dakota","LSAD":"06","ALAND":1920546196,"AWATER":153323261},"id":"46065"},{"arcs":[[-18,-42,120,121,-95]],"type":"Polygon","properties":{"STATEFP":"46","COUNTYFP":"061","COUNTYNS":"01266979","GEOIDFQ":"0500000US46061","GEOID":"46061","NAME":"Hanson","NAMELSAD":"Hanson County","STUSPS":"SD","STATE_NAME":"South Dakota","LSAD":"06","ALAND":1125562865,"AWATER":2003166},"id":"46061"},{"arcs":[[-25,122,123,124,125,-67]],"type":"Polygon","properties":{"STATEFP":"46","COUNTYFP":"059","COUNTYNS":"01265783","GEOIDFQ":"0500000US46059","GEOID":"46059","NAME":"Hand","NAMELSAD":"Hand County","STUSPS":"SD","STATE_NAME":"South Dakota","LSAD":"06","ALAND":3720862891,"AWATER":9284294},"id":"46059"},{"arcs":[[-30,126,-53,127,128]],"type":"Polygon","properties":{"STATEFP":"46","COUNTYFP":"015","COUNTYNS":"01265768","GEOIDFQ":"0500000US46015","GEOID":"46015","NAME":"Brule","NAMELSAD":"Brule County","STUSPS":"SD","STATE_NAME":"South Dakota","LSAD":"06","ALAND":2116594418,"AWATER":75770829},"id":"46015"},{"arcs":[[129,-110,130,-86,-112,131]],"type":"Polygon","properties":{"STATEFP":"46","COUNTYFP":"051","COUNTYNS":"01265782","GEOIDFQ":"0500000US46051","GEOID":"46051","NAME":"Grant","NAMELSAD":"Grant County","STUSPS":"SD","STATE_NAME":"South Dakota","LSAD":"06","ALAND":1764937283,"AWATER":15765681},"id":"46051"},{"arcs":[[-5,-49,-82,132,-117,133]],"type":"Polygon","properties":{"STATEFP":"46","COUNTYFP":"031","COUNTYNS":"01265811","GEOIDFQ":"0500000US46031","GEOID":"46031","NAME":"Corson","NAMELSAD":"Corson County","STUSPS":"SD","STATE_NAME":"South Dakota","LSAD":"06","ALAND":6396478594,"AWATER":155287098},"id":"46031"},{"arcs":[[-11,-105,134,135,-79]],"type":"Polygon","properties":{"STATEFP":"46","COUNTYFP":"019","COUNTYNS":"01265793","GEOIDFQ":"0500000US46019","GEOID":"46019","NAME":"Butte","NAMELSAD":"Butte County","STUSPS":"SD","STATE_NAME":"South Dakota","LSAD":"06","ALAND":5827498564,"AWATER":42750488},"id":"46019"},{"arcs":[[-84,136,137,-113]],"type":"Polygon","properties":{"STATEFP":"46","COUNTYFP":"091","COUNTYNS":"01265759","GEOIDFQ":"0500000US46091","GEOID":"46091","NAME":"Marshall","NAMELSAD":"Marshall County","STUSPS":"SD","STATE_NAME":"South Dakota","LSAD":"06","ALAND":2170630058,"AWATER":124680567},"id":"46091"},{"arcs":[[-88,138,139,140,141,142]],"type":"Polygon","properties":{"STATEFP":"46","COUNTYFP":"025","COUNTYNS":"01266985","GEOIDFQ":"0500000US46025","GEOID":"46025","NAME":"Clark","NAMELSAD":"Clark County","STUSPS":"SD","STATE_NAME":"South Dakota","LSAD":"06","ALAND":2479944304,"AWATER":25864874},"id":"46025"},{"arcs":[[-24,143,-89,-143,144,-123]],"type":"Polygon","properties":{"STATEFP":"46","COUNTYFP":"115","COUNTYNS":"01266987","GEOIDFQ":"0500000US46115","GEOID":"46115","NAME":"Spink","NAMELSAD":"Spink County","STUSPS":"SD","STATE_NAME":"South Dakota","LSAD":"06","ALAND":3894043729,"AWATER":16165380},"id":"46115"},{"arcs":[[-39,145,-124,-145,-142,146]],"type":"Polygon","properties":{"STATEFP":"46","COUNTYFP":"005","COUNTYNS":"01266986","GEOIDFQ":"0500000US46005","GEOID":"46005","NAME":"Beadle","NAMELSAD":"Beadle County","STUSPS":"SD","STATE_NAME":"South Dakota","LSAD":"06","ALAND":3260011485,"AWATER":15834717},"id":"46005"},{"arcs":[[-87,-131,-109,147,-139]],"type":"Polygon","properties":{"STATEFP":"46","COUNTYFP":"029","COUNTYNS":"01265791","GEOIDFQ":"0500000US46029","GEOID":"46029","NAME":"Codington","NAMELSAD":"Codington County","STUSPS":"SD","STATE_NAME":"South Dakota","LSAD":"06","ALAND":1780837002,"AWATER":76608853},"id":"46029"},{"arcs":[[-23,148,149,150,-137,-83,-144]],"type":"Polygon","properties":{"STATEFP":"46","COUNTYFP":"013","COUNTYNS":"01265785","GEOIDFQ":"0500000US46013","GEOID":"46013","NAME":"Brown","NAMELSAD":"Brown County","STUSPS":"SD","STATE_NAME":"South Dakota","LSAD":"06","ALAND":4436728197,"AWATER":46414570},"id":"46013"},{"arcs":[[151,152,153,154,155,156]],"type":"Polygon","properties":{"STATEFP":"46","COUNTYFP":"079","COUNTYNS":"01265776","GEOIDFQ":"0500000US46079","GEOID":"46079","NAME":"Lake","NAMELSAD":"Lake County","STUSPS":"SD","STATE_NAME":"South Dakota","LSAD":"06","ALAND":1457916151,"AWATER":31746795},"id":"46079"},{"arcs":[[-107,157,158,-153,159,160]],"type":"Polygon","properties":{"STATEFP":"46","COUNTYFP":"011","COUNTYNS":"01265779","GEOIDFQ":"0500000US46011","GEOID":"46011","NAME":"Brookings","NAMELSAD":"Brookings County","STUSPS":"SD","STATE_NAME":"South Dakota","LSAD":"06","ALAND":2051833292,"AWATER":32942236},"id":"46011"},{"arcs":[[-36,-65,161,-58,162]],"type":"Polygon","properties":{"STATEFP":"46","COUNTYFP":"075","COUNTYNS":"01266981","GEOIDFQ":"0500000US46075","GEOID":"46075","NAME":"Jones","NAMELSAD":"Jones County","STUSPS":"SD","STATE_NAME":"South Dakota","LSAD":"06","ALAND":2511427860,"AWATER":3147180},"id":"46075"},{"arcs":[[163,-150,164,165,-115]],"type":"Polygon","properties":{"STATEFP":"46","COUNTYFP":"089","COUNTYNS":"01265762","GEOIDFQ":"0500000US46089","GEOID":"46089","NAME":"McPherson","NAMELSAD":"McPherson County","STUSPS":"SD","STATE_NAME":"South Dakota","LSAD":"06","ALAND":2943956443,"AWATER":38506560},"id":"46089"},{"arcs":[[-2,166,-61,167]],"type":"Polygon","properties":{"STATEFP":"46","COUNTYFP":"121","COUNTYNS":"01266989","GEOIDFQ":"0500000US46121","GEOID":"46121","NAME":"Todd","NAMELSAD":"Todd County","STUSPS":"SD","STATE_NAME":"South Dakota","LSAD":"06","ALAND":3596439530,"AWATER":5855476},"id":"46121"},{"arcs":[[-4,168,169,-101,-72,-33]],"type":"Polygon","properties":{"STATEFP":"46","COUNTYFP":"102","COUNTYNS":"01266992","GEOIDFQ":"0500000US46102","GEOID":"46102","NAME":"Oglala Lakota","NAMELSAD":"Oglala Lakota County","STUSPS":"SD","STATE_NAME":"South Dakota","LSAD":"06","ALAND":5422402221,"AWATER":7126155},"id":"46102"},{"arcs":[[-80,-136,170]],"type":"Polygon","properties":{"STATEFP":"46","COUNTYFP":"063","COUNTYNS":"01265792","GEOIDFQ":"0500000US46063","GEOID":"46063","NAME":"Harding","NAMELSAD":"Harding County","STUSPS":"SD","STATE_NAME":"South Dakota","LSAD":"06","ALAND":6919333289,"AWATER":16954253},"id":"46063"},{"arcs":[[-96,-122,171,-156,172,173]],"type":"Polygon","properties":{"STATEFP":"46","COUNTYFP":"087","COUNTYNS":"01265773","GEOIDFQ":"0500000US46087","GEOID":"46087","NAME":"McCook","NAMELSAD":"McCook County","STUSPS":"SD","STATE_NAME":"South Dakota","LSAD":"06","ALAND":1487184884,"AWATER":6895715},"id":"46087"},{"arcs":[[-6,-134,-116,-166,174,175]],"type":"Polygon","properties":{"STATEFP":"46","COUNTYFP":"129","COUNTYNS":"01266973","GEOIDFQ":"0500000US46129","GEOID":"46129","NAME":"Walworth","NAMELSAD":"Walworth County","STUSPS":"SD","STATE_NAME":"South Dakota","LSAD":"06","ALAND":1832300796,"AWATER":96288709},"id":"46129"},{"arcs":[[176,-94,177,-173,-155,178,179]],"type":"Polygon","properties":{"STATEFP":"46","COUNTYFP":"099","COUNTYNS":"01265772","GEOIDFQ":"0500000US46099","GEOID":"46099","NAME":"Minnehaha","NAMELSAD":"Minnehaha County","STUSPS":"SD","STATE_NAME":"South Dakota","LSAD":"06","ALAND":2089757021,"AWATER":18133229},"id":"46099"},{"arcs":[[-44,-98,180,181,182]],"type":"Polygon","properties":{"STATEFP":"46","COUNTYFP":"135","COUNTYNS":"01266975","GEOIDFQ":"0500000US46135","GEOID":"46135","NAME":"Yankton","NAMELSAD":"Yankton County","STUSPS":"SD","STATE_NAME":"South Dakota","LSAD":"06","ALAND":1349873612,"AWATER":28676585},"id":"46135"},{"arcs":[[-37,-163,-57,-62,-167]],"type":"Polygon","properties":{"STATEFP":"46","COUNTYFP":"095","COUNTYNS":"01267177","GEOIDFQ":"0500000US46095","GEOID":"46095","NAME":"Mellette","NAMELSAD":"Mellette County","STUSPS":"SD","STATE_NAME":"South Dakota","LSAD":"06","ALAND":3385920521,"AWATER":9210222},"id":"46095"},{"arcs":[[-8,183,-70,-120,184]],"type":"Polygon","properties":{"STATEFP":"46","COUNTYFP":"119","COUNTYNS":"01266982","GEOIDFQ":"0500000US46119","GEOID":"46119","NAME":"Sully","NAMELSAD":"Sully County","STUSPS":"SD","STATE_NAME":"South Dakota","LSAD":"06","ALAND":2607411016,"AWATER":164375674},"id":"46119"},{"arcs":[[-22,185,-175,-165,-149]],"type":"Polygon","properties":{"STATEFP":"46","COUNTYFP":"045","COUNTYNS":"01266972","GEOIDFQ":"0500000US46045","GEOID":"46045","NAME":"Edmunds","NAMELSAD":"Edmunds County","STUSPS":"SD","STATE_NAME":"South Dakota","LSAD":"06","ALAND":2916275921,"AWATER":64969684},"id":"46045"},{"arcs":[[186,-102,-170]],"type":"Polygon","properties":{"STATEFP":"46","COUNTYFP":"047","COUNTYNS":"01265787","GEOIDFQ":"0500000US46047","GEOID":"46047","NAME":"Fall River","NAMELSAD":"Fall River County","STUSPS":"SD","STATE_NAME":"South Dakota","LSAD":"06","ALAND":4506292113,"AWATER":24021148},"id":"46047"},{"arcs":[[-92,187,188,-182,189]],"type":"Polygon","properties":{"STATEFP":"46","COUNTYFP":"027","COUNTYNS":"01265764","GEOIDFQ":"0500000US46027","GEOID":"46027","NAME":"Clay","NAMELSAD":"Clay County","STUSPS":"SD","STATE_NAME":"South Dakota","LSAD":"06","ALAND":1067132261,"AWATER":13978087},"id":"46027"},{"arcs":[[-108,-161,190,-140,-148]],"type":"Polygon","properties":{"STATEFP":"46","COUNTYFP":"057","COUNTYNS":"01265766","GEOIDFQ":"0500000US46057","GEOID":"46057","NAME":"Hamlin","NAMELSAD":"Hamlin County","STUSPS":"SD","STATE_NAME":"South Dakota","LSAD":"06","ALAND":1313307527,"AWATER":80291058},"id":"46057"},{"arcs":[[-93,-190,-181,-97,-174,-178]],"type":"Polygon","properties":{"STATEFP":"46","COUNTYFP":"125","COUNTYNS":"01265770","GEOIDFQ":"0500000US46125","GEOID":"46125","NAME":"Turner","NAMELSAD":"Turner County","STUSPS":"SD","STATE_NAME":"South Dakota","LSAD":"06","ALAND":1598188443,"AWATER":1636386},"id":"46125"},{"arcs":[[-41,191,-157,-172,-121]],"type":"Polygon","properties":{"STATEFP":"46","COUNTYFP":"097","COUNTYNS":"01265777","GEOIDFQ":"0500000US46097","GEOID":"46097","NAME":"Miner","NAMELSAD":"Miner County","STUSPS":"SD","STATE_NAME":"South Dakota","LSAD":"06","ALAND":1476734132,"AWATER":4537900},"id":"46097"},{"arcs":[[-40,-147,-141,-191,-160,-152,-192]],"type":"Polygon","properties":{"STATEFP":"46","COUNTYFP":"077","COUNTYNS":"01265780","GEOIDFQ":"0500000US46077","GEOID":"46077","NAME":"Kingsbury","NAMELSAD":"Kingsbury County","STUSPS":"SD","STATE_NAME":"South Dakota","LSAD":"06","ALAND":2155483580,"AWATER":81655106},"id":"46077"},{"arcs":[[-52,-68,-126,192,-128]],"type":"Polygon","properties":{"STATEFP":"46","COUNTYFP":"017","COUNTYNS":"01265767","GEOIDFQ":"0500000US46017","GEOID":"46017","NAME":"Buffalo","NAMELSAD":"Buffalo County","STUSPS":"SD","STATE_NAME":"South Dakota","LSAD":"06","ALAND":1220933806,"AWATER":42362357},"id":"46017"},{"arcs":[[193,-179,-154,-159]],"type":"Polygon","properties":{"STATEFP":"46","COUNTYFP":"101","COUNTYNS":"01265775","GEOIDFQ":"0500000US46101","GEOID":"46101","NAME":"Moody","NAMELSAD":"Moody County","STUSPS":"SD","STATE_NAME":"South Dakota","LSAD":"06","ALAND":1345185721,"AWATER":3690537},"id":"46101"},{"arcs":[[-20,-100,194,-28]],"type":"Polygon","properties":{"STATEFP":"46","COUNTYFP":"043","COUNTYNS":"01266978","GEOIDFQ":"0500000US46043","GEOID":"46043","NAME":"Douglas","NAMELSAD":"Douglas County","STUSPS":"SD","STATE_NAME":"South Dakota","LSAD":"06","ALAND":1118358781,"AWATER":4832944},"id":"46043"},{"arcs":[[-7,-176,-186,-27,-71,-184]],"type":"Polygon","properties":{"STATEFP":"46","COUNTYFP":"107","COUNTYNS":"01265761","GEOIDFQ":"0500000US46107","GEOID":"46107","NAME":"Potter","NAMELSAD":"Potter County","STUSPS":"SD","STATE_NAME":"South Dakota","LSAD":"06","ALAND":2230336531,"AWATER":97172021},"id":"46107"},{"arcs":[[-9,-185,-119,-59,-162,-64]],"type":"Polygon","properties":{"STATEFP":"46","COUNTYFP":"117","COUNTYNS":"01266998","GEOIDFQ":"0500000US46117","GEOID":"46117","NAME":"Stanley","NAMELSAD":"Stanley County","STUSPS":"SD","STATE_NAME":"South Dakota","LSAD":"06","ALAND":3741071612,"AWATER":188383651},"id":"46117"},{"arcs":[[195,-188,-91,196]],"type":"Polygon","properties":{"STATEFP":"46","COUNTYFP":"127","COUNTYNS":"01265763","GEOIDFQ":"0500000US46127","GEOID":"46127","NAME":"Union","NAMELSAD":"Union County","STUSPS":"SD","STATE_NAME":"South Dakota","LSAD":"06","ALAND":1193354538,"AWATER":16502823},"id":"46127"},{"arcs":[[-29,-195,-99,-46,197,-77,-54,-127]],"type":"Polygon","properties":{"STATEFP":"46","COUNTYFP":"023","COUNTYNS":"01266976","GEOIDFQ":"0500000US46023","GEOID":"46023","NAME":"Charles Mix","NAMELSAD":"Charles Mix County","STUSPS":"SD","STATE_NAME":"South Dakota","LSAD":"06","ALAND":2841580912,"AWATER":137517024},"id":"46023"},{"arcs":[[-31,-129,-193,-125,-146,-38]],"type":"Polygon","properties":{"STATEFP":"46","COUNTYFP":"073","COUNTYNS":"01265778","GEOIDFQ":"0500000US46073","GEOID":"46073","NAME":"Jerauld","NAMELSAD":"Jerauld County","STUSPS":"SD","STATE_NAME":"South Dakota","LSAD":"06","ALAND":1362677260,"AWATER":16727973},"id":"46073"}]}}}