{"type":"Topology","arcs":[[[10046,3804],[57,1],[398,-6]],[[10501,3799],[5,-69],[104,-310],[27,-22]],[[10637,3398],[-3,-50],[-23,-26],[-49,31],[-13,-50],[14,-24],[-33,-55],[-7,-114],[-19,-40],[-31,-26]],[[10473,3044],[-29,4],[-8,59],[-48,-79],[-3,-31],[-31,-6],[10,-42],[-54,-14],[-13,23],[-53,2],[-142,24],[-11,-87],[7,-62],[-19,-11],[-100,103],[-48,-30],[-27,16],[-43,4]],[[9861,2917],[-6,103],[23,27],[54,31],[-7,244],[11,36],[-28,29],[-8,91],[20,52],[-4,53],[24,26],[65,-13],[44,24],[12,38],[5,82],[-24,6],[4,58]],[[5307,3924],[90,1],[494,14],[288,8],[43,-44]],[[6222,3903],[-64,-144],[-52,-86],[-12,-95],[-18,-62],[-39,-47],[-32,-63],[6,-33],[-95,21],[-11,-31]],[[5905,3363],[-44,-36],[-26,-72],[-46,-23],[-116,93],[-31,-16]],[[5642,3309],[-11,11],[-104,-38],[-38,50],[-37,20],[-154,130]],[[5298,3482],[-14,15],[21,183],[-42,37],[19,41],[25,166]],[[1607,2123],[104,13],[21,64],[29,9],[44,54],[39,71],[19,70]],[[1863,2404],[8,-30],[28,-25],[52,-20],[18,-111],[-8,-50],[23,-34],[8,-50],[44,-8],[47,-27],[57,12],[4,-35],[52,-29],[36,-2],[45,-28],[39,-42]],[[2316,1925],[38,-32],[-213,-266],[-61,24],[-19,27]],[[2061,1678],[-52,21],[-27,-6],[-65,69],[-80,45],[-111,18],[-27,43],[-37,0],[-50,42],[-27,63]],[[1585,1973],[-9,12],[15,62],[21,32],[-5,44]],[[3484,2689],[30,28],[39,92],[51,66],[8,47],[55,31],[-1,46],[33,13],[-31,133],[23,109],[161,2]],[[3852,3256],[17,-16]],[[3869,3240],[20,-62],[21,-35],[20,-114],[-9,-49]],[[3921,2980],[-4,-50],[31,-91],[29,-54],[-11,-91],[-68,-118],[-43,-61],[-19,-42],[2,-62],[-35,-54],[-1,-44],[14,-35],[64,-22],[71,6],[9,-22],[-5,-60],[-19,-92],[-37,-60]],[[3899,2028],[-13,-59]],[[3886,1969],[-55,1],[-41,-12],[-9,77],[-30,15],[-61,-18],[-148,8]],[[3542,2040],[-66,2],[5,322],[3,325]],[[13304,3342],[18,-3],[61,59],[89,-47],[16,0],[70,59],[79,80],[35,-3],[66,67],[49,8],[41,44]],[[13828,3606],[-3,-14],[57,-67],[-86,-116],[-48,-84],[-44,-52],[28,-11],[42,-70],[33,-8],[28,-98],[37,-34],[10,-28],[31,7]],[[13913,3031],[-45,-87],[-121,-255],[-35,15],[-12,-32],[-33,-17],[-82,1],[-29,102],[-48,-17],[-47,35],[-28,0]],[[13433,2776],[-12,79],[-58,54],[13,47],[-47,44],[-58,20],[-35,-18]],[[13236,3002],[-3,27],[26,68],[44,185],[1,60]],[[10473,3044],[28,-81],[30,-62],[46,-56]],[[10577,2845],[-122,-120],[-24,-45],[-107,-112],[59,-78],[-44,-46],[-27,-12],[-82,-58],[-69,20],[-11,-43],[-24,-4],[-14,-71],[-24,-33],[-34,-8],[2,-29],[-27,-14]],[[10029,2192],[-81,193],[-36,135]],[[9912,2520],[-61,110],[-69,31],[-16,55],[-32,19],[14,56]],[[9748,2791],[42,11],[41,85],[30,30]],[[13304,3342],[-116,16],[-59,79],[-54,2],[-1,19],[-272,-52],[-13,14],[-80,22],[-38,-16]],[[12671,3426],[-29,48],[39,48],[80,54],[-3,40],[30,16],[-11,117],[28,19],[-15,41]],[[12790,3809],[212,4],[25,-3],[286,3],[91,0],[156,-2],[351,-1],[19,52],[159,-5]],[[14089,3857],[-36,-26],[-42,-7],[-2,-28],[-88,-49],[-2,-32],[-58,-52],[-33,-57]],[[6731,1015],[11,2],[15,215],[-1,168],[-5,134]],[[6751,1534],[8,62],[-10,65],[45,49],[21,-6]],[[6815,1704],[93,-77],[14,-23],[37,-1],[52,-34],[59,-6],[35,17],[28,-4],[50,25]],[[7183,1601],[45,-97],[40,-133],[49,-51],[37,-5],[9,-36]],[[7363,1279],[1,-39],[-15,-43],[-6,-107],[7,-121],[25,-29],[-19,-75],[-39,-44],[-15,-97]],[[7302,724],[-49,22],[-6,22],[-92,16],[-57,69],[-202,44],[-24,-23],[-60,-34],[-10,23],[-30,-16],[-29,8],[-19,-26]],[[6724,829],[-8,12],[35,20],[-28,44],[15,46],[-44,5],[37,59]],[[9451,1564],[58,0]],[[9509,1564],[30,-27],[32,19],[36,-40]],[[9607,1516],[6,-13],[-1,-26],[0,-51],[30,0],[8,-36],[109,-296],[-4,-54],[17,-50],[28,-8],[-2,-160],[-71,-28],[-70,-79]],[[9657,715],[-34,-45],[-251,4],[-30,-51],[-30,-13]],[[9312,610],[0,42],[-61,-6],[-16,46],[43,7],[-8,30],[-35,-9],[-55,61],[-70,29],[-21,34],[-37,24]],[[9052,868],[16,55],[59,150],[23,13],[2,34],[37,21],[46,97],[41,35],[57,100],[6,38],[35,36],[77,117]],[[666,1312],[25,29],[34,84],[83,41],[10,38],[113,64],[35,3],[10,-22],[38,11],[47,-10],[40,20],[57,-9],[14,-29],[41,-34],[80,-33],[49,-52]],[[1342,1413],[39,-39],[15,-42],[-7,-339]],[[1389,993],[-110,4],[-43,-17],[-54,-7],[-57,-44]],[[1125,929],[-16,28],[-100,3],[-12,36],[-34,-8],[-77,10],[-3,-41],[-36,8],[-96,-1],[-189,7],[-115,7]],[[447,978],[-11,36],[75,44],[-7,54],[-21,47],[-40,50],[-11,50],[17,75],[53,30],[31,0],[52,-43],[-1,-42],[50,-27],[33,4],[-1,56]],[[283,1073],[18,12],[15,58],[21,25],[47,0],[19,-26],[-10,-76],[20,-44],[-13,-17],[25,-44]],[[425,961],[-44,-8]],[[381,953],[-51,56],[-29,10],[-23,-17],[-1,-45],[-36,-33],[-23,27],[17,87],[48,35]],[[4934,1599],[24,-4],[29,67],[30,26],[56,8],[4,34],[32,24],[32,297]],[[5141,2051],[407,-186],[12,26],[56,-11],[-16,-38],[98,-50],[42,-16],[14,-21],[56,-11],[23,-30],[27,-3]],[[5860,1711],[-50,-24],[-26,-271],[-36,-133],[-77,-105],[-48,-42],[-50,-28],[-10,-82]],[[5563,1026],[-94,-3],[-21,39],[-25,-9],[-44,28],[-37,4],[-45,32],[-48,-20],[-26,-24],[-68,-9]],[[5155,1064],[-36,-9],[-110,36]],[[5009,1091],[21,34],[12,58],[-15,32],[2,57],[-13,64],[-46,2],[5,44],[-39,12],[-23,28],[-1,79],[33,40],[-11,58]],[[1607,2123],[-20,56],[-49,38],[-38,61],[-139,3],[-4,-37],[-22,-18],[-85,31],[-19,-28],[-30,7],[-35,-21],[-38,10],[-16,-42]],[[1112,2183],[-16,51],[-105,76],[-15,69],[-17,27],[43,1],[33,78],[12,115],[22,31],[64,26],[57,48],[3,55],[-25,49],[-37,34]],[[1131,2843],[234,5],[9,59]],[[1374,2907],[546,-18]],[[1920,2889],[-16,-423],[-65,-23],[24,-39]],[[1920,2889],[321,-8],[2,50]],[[2243,2931],[46,-69],[80,-61],[34,-71],[25,-5],[22,-35],[99,-25],[14,5],[31,-49],[93,-68]],[[2687,2553],[-7,-243],[-17,-399]],[[2663,1911],[-347,14]],[[6731,1015],[-51,-12],[-10,-36],[-59,-36],[-29,-36],[-22,1],[-18,-33],[-63,-3],[-22,-66],[-36,4],[-52,42],[-16,53],[-67,-14]],[[6286,879],[-30,20],[-65,18],[-28,-14]],[[6163,903],[-31,4],[-67,162],[-12,50],[3,84],[41,436],[0,23]],[[6097,1662],[5,38],[155,-10],[45,-22],[27,-64],[90,-42],[48,14],[-2,-50],[21,-15],[53,20],[-9,29],[71,46],[42,-2],[15,-37],[36,0],[57,-33]],[[10029,2192],[14,-31]],[[10043,2161],[-38,-6],[12,-32],[-81,20],[-10,-29],[-8,-91],[-68,-50],[4,-63],[-19,-53],[-46,19],[-16,-55],[-38,15],[-76,-102],[-27,0],[-18,-27],[-1,-67],[-30,-15],[-22,-27],[-37,0],[-15,-34]],[[9451,1564],[-14,42],[8,117],[-36,30],[-45,-51],[-7,35],[-32,17],[-5,40],[-42,26]],[[9278,1820],[-51,4],[6,47],[19,31],[-43,28],[-27,33],[0,28]],[[9182,1991],[88,81],[37,87],[43,29]],[[9350,2188],[31,18],[17,30],[51,8],[24,45],[85,-2],[2,34],[111,49],[68,1],[107,92],[34,44],[32,13]],[[6097,1662],[-58,26],[-20,31]],[[6019,1719],[-22,18],[4,82],[55,44],[2,47],[26,11],[56,-12],[3,81],[18,67],[-28,26],[0,85],[-17,24],[21,79],[-16,25],[10,33]],[[6131,2329],[19,41],[-8,58],[85,71],[-5,52],[61,29],[19,62]],[[6302,2642],[73,-67],[89,-71],[57,-36],[96,-99],[64,-29],[61,-12],[22,-19],[24,23],[61,-27],[55,-8]],[[6904,2297],[-3,-52],[22,-43],[-18,-12],[-10,-67],[-23,-19],[-17,-181],[-13,-33],[6,-44],[-14,-53],[-21,-21],[2,-68]],[[6222,3903],[93,44],[160,-4],[130,-4],[212,-22]],[[6817,3917],[-32,-262],[14,-52],[-20,-46]],[[6779,3557],[-14,-84],[-53,2],[-6,-221],[-18,-28]],[[6688,3226],[-22,-30],[-3,-50],[-53,12],[-26,27],[-1,36],[-24,29],[-26,-16],[-18,-36],[-5,-60],[-41,8],[-5,46],[-26,17],[-30,-11],[-136,-122],[-13,78],[-39,-25],[9,-45],[-19,-59],[-38,-40]],[[6172,2985],[-34,-2],[-40,23],[-5,79],[-64,66],[-28,14],[-40,48],[-16,93],[-40,57]],[[14089,3857],[299,-6],[-51,-56],[1,-41],[-51,-82],[17,-74],[4,-87],[-33,-25],[-10,-82],[-33,-23],[20,-51],[-10,-28],[29,-75],[-45,-24],[-34,2],[-43,41],[-70,-20],[-40,-30],[-50,-60],[-35,-17],[-16,-36],[-25,-52]],[[6302,2642],[-26,28],[5,61],[-45,17],[-26,67],[-7,50],[-31,120]],[[6688,3226],[31,-45],[-13,-50],[37,-5],[10,74],[63,15],[28,-54],[22,21],[65,-78]],[[6931,3104],[18,-62],[81,-318],[19,-26],[10,-90]],[[7059,2608],[21,-67],[1,-50],[18,-12],[-8,-54],[24,-24],[19,-89]],[[7134,2312],[-13,9],[-101,1],[-116,-25]],[[9278,1820],[20,-66],[-19,-42],[0,-41],[-32,-26],[-11,34],[-29,16],[-25,-61],[6,-70],[-14,-40],[14,-34],[-7,-44],[-46,-29],[3,-32],[23,-31],[-35,-24],[-67,20],[-39,-28],[3,-40],[32,-39],[-14,-41],[-48,-20],[-15,-26],[1,-39],[-33,-43],[-37,6],[-28,30],[-10,34],[-28,-12],[9,-53],[-60,-72]],[[8792,1007],[-84,65],[-57,-17],[-14,62],[-35,6]],[[8602,1123],[25,42],[-47,40],[19,51],[38,65],[3,70],[100,112],[219,339]],[[8959,1842],[18,28],[38,12],[140,109],[27,0]],[[5642,3309],[5,-52],[-22,-83],[-41,-102],[-44,-78],[-16,-56],[1,-38],[-23,-192],[-68,-80],[-4,-123],[-21,7]],[[5409,2512],[-52,-4],[-162,14]],[[5195,2522],[15,49],[1,92],[12,107],[-9,27],[35,28],[-15,31],[-47,57],[37,48],[-28,58],[42,28],[6,80],[-41,20],[-65,4],[-23,29],[-60,-17],[-33,3]],[[5022,3166],[11,77],[27,-1],[23,56],[58,43],[15,32],[44,-7],[13,50],[34,-26],[1,67],[50,25]],[[8619,3367],[30,7],[23,213],[40,65],[28,10],[-8,38],[14,26],[36,1],[77,36],[55,16],[72,-7],[62,-20],[74,-47],[56,-59],[87,-1]],[[9265,3645],[27,-61],[38,-150],[56,-95],[-45,-17],[-25,-41]],[[9316,3281],[-52,-10],[-12,-67],[-37,-23],[-18,15],[-38,-63],[0,-25],[-44,5],[-34,-30],[-39,14],[-52,-163],[-28,-37],[6,-52],[17,-33],[-12,-38]],[[8973,2774],[-33,-22],[-16,18],[-36,-16],[-24,28],[-37,2],[-9,-23],[-46,47],[-26,-41],[-21,0],[-41,-48],[-31,13]],[[8653,2732],[-32,15]],[[8621,2747],[61,121],[-46,170],[-20,87],[3,242]],[[10043,2161],[162,-213],[-1,-4]],[[10204,1944],[-22,-87],[46,-26],[-27,-37],[-8,-69],[20,-69],[43,-45],[1,-40],[-29,-47],[-61,-40]],[[10167,1484],[-7,18],[-95,-3],[-19,43],[-60,19],[-3,34],[-46,17],[-51,1],[-8,-43],[-59,-16],[-14,60],[-84,0],[-49,-17],[-45,-34],[15,-58],[-35,11]],[[7059,2608],[53,-6],[26,15],[44,-6],[28,28],[62,22],[24,-14],[38,6],[46,-26],[23,62],[40,6],[35,21]],[[7478,2716],[32,-67],[31,-20],[-10,-39],[38,-25],[10,23],[40,10],[60,-40],[31,-83],[39,-35]],[[7749,2440],[-4,-62],[-27,-41],[1,-53],[18,-83],[0,-44],[24,-32],[-59,-60],[6,-16],[57,10],[4,-15],[-36,-46],[-46,8]],[[7687,2006],[-116,44],[-60,-17],[-43,7],[-98,1],[-21,-16]],[[7349,2025],[-38,78],[-59,71],[-80,110],[-38,28]],[[10577,2845],[31,-40],[316,-11]],[[10924,2794],[13,-53],[51,-51],[12,-44],[19,-9],[13,-42]],[[11032,2595],[-39,33],[-31,-18],[16,-37],[42,-54],[3,-23]],[[11023,2496],[-3,-21],[34,-137],[-72,-76],[-68,-54],[-47,-12],[-45,-58]],[[10822,2138],[-59,-59],[-40,-50],[-57,8],[-97,75],[-49,-27],[-29,43],[-36,-18],[10,-74],[-37,19],[-31,-2],[0,-41],[-30,-6],[-18,46],[-40,-16],[-24,-28],[-29,-2],[-13,-31],[0,-51],[-39,20]],[[3899,2028],[87,-6],[-1,-16],[104,-65],[7,40],[31,8],[11,30],[169,4]],[[4307,2023],[-26,-266],[26,-37],[-34,-19],[-10,-91],[59,-44],[83,-85]],[[4405,1481],[10,-105],[-56,-40],[-8,-101],[-34,0],[-11,-52]],[[4306,1183],[-27,20],[-116,-16],[-42,-37],[-49,-9],[-10,25],[-68,-32],[-44,7],[-33,-18],[-36,5],[-64,-65],[7,-22]],[[3824,1041],[-38,11],[-19,39],[4,35],[22,30],[62,25],[16,27],[8,64],[-39,76],[-60,143],[-2,19],[28,91],[2,54],[-18,26],[-11,55],[22,48],[53,57],[17,41],[15,87]],[[9748,2791],[-45,67],[-5,28],[-135,71],[-23,-18],[-12,96],[-31,23],[-32,-14],[-149,237]],[[9265,3645],[-89,186]],[[9176,3831],[11,0],[255,-9],[136,-8],[167,0],[301,-10]],[[3484,2689],[2,61],[-435,9],[-95,5]],[[2956,2764],[12,336],[12,490]],[[2980,3590],[45,-1],[263,-1],[461,-8]],[[3749,3580],[2,-61],[-15,-47],[4,-29],[37,-45],[75,-142]],[[6931,3104],[18,-4],[42,99],[33,45],[75,64],[88,33],[7,71]],[[7194,3412],[250,-34]],[[7444,3378],[-13,-141],[-17,-151],[37,-87],[34,10],[39,-42]],[[7524,2967],[2,-40],[-34,-35],[6,-43],[-12,-31],[-8,-102]],[[2243,2931],[16,441],[61,-6],[46,-32],[65,48],[50,-6],[4,142],[-22,76]],[[2463,3594],[18,-1],[499,-3]],[[2956,2764],[-3,-87],[-205,5],[3,-125],[-64,-4]],[[12309,2275],[0,-35],[-24,-15],[28,-103],[-40,-28],[6,-65],[-48,-39],[-29,-78],[-48,-42],[-73,32],[-71,5],[-69,-55],[-65,-3],[-44,-83],[-20,-11],[-71,3],[-24,-27]],[[11717,1731],[-35,-4],[-7,87],[10,50],[-21,57],[40,56],[-51,84],[8,28],[-33,12],[-3,57]],[[11625,2158],[28,34],[28,231],[31,-13],[3,99],[27,31],[-23,59],[32,7]],[[11751,2606],[13,17],[-28,61],[40,22],[4,54],[37,-51],[33,-4],[-18,116],[33,11]],[[11865,2832],[-10,-51],[70,-85],[31,-27],[22,5],[71,-64],[5,-21],[158,-184],[97,-130]],[[4934,1599],[-30,0],[-102,-81],[-67,-23],[-80,31],[-69,4],[-33,52],[-29,2],[-29,-24],[-52,-67],[-38,-12]],[[4307,2023],[17,159],[39,24],[63,14],[42,37],[14,29],[40,8],[42,-12],[54,65],[-8,41]],[[4610,2388],[386,-58],[163,-22]],[[5159,2308],[4,-44],[-22,-213]],[[5159,2308],[16,73],[20,141]],[[5409,2512],[24,-133],[18,2],[165,149],[252,-47],[75,-55],[32,-4],[51,-44],[105,-51]],[[6019,1719],[-18,-11],[-57,3],[-49,-12],[-35,12]],[[12800,2499],[-48,61],[-86,-46],[-110,-95],[-43,-14],[-16,-29],[-3,-85],[-64,-53],[-44,46],[-36,9],[-41,-18]],[[11865,2832],[44,19],[46,76],[49,50]],[[12004,2977],[15,0],[69,82],[17,-17],[49,44],[41,67],[42,36],[43,-7],[52,58],[73,41],[43,-16],[59,58],[47,-6],[40,44],[41,14]],[[12635,3375],[117,20],[4,-17],[-24,-475],[-6,-152],[87,-119]],[[12813,2632],[30,-42],[-43,-91]],[[11751,2606],[-40,84],[-58,41],[-63,14],[-69,23],[-142,4],[-14,46]],[[11365,2818],[30,37],[-1,65],[38,-15],[9,47],[20,41],[42,40],[31,0],[17,40],[58,2],[25,-36],[44,17],[39,32]],[[11717,3088],[35,-17],[56,59],[33,13],[-3,57],[28,14],[23,-57],[115,-180]],[[3921,2980],[191,-26],[60,29],[67,-7],[45,-15],[73,-42],[41,-39],[127,-8],[32,-47]],[[4557,2825],[24,-95],[13,-103],[-8,-80],[6,-32],[-12,-73],[30,-54]],[[10501,3799],[94,-5],[235,-9],[164,-3],[25,43],[88,-6],[250,-2]],[[11357,3817],[65,-57],[57,-91],[21,-62],[27,-117],[-3,-59],[-26,-49]],[[11498,3382],[-50,10],[-36,-11],[-45,-103],[-28,24],[-39,-17],[-51,-46],[-26,22],[-69,12],[-5,-24],[-72,-50],[-36,-5],[-9,25]],[[11032,3219],[-17,24],[-40,19],[-15,-39],[-37,-3],[-17,59],[-38,69],[-69,55],[-42,-6],[-46,35],[-39,-31],[-35,-3]],[[8959,1842],[-21,15],[-166,-52],[-21,60],[-73,-27],[-30,23],[-251,-11]],[[8397,1850],[1,3],[-31,50],[5,13]],[[8372,1916],[35,13],[11,25],[32,160],[-15,38],[28,14],[2,27],[-49,6],[-38,125],[3,31]],[[8381,2355],[21,145],[13,34],[-5,109],[18,12],[138,-15],[35,68],[52,24]],[[8973,2774],[61,-46],[64,-125],[13,25],[32,-14],[22,-69],[118,-152],[67,-205]],[[8792,1007],[-16,-14],[-7,-57],[25,-17],[24,20],[42,-53],[-1,-25],[20,-88],[29,-53]],[[8908,720],[-57,-160],[-46,-86],[-2,-61],[-24,-21],[1,-56],[22,-58],[27,-155],[55,-47],[-26,-65]],[[8858,11],[-5,0],[-474,-6],[-164,-4],[-183,-1]],[[8032,0],[51,33],[37,40],[19,62],[46,11],[26,58],[7,44],[-35,42],[-21,0],[14,98]],[[8176,388],[235,407],[33,83]],[[8444,878],[50,116],[46,123],[32,-23],[30,29]],[[11032,3219],[-36,-115],[0,-40],[-22,-13],[-3,-55],[18,-30],[-11,-71],[-28,-18],[-26,-83]],[[11498,3382],[58,15],[19,-27],[26,-1],[35,-47],[39,16]],[[11675,3338],[27,-118],[-16,-61],[31,-71]],[[11365,2818],[-27,-18],[-37,4],[-16,22],[-30,-30],[-10,38],[-30,-6],[-39,-56],[-35,-11],[-61,-52],[18,-14],[-2,-43],[-42,2],[4,40],[-39,-6],[27,-81],[-14,-12]],[[1585,1973],[-76,12],[-6,-32],[-57,-102],[12,-85],[-34,-112],[-22,0],[-6,-207],[-54,-34]],[[666,1312],[-6,26],[-48,19],[-26,66],[11,30],[66,47],[35,-2],[56,42],[9,55],[-13,27],[-29,-5],[-18,-31],[-32,-6],[-47,32],[-37,70],[-2,76],[33,41],[53,36],[20,-20],[52,15],[40,-35],[64,35],[1,74],[30,40],[39,12],[50,-18],[53,42],[-2,38],[-118,57],[-10,24],[12,47],[40,49],[47,-12],[64,-70],[31,0],[20,22],[8,48]],[[1125,929],[-7,-421],[-11,-479]],[[1107,29],[-134,0],[-206,-3],[-304,2],[-460,2],[-3,16],[22,84],[54,6],[21,-21],[74,-14],[44,67],[10,52],[-10,21],[7,64],[16,27],[42,23],[58,-33],[40,5],[27,37],[-3,45],[-55,36],[-26,44],[34,12],[34,63],[-30,64],[-38,17],[-58,0],[-24,44],[15,64],[30,-6],[49,14],[23,104],[30,62],[-5,26]],[[425,961],[22,17]],[[11717,1731],[-1,-45],[-55,-51],[-14,-40],[-26,-7],[-36,26],[-28,-14],[-26,-50],[-42,-32],[-66,-36],[-23,5],[-42,-51],[-24,-52],[-21,-13],[-112,7],[-27,-7],[-33,36],[-46,-24],[-55,3]],[[11040,1386],[0,287],[-27,-6],[-14,52],[-29,4],[-19,41],[-20,79],[-109,295]],[[11023,2496],[29,11],[80,-65],[136,-121],[29,-61],[51,-21],[4,-17],[66,2],[32,23],[45,-12],[2,-35],[57,15],[51,-29],[20,-28]],[[7749,2440],[2,22],[35,22],[21,30],[32,-11],[50,75],[87,20],[251,-85],[75,-55],[0,-70],[79,-33]],[[8372,1916],[-13,38],[20,30],[-161,-60],[-145,59],[-41,2],[-35,-23],[-29,5],[-37,-37],[-31,-8],[-30,25],[-52,-27]],[[7818,1920],[-64,51],[-50,10],[-17,25]],[[6724,829],[27,-23],[-17,-66],[-47,-66],[9,-43],[-32,-34],[7,-67],[-14,-20],[-30,-89],[3,-81]],[[6630,340],[-44,6],[-26,-15],[-16,31],[-1,101],[-36,134],[-39,23],[-35,71],[-40,41],[-90,42],[-20,3],[-20,56],[23,46]],[[9052,868],[-22,-3],[-18,-47],[-70,-91],[-34,-7]],[[7183,1601],[-10,88],[11,88],[118,208],[47,40]],[[7818,1920],[-8,-56],[26,-40],[-1,-47],[-21,-62],[18,-214],[61,-201]],[[7893,1300],[-82,-3]],[[7811,1297],[-160,-7],[-83,-11],[-106,-25],[-99,25]],[[4557,2825],[60,129],[11,45],[17,197]],[[4645,3196],[309,-44],[21,13],[47,1]],[[8032,0],[-218,4],[-429,9]],[[7385,13],[1,548],[-17,7]],[[7369,568],[47,42],[37,3],[82,-56],[55,-8],[77,57],[-26,118],[27,-2],[63,40],[37,-4],[124,37]],[[7892,795],[3,-26],[103,-67],[4,-14],[79,-26],[61,-88],[27,-58],[6,-49],[-10,-36],[11,-43]],[[12962,2352],[-73,-32],[-14,-24],[-33,24],[-55,8],[11,47],[-18,30],[22,57],[-2,37]],[[12813,2632],[112,125],[67,16],[86,-2],[33,32],[-1,25],[25,37],[34,21],[41,63],[-2,26],[28,27]],[[13433,2776],[-42,-62],[-55,-5],[-15,16],[-79,-49],[-30,2],[-90,-76],[-12,-25],[-73,-154],[-75,-71]],[[2061,1678],[-16,-618]],[[2045,1060],[-172,3],[-2,-84]],[[1871,979],[-272,8],[-151,1],[-59,5]],[[7892,795],[27,52],[60,39],[25,98],[-36,20],[-39,56],[-9,71],[2,69],[-49,36],[-62,61]],[[7893,1300],[103,35],[60,-2],[10,27],[50,22]],[[8116,1382],[-21,-60],[27,-36],[28,-82],[147,-177],[147,-149]],[[2148,28],[-301,-1]],[[1847,27],[7,248],[17,704]],[[2045,1060],[394,-8]],[[2439,1052],[0,-103],[72,-108],[28,-216]],[[2539,625],[-8,-282],[0,-314]],[[2531,29],[-61,0],[-322,-1]],[[2818,1431],[5,138],[6,337]],[[2829,1906],[29,53],[34,31],[648,-19]],[[3540,1971],[-19,-491],[-88,-190],[-8,-249],[11,0]],[[3436,1041],[-14,-16],[-184,6]],[[3238,1031],[-5,174],[-84,-24],[-13,16],[-78,16],[-60,38],[-66,87],[-34,90],[-57,11],[-23,-8]],[[7369,568],[-67,156]],[[6630,340],[1,-152],[-4,-70],[2,-99]],[[6629,19],[-348,-1],[-246,3],[-178,0],[-87,0]],[[5770,21],[13,643]],[[5783,664],[135,-26],[38,56],[43,44],[101,61],[58,14],[5,90]],[[6817,3917],[387,-26],[233,-16],[73,0]],[[7510,3875],[-13,-20],[-18,-144],[-11,-125]],[[7468,3586],[-24,-208]],[[7194,3412],[-315,43],[-36,91],[-64,11]],[[8116,1382],[105,137],[91,125],[67,101],[-9,18],[10,62],[17,25]],[[5563,1026],[58,-34],[-1,-60],[11,-59],[29,-35],[0,-50],[26,-23],[38,-4],[14,25],[45,-52],[0,-70]],[[5770,21],[-622,17],[-22,0]],[[5126,38],[-2,112],[18,182],[15,68],[-27,50],[8,60],[0,112],[4,237],[0,108],[13,97]],[[10432,731],[-44,-57],[-85,-39],[-154,-19],[-21,53],[-19,7],[-61,-64],[-50,-39],[-3,-44]],[[9995,529],[-56,30],[-11,-28],[-41,62],[-230,122]],[[10167,1484],[29,-41],[72,-35],[52,-7],[25,-81],[20,12],[44,-10],[81,19],[3,-46],[-31,-35],[31,-39],[27,3],[53,-47],[-28,-40]],[[10545,1137],[-20,-35],[-33,-26],[-36,-62],[11,-95],[-26,-41],[-25,-16],[15,-34],[-10,-37],[24,-38],[-13,-22]],[[5009,1091],[-54,8],[2,20],[-204,4],[-1,-88],[-49,-14],[-52,0],[-11,-39],[-98,0]],[[4542,982],[-36,32],[-17,57],[-65,14],[1,73],[-66,0],[-53,25]],[[12635,3375],[44,31],[-8,20]],[[1847,27],[-256,-1],[-137,-1],[-347,4]],[[9312,610],[-16,-28],[18,-24],[7,-44],[-3,-70],[-79,-201],[20,-11],[-22,-53],[-45,-168]],[[9192,11],[-58,0],[-276,0]],[[7468,3586],[77,41],[23,-42],[63,-4],[-35,51],[54,8],[13,-63],[48,0],[152,-57],[76,-80],[42,-71],[16,-11]],[[7997,3358],[-4,-72],[4,-167]],[[7997,3119],[2,-53],[-24,-5],[-7,-49],[-35,4],[0,-38],[-43,-39],[-50,9],[-74,-39],[-53,25],[-60,3],[-37,19],[-31,-12],[-32,24],[-29,-1]],[[9995,529],[-21,-201],[-28,-315],[-498,-1],[-256,-1]],[[1374,2907],[-4,20],[55,18],[39,74],[41,127],[6,43],[-7,46],[40,61],[34,76],[-15,59],[15,53],[33,49],[-9,61]],[[1602,3594],[76,10],[303,-9],[254,-3],[216,2],[12,0]],[[2439,1052],[43,-1],[233,146],[69,111],[33,78],[1,45]],[[3238,1031],[-3,-90]],[[3235,941],[-207,10],[-140,-8],[-116,-50],[-36,-48],[5,-66],[-49,-5],[-29,-124],[-21,-25],[-103,0]],[[5126,38],[-340,9],[-295,2]],[[4491,49],[-9,36],[10,40],[45,-3],[-17,56],[-3,200],[21,39],[-1,259],[5,306]],[[3824,1041],[53,-20],[-14,-54],[-47,-12],[-20,13]],[[3796,968],[-62,58],[-44,-27],[-29,-35],[-32,-16],[-66,20],[-41,-19],[-28,24],[-6,30],[-52,38]],[[3540,1971],[2,69]],[[3796,968],[0,-54],[33,-44],[-21,-81],[13,-36],[47,-14],[-5,-403],[-1,-282]],[[3862,54],[-362,5],[5,-29],[-272,0],[-28,0]],[[3205,30],[22,698],[8,213]],[[10558,1129],[-13,8]],[[11040,1386],[-74,-2],[-27,-15],[-80,0],[-14,-28],[-37,-20],[-38,-42],[-95,-16],[-31,-49],[-17,-48],[-42,-11],[-27,-26]],[[7385,13],[-338,2],[-405,4],[-13,0]],[[3749,3580],[25,40],[9,63],[-21,147],[-42,178],[98,-3],[269,-31],[-6,-72],[264,9],[88,2]],[[4433,3913],[25,-225],[56,-414]],[[4514,3274],[-204,1],[-68,-59],[-47,-21],[-62,-13],[-66,3],[-82,22],[-58,33],[-58,0]],[[11357,3817],[325,2],[25,-10],[459,-1],[256,1]],[[12422,3809],[-89,-49],[-110,-71],[-17,28],[-38,-25],[-11,41],[-34,4],[-49,-27],[-106,-72],[-105,-119],[8,-23],[-62,-31],[-12,-16],[22,-41],[-48,-34],[-96,-36]],[[3205,30],[-137,1],[-537,-2]],[[4514,3274],[9,-61],[122,-17]],[[4491,49],[-96,-1],[-312,5],[-221,1]],[[7510,3875],[184,-9],[314,-7],[87,8],[233,17],[32,2]],[[8360,3886],[-2,-95],[18,-31],[-25,-60],[-5,-39]],[[8346,3661],[-24,-10],[-64,2],[-91,-56],[-76,-8],[-72,-110],[-22,-121]],[[2829,1906],[-166,5]],[[8861,3860],[219,-25],[96,-4]],[[8619,3367],[-24,0],[-20,68],[-5,57],[-58,72],[-63,58],[-45,19],[-32,41],[-26,-21]],[[8360,3886],[135,-2],[283,-15],[83,-9]],[[12422,3809],[368,0]],[[4433,3913],[507,9],[367,2]],[[7997,3119],[59,0],[11,-96],[33,-15],[23,-45],[89,-37],[65,-6],[0,-40],[45,-21],[158,-94],[141,-18]],[[1131,2843],[-83,72],[-43,49],[17,38],[28,-10],[43,5],[68,-27],[40,1],[49,27],[38,4],[-1,42],[-71,42],[-56,49],[-14,33],[16,42],[48,4],[61,-13],[43,28],[16,59],[-7,27],[-47,83],[-5,35],[30,39],[7,71],[-27,39],[89,-1],[-13,-45],[12,-40],[36,-10],[46,40],[32,58],[119,10]]],"transform":{"scale":[0.0006021374061718094,0.00042291789226045376],"translate":[-90.310453,34.9830630878201]},"objects":{"47":{"type":"GeometryCollection","geometries":[{"arcs":[[0,1,2,3,4]],"type":"Polygon","properties":{"STATEFP":"47","COUNTYFP":"013","COUNTYNS":"01639728","GEOIDFQ":"0500000US47013","GEOID":"47013","NAME":"Campbell","NAMELSAD":"Campbell County","STUSPS":"TN","STATE_NAME":"Tennessee","LSAD":"06","ALAND":1243685307,"AWATER":46425147},"id":"47013"},{"arcs":[[5,6,7,8,9]],"type":"Polygon","properties":{"STATEFP":"47","COUNTYFP":"147","COUNTYNS":"01639786","GEOIDFQ":"0500000US47147","GEOID":"47147","NAME":"Robertson","NAMELSAD":"Robertson County","STUSPS":"TN","STATE_NAME":"Tennessee","LSAD":"06","ALAND":1233703851,"AWATER":457701},"id":"47147"},{"arcs":[[10,11,12,13,14]],"type":"Polygon","properties":{"STATEFP":"47","COUNTYFP":"033","COUNTYNS":"01648574","GEOIDFQ":"0500000US47033","GEOID":"47033","NAME":"Crockett","NAMELSAD":"Crockett County","STUSPS":"TN","STATE_NAME":"Tennessee","LSAD":"06","ALAND":687714873,"AWATER":545783},"id":"47033"},{"arcs":[[15,16,17,18,19,20,21]],"type":"Polygon","properties":{"STATEFP":"47","COUNTYFP":"005","COUNTYNS":"01639724","GEOIDFQ":"0500000US47005","GEOID":"47005","NAME":"Benton","NAMELSAD":"Benton County","STUSPS":"TN","STATE_NAME":"Tennessee","LSAD":"06","ALAND":1021248367,"AWATER":108583505},"id":"47005"},{"arcs":[[22,23,24,25,26]],"type":"Polygon","properties":{"STATEFP":"47","COUNTYFP":"019","COUNTYNS":"01639730","GEOIDFQ":"0500000US47019","GEOID":"47019","NAME":"Carter","NAMELSAD":"Carter County","STUSPS":"TN","STATE_NAME":"Tennessee","LSAD":"06","ALAND":883931745,"AWATER":16593371},"id":"47019"},{"arcs":[[-4,27,28,29,30,31]],"type":"Polygon","properties":{"STATEFP":"47","COUNTYFP":"001","COUNTYNS":"01639722","GEOIDFQ":"0500000US47001","GEOID":"47001","NAME":"Anderson","NAMELSAD":"Anderson County","STUSPS":"TN","STATE_NAME":"Tennessee","LSAD":"06","ALAND":873359908,"AWATER":19657734},"id":"47001"},{"arcs":[[-23,32,33,34,35]],"type":"Polygon","properties":{"STATEFP":"47","COUNTYFP":"163","COUNTYNS":"01639793","GEOIDFQ":"0500000US47163","GEOID":"47163","NAME":"Sullivan","NAMELSAD":"Sullivan County","STUSPS":"TN","STATE_NAME":"Tennessee","LSAD":"06","ALAND":1071077095,"AWATER":41857118},"id":"47163"},{"arcs":[[36,37,38,39,40,41,42]],"type":"Polygon","properties":{"STATEFP":"47","COUNTYFP":"031","COUNTYNS":"01639735","GEOIDFQ":"0500000US47031","GEOID":"47031","NAME":"Coffee","NAMELSAD":"Coffee County","STUSPS":"TN","STATE_NAME":"Tennessee","LSAD":"06","ALAND":1111010402,"AWATER":14479480},"id":"47031"},{"arcs":[[43,44,45,46,47,48]],"type":"Polygon","properties":{"STATEFP":"47","COUNTYFP":"107","COUNTYNS":"01639773","GEOIDFQ":"0500000US47107","GEOID":"47107","NAME":"McMinn","NAMELSAD":"McMinn County","STUSPS":"TN","STATE_NAME":"Tennessee","LSAD":"06","ALAND":1113997329,"AWATER":5340568},"id":"47107"},{"arcs":[[[49,50,51,52,53]],[[54,55,56]]],"type":"MultiPolygon","properties":{"STATEFP":"47","COUNTYFP":"167","COUNTYNS":"01639795","GEOIDFQ":"0500000US47167","GEOID":"47167","NAME":"Tipton","NAMELSAD":"Tipton County","STUSPS":"TN","STATE_NAME":"Tennessee","LSAD":"06","ALAND":1180026943,"AWATER":32703276},"id":"47167"},{"arcs":[[57,58,59,60,61,62]],"type":"Polygon","properties":{"STATEFP":"47","COUNTYFP":"119","COUNTYNS":"01639772","GEOIDFQ":"0500000US47119","GEOID":"47119","NAME":"Maury","NAMELSAD":"Maury County","STUSPS":"TN","STATE_NAME":"Tennessee","LSAD":"06","ALAND":1587876688,"AWATER":6344505},"id":"47119"},{"arcs":[[-11,63,64,65,66,67]],"type":"Polygon","properties":{"STATEFP":"47","COUNTYFP":"045","COUNTYNS":"01639741","GEOIDFQ":"0500000US47045","GEOID":"47045","NAME":"Dyer","NAMELSAD":"Dyer County","STUSPS":"TN","STATE_NAME":"Tennessee","LSAD":"06","ALAND":1326982064,"AWATER":35839863},"id":"47045"},{"arcs":[[-12,-68,68,69,70,71]],"type":"Polygon","properties":{"STATEFP":"47","COUNTYFP":"053","COUNTYNS":"01639745","GEOIDFQ":"0500000US47053","GEOID":"47053","NAME":"Gibson","NAMELSAD":"Gibson County","STUSPS":"TN","STATE_NAME":"Tennessee","LSAD":"06","ALAND":1561102696,"AWATER":2345193},"id":"47053"},{"arcs":[[-37,72,73,74,75]],"type":"Polygon","properties":{"STATEFP":"47","COUNTYFP":"003","COUNTYNS":"01639723","GEOIDFQ":"0500000US47003","GEOID":"47003","NAME":"Bedford","NAMELSAD":"Bedford County","STUSPS":"TN","STATE_NAME":"Tennessee","LSAD":"06","ALAND":1226719753,"AWATER":2980759},"id":"47003"},{"arcs":[[-30,76,77,-44,78,79,80,81]],"type":"Polygon","properties":{"STATEFP":"47","COUNTYFP":"145","COUNTYNS":"01639785","GEOIDFQ":"0500000US47145","GEOID":"47145","NAME":"Roane","NAMELSAD":"Roane County","STUSPS":"TN","STATE_NAME":"Tennessee","LSAD":"06","ALAND":934385983,"AWATER":88599487},"id":"47145"},{"arcs":[[-38,-76,82,83,84,85,86]],"type":"Polygon","properties":{"STATEFP":"47","COUNTYFP":"149","COUNTYNS":"01639787","GEOIDFQ":"0500000US47149","GEOID":"47149","NAME":"Rutherford","NAMELSAD":"Rutherford County","STUSPS":"TN","STATE_NAME":"Tennessee","LSAD":"06","ALAND":1604621552,"AWATER":11677845},"id":"47149"},{"arcs":[[-7,87,88,89,90,91]],"type":"Polygon","properties":{"STATEFP":"47","COUNTYFP":"165","COUNTYNS":"01639794","GEOIDFQ":"0500000US47165","GEOID":"47165","NAME":"Sumner","NAMELSAD":"Sumner County","STUSPS":"TN","STATE_NAME":"Tennessee","LSAD":"06","ALAND":1371276555,"AWATER":35630992},"id":"47165"},{"arcs":[[-24,-36,92]],"type":"Polygon","properties":{"STATEFP":"47","COUNTYFP":"091","COUNTYNS":"01639760","GEOIDFQ":"0500000US47091","GEOID":"47091","NAME":"Johnson","NAMELSAD":"Johnson County","STUSPS":"TN","STATE_NAME":"Tennessee","LSAD":"06","ALAND":772956196,"AWATER":11007739},"id":"47091"},{"arcs":[[-86,93,-91,94,95,96,97]],"type":"Polygon","properties":{"STATEFP":"47","COUNTYFP":"189","COUNTYNS":"01639802","GEOIDFQ":"0500000US47189","GEOID":"47189","NAME":"Wilson","NAMELSAD":"Wilson County","STUSPS":"TN","STATE_NAME":"Tennessee","LSAD":"06","ALAND":1479109879,"AWATER":32273794},"id":"47189"},{"arcs":[[-80,98,99,100,101]],"type":"Polygon","properties":{"STATEFP":"47","COUNTYFP":"143","COUNTYNS":"01639784","GEOIDFQ":"0500000US47143","GEOID":"47143","NAME":"Rhea","NAMELSAD":"Rhea County","STUSPS":"TN","STATE_NAME":"Tennessee","LSAD":"06","ALAND":817126428,"AWATER":54354267},"id":"47143"},{"arcs":[[-9,102,103,104,105]],"type":"Polygon","properties":{"STATEFP":"47","COUNTYFP":"021","COUNTYNS":"01639731","GEOIDFQ":"0500000US47021","GEOID":"47021","NAME":"Cheatham","NAMELSAD":"Cheatham County","STUSPS":"TN","STATE_NAME":"Tennessee","LSAD":"06","ALAND":783466438,"AWATER":11821692},"id":"47021"},{"arcs":[[106,107,108,109,110,111]],"type":"Polygon","properties":{"STATEFP":"47","COUNTYFP":"049","COUNTYNS":"01639743","GEOIDFQ":"0500000US47049","GEOID":"47049","NAME":"Fentress","NAMELSAD":"Fentress County","STUSPS":"TN","STATE_NAME":"Tennessee","LSAD":"06","ALAND":1291385619,"AWATER":841022},"id":"47049"},{"arcs":[[-45,-78,112,113,114]],"type":"Polygon","properties":{"STATEFP":"47","COUNTYFP":"105","COUNTYNS":"01639767","GEOIDFQ":"0500000US47105","GEOID":"47105","NAME":"Loudon","NAMELSAD":"Loudon County","STUSPS":"TN","STATE_NAME":"Tennessee","LSAD":"06","ALAND":593811377,"AWATER":46869994},"id":"47105"},{"arcs":[[-97,115,116,117,118,119]],"type":"Polygon","properties":{"STATEFP":"47","COUNTYFP":"041","COUNTYNS":"01639738","GEOIDFQ":"0500000US47041","GEOID":"47041","NAME":"DeKalb","NAMELSAD":"DeKalb County","STUSPS":"TN","STATE_NAME":"Tennessee","LSAD":"06","ALAND":788475293,"AWATER":63639368},"id":"47041"},{"arcs":[[-29,120,121,122,123,124,-113,-77]],"type":"Polygon","properties":{"STATEFP":"47","COUNTYFP":"093","COUNTYNS":"01639761","GEOIDFQ":"0500000US47093","GEOID":"47093","NAME":"Knox","NAMELSAD":"Knox County","STUSPS":"TN","STATE_NAME":"Tennessee","LSAD":"06","ALAND":1316556091,"AWATER":45461428},"id":"47093"},{"arcs":[[-20,125,126,127,128,129]],"type":"Polygon","properties":{"STATEFP":"47","COUNTYFP":"135","COUNTYNS":"01639781","GEOIDFQ":"0500000US47135","GEOID":"47135","NAME":"Perry","NAMELSAD":"Perry County","STUSPS":"TN","STATE_NAME":"Tennessee","LSAD":"06","ALAND":1074235996,"AWATER":20984700},"id":"47135"},{"arcs":[[-5,-32,130,-108,131,132]],"type":"Polygon","properties":{"STATEFP":"47","COUNTYFP":"151","COUNTYNS":"01639788","GEOIDFQ":"0500000US47151","GEOID":"47151","NAME":"Scott","NAMELSAD":"Scott County","STUSPS":"TN","STATE_NAME":"Tennessee","LSAD":"06","ALAND":1378652171,"AWATER":2418741},"id":"47151"},{"arcs":[[-16,133,134,135,136]],"type":"Polygon","properties":{"STATEFP":"47","COUNTYFP":"079","COUNTYNS":"01639755","GEOIDFQ":"0500000US47079","GEOID":"47079","NAME":"Henry","NAMELSAD":"Henry County","STUSPS":"TN","STATE_NAME":"Tennessee","LSAD":"06","ALAND":1455320355,"AWATER":81582236},"id":"47079"},{"arcs":[[-96,137,138,139,140,-116]],"type":"Polygon","properties":{"STATEFP":"47","COUNTYFP":"159","COUNTYNS":"01639791","GEOIDFQ":"0500000US47159","GEOID":"47159","NAME":"Smith","NAMELSAD":"Smith County","STUSPS":"TN","STATE_NAME":"Tennessee","LSAD":"06","ALAND":813976205,"AWATER":28690306},"id":"47159"},{"arcs":[[-70,141,142,-135,143]],"type":"Polygon","properties":{"STATEFP":"47","COUNTYFP":"183","COUNTYNS":"01639799","GEOIDFQ":"0500000US47183","GEOID":"47183","NAME":"Weakley","NAMELSAD":"Weakley County","STUSPS":"TN","STATE_NAME":"Tennessee","LSAD":"06","ALAND":1503107799,"AWATER":3707114},"id":"47183"},{"arcs":[[144,145,146,147,148]],"type":"Polygon","properties":{"STATEFP":"47","COUNTYFP":"029","COUNTYNS":"01639734","GEOIDFQ":"0500000US47029","GEOID":"47029","NAME":"Cocke","NAMELSAD":"Cocke County","STUSPS":"TN","STATE_NAME":"Tennessee","LSAD":"06","ALAND":1129592395,"AWATER":17924853},"id":"47029"},{"arcs":[[-58,149,-127,150,151,152]],"type":"Polygon","properties":{"STATEFP":"47","COUNTYFP":"081","COUNTYNS":"01639756","GEOIDFQ":"0500000US47081","GEOID":"47081","NAME":"Hickman","NAMELSAD":"Hickman County","STUSPS":"TN","STATE_NAME":"Tennessee","LSAD":"06","ALAND":1586324714,"AWATER":373710},"id":"47081"},{"arcs":[[-59,-153,153,-104,154,-84,155]],"type":"Polygon","properties":{"STATEFP":"47","COUNTYFP":"187","COUNTYNS":"01639801","GEOIDFQ":"0500000US47187","GEOID":"47187","NAME":"Williamson","NAMELSAD":"Williamson County","STUSPS":"TN","STATE_NAME":"Tennessee","LSAD":"06","ALAND":1509732488,"AWATER":3011571},"id":"47187"},{"arcs":[[156,-149,157,158,159,160]],"type":"Polygon","properties":{"STATEFP":"47","COUNTYFP":"059","COUNTYNS":"01639747","GEOIDFQ":"0500000US47059","GEOID":"47059","NAME":"Greene","NAMELSAD":"Greene County","STUSPS":"TN","STATE_NAME":"Tennessee","LSAD":"06","ALAND":1611409726,"AWATER":5099752},"id":"47059"},{"arcs":[[-148,161,162,163,-158]],"type":"Polygon","properties":{"STATEFP":"47","COUNTYFP":"063","COUNTYNS":"01648576","GEOIDFQ":"0500000US47063","GEOID":"47063","NAME":"Hamblen","NAMELSAD":"Hamblen County","STUSPS":"TN","STATE_NAME":"Tennessee","LSAD":"06","ALAND":417476230,"AWATER":37852325},"id":"47063"},{"arcs":[[-8,-92,-94,-85,-155,-103]],"type":"Polygon","properties":{"STATEFP":"47","COUNTYFP":"037","COUNTYNS":"01639737","GEOIDFQ":"0500000US47037","GEOID":"47037","NAME":"Davidson","NAMELSAD":"Davidson County","STUSPS":"TN","STATE_NAME":"Tennessee","LSAD":"06","ALAND":1304112169,"AWATER":56341206},"id":"47037"},{"arcs":[[-19,164,165,-151,-126]],"type":"Polygon","properties":{"STATEFP":"47","COUNTYFP":"085","COUNTYNS":"01639757","GEOIDFQ":"0500000US47085","GEOID":"47085","NAME":"Humphreys","NAMELSAD":"Humphreys County","STUSPS":"TN","STATE_NAME":"Tennessee","LSAD":"06","ALAND":1374668726,"AWATER":67184110},"id":"47085"},{"arcs":[[-2,166,167,168,169]],"type":"Polygon","properties":{"STATEFP":"47","COUNTYFP":"025","COUNTYNS":"01639733","GEOIDFQ":"0500000US47025","GEOID":"47025","NAME":"Claiborne","NAMELSAD":"Claiborne County","STUSPS":"TN","STATE_NAME":"Tennessee","LSAD":"06","ALAND":1125719727,"AWATER":17952086},"id":"47025"},{"arcs":[[-81,-102,170,171,172,173,-110,174]],"type":"Polygon","properties":{"STATEFP":"47","COUNTYFP":"035","COUNTYNS":"01639736","GEOIDFQ":"0500000US47035","GEOID":"47035","NAME":"Cumberland","NAMELSAD":"Cumberland County","STUSPS":"TN","STATE_NAME":"Tennessee","LSAD":"06","ALAND":1764581464,"AWATER":9092132},"id":"47035"},{"arcs":[[-100,175,176,177,178,179,180]],"type":"Polygon","properties":{"STATEFP":"47","COUNTYFP":"065","COUNTYNS":"01639749","GEOIDFQ":"0500000US47065","GEOID":"47065","NAME":"Hamilton","NAMELSAD":"Hamilton County","STUSPS":"TN","STATE_NAME":"Tennessee","LSAD":"06","ALAND":1404199889,"AWATER":86782108},"id":"47065"},{"arcs":[[-3,-170,181,-121,-28]],"type":"Polygon","properties":{"STATEFP":"47","COUNTYFP":"173","COUNTYNS":"01648583","GEOIDFQ":"0500000US47173","GEOID":"47173","NAME":"Union","NAMELSAD":"Union County","STUSPS":"TN","STATE_NAME":"Tennessee","LSAD":"06","ALAND":579077904,"AWATER":61005196},"id":"47173"},{"arcs":[[-122,-182,-169,182,183,-163,184]],"type":"Polygon","properties":{"STATEFP":"47","COUNTYFP":"057","COUNTYNS":"01648575","GEOIDFQ":"0500000US47057","GEOID":"47057","NAME":"Grainger","NAMELSAD":"Grainger County","STUSPS":"TN","STATE_NAME":"Tennessee","LSAD":"06","ALAND":726715759,"AWATER":56600343},"id":"47057"},{"arcs":[[-15,185,-50,186,-64]],"type":"Polygon","properties":{"STATEFP":"47","COUNTYFP":"097","COUNTYNS":"01639763","GEOIDFQ":"0500000US47097","GEOID":"47097","NAME":"Lauderdale","NAMELSAD":"Lauderdale County","STUSPS":"TN","STATE_NAME":"Tennessee","LSAD":"06","ALAND":1222203226,"AWATER":80251266},"id":"47097"},{"arcs":[[-53,187,188,-56,189]],"type":"Polygon","properties":{"STATEFP":"47","COUNTYFP":"157","COUNTYNS":"01639790","GEOIDFQ":"0500000US47157","GEOID":"47157","NAME":"Shelby","NAMELSAD":"Shelby County","STUSPS":"TN","STATE_NAME":"Tennessee","LSAD":"06","ALAND":1949677140,"AWATER":74570153},"id":"47157"},{"arcs":[[190,191,-124,192,-146]],"type":"Polygon","properties":{"STATEFP":"47","COUNTYFP":"155","COUNTYNS":"01639789","GEOIDFQ":"0500000US47155","GEOID":"47155","NAME":"Sevier","NAMELSAD":"Sevier County","STUSPS":"TN","STATE_NAME":"Tennessee","LSAD":"06","ALAND":1534615544,"AWATER":13412243},"id":"47155"},{"arcs":[[-118,193,-173,194,195]],"type":"Polygon","properties":{"STATEFP":"47","COUNTYFP":"185","COUNTYNS":"01639800","GEOIDFQ":"0500000US47185","GEOID":"47185","NAME":"White","NAMELSAD":"White County","STUSPS":"TN","STATE_NAME":"Tennessee","LSAD":"06","ALAND":975592110,"AWATER":7113368},"id":"47185"},{"arcs":[[-31,-82,-175,-109,-131]],"type":"Polygon","properties":{"STATEFP":"47","COUNTYFP":"129","COUNTYNS":"01639778","GEOIDFQ":"0500000US47129","GEOID":"47129","NAME":"Morgan","NAMELSAD":"Morgan County","STUSPS":"TN","STATE_NAME":"Tennessee","LSAD":"06","ALAND":1352439679,"AWATER":823018},"id":"47129"},{"arcs":[[-43,196,197,-73]],"type":"Polygon","properties":{"STATEFP":"47","COUNTYFP":"127","COUNTYNS":"01648579","GEOIDFQ":"0500000US47127","GEOID":"47127","NAME":"Moore","NAMELSAD":"Moore County","STUSPS":"TN","STATE_NAME":"Tennessee","LSAD":"06","ALAND":334684850,"AWATER":3093435},"id":"47127"},{"arcs":[[-49,198,-176,-99,-79]],"type":"Polygon","properties":{"STATEFP":"47","COUNTYFP":"121","COUNTYNS":"01639775","GEOIDFQ":"0500000US47121","GEOID":"47121","NAME":"Meigs","NAMELSAD":"Meigs County","STUSPS":"TN","STATE_NAME":"Tennessee","LSAD":"06","ALAND":505397668,"AWATER":55738399},"id":"47121"},{"arcs":[[-40,199,-119,-196,200,201,202]],"type":"Polygon","properties":{"STATEFP":"47","COUNTYFP":"177","COUNTYNS":"01639796","GEOIDFQ":"0500000US47177","GEOID":"47177","NAME":"Warren","NAMELSAD":"Warren County","STUSPS":"TN","STATE_NAME":"Tennessee","LSAD":"06","ALAND":1120619164,"AWATER":3524883},"id":"47177"},{"arcs":[[-105,-154,-152,-166,203,204]],"type":"Polygon","properties":{"STATEFP":"47","COUNTYFP":"043","COUNTYNS":"01639740","GEOIDFQ":"0500000US47043","GEOID":"47043","NAME":"Dickson","NAMELSAD":"Dickson County","STUSPS":"TN","STATE_NAME":"Tennessee","LSAD":"06","ALAND":1268833485,"AWATER":3679792},"id":"47043"},{"arcs":[[-179,205,206,207,208]],"type":"Polygon","properties":{"STATEFP":"47","COUNTYFP":"115","COUNTYNS":"01639770","GEOIDFQ":"0500000US47115","GEOID":"47115","NAME":"Marion","NAMELSAD":"Marion County","STUSPS":"TN","STATE_NAME":"Tennessee","LSAD":"06","ALAND":1290471995,"AWATER":36486486},"id":"47115"},{"arcs":[[209,-161,210,-26,211]],"type":"Polygon","properties":{"STATEFP":"47","COUNTYFP":"171","COUNTYNS":"01648582","GEOIDFQ":"0500000US47171","GEOID":"47171","NAME":"Unicoi","NAMELSAD":"Unicoi County","STUSPS":"TN","STATE_NAME":"Tennessee","LSAD":"06","ALAND":481902933,"AWATER":825726},"id":"47171"},{"arcs":[[-14,212,213,214,-51,-186]],"type":"Polygon","properties":{"STATEFP":"47","COUNTYFP":"075","COUNTYNS":"01639753","GEOIDFQ":"0500000US47075","GEOID":"47075","NAME":"Haywood","NAMELSAD":"Haywood County","STUSPS":"TN","STATE_NAME":"Tennessee","LSAD":"06","ALAND":1380741524,"AWATER":2472509},"id":"47075"},{"arcs":[[-180,-209,215,-202,216,217]],"type":"Polygon","properties":{"STATEFP":"47","COUNTYFP":"153","COUNTYNS":"01652643","GEOIDFQ":"0500000US47153","GEOID":"47153","NAME":"Sequatchie","NAMELSAD":"Sequatchie County","STUSPS":"TN","STATE_NAME":"Tennessee","LSAD":"06","ALAND":688550847,"AWATER":498315},"id":"47153"},{"arcs":[[218,219,-214,220,221,222,223]],"type":"Polygon","properties":{"STATEFP":"47","COUNTYFP":"069","COUNTYNS":"01639750","GEOIDFQ":"0500000US47069","GEOID":"47069","NAME":"Hardeman","NAMELSAD":"Hardeman County","STUSPS":"TN","STATE_NAME":"Tennessee","LSAD":"06","ALAND":1729509832,"AWATER":6768751},"id":"47069"},{"arcs":[[224,225,226,227,228]],"type":"Polygon","properties":{"STATEFP":"47","COUNTYFP":"077","COUNTYNS":"01639754","GEOIDFQ":"0500000US47077","GEOID":"47077","NAME":"Henderson","NAMELSAD":"Henderson County","STUSPS":"TN","STATE_NAME":"Tennessee","LSAD":"06","ALAND":1346816749,"AWATER":15219341},"id":"47077"},{"arcs":[[-41,-203,-216,-208,229]],"type":"Polygon","properties":{"STATEFP":"47","COUNTYFP":"061","COUNTYNS":"01639748","GEOIDFQ":"0500000US47061","GEOID":"47061","NAME":"Grundy","NAMELSAD":"Grundy County","STUSPS":"TN","STATE_NAME":"Tennessee","LSAD":"06","ALAND":933545795,"AWATER":1755421},"id":"47061"},{"arcs":[[-74,-198,230,231,232,233]],"type":"Polygon","properties":{"STATEFP":"47","COUNTYFP":"103","COUNTYNS":"01639766","GEOIDFQ":"0500000US47103","GEOID":"47103","NAME":"Lincoln","NAMELSAD":"Lincoln County","STUSPS":"TN","STATE_NAME":"Tennessee","LSAD":"06","ALAND":1477179213,"AWATER":971039},"id":"47103"},{"arcs":[[-89,234,235,236,-139,237]],"type":"Polygon","properties":{"STATEFP":"47","COUNTYFP":"111","COUNTYNS":"01639768","GEOIDFQ":"0500000US47111","GEOID":"47111","NAME":"Macon","NAMELSAD":"Macon County","STUSPS":"TN","STATE_NAME":"Tennessee","LSAD":"06","ALAND":795498344,"AWATER":246690},"id":"47111"},{"arcs":[[-101,-181,-218,238,-171]],"type":"Polygon","properties":{"STATEFP":"47","COUNTYFP":"007","COUNTYNS":"01639725","GEOIDFQ":"0500000US47007","GEOID":"47007","NAME":"Bledsoe","NAMELSAD":"Bledsoe County","STUSPS":"TN","STATE_NAME":"Tennessee","LSAD":"06","ALAND":1052973469,"AWATER":858669},"id":"47007"},{"arcs":[[-61,239,-233,240,241]],"type":"Polygon","properties":{"STATEFP":"47","COUNTYFP":"055","COUNTYNS":"01639746","GEOIDFQ":"0500000US47055","GEOID":"47055","NAME":"Giles","NAMELSAD":"Giles County","STUSPS":"TN","STATE_NAME":"Tennessee","LSAD":"06","ALAND":1582304898,"AWATER":642572},"id":"47055"},{"arcs":[[242,243,-46,-115,244,245]],"type":"Polygon","properties":{"STATEFP":"47","COUNTYFP":"123","COUNTYNS":"01639776","GEOIDFQ":"0500000US47123","GEOID":"47123","NAME":"Monroe","NAMELSAD":"Monroe County","STUSPS":"TN","STATE_NAME":"Tennessee","LSAD":"06","ALAND":1646646987,"AWATER":43545177},"id":"47123"},{"arcs":[[-63,246,247,-128,-150]],"type":"Polygon","properties":{"STATEFP":"47","COUNTYFP":"101","COUNTYNS":"01639765","GEOIDFQ":"0500000US47101","GEOID":"47101","NAME":"Lewis","NAMELSAD":"Lewis County","STUSPS":"TN","STATE_NAME":"Tennessee","LSAD":"06","ALAND":730614743,"AWATER":1024940},"id":"47101"},{"arcs":[[-27,-211,-160,248,-33]],"type":"Polygon","properties":{"STATEFP":"47","COUNTYFP":"179","COUNTYNS":"01639797","GEOIDFQ":"0500000US47179","GEOID":"47179","NAME":"Washington","NAMELSAD":"Washington County","STUSPS":"TN","STATE_NAME":"Tennessee","LSAD":"06","ALAND":845756038,"AWATER":8485270},"id":"47179"},{"arcs":[[-52,-215,-220,249,-188]],"type":"Polygon","properties":{"STATEFP":"47","COUNTYFP":"047","COUNTYNS":"01639742","GEOIDFQ":"0500000US47047","GEOID":"47047","NAME":"Fayette","NAMELSAD":"Fayette County","STUSPS":"TN","STATE_NAME":"Tennessee","LSAD":"06","ALAND":1823673514,"AWATER":3692989},"id":"47047"},{"arcs":[[-48,250,251,-177,-199]],"type":"Polygon","properties":{"STATEFP":"47","COUNTYFP":"011","COUNTYNS":"01639727","GEOIDFQ":"0500000US47011","GEOID":"47011","NAME":"Bradley","NAMELSAD":"Bradley County","STUSPS":"TN","STATE_NAME":"Tennessee","LSAD":"06","ALAND":851489206,"AWATER":6959141},"id":"47011"},{"arcs":[[-140,-237,252,253,254]],"type":"Polygon","properties":{"STATEFP":"47","COUNTYFP":"087","COUNTYNS":"01639758","GEOIDFQ":"0500000US47087","GEOID":"47087","NAME":"Jackson","NAMELSAD":"Jackson County","STUSPS":"TN","STATE_NAME":"Tennessee","LSAD":"06","ALAND":799813549,"AWATER":27751888},"id":"47087"},{"arcs":[[255,-251,-47,-244]],"type":"Polygon","properties":{"STATEFP":"47","COUNTYFP":"139","COUNTYNS":"01639782","GEOIDFQ":"0500000US47139","GEOID":"47139","NAME":"Polk","NAMELSAD":"Polk County","STUSPS":"TN","STATE_NAME":"Tennessee","LSAD":"06","ALAND":1125622661,"AWATER":19906880},"id":"47139"},{"arcs":[[-67,256,257,-142,-69]],"type":"Polygon","properties":{"STATEFP":"47","COUNTYFP":"131","COUNTYNS":"01639779","GEOIDFQ":"0500000US47131","GEOID":"47131","NAME":"Obion","NAMELSAD":"Obion County","STUSPS":"TN","STATE_NAME":"Tennessee","LSAD":"06","ALAND":1411156591,"AWATER":27440690},"id":"47131"},{"arcs":[[-222,258,-229,259,260]],"type":"Polygon","properties":{"STATEFP":"47","COUNTYFP":"023","COUNTYNS":"01639732","GEOIDFQ":"0500000US47023","GEOID":"47023","NAME":"Chester","NAMELSAD":"Chester County","STUSPS":"TN","STATE_NAME":"Tennessee","LSAD":"06","ALAND":740053475,"AWATER":575590},"id":"47023"},{"arcs":[[-62,-242,261,262,-247]],"type":"Polygon","properties":{"STATEFP":"47","COUNTYFP":"099","COUNTYNS":"01639764","GEOIDFQ":"0500000US47099","GEOID":"47099","NAME":"Lawrence","NAMELSAD":"Lawrence County","STUSPS":"TN","STATE_NAME":"Tennessee","LSAD":"06","ALAND":1598359116,"AWATER":2218403},"id":"47099"},{"arcs":[[-21,-130,263,264,-227,265]],"type":"Polygon","properties":{"STATEFP":"47","COUNTYFP":"039","COUNTYNS":"01639739","GEOIDFQ":"0500000US47039","GEOID":"47039","NAME":"Decatur","NAMELSAD":"Decatur County","STUSPS":"TN","STATE_NAME":"Tennessee","LSAD":"06","ALAND":864741777,"AWATER":28501002},"id":"47039"},{"arcs":[[-228,-265,266,267,268,-260]],"type":"Polygon","properties":{"STATEFP":"47","COUNTYFP":"071","COUNTYNS":"01639751","GEOIDFQ":"0500000US47071","GEOID":"47071","NAME":"Hardin","NAMELSAD":"Hardin County","STUSPS":"TN","STATE_NAME":"Tennessee","LSAD":"06","ALAND":1495684381,"AWATER":48706058},"id":"47071"},{"arcs":[[269,-245,-114,-125,-192,270]],"type":"Polygon","properties":{"STATEFP":"47","COUNTYFP":"009","COUNTYNS":"01639726","GEOIDFQ":"0500000US47009","GEOID":"47009","NAME":"Blount","NAMELSAD":"Blount County","STUSPS":"TN","STATE_NAME":"Tennessee","LSAD":"06","ALAND":1447398703,"AWATER":20209909},"id":"47009"},{"arcs":[[-42,-230,-207,271,-231,-197]],"type":"Polygon","properties":{"STATEFP":"47","COUNTYFP":"051","COUNTYNS":"01639744","GEOIDFQ":"0500000US47051","GEOID":"47051","NAME":"Franklin","NAMELSAD":"Franklin County","STUSPS":"TN","STATE_NAME":"Tennessee","LSAD":"06","ALAND":1436148699,"AWATER":55038670},"id":"47051"},{"arcs":[[-17,-137,272,273,274]],"type":"Polygon","properties":{"STATEFP":"47","COUNTYFP":"161","COUNTYNS":"01639792","GEOIDFQ":"0500000US47161","GEOID":"47161","NAME":"Stewart","NAMELSAD":"Stewart County","STUSPS":"TN","STATE_NAME":"Tennessee","LSAD":"06","ALAND":1190815051,"AWATER":86082173},"id":"47161"},{"arcs":[[-90,-238,-138,-95]],"type":"Polygon","properties":{"STATEFP":"47","COUNTYFP":"169","COUNTYNS":"01648581","GEOIDFQ":"0500000US47169","GEOID":"47169","NAME":"Trousdale","NAMELSAD":"Trousdale County","STUSPS":"TN","STATE_NAME":"Tennessee","LSAD":"06","ALAND":296143585,"AWATER":5960709},"id":"47169"},{"arcs":[[275,276,-183,-168]],"type":"Polygon","properties":{"STATEFP":"47","COUNTYFP":"067","COUNTYNS":"01648577","GEOIDFQ":"0500000US47067","GEOID":"47067","NAME":"Hancock","NAMELSAD":"Hancock County","STUSPS":"TN","STATE_NAME":"Tennessee","LSAD":"06","ALAND":575816010,"AWATER":2988719},"id":"47067"},{"arcs":[[-172,-239,-217,-201,-195]],"type":"Polygon","properties":{"STATEFP":"47","COUNTYFP":"175","COUNTYNS":"01648584","GEOIDFQ":"0500000US47175","GEOID":"47175","NAME":"Van Buren","NAMELSAD":"Van Buren County","STUSPS":"TN","STATE_NAME":"Tennessee","LSAD":"06","ALAND":708142395,"AWATER":2893456},"id":"47175"},{"arcs":[[-223,-261,-269,277]],"type":"Polygon","properties":{"STATEFP":"47","COUNTYFP":"109","COUNTYNS":"01639774","GEOIDFQ":"0500000US47109","GEOID":"47109","NAME":"McNairy","NAMELSAD":"McNairy County","STUSPS":"TN","STATE_NAME":"Tennessee","LSAD":"06","ALAND":1457761040,"AWATER":1987307},"id":"47109"},{"arcs":[[-39,-87,-98,-120,-200]],"type":"Polygon","properties":{"STATEFP":"47","COUNTYFP":"015","COUNTYNS":"01648572","GEOIDFQ":"0500000US47015","GEOID":"47015","NAME":"Cannon","NAMELSAD":"Cannon County","STUSPS":"TN","STATE_NAME":"Tennessee","LSAD":"06","ALAND":687992379,"AWATER":156144},"id":"47015"},{"arcs":[[-18,-275,278,-204,-165]],"type":"Polygon","properties":{"STATEFP":"47","COUNTYFP":"083","COUNTYNS":"01648578","GEOIDFQ":"0500000US47083","GEOID":"47083","NAME":"Houston","NAMELSAD":"Houston County","STUSPS":"TN","STATE_NAME":"Tennessee","LSAD":"06","ALAND":518758195,"AWATER":17303404},"id":"47083"},{"arcs":[[-129,-248,-263,279,-267,-264]],"type":"Polygon","properties":{"STATEFP":"47","COUNTYFP":"181","COUNTYNS":"01639798","GEOIDFQ":"0500000US47181","GEOID":"47181","NAME":"Wayne","NAMELSAD":"Wayne County","STUSPS":"TN","STATE_NAME":"Tennessee","LSAD":"06","ALAND":1901333938,"AWATER":4023436},"id":"47181"},{"arcs":[[-236,280,281,282,-253]],"type":"Polygon","properties":{"STATEFP":"47","COUNTYFP":"027","COUNTYNS":"01648573","GEOIDFQ":"0500000US47027","GEOID":"47027","NAME":"Clay","NAMELSAD":"Clay County","STUSPS":"TN","STATE_NAME":"Tennessee","LSAD":"06","ALAND":612608184,"AWATER":59089285},"id":"47027"},{"arcs":[[-22,-266,-226,283,-71,-144,-134]],"type":"Polygon","properties":{"STATEFP":"47","COUNTYFP":"017","COUNTYNS":"01639729","GEOIDFQ":"0500000US47017","GEOID":"47017","NAME":"Carroll","NAMELSAD":"Carroll County","STUSPS":"TN","STATE_NAME":"Tennessee","LSAD":"06","ALAND":1547925980,"AWATER":6308712},"id":"47017"},{"arcs":[[284,-132,-107,285,-282,286]],"type":"Polygon","properties":{"STATEFP":"47","COUNTYFP":"137","COUNTYNS":"01648580","GEOIDFQ":"0500000US47137","GEOID":"47137","NAME":"Pickett","NAMELSAD":"Pickett County","STUSPS":"TN","STATE_NAME":"Tennessee","LSAD":"06","ALAND":422090560,"AWATER":29845401},"id":"47137"},{"arcs":[[-34,-249,-159,-164,-184,-277,287]],"type":"Polygon","properties":{"STATEFP":"47","COUNTYFP":"073","COUNTYNS":"01639752","GEOIDFQ":"0500000US47073","GEOID":"47073","NAME":"Hawkins","NAMELSAD":"Hawkins County","STUSPS":"TN","STATE_NAME":"Tennessee","LSAD":"06","ALAND":1261468093,"AWATER":32541837},"id":"47073"},{"arcs":[[-10,-106,-205,-279,-274,288]],"type":"Polygon","properties":{"STATEFP":"47","COUNTYFP":"125","COUNTYNS":"01639777","GEOIDFQ":"0500000US47125","GEOID":"47125","NAME":"Montgomery","NAMELSAD":"Montgomery County","STUSPS":"TN","STATE_NAME":"Tennessee","LSAD":"06","ALAND":1396441762,"AWATER":12068783},"id":"47125"},{"arcs":[[-111,-174,-194,-117,-141,-255,289]],"type":"Polygon","properties":{"STATEFP":"47","COUNTYFP":"141","COUNTYNS":"01639783","GEOIDFQ":"0500000US47141","GEOID":"47141","NAME":"Putnam","NAMELSAD":"Putnam County","STUSPS":"TN","STATE_NAME":"Tennessee","LSAD":"06","ALAND":1038860598,"AWATER":3777708},"id":"47141"},{"arcs":[[-123,-185,-162,-147,-193]],"type":"Polygon","properties":{"STATEFP":"47","COUNTYFP":"089","COUNTYNS":"01639759","GEOIDFQ":"0500000US47089","GEOID":"47089","NAME":"Jefferson","NAMELSAD":"Jefferson County","STUSPS":"TN","STATE_NAME":"Tennessee","LSAD":"06","ALAND":712648024,"AWATER":101427377},"id":"47089"},{"arcs":[[-66,290,-257]],"type":"Polygon","properties":{"STATEFP":"47","COUNTYFP":"095","COUNTYNS":"01639762","GEOIDFQ":"0500000US47095","GEOID":"47095","NAME":"Lake","NAMELSAD":"Lake County","STUSPS":"TN","STATE_NAME":"Tennessee","LSAD":"06","ALAND":429381241,"AWATER":72799687},"id":"47095"},{"arcs":[[-60,-156,-83,-75,-234,-240]],"type":"Polygon","properties":{"STATEFP":"47","COUNTYFP":"117","COUNTYNS":"01639771","GEOIDFQ":"0500000US47117","GEOID":"47117","NAME":"Marshall","NAMELSAD":"Marshall County","STUSPS":"TN","STATE_NAME":"Tennessee","LSAD":"06","ALAND":972442314,"AWATER":1801922},"id":"47117"},{"arcs":[[-13,-72,-284,-225,-259,-221,-213]],"type":"Polygon","properties":{"STATEFP":"47","COUNTYFP":"113","COUNTYNS":"01639769","GEOIDFQ":"0500000US47113","GEOID":"47113","NAME":"Madison","NAMELSAD":"Madison County","STUSPS":"TN","STATE_NAME":"Tennessee","LSAD":"06","ALAND":1443073932,"AWATER":3757608},"id":"47113"},{"arcs":[[-112,-290,-254,-283,-286]],"type":"Polygon","properties":{"STATEFP":"47","COUNTYFP":"133","COUNTYNS":"01639780","GEOIDFQ":"0500000US47133","GEOID":"47133","NAME":"Overton","NAMELSAD":"Overton County","STUSPS":"TN","STATE_NAME":"Tennessee","LSAD":"06","ALAND":1122727660,"AWATER":3486591},"id":"47133"}]}}}