{"type":"Topology","arcs":[[[1881,8407],[49,-1],[263,2],[335,1],[0,0]],[[2528,8409],[0,-19],[23,-21],[11,-48],[2,-32],[-10,-28],[-27,1],[15,-42],[-11,-32],[3,-29],[40,-54],[18,-79],[2,-61],[24,-25],[-10,-71],[25,-40],[-14,-26],[6,-19],[-20,-15],[3,-55],[-14,-86],[-33,-58],[-7,-39],[-19,-21],[-10,-70]],[[2525,7440],[-34,-23],[-9,24],[-21,9],[-8,-18],[-35,7],[-34,-25],[-14,35],[-29,-19],[-30,-54],[0,-15],[-40,-10],[-31,38],[-45,-1],[-25,11],[-17,47]],[[2153,7446],[-27,73],[34,10],[3,23],[-29,13],[-9,58],[-30,36],[-38,-32],[-24,98],[-1,59],[-11,59],[-13,32],[-20,31],[9,17],[0,47],[9,48],[19,23],[5,24],[-21,26],[-22,89],[-33,68],[-21,15],[-15,26],[-17,61],[-12,11],[-8,46]],[[4049,4722],[0,495],[0,265],[0,487],[0,440]],[[4049,6409],[44,-22],[18,-24],[17,-1],[27,-30],[36,7],[2,13],[67,11],[12,34],[20,-14],[32,15],[24,-14],[21,7],[24,28],[29,-1],[14,15],[18,-16],[39,22],[16,-32],[-5,-44],[6,-52],[28,-19],[14,23],[34,6],[2,33],[40,23],[-1,113],[192,1],[0,-122],[38,0],[2,-172],[38,1],[0,-37],[74,1]],[[4971,6162],[-2,-367],[0,-373],[0,-585],[0,-360],[-1,-274]],[[4968,4203],[-36,-9],[-19,-51],[-497,0],[-344,0],[0,12],[-70,0]],[[4002,4155],[9,36],[-7,15],[-7,93],[-9,20],[19,33],[-10,18],[16,32],[3,52],[14,-1],[11,31],[-9,64],[23,12],[-22,35],[25,20],[14,-15],[19,23],[15,65],[22,4],[21,-9],[-7,39],[-93,0]],[[1867,5833],[13,-10],[16,15],[43,-41],[34,1],[33,27],[12,-40],[15,-21],[27,-15],[19,2],[28,25],[57,73],[11,-13],[27,10],[20,24],[26,15],[2,26],[25,26],[19,-11],[23,4],[22,18],[13,-7],[34,33],[13,28],[32,-6],[11,22]],[[2442,6018],[26,-50],[-10,-110],[-17,-24],[-25,-21],[8,-39],[20,-3],[18,-66],[14,-6],[5,-42],[74,-1],[0,-12],[42,-55],[-19,-36],[31,-23],[16,14],[36,3],[14,-14],[52,-8],[42,-70],[-8,-34],[15,-40],[10,-8],[22,-44],[-5,-33],[9,-39],[-20,-65],[6,-27],[-13,-24],[11,-28],[33,15],[7,-28],[20,-25],[8,-34],[26,-15],[23,-50],[2,-24],[35,0],[0,-73],[190,0]],[[3140,4879],[34,0],[0,-145]],[[3174,4734],[-220,1],[0,-3],[-167,1]],[[2787,4733],[-279,-2],[-113,2]],[[2395,4733],[-112,-1],[8,63],[8,24],[-19,20],[0,24],[-29,32],[-7,36],[-33,27],[-6,-37],[-33,-32],[-15,3],[-28,-22],[-18,-49],[-21,-27],[-23,-71],[-19,-3],[-35,-38],[-21,-10],[-42,9],[13,30],[8,46],[-13,64],[22,25],[-3,41],[-19,14],[-4,21],[-18,6],[1,51],[-7,24],[-23,7],[-27,49],[-20,8]],[[1860,5067],[8,47],[-11,34],[11,14],[1,29],[13,6],[7,31],[-25,39],[16,54],[13,26],[-2,57],[-20,12],[-10,22],[0,29],[-13,25],[4,50],[-10,31],[7,28],[16,11],[-19,41],[-5,38],[5,64],[-14,18],[-4,47],[22,15],[17,-2]],[[2525,7440],[3,-15],[32,-24],[-2,-26],[43,-37],[14,-2]],[[2615,7336],[-18,-39],[-7,-101],[-13,-8],[-19,-47],[-19,-24],[-26,-1],[-36,16],[-37,-2],[-12,-15],[-3,-33],[-29,-19],[-18,-22],[-26,-9],[-31,10],[-30,44],[-15,-7],[-13,17],[-31,-4],[-12,-19],[-40,-12],[-15,-16],[-3,-31],[21,-25],[-1,-26]],[[2182,6963],[-54,-8],[-32,5],[-28,25],[-214,1],[-305,-128]],[[1549,6858],[253,437],[209,0],[8,13],[57,35],[-12,21],[7,30],[-5,41],[19,14],[16,-21],[20,-6],[32,24]],[[4002,4155],[-576,1],[-153,-1],[-318,1],[-7,87],[-33,69],[-13,75],[-28,-19],[-27,40],[-15,63],[-20,31],[1,26],[-26,22]],[[2787,4550],[0,183]],[[3174,4734],[337,-3],[0,-9],[175,0],[363,0]],[[2271,2529],[10,13],[281,0],[167,1]],[[2729,2543],[0,-18],[469,0],[803,0]],[[4001,2525],[23,-30],[-17,-60],[16,-51],[-28,-53],[30,-24],[13,27],[14,-20],[-13,-24],[22,-34],[1,-34],[18,-20],[-5,-23],[23,-28],[3,-27],[19,-16],[17,-36],[-28,-5],[-2,-18],[27,-26],[-12,-38],[-25,-45]],[[4097,1940],[-946,1],[-232,0],[-298,2],[0,-6],[-220,0],[-206,2]],[[2195,1939],[-2,245],[-4,215],[11,7],[14,47],[57,76]],[[2396,6391],[29,20],[23,-29],[39,-22],[29,19],[28,98],[12,14],[-6,24],[-24,42],[1,19],[-18,24],[2,50],[-63,21],[-5,35],[34,41],[4,36],[14,22],[33,30],[35,3],[26,29],[29,-14],[36,22],[3,35],[14,35],[31,16],[22,-13],[20,22],[25,1]],[[2769,6971],[32,-2],[27,33],[30,13],[34,28],[8,33],[23,14],[9,-12],[25,60],[29,14]],[[2986,7152],[0,-427],[294,-2],[210,0],[38,-3],[262,1],[188,4],[47,-1]],[[4025,6724],[0,-308]],[[4025,6416],[-42,11],[-8,-13],[-51,-8],[-35,5],[-21,17],[-43,1],[-59,22],[-65,-26],[-16,7],[-9,-35],[-27,-26],[-53,-15],[-24,8],[-16,-19],[-51,-17],[-23,20],[-14,-26],[-21,8],[-16,-10],[-27,21],[-31,-49],[-33,2],[-21,19],[-10,-12],[-29,4],[-32,-29],[-23,-32],[-17,-2],[-24,25],[-28,5],[-27,-37],[1,-41]],[[3130,6194],[-31,-3],[-16,-32],[2,-32],[-10,-23],[-7,-42],[-17,-20],[-26,2],[-23,-28],[-25,10],[-23,21],[-42,-7],[-16,-54],[-10,-14],[-42,26],[-48,21],[-64,47],[-24,29],[-48,16],[-15,47],[0,29],[-47,11],[7,-32],[-41,-34],[-11,-61],[-18,-5],[-39,12],[-13,-6]],[[2483,6072],[-51,96],[10,61],[-20,28],[-10,35],[3,30],[-27,26],[8,43]],[[3140,4879],[0,307],[-4,0],[-1,587],[-6,0],[1,421]],[[4025,6416],[24,-7]],[[4097,1940],[-1,-19],[-28,-19],[-6,-25],[-30,-23],[-20,13],[-33,-65],[4,-19],[-24,-34],[-10,-30],[1,-35],[-17,-8],[-20,23],[-22,-6],[-23,-36],[-7,-27],[-36,-35],[-4,-20],[8,-32],[-18,-39],[-46,11],[-11,-8],[-4,-40],[-13,-2],[-10,35],[-56,5],[-47,-20],[2,-49],[-30,-30],[-6,-48],[-32,5],[-6,-14],[13,-47],[19,-18],[-4,-40],[-19,-22],[-1,-17],[-19,-21],[2,-47],[-15,-40],[-12,11],[-22,-39],[-28,5],[-4,-39],[-32,-14],[1,-55],[-38,-33],[-10,-21]],[[3383,912],[-206,0],[-656,0],[-324,-1],[0,-7],[-209,0],[-113,2],[-195,0],[0,10],[-196,0],[-124,2]],[[1360,918],[0,148],[-6,143],[0,149],[47,2],[63,-4],[0,131],[-10,13],[120,1],[1,146],[-12,0],[0,286]],[[1563,1933],[35,4]],[[1598,1937],[282,0],[98,-1],[0,-6],[109,0],[0,9],[108,0]],[[2622,6],[-220,0],[-229,0],[-489,-1],[-180,0],[-358,-1]],[[1146,4],[0,473],[-2,0],[0,367]],[[1144,844],[0,73],[216,1]],[[3383,912],[-13,-24],[-8,-49],[27,-11],[-26,-21],[-53,4],[-8,-37],[-17,-10],[20,-28],[26,-9],[-20,-51],[-17,10],[-16,-12],[30,-47],[-17,-44],[-37,-37],[-27,-3],[-52,46],[-17,-6],[5,-27],[29,-23],[-2,-31],[-31,-16],[8,-52],[-24,-14],[13,-30],[-22,-32],[8,-27],[-13,-19],[-22,-10],[-3,-38],[-28,-9],[6,-26],[-12,-18],[-36,-21],[-14,8],[-30,-14],[-58,-8],[-21,9],[-17,-33],[-27,29],[-51,-82],[-23,15],[-7,-23],[18,-22],[-21,-23],[-17,48],[-31,22],[1,-39],[-17,-53],[-15,14],[-11,-16],[-30,-16],[-41,0]],[[1860,5067],[-44,-39],[-12,-47],[-33,-36],[-32,-4],[-8,18],[-30,-6],[5,-22],[-7,-44],[-260,-2],[-193,1],[-447,2],[-450,1],[-344,1]],[[5,4890],[1,354],[0,473],[3,628],[1,384]],[[10,6729],[977,0],[258,0],[304,129]],[[1549,6858],[232,-517]],[[1781,6341],[32,-74],[20,-16],[9,-38],[-6,-17],[7,-97],[22,-36],[-8,-70],[4,-68],[-8,-13],[14,-79]],[[4968,4203],[1,-220],[-1,-405],[-2,-422],[-6,-261],[0,-370]],[[4960,2525],[-267,0],[-321,0],[-371,0]],[[4001,2525],[20,66],[17,42],[-22,-4],[-11,22],[-18,-4],[-19,16],[25,38],[15,-25],[20,4],[-1,42],[-53,-20],[10,30],[-9,39],[-20,18],[-4,26],[-26,36],[-11,66],[11,24],[20,13],[-10,26],[-30,35],[17,17],[-16,52],[-25,18],[9,23],[-26,15],[3,43],[-19,27],[6,33],[35,-4],[3,16],[-18,28],[16,20],[-11,29],[78,-1],[0,-25],[19,0],[9,-24],[37,0],[0,24],[-19,0],[1,25],[-37,12],[-37,0],[0,26],[-37,0],[-19,25],[-1,24],[15,51],[-2,46],[23,13],[6,57],[12,11],[-16,32],[17,20],[1,37],[17,6],[8,23],[-6,30],[24,8],[-9,34],[2,27],[-16,19],[15,58],[25,44],[18,42],[1,63],[8,17],[-13,59],[7,18],[-8,22]],[[10,6729],[1,370],[1,456],[0,441],[-1,163],[2,57],[-2,184],[51,-1],[88,-8],[136,1],[237,6],[337,6],[186,3],[350,4],[458,1],[27,-5]],[[2729,2543],[-2,272],[8,0],[1,581],[-1,24]],[[2735,3420],[0,441],[-1,291],[52,0],[1,398]],[[2615,7336],[24,20],[69,-33],[31,-39],[1,-29],[32,-27],[-15,-33],[0,-54],[43,-45],[8,-46],[-12,-35],[-27,-44]],[[2396,6391],[-5,42],[-20,14],[5,21],[-13,17],[-27,10],[-6,-14],[-32,14]],[[2298,6495],[-7,17],[-22,8],[-2,20],[-20,66],[-24,51],[39,3],[-17,45],[-46,77],[4,10],[-17,49],[4,15],[-8,61],[11,17],[-11,29]],[[3,2824],[0,122],[0,429],[2,757],[0,147]],[[5,4279],[230,2],[0,14],[887,0],[292,0],[166,2],[248,1],[19,-47],[-19,0],[0,-25],[19,-36],[0,-197],[4,-73],[116,0],[0,-24],[56,-1]],[[2023,3895],[2,-452]],[[2025,3443],[-5,-84],[-37,0],[-9,-12],[0,-49],[-68,0],[0,-40],[-18,0],[1,-49],[-18,-1],[-2,-46],[-17,-23],[-36,0],[-4,-46],[0,-124],[9,0],[1,-61],[-18,-1],[-5,-24],[-40,-19],[0,-24],[-28,-18],[-46,1],[0,12],[-91,-5],[-18,-12],[0,-25],[-18,-24],[-1,-74],[-18,0],[0,-50],[-12,3]],[[1527,2648],[-236,0],[-362,0],[-927,0]],[[2,2648],[1,176]],[[1563,1933],[-134,1],[-202,-1],[-436,2],[-788,0]],[[3,1935],[0,195],[-1,395],[0,123]],[[1527,2648],[-3,-105]],[[1524,2543],[-1,-49],[26,-50],[14,-6],[26,-32],[9,-39],[40,15],[0,-34],[23,-25],[18,-38],[19,-16],[8,-25],[-13,-46],[-2,-39],[-12,-16],[-17,-47],[16,-29],[-2,-21],[-29,-15],[-29,-42],[-8,-43],[-12,-9]],[[1524,2543],[229,1],[224,-1],[0,-14],[294,0]],[[2025,3443],[163,0],[-3,-21],[203,-2],[347,0]],[[4025,6724],[322,2],[175,1],[248,3],[200,0],[1,-294],[0,-274]],[[1146,4],[-373,0],[-348,-1],[-289,0],[-134,1],[-1,148],[0,245],[0,309],[-1,314]],[[0,1020],[462,0],[0,23],[112,0],[1,-150],[219,0],[0,-79],[106,-2],[0,-11],[109,0],[0,43],[135,0]],[[0,1020],[1,238],[2,130],[-1,297],[1,250]],[[2298,6495],[-42,-29],[-72,-24],[-16,-13],[-75,0],[3,15],[-23,40],[-5,37],[12,40],[0,36],[-47,0],[-141,-127],[-111,-129]],[[4976,819],[-2,-185],[0,-333],[0,-299],[-330,0],[-246,-1],[-373,-1],[-21,1],[-252,-1],[-193,0],[-30,11],[-249,-2],[-314,-2],[-66,-2],[-144,-1],[-134,2]],[[4960,2525],[0,0],[0,-377],[18,-186],[0,-20],[-1,-301],[1,-156],[-1,-362],[1,-227],[-2,-77]],[[2483,6072],[-11,-41],[-30,-13]],[[2023,3895],[0,37],[58,0],[-1,50],[37,1],[-1,25],[174,2],[0,130],[34,0],[-3,148],[1,149],[-2,97],[28,1],[-1,25],[47,25],[0,25],[58,1],[-1,74],[-37,-1],[0,25],[-19,-1],[0,25]],[[2528,8409],[190,3],[268,1],[1,-373],[0,-336],[-1,-552]],[[5,4279],[0,611]]],"transform":{"scale":[0.001006592470157491,0.0005947605469118983],"translate":[-114.052472,36.9979815188302]},"objects":{"49":{"type":"GeometryCollection","geometries":[{"arcs":[[0,1,2,3]],"type":"Polygon","properties":{"STATEFP":"49","COUNTYFP":"005","COUNTYNS":"01448017","GEOIDFQ":"0500000US49005","GEOID":"49005","NAME":"Cache","NAMELSAD":"Cache County","STUSPS":"UT","STATE_NAME":"Utah","LSAD":"06","ALAND":3016525068,"AWATER":21115037},"id":"49005"},{"arcs":[[4,5,6,7,8]],"type":"Polygon","properties":{"STATEFP":"49","COUNTYFP":"047","COUNTYNS":"01448037","GEOIDFQ":"0500000US49047","GEOID":"49047","NAME":"Uintah","NAMELSAD":"Uintah County","STUSPS":"UT","STATE_NAME":"Utah","LSAD":"06","ALAND":11610607593,"AWATER":55966014},"id":"49047"},{"arcs":[[9,10,11,12,13,14,15]],"type":"Polygon","properties":{"STATEFP":"49","COUNTYFP":"049","COUNTYNS":"01448038","GEOIDFQ":"0500000US49049","GEOID":"49049","NAME":"Utah","NAMELSAD":"Utah County","STUSPS":"UT","STATE_NAME":"Utah","LSAD":"06","ALAND":5191527711,"AWATER":362177780},"id":"49049"},{"arcs":[[-3,16,17,18,19]],"type":"Polygon","properties":{"STATEFP":"49","COUNTYFP":"057","COUNTYNS":"01448042","GEOIDFQ":"0500000US49057","GEOID":"49057","NAME":"Weber","NAMELSAD":"Weber County","STUSPS":"UT","STATE_NAME":"Utah","LSAD":"06","ALAND":1582541443,"AWATER":126602107},"id":"49057"},{"arcs":[[-9,20,21,-13,22]],"type":"Polygon","properties":{"STATEFP":"49","COUNTYFP":"007","COUNTYNS":"01448018","GEOIDFQ":"0500000US49007","GEOID":"49007","NAME":"Carbon","NAMELSAD":"Carbon County","STUSPS":"UT","STATE_NAME":"Utah","LSAD":"06","ALAND":3831481450,"AWATER":15484604},"id":"49007"},{"arcs":[[23,24,25,26,27]],"type":"Polygon","properties":{"STATEFP":"49","COUNTYFP":"055","COUNTYNS":"01448041","GEOIDFQ":"0500000US49055","GEOID":"49055","NAME":"Wayne","NAMELSAD":"Wayne County","STUSPS":"UT","STATE_NAME":"Utah","LSAD":"06","ALAND":6374203166,"AWATER":14660837},"id":"49055"},{"arcs":[[28,29,30,31,32,33,34]],"type":"Polygon","properties":{"STATEFP":"49","COUNTYFP":"043","COUNTYNS":"01448035","GEOIDFQ":"0500000US49043","GEOID":"49043","NAME":"Summit","NAMELSAD":"Summit County","STUSPS":"UT","STATE_NAME":"Utah","LSAD":"06","ALAND":4845023359,"AWATER":26030792},"id":"49043"},{"arcs":[[-5,-23,-12,35,-33,36]],"type":"Polygon","properties":{"STATEFP":"49","COUNTYFP":"013","COUNTYNS":"01448021","GEOIDFQ":"0500000US49013","GEOID":"49013","NAME":"Duchesne","NAMELSAD":"Duchesne County","STUSPS":"UT","STATE_NAME":"Utah","LSAD":"06","ALAND":8379965571,"AWATER":38811228},"id":"49013"},{"arcs":[[-27,37,38,39,40,41]],"type":"Polygon","properties":{"STATEFP":"49","COUNTYFP":"017","COUNTYNS":"01448023","GEOIDFQ":"0500000US49017","GEOID":"49017","NAME":"Garfield","NAMELSAD":"Garfield County","STUSPS":"UT","STATE_NAME":"Utah","LSAD":"06","ALAND":13414986702,"AWATER":75978582},"id":"49017"},{"arcs":[[42,43,44,-39,45]],"type":"Polygon","properties":{"STATEFP":"49","COUNTYFP":"025","COUNTYNS":"01448026","GEOIDFQ":"0500000US49025","GEOID":"49025","NAME":"Kane","NAMELSAD":"Kane County","STUSPS":"UT","STATE_NAME":"Utah","LSAD":"06","ALAND":10344775614,"AWATER":292843946},"id":"49025"},{"arcs":[[-16,46,47,48,49,50]],"type":"Polygon","properties":{"STATEFP":"49","COUNTYFP":"045","COUNTYNS":"01448036","GEOIDFQ":"0500000US49045","GEOID":"49045","NAME":"Tooele","NAMELSAD":"Tooele County","STUSPS":"UT","STATE_NAME":"Utah","LSAD":"06","ALAND":18234216267,"AWATER":636477482},"id":"49045"},{"arcs":[[-8,51,52,53]],"type":"Polygon","properties":{"STATEFP":"49","COUNTYFP":"019","COUNTYNS":"01448024","GEOIDFQ":"0500000US49019","GEOID":"49019","NAME":"Grand","NAMELSAD":"Grand County","STUSPS":"UT","STATE_NAME":"Utah","LSAD":"06","ALAND":9512657345,"AWATER":30634870},"id":"49019"},{"arcs":[[-4,-20,-49,54]],"type":"Polygon","properties":{"STATEFP":"49","COUNTYFP":"003","COUNTYNS":"01455966","GEOIDFQ":"0500000US49003","GEOID":"49003","NAME":"Box Elder","NAMELSAD":"Box Elder County","STUSPS":"UT","STATE_NAME":"Utah","LSAD":"06","ALAND":14973507318,"AWATER":2455159795},"id":"49003"},{"arcs":[[-21,-54,-25,55,56]],"type":"Polygon","properties":{"STATEFP":"49","COUNTYFP":"015","COUNTYNS":"01448022","GEOIDFQ":"0500000US49015","GEOID":"49015","NAME":"Emery","NAMELSAD":"Emery County","STUSPS":"UT","STATE_NAME":"Utah","LSAD":"06","ALAND":11558171972,"AWATER":24695314},"id":"49015"},{"arcs":[[-18,57,-29,58,59]],"type":"Polygon","properties":{"STATEFP":"49","COUNTYFP":"029","COUNTYNS":"01448028","GEOIDFQ":"0500000US49029","GEOID":"49029","NAME":"Morgan","NAMELSAD":"Morgan County","STUSPS":"UT","STATE_NAME":"Utah","LSAD":"06","ALAND":1577814089,"AWATER":4437369},"id":"49029"},{"arcs":[[60,61,62,63,64,65]],"type":"Polygon","properties":{"STATEFP":"49","COUNTYFP":"027","COUNTYNS":"01448027","GEOIDFQ":"0500000US49027","GEOID":"49027","NAME":"Millard","NAMELSAD":"Millard County","STUSPS":"UT","STATE_NAME":"Utah","LSAD":"06","ALAND":17574316029,"AWATER":133292861},"id":"49027"},{"arcs":[[-41,66,67,-65,68,69]],"type":"Polygon","properties":{"STATEFP":"49","COUNTYFP":"001","COUNTYNS":"01448015","GEOIDFQ":"0500000US49001","GEOID":"49001","NAME":"Beaver","NAMELSAD":"Beaver County","STUSPS":"UT","STATE_NAME":"Utah","LSAD":"06","ALAND":6689710369,"AWATER":5298466},"id":"49001"},{"arcs":[[-28,-42,-70,70]],"type":"Polygon","properties":{"STATEFP":"49","COUNTYFP":"031","COUNTYNS":"01448029","GEOIDFQ":"0500000US49031","GEOID":"49031","NAME":"Piute","NAMELSAD":"Piute County","STUSPS":"UT","STATE_NAME":"Utah","LSAD":"06","ALAND":1963753823,"AWATER":20286511},"id":"49031"},{"arcs":[[-24,-71,-69,-64,71,-56]],"type":"Polygon","properties":{"STATEFP":"49","COUNTYFP":"041","COUNTYNS":"01448034","GEOIDFQ":"0500000US49041","GEOID":"49041","NAME":"Sevier","NAMELSAD":"Sevier County","STUSPS":"UT","STATE_NAME":"Utah","LSAD":"06","ALAND":4948109949,"AWATER":20139931},"id":"49041"},{"arcs":[[-6,-37,-32,72]],"type":"Polygon","properties":{"STATEFP":"49","COUNTYFP":"009","COUNTYNS":"01448019","GEOIDFQ":"0500000US49009","GEOID":"49009","NAME":"Daggett","NAMELSAD":"Daggett County","STUSPS":"UT","STATE_NAME":"Utah","LSAD":"06","ALAND":1803962594,"AWATER":61233358},"id":"49009"},{"arcs":[[-44,73,74]],"type":"Polygon","properties":{"STATEFP":"49","COUNTYFP":"053","COUNTYNS":"01448040","GEOIDFQ":"0500000US49053","GEOID":"49053","NAME":"Washington","NAMELSAD":"Washington County","STUSPS":"UT","STATE_NAME":"Utah","LSAD":"06","ALAND":6287425962,"AWATER":7782767},"id":"49053"},{"arcs":[[-40,-45,-75,75,-67]],"type":"Polygon","properties":{"STATEFP":"49","COUNTYFP":"021","COUNTYNS":"01448025","GEOIDFQ":"0500000US49021","GEOID":"49021","NAME":"Iron","NAMELSAD":"Iron County","STUSPS":"UT","STATE_NAME":"Utah","LSAD":"06","ALAND":8537032444,"AWATER":11390957},"id":"49021"},{"arcs":[[-19,-60,76,-50]],"type":"Polygon","properties":{"STATEFP":"49","COUNTYFP":"011","COUNTYNS":"01448020","GEOIDFQ":"0500000US49011","GEOID":"49011","NAME":"Davis","NAMELSAD":"Davis County","STUSPS":"UT","STATE_NAME":"Utah","LSAD":"06","ALAND":841123724,"AWATER":804132366},"id":"49011"},{"arcs":[[77,-46,-38,-26,-53,78]],"type":"Polygon","properties":{"STATEFP":"49","COUNTYFP":"037","COUNTYNS":"01448032","GEOIDFQ":"0500000US49037","GEOID":"49037","NAME":"San Juan","NAMELSAD":"San Juan County","STUSPS":"UT","STATE_NAME":"Utah","LSAD":"06","ALAND":20263255847,"AWATER":285213915},"id":"49037"},{"arcs":[[-10,-51,-77,-59,-35,79]],"type":"Polygon","properties":{"STATEFP":"49","COUNTYFP":"035","COUNTYNS":"01448031","GEOIDFQ":"0500000US49035","GEOID":"49035","NAME":"Salt Lake","NAMELSAD":"Salt Lake County","STUSPS":"UT","STATE_NAME":"Utah","LSAD":"06","ALAND":1949876460,"AWATER":136855044},"id":"49035"},{"arcs":[[-14,-22,-57,-72,-63,80]],"type":"Polygon","properties":{"STATEFP":"49","COUNTYFP":"039","COUNTYNS":"01448033","GEOIDFQ":"0500000US49039","GEOID":"49039","NAME":"Sanpete","NAMELSAD":"Sanpete County","STUSPS":"UT","STATE_NAME":"Utah","LSAD":"06","ALAND":4117605575,"AWATER":32165095},"id":"49039"},{"arcs":[[-2,81,-30,-58,-17]],"type":"Polygon","properties":{"STATEFP":"49","COUNTYFP":"033","COUNTYNS":"01448030","GEOIDFQ":"0500000US49033","GEOID":"49033","NAME":"Rich","NAMELSAD":"Rich County","STUSPS":"UT","STATE_NAME":"Utah","LSAD":"06","ALAND":2664471793,"AWATER":149106410},"id":"49033"},{"arcs":[[-11,-80,-34,-36]],"type":"Polygon","properties":{"STATEFP":"49","COUNTYFP":"051","COUNTYNS":"01448039","GEOIDFQ":"0500000US49051","GEOID":"49051","NAME":"Wasatch","NAMELSAD":"Wasatch County","STUSPS":"UT","STATE_NAME":"Utah","LSAD":"06","ALAND":3048291117,"AWATER":79107621},"id":"49051"},{"arcs":[[-15,-81,-62,82,-47]],"type":"Polygon","properties":{"STATEFP":"49","COUNTYFP":"023","COUNTYNS":"01455158","GEOIDFQ":"0500000US49023","GEOID":"49023","NAME":"Juab","NAMELSAD":"Juab County","STUSPS":"UT","STATE_NAME":"Utah","LSAD":"06","ALAND":8784753344,"AWATER":36271581},"id":"49023"}]}}}