{"type":"Topology","arcs":[[[1664,1796],[-39,-43],[-56,-32],[-33,-37],[-4,-48],[-17,-64],[-16,-7],[-10,-38],[7,-25],[-59,-35],[-13,-27],[3,-40],[-24,-47],[24,-35],[-16,-48],[-15,-126],[-17,-27],[4,-23],[30,-14],[-26,-40],[20,-32],[-17,-52],[-18,-33],[-19,-9],[2,-43]],[[1355,871],[-156,4],[-184,-22],[-181,57]],[[834,910],[0,75],[-66,2]],[[768,987],[5,82],[14,1],[3,47],[41,7],[86,-47],[-5,32],[32,78],[21,74],[-2,14],[-64,18],[3,22],[-28,5],[25,166],[19,-6],[78,167],[-162,55],[22,42],[-21,9],[49,99],[-19,44],[-46,17],[-10,-17],[-48,18],[-1,31],[-115,-55]],[[645,1890],[-27,98],[36,-14],[104,48],[3,-66],[12,-4],[66,131],[34,42]],[[873,2125],[1,-29],[26,-11],[-3,-25],[82,-29],[4,6],[142,-50],[195,-76],[163,-47],[181,-68]],[[2257,2888],[-34,-10],[-32,-32],[3,-42],[-34,-16]],[[2160,2788],[-129,160],[40,24],[63,71],[-70,89],[89,108],[-91,62],[99,120],[-138,91]],[[2023,3513],[-48,30],[74,86],[57,72],[-58,39],[29,183]],[[2077,3923],[178,6],[359,3],[-32,-19],[-19,-26],[31,-39],[1,-64],[26,-31],[-52,-68],[-15,-6],[-46,-140],[-70,-55],[7,-41],[37,-44],[4,-44],[14,-34],[31,-10],[14,-38],[-11,-52],[31,-25],[-16,-27],[-27,-12],[-25,6],[-12,-21],[30,-23],[-11,-29],[8,-34],[-30,-30],[-35,-19],[-27,0],[-20,-58],[-22,-22],[-52,-33],[-37,-14],[-32,8]],[[2023,3513],[-98,-122],[-139,88],[34,-111],[-76,33],[-83,-151],[-75,-127],[-150,71]],[[1436,3194],[4,16],[-151,70],[88,153],[-218,100]],[[1159,3533],[62,91],[-11,158],[7,0],[-24,142]],[[1193,3924],[142,0],[187,-8],[202,4],[78,-1],[275,4]],[[1882,2460],[9,-55],[-21,-9],[0,-33],[27,-16],[-72,-121],[-27,-17],[-15,-29],[24,-64],[-24,-17],[-2,-41],[-45,-37],[-30,-38],[-19,-41],[8,-38],[-4,-50],[-28,-35],[1,-23]],[[873,2125],[66,116]],[[939,2241],[80,-29],[65,131],[8,-2],[57,124],[36,5],[157,-59],[33,158],[68,-29]],[[1443,2540],[86,-36],[176,17],[177,-61]],[[768,987],[-160,7],[-142,4],[-219,13]],[[247,1011],[11,363],[6,16],[-22,51],[-36,25],[-23,78],[-76,1],[-24,-22],[-14,-36],[3,-27],[-19,-13],[-41,27],[14,68],[-13,19],[27,60],[8,41],[43,55],[10,48]],[[101,1765],[211,23],[-17,122],[85,8],[170,8],[18,-72],[77,36]],[[101,3160],[-26,43],[7,18],[-17,30],[4,33],[19,56],[9,49],[0,76],[44,81],[-3,27],[-41,38],[-21,32],[17,37],[17,65],[24,34],[0,72],[-22,37],[16,40],[203,5]],[[331,3933],[-50,-94],[-11,-32],[16,-36],[47,-24],[-7,-52],[-15,-50],[-5,-42],[-35,-21],[-26,-46],[-2,-33],[39,-70]],[[282,3433],[1,-60],[-6,-63],[-25,-17],[-5,-53],[-10,-23],[-47,-27],[-89,-30]],[[2160,2788],[-47,-20],[-40,19],[-37,-17],[-70,0],[-51,-30],[-18,-30],[-36,-28],[-13,-26],[28,-56],[-25,-84],[31,-56]],[[1443,2540],[70,118],[0,45],[63,72],[72,122],[-9,23],[-284,140]],[[1355,3060],[81,134]],[[101,1765],[17,32],[-39,63],[-18,24],[27,40],[-12,23],[10,26],[-29,50],[-18,51],[3,59],[-8,22],[9,54],[-7,27],[-36,31],[11,59],[25,57],[-6,35],[18,22],[15,75],[39,33],[17,38],[35,23],[14,35]],[[168,2644],[58,-7],[99,11],[171,30],[73,2],[-6,32],[60,-15],[32,-230]],[[655,2467],[25,3],[23,-157],[27,3],[209,-75]],[[1355,871],[-5,-53],[-20,-71],[-6,-25],[32,-46],[-13,-33],[10,-24],[-43,-59],[6,-41],[25,-31],[-21,-18],[-2,-30],[-17,-18],[-60,-16],[-22,-22],[14,-54],[-10,-36],[-29,-22],[-5,-55],[11,-19],[12,-64],[86,-81],[24,-53],[-473,17],[-164,4]],[[685,21],[9,324],[-114,5],[8,249],[8,75],[173,-8],[8,157],[14,-1],[5,100],[38,-12]],[[1355,3060],[-69,-115],[-12,-26],[-140,95],[-77,-139],[-150,76],[-53,16]],[[854,2967],[-45,12],[47,81],[-37,18],[28,52],[-23,7],[-112,138],[-18,4]],[[694,3279],[43,38],[55,96],[78,-36],[19,92],[28,34],[16,45],[24,24],[155,-6],[47,-33]],[[655,2467],[78,201],[-15,4],[60,149],[48,-14],[32,51],[-51,25],[47,84]],[[168,2644],[3,17],[-18,62],[1,41],[-15,39],[2,27],[25,28],[25,68],[-5,83],[-9,41],[-19,23],[-24,57],[-33,30]],[[282,3433],[258,-124],[154,-30]],[[685,21],[-125,4],[-327,8],[-15,0],[-20,96],[17,54],[6,190],[11,262],[15,376]],[[331,3933],[144,3],[159,-2],[165,4],[231,-2],[114,-4],[49,-8]]],"transform":{"scale":[0.0007408328882106105,0.000581464195022854],"translate":[-73.43774,42.726853000000006]},"objects":{"50":{"type":"GeometryCollection","geometries":[{"arcs":[[0,1,2,3,4,5]],"type":"Polygon","properties":{"STATEFP":"50","COUNTYFP":"027","COUNTYNS":"01461770","GEOIDFQ":"0500000US50027","GEOID":"50027","NAME":"Windsor","NAMELSAD":"Windsor County","STUSPS":"VT","STATE_NAME":"Vermont","LSAD":"06","ALAND":2510072157,"AWATER":19365930},"id":"50027"},{"arcs":[[6,7,8,9]],"type":"Polygon","properties":{"STATEFP":"50","COUNTYFP":"009","COUNTYNS":"01461761","GEOIDFQ":"0500000US50009","GEOID":"50009","NAME":"Essex","NAMELSAD":"Essex County","STUSPS":"VT","STATE_NAME":"Vermont","LSAD":"06","ALAND":1715531822,"AWATER":28687245},"id":"50009"},{"arcs":[[-9,10,11,12,13]],"type":"Polygon","properties":{"STATEFP":"50","COUNTYFP":"019","COUNTYNS":"01461766","GEOIDFQ":"0500000US50019","GEOID":"50019","NAME":"Orleans","NAMELSAD":"Orleans County","STUSPS":"VT","STATE_NAME":"Vermont","LSAD":"06","ALAND":1798883756,"AWATER":71405835},"id":"50019"},{"arcs":[[14,-6,15,16,17]],"type":"Polygon","properties":{"STATEFP":"50","COUNTYFP":"017","COUNTYNS":"01461765","GEOIDFQ":"0500000US50017","GEOID":"50017","NAME":"Orange","NAMELSAD":"Orange County","STUSPS":"VT","STATE_NAME":"Vermont","LSAD":"06","ALAND":1779346355,"AWATER":12002244},"id":"50017"},{"arcs":[[-4,18,19,20]],"type":"Polygon","properties":{"STATEFP":"50","COUNTYFP":"021","COUNTYNS":"01461767","GEOIDFQ":"0500000US50021","GEOID":"50021","NAME":"Rutland","NAMELSAD":"Rutland County","STUSPS":"VT","STATE_NAME":"Vermont","LSAD":"06","ALAND":2410117476,"AWATER":38757463},"id":"50021"},{"arcs":[[21,22,23]],"type":"Polygon","properties":{"STATEFP":"50","COUNTYFP":"013","COUNTYNS":"01461763","GEOIDFQ":"0500000US50013","GEOID":"50013","NAME":"Grand Isle","NAMELSAD":"Grand Isle County","STUSPS":"VT","STATE_NAME":"Vermont","LSAD":"06","ALAND":211786409,"AWATER":288950786},"id":"50013"},{"arcs":[[24,-18,25,26,-11,-8]],"type":"Polygon","properties":{"STATEFP":"50","COUNTYFP":"005","COUNTYNS":"01461759","GEOIDFQ":"0500000US50005","GEOID":"50005","NAME":"Caledonia","NAMELSAD":"Caledonia County","STUSPS":"VT","STATE_NAME":"Vermont","LSAD":"06","ALAND":1681457274,"AWATER":22348341},"id":"50005"},{"arcs":[[-5,-21,27,28,29,-16]],"type":"Polygon","properties":{"STATEFP":"50","COUNTYFP":"001","COUNTYNS":"01461757","GEOIDFQ":"0500000US50001","GEOID":"50001","NAME":"Addison","NAMELSAD":"Addison County","STUSPS":"VT","STATE_NAME":"Vermont","LSAD":"06","ALAND":1984789913,"AWATER":107310069},"id":"50001"},{"arcs":[[-2,30,31]],"type":"Polygon","properties":{"STATEFP":"50","COUNTYFP":"025","COUNTYNS":"01461769","GEOIDFQ":"0500000US50025","GEOID":"50025","NAME":"Windham","NAMELSAD":"Windham County","STUSPS":"VT","STATE_NAME":"Vermont","LSAD":"06","ALAND":2035623277,"AWATER":32917051},"id":"50025"},{"arcs":[[-12,-27,32,33,34]],"type":"Polygon","properties":{"STATEFP":"50","COUNTYFP":"015","COUNTYNS":"01461764","GEOIDFQ":"0500000US50015","GEOID":"50015","NAME":"Lamoille","NAMELSAD":"Lamoille County","STUSPS":"VT","STATE_NAME":"Vermont","LSAD":"06","ALAND":1194643958,"AWATER":12744800},"id":"50015"},{"arcs":[[-17,-30,35,-33,-26]],"type":"Polygon","properties":{"STATEFP":"50","COUNTYFP":"023","COUNTYNS":"01461768","GEOIDFQ":"0500000US50023","GEOID":"50023","NAME":"Washington","NAMELSAD":"Washington County","STUSPS":"VT","STATE_NAME":"Vermont","LSAD":"06","ALAND":1779477994,"AWATER":21517013},"id":"50023"},{"arcs":[[36,-24,37,-34,-36,-29]],"type":"Polygon","properties":{"STATEFP":"50","COUNTYFP":"007","COUNTYNS":"01461760","GEOIDFQ":"0500000US50007","GEOID":"50007","NAME":"Chittenden","NAMELSAD":"Chittenden County","STUSPS":"VT","STATE_NAME":"Vermont","LSAD":"06","ALAND":1390485610,"AWATER":217019156},"id":"50007"},{"arcs":[[-3,-32,38,-19]],"type":"Polygon","properties":{"STATEFP":"50","COUNTYFP":"003","COUNTYNS":"01461758","GEOIDFQ":"0500000US50003","GEOID":"50003","NAME":"Bennington","NAMELSAD":"Bennington County","STUSPS":"VT","STATE_NAME":"Vermont","LSAD":"06","ALAND":1746266320,"AWATER":6896313},"id":"50003"},{"arcs":[[-13,-35,-38,-23,39]],"type":"Polygon","properties":{"STATEFP":"50","COUNTYFP":"011","COUNTYNS":"01461762","GEOIDFQ":"0500000US50011","GEOID":"50011","NAME":"Franklin","NAMELSAD":"Franklin County","STUSPS":"VT","STATE_NAME":"Vermont","LSAD":"06","ALAND":1634182035,"AWATER":150650858},"id":"50011"}]}}}