{"type":"Topology","arcs":[[[10603,6757],[46,-32],[62,-19],[87,8],[10,-49],[31,-46],[100,-47],[47,-47],[2,-19],[-26,-29],[-22,-56],[-34,-8],[-19,-28],[-20,-59],[22,-67],[52,-23],[41,-80],[69,-23],[85,-14],[62,5],[21,-13]],[[11219,6111],[-367,-511]],[[10852,5600],[-22,38],[-13,62],[-44,6],[-31,29],[-34,67],[-35,27],[-32,2]],[[10641,5831],[-542,173]],[[10099,6004],[37,24],[84,77],[28,55],[26,7],[34,94],[27,31]],[[10335,6292],[41,102],[21,87],[39,64],[42,142],[50,64],[39,-7],[36,13]],[[7073,2968],[56,124],[30,37],[34,78],[-41,32],[-32,-1]],[[7120,3238],[68,149],[48,45],[58,82],[67,114],[1,40],[49,84]],[[7411,3752],[256,-209],[272,-209],[47,-56]],[[7986,3278],[18,-36],[5,-49],[-49,-128]],[[7960,3065],[-47,-37],[-62,59],[-55,-43],[-59,-108],[-35,-90],[-8,-49],[-32,-34],[-8,-44],[-36,-36],[-26,-8],[-38,-40],[-62,-22]],[[7492,2613],[-37,-27],[30,-103],[-31,-9],[-71,-66]],[[7383,2408],[-140,117],[8,36],[-195,161],[21,30],[-30,147],[26,69]],[[7448,3022],[11,-49],[61,58],[-28,13],[-44,-22]],[[7591,2913],[16,-109],[20,17],[52,101],[-21,43],[-67,-52]],[[8885,382],[275,469]],[[9160,851],[53,-47],[58,-18],[18,-28],[44,22],[63,-6],[18,-33],[32,12],[95,-75],[31,-2],[32,-27],[129,-15],[88,-36],[35,21],[84,-46],[43,3]],[[9983,576],[-33,-568]],[[9950,8],[-491,-1],[-235,-3],[-94,-3],[-396,2]],[[8734,3],[-1,38],[34,55],[5,134],[26,74],[1,31],[35,23],[43,6],[53,-58],[50,-34],[29,-35],[26,4],[-104,78],[-46,63]],[[9662,3861],[67,-3],[48,32],[52,-4],[22,27],[49,-27],[63,-16],[30,18],[35,-11],[39,-44],[58,1]],[[10125,3834],[54,-4],[29,-22],[113,-20],[53,-55],[35,-6],[14,-42],[55,-26],[-2,-46],[31,5],[32,-40],[45,-16]],[[10584,3562],[-106,-369],[-21,-101],[-15,-28],[-52,-178]],[[10390,2886],[-28,32],[-42,22],[-75,19],[-53,41],[4,110],[-69,52],[-46,23],[-51,54],[-110,73]],[[9920,3312],[-196,110],[-55,17],[-44,52],[-82,31],[-53,36]],[[9490,3558],[93,137],[79,166]],[[11798,4213],[34,-4],[34,-44],[9,-47],[-9,-55],[45,-29],[46,-13],[63,-60],[64,-21],[69,13],[70,-6],[39,-46],[17,-38],[69,69],[43,-31],[45,-62],[13,13],[-19,51],[55,1],[20,-94],[38,-37],[78,-51],[24,-67],[-51,-14],[-9,-34]],[[12585,3607],[-29,-9],[-34,-46],[-42,-4],[-34,-86]],[[12446,3462],[-39,37],[-78,6],[-51,36],[-35,-11],[-28,18],[13,69],[-81,72],[-34,12],[-74,95],[-22,49],[-96,-92],[-10,-23]],[[11911,3730],[-83,25],[-10,47],[-23,8],[-22,-40],[-23,-7],[-38,46],[-5,84],[-17,42]],[[11690,3935],[-1,30],[25,26],[7,184],[77,38]],[[11219,6111],[62,-27],[86,-65],[-20,-43],[20,-48],[41,-27],[42,-11],[90,-6],[48,-73]],[[11588,5811],[-93,-100]],[[11495,5711],[-29,8],[-2,-44],[71,-6]],[[11535,5669],[69,-78]],[[11604,5591],[-54,-41],[6,-69],[60,12],[46,-6],[66,-38]],[[11728,5449],[-2,-144],[-21,-39],[-58,-9],[-63,-49],[-19,-29],[-6,-59],[10,-36],[-49,5],[-19,-28],[-59,-19],[-22,49],[38,32],[-18,18],[-54,7]],[[11386,5148],[-42,57],[-79,56],[-19,-14],[-35,40],[-46,13],[-36,-14],[-2,47],[-63,51],[5,34],[-30,21],[-16,44],[-41,-9],[-54,5],[3,34],[-22,34],[-57,53]],[[11208,5610],[32,-37],[81,11],[0,61],[-103,-3],[-10,-32]],[[9134,6186],[52,51],[33,9],[36,45],[22,50],[41,36],[-62,74],[59,81],[10,31],[-35,33],[57,87],[48,59],[35,87],[-47,14],[42,72],[-28,57],[22,37],[-1,93],[149,-125],[60,-57],[125,-116],[221,-191],[0,0]],[[9973,6613],[-29,-84],[-32,-44],[-9,-81],[-25,-35],[-5,-50],[-30,-55],[6,-39],[-59,-74],[-26,-91]],[[9764,6060],[-22,-46],[-265,-24]],[[9477,5990],[-12,81],[-47,45],[21,34],[0,67],[-72,-23],[-22,20],[-37,-23],[-68,-84],[-11,-69],[-159,70]],[[9070,6108],[38,35],[26,43]],[[9677,6408],[20,-13],[-13,-79],[42,-2],[39,77],[25,27],[-35,29],[-55,21],[-23,-60]],[[9662,3861],[-239,113],[-43,16]],[[9380,3990],[142,214]],[[9522,4204],[37,-21],[2,-34],[29,-38],[51,-10],[6,30],[45,8],[69,88],[53,4],[50,49],[1,18]],[[9865,4298],[72,16],[24,-15],[16,40],[26,9],[40,43],[32,-6],[58,38],[34,4],[26,42],[43,-6],[100,8],[72,-16],[29,42],[44,-22],[76,-56]],[[10557,4419],[-21,-28],[-22,-62],[-113,-136],[-3,-20],[-101,-106],[-17,-37],[-100,-115],[-55,-81]],[[5424,1709],[71,34],[62,16],[93,49],[85,75]],[[5735,1883],[140,80],[47,47],[27,-22],[84,-44]],[[6033,1944],[7,-80],[97,-151],[22,-45],[24,-230],[-1,-48]],[[6182,1390],[-67,-34],[-120,-50],[-109,-127],[-4,-12],[-74,1],[-60,-27],[-69,1],[2,-19],[-41,-37],[-34,9],[-23,26],[-48,-43]],[[5535,1078],[-21,61],[1,59],[-18,32],[33,26],[-59,77]],[[5471,1333],[42,25],[11,45],[31,-14],[5,51]],[[5560,1440],[-6,57],[-30,-3],[-26,44],[18,38],[65,8],[-8,33],[-75,-22],[-37,-36],[-51,79],[14,71]],[[6182,1390],[27,-10],[60,33]],[[6269,1413],[36,-109],[-25,-54],[19,-24],[-1,-77],[-42,-39],[-14,-43],[14,-41],[-39,-36],[-44,-17],[-28,-97],[-65,-71]],[[6080,805],[-96,-36],[-11,-23],[-37,-10],[-48,-74],[-31,-25],[-44,-13],[-19,-81],[5,-48],[-30,-7],[-57,15],[-21,-21],[-15,-74]],[[5676,408],[-300,541]],[[5376,949],[65,28],[94,101]],[[12446,3462],[138,-85],[17,-46],[8,-75],[-11,-31],[26,-30],[39,-17],[6,-27]],[[12669,3151],[-16,-10],[-84,7],[-62,-68],[-53,-22]],[[12454,3058],[-70,29],[-19,33],[-38,-8],[-70,79],[-11,50],[-32,9],[-6,48],[-52,63],[-61,16],[-31,47],[-13,54],[-24,31],[-37,0],[-24,80],[-16,84],[-22,43]],[[11928,3716],[-17,14]],[[2382,1045],[94,74],[29,-30],[109,101],[22,-10],[27,35],[34,1]],[[2697,1216],[64,-5],[29,24],[38,-27],[60,25],[36,85],[17,70],[43,27],[35,-4],[37,20],[57,6],[24,24]],[[3137,1461],[17,-71],[113,-144],[38,-86],[44,-145]],[[3349,1015],[-67,-28],[-33,-44]],[[3249,943],[-85,-96],[-107,-61],[-81,30],[-154,-54],[-51,-47],[-16,-42],[6,-51],[-41,-24],[-114,-39],[-189,-107],[-43,-44]],[[2374,408],[-42,172],[-51,142],[-38,93]],[[2243,815],[65,41],[91,-14],[4,35],[31,9],[-52,159]],[[9798,2219],[14,-23],[65,29],[38,-13],[28,48],[58,0],[3,47],[30,17],[20,-27],[68,-17],[87,-11],[4,-45],[37,0],[38,-93]],[[10288,2131],[-36,-6],[6,-40],[-10,-81],[44,-23],[27,-45],[69,-9],[-15,-73],[39,-19],[46,-68],[37,4],[4,34],[34,31],[87,-11],[29,-66]],[[10649,1759],[-19,-60],[-42,-12],[-110,-104],[-65,10],[-20,-10]],[[10393,1583],[-49,21],[-215,71],[-318,98],[-188,61]],[[9623,1834],[-7,175]],[[9616,2009],[54,101],[28,38],[7,46],[49,23],[44,2]],[[2243,815],[-4,21],[-369,-11],[-52,-33],[-18,-53],[-87,-54],[-74,24],[-41,-80]],[[1598,629],[-113,117],[-28,53],[-48,56]],[[1409,855],[1,37],[31,41],[7,67],[-23,52],[43,24],[39,49],[72,10],[68,80],[31,2],[7,39],[0,151],[125,77],[32,5],[72,70],[48,32],[20,16]],[[1982,1607],[14,-188],[88,-150],[8,-49],[44,-52],[110,-86],[46,-14],[53,-55],[37,32]],[[1789,923],[47,-36],[33,2],[-6,54],[55,16],[2,37],[-29,18],[-50,-15],[-52,-76]],[[13601,1351],[33,25],[26,-11],[4,-36],[-39,-9],[-24,31]],[[13684,2456],[59,12],[28,-19],[88,11],[83,-61],[-30,-34],[21,-57],[-35,-43],[18,-27],[27,5],[104,-12],[27,-24],[61,25]],[[14135,2232],[29,-41],[-23,-28],[-92,-173],[-9,-39],[-44,-74],[-33,-37],[-38,-6],[10,-34],[-21,-106],[4,-44],[-34,-18],[0,-49],[-26,-44],[-43,-43],[-68,-93],[-52,28],[-75,-32],[-11,91],[-65,125],[6,68],[-29,57],[23,53],[-15,52],[16,80],[21,32],[58,129],[-27,38],[6,55],[37,76],[0,74],[44,127]],[[12403,2038],[105,-164],[52,-57],[59,-44],[53,-67]],[[12672,1706],[22,-44],[39,-23],[150,25],[-27,-48],[20,-32],[-5,-45],[-21,-36]],[[12850,1503],[-14,-52],[31,-76]],[[12867,1375],[-24,-37],[-50,5]],[[12793,1343],[-38,17],[-83,129],[-19,60],[-17,-4],[-68,105],[-46,-17]],[[12522,1633],[-18,59],[-38,-6],[-50,10],[-26,60],[-25,5]],[[12365,1761],[-9,67],[-55,-30],[-21,60]],[[12280,1858],[-11,62],[-36,21],[-1,34],[21,39],[61,-13],[61,7],[28,30]],[[10860,4894],[56,58],[41,29],[22,-33],[27,6],[81,-72],[27,-45],[106,-64],[50,12]],[[11270,4785],[-41,-108],[-6,-57],[27,-112],[-11,-34],[37,-33],[16,-51]],[[11292,4390],[-61,-9],[-9,-64],[-22,-38],[-11,-101],[33,-40]],[[11222,4138],[-25,18],[-52,-15]],[[11145,4141],[-36,-2],[-52,30],[-48,65]],[[11009,4234],[-35,82],[-65,19],[-41,-14],[-6,-28]],[[10862,4293],[-27,39],[-38,25],[-6,31],[-57,1],[-28,47]],[[10706,4436],[-8,55],[-21,48]],[[10677,4539],[11,101],[-9,36],[129,146],[52,72]],[[10584,3562],[48,-36],[32,-6]],[[10664,3520],[-2,-26],[51,-49],[44,-25],[23,21],[51,-77],[58,-53],[38,-17],[17,-34],[68,27],[41,-72],[-12,-56],[7,-41],[25,-5],[-4,-43],[32,-7],[-19,-51],[55,-12],[31,50],[21,-19]],[[11189,3031],[24,7],[17,-53],[-15,-42],[47,6],[18,-38],[-6,-38],[31,-25],[35,0],[41,31],[11,-31],[-24,-36],[17,-33],[88,4],[5,-73],[33,21],[98,-17],[-39,-56],[11,-21]],[[11581,2637],[-18,-1],[-17,-86],[-49,13],[-124,-142]],[[11373,2421],[-44,34],[-70,22],[-101,67],[-50,23],[-31,40],[-55,130],[-76,36],[-21,45],[-58,-11],[-54,-36],[-66,36],[-27,33],[-36,-12]],[[10684,2828],[-51,11],[-40,-12],[-52,3],[-65,24],[-64,14],[-22,18]],[[12669,3151],[54,-3],[16,-35],[88,0],[-2,-40],[33,-64],[34,-1],[32,-34],[-1,-91],[-21,-37],[47,-30],[32,-37]],[[12981,2779],[11,-26],[-26,-45],[15,-64],[33,30],[36,-15],[1,-51],[-37,24],[-74,-11],[-83,17],[-89,52],[-32,52],[28,17],[-25,45],[-33,-25],[7,-25],[-32,-76],[-58,42],[-2,64],[-12,50],[-49,64],[-28,90],[-59,29],[-19,41]],[[11373,2421],[17,4],[43,-63],[53,-56]],[[11486,2306],[-78,-195],[12,-41],[-21,-33],[-41,5]],[[11358,2042],[-29,-14],[-11,-55],[-58,12],[-11,36],[-67,13],[-80,61],[-7,40],[-36,3],[-18,26],[15,37]],[[11056,2201],[-4,118],[26,36],[25,-14],[-9,108],[-28,34],[3,40],[-30,4],[-31,51],[-51,-10],[7,-48],[-17,-14],[-92,27],[-23,-28],[31,-32],[-116,-9]],[[10747,2464],[-96,10],[-10,10]],[[10641,2484],[69,33],[-18,52],[-45,44],[-3,66],[40,149]],[[8897,5011],[26,29],[66,169],[68,108],[4,19],[71,-32],[20,31],[49,35],[80,111],[53,59]],[[9334,5540],[97,-47],[33,-33],[47,-13],[17,-61]],[[9528,5386],[-35,-51],[-25,-1],[-23,-85],[31,-49],[-17,-25],[15,-50],[-18,-51],[-22,-8]],[[9434,5066],[-39,-33],[-45,-76],[9,-50],[-59,-36],[-34,-50],[-24,-66],[-11,-58]],[[9231,4697],[-58,-131]],[[9173,4566],[-92,20],[-37,43],[-113,45],[-22,77],[-20,-15],[-79,45],[27,58],[23,92],[37,80]],[[9865,4298],[12,57],[-45,46],[-9,37],[12,32],[34,21],[-7,33],[-49,53],[-10,36],[-181,223]],[[9622,4836],[34,11],[38,-32],[39,-1],[139,178],[274,240]],[[10146,5232],[52,0],[4,-62],[35,-9],[22,-44],[5,-61],[-9,-39],[20,-21],[-26,-33],[59,-98],[57,-48],[18,-53],[34,-44],[13,-52],[23,-11],[0,-43],[36,-38],[10,-30],[80,33],[98,-40]],[[10706,4436],[-46,-13],[5,36],[-54,-18],[-13,-24],[-41,2]],[[12522,1633],[18,-75],[-47,-33]],[[12493,1525],[-39,92],[-36,34],[-76,7],[-68,-28],[-20,-47],[-26,-3],[-41,43],[-23,53],[-50,30],[-84,-3],[-10,45]],[[12020,1748],[-11,60],[17,25],[-15,34],[12,130],[-20,13],[-36,-44],[-19,5],[20,61]],[[11968,2032],[22,25],[-5,98],[62,45],[63,9],[56,-37],[33,4],[30,60],[26,13]],[[12255,2249],[16,-41],[37,-46]],[[12308,2162],[95,-124]],[[12280,1858],[-23,-97],[26,-39],[94,-6],[-12,45]],[[6080,805],[236,-62],[32,6],[31,-19],[-11,-44],[55,-70]],[[6423,616],[-59,-9],[-34,-27],[9,-43],[-9,-91],[23,-52],[10,-54],[30,-58],[-2,-58],[17,-58],[-6,-162]],[[6402,4],[-427,4],[-257,16],[-303,18]],[[5415,42],[-5,74],[-19,43],[7,33],[30,42],[1,32],[46,29],[49,-48],[44,4],[105,70],[19,79],[-16,8]],[[0,146],[108,80],[65,19],[81,57],[67,12],[58,-13],[66,6],[49,23],[17,24],[140,60],[34,6],[165,62],[103,9],[15,19],[-10,79],[25,15],[37,60],[-6,36],[47,29],[5,33],[80,2],[37,-18],[14,21],[49,2],[142,65],[21,21]],[[1598,629],[-32,-55],[-34,-11],[-37,-62],[11,-33],[-52,-40],[-48,-18],[-120,-82],[-66,-199]],[[1220,129],[-488,0],[-27,10],[-346,-2],[-266,2],[-93,7]],[[10862,4293],[27,-9],[6,-62],[67,-23],[29,3],[18,32]],[[11145,4141],[-103,-139],[-350,-451],[-28,-31]],[[7481,1251],[164,365],[107,240],[57,123]],[[7809,1979],[76,-56],[31,29],[36,-6],[29,38],[49,44],[25,-17],[59,61]],[[8114,2072],[43,-8],[-5,77],[39,-8],[35,24]],[[8226,2157],[120,-272],[7,-60],[41,-37],[16,-84],[44,15],[57,-25],[6,-63],[58,-17]],[[8575,1614],[-89,-284],[-53,-161]],[[8433,1169],[-127,64],[-45,-43],[-23,20],[-78,17],[-59,37]],[[8101,1264],[-33,18],[-29,51],[-28,-34],[-46,-21],[-21,9],[-24,-37],[-20,51],[9,53],[-64,14],[-12,49],[-36,6],[-15,-38],[-49,-13],[-63,60],[-51,-27],[-19,-47],[-46,-17],[-4,-70],[-69,-20]],[[11222,4138],[82,-50],[11,58],[43,6],[37,-38],[-39,-23],[16,-37],[-21,-52],[42,-3],[28,22],[45,-54],[42,-24],[26,13],[60,-49]],[[11594,3907],[-2,-71],[-48,0],[4,-46],[-49,-54],[43,-81],[29,-3],[16,-77],[55,1],[36,-102],[-3,-17]],[[11675,3457],[-52,-1],[-11,17],[-75,2],[-59,-55],[5,-50],[-13,-43],[9,-47]],[[11479,3280],[-49,-15],[-16,44],[-27,13],[-18,-31],[-12,-58],[-53,-70],[-88,-92],[-27,-40]],[[9477,5990],[-28,-36],[24,-24],[-33,-76],[49,2],[12,-22],[-67,-128],[7,-23],[-107,-143]],[[8897,5011],[-296,280],[-106,104]],[[8495,5395],[85,165],[59,132],[51,37],[36,65],[29,10],[11,-64],[63,49],[38,54],[22,50],[46,35],[33,-43],[38,63],[53,66],[-38,34],[49,60]],[[12255,2249],[-17,41],[-67,48],[-4,34]],[[12167,2372],[6,47],[17,22],[-11,56],[-25,16],[-141,196],[-50,-5],[3,39],[-38,48],[-52,-6],[-28,43],[-44,4],[-23,36],[-46,7],[-41,60],[-52,10],[27,47],[-52,31],[-31,90],[-5,40],[-29,31],[-16,60],[-57,36]],[[11675,3457],[-4,-44],[31,-38],[37,-13],[25,-98],[-27,-47],[27,-12],[2,-39],[28,-21],[38,7],[21,-25],[43,-1],[5,-106],[64,28],[60,-33],[53,37],[71,-8],[22,-55],[51,-51],[17,-54]],[[12239,2884],[0,-41],[122,-229],[50,-35]],[[12411,2579],[-24,-201],[35,-59],[-6,-55],[-29,-43],[-56,-11],[-23,-48]],[[12239,2884],[50,68],[35,-2],[36,35]],[[12360,2985],[10,-34],[102,-28],[0,-34],[39,-33],[2,-42],[30,-64],[-18,-19],[71,-107],[39,-25],[166,4],[8,-62],[77,-35],[93,-7],[30,-22],[7,-35],[-88,-29],[1,-15]],[[12929,2398],[-76,17],[-17,-55],[-42,4]],[[12794,2364],[-78,53],[-32,2],[-77,66],[-54,-3],[-2,26],[-37,35],[-34,-10],[-69,46]],[[9160,851],[47,250],[41,207]],[[9248,1308],[108,24],[40,41],[104,-16],[47,10],[62,40]],[[9609,1407],[24,-32],[2,-42],[97,-54],[-3,-32],[53,-25],[128,-80],[115,28]],[[10025,1170],[-42,-594]],[[9764,6060],[96,-58],[73,16],[91,-97]],[[10024,5921],[-66,-101],[-31,-13],[-28,-50],[24,-29],[-21,-33],[-33,-2],[-61,-31],[-7,-19]],[[9801,5643],[-67,-76],[-29,-99],[-39,-46],[-49,-16],[-32,-25],[-57,5]],[[7433,1],[-77,-1],[-355,3]],[[7001,3],[131,763]],[[7132,766],[61,349],[21,102]],[[7214,1217],[53,-18],[39,27],[83,-58],[19,-35],[44,31],[-42,37],[-14,59],[24,11],[61,-20]],[[8101,1264],[-116,-656],[-107,-606]],[[7878,2],[-220,-1]],[[7658,1],[-3,48],[29,53],[-5,46],[-36,-4],[-24,18],[-8,67],[-50,22],[-33,-66],[-38,-22],[-111,25],[-33,-39],[52,-52],[21,9],[38,-18],[-27,-40],[3,-47]],[[7117,4979],[198,-99],[27,-41],[80,-186],[290,-110]],[[7712,4543],[7,-44],[-29,-30],[-65,-93],[-69,-121],[-14,-37],[16,-43],[-18,-42],[-42,-33],[-9,-32],[-46,14],[-29,-14],[-55,-87]],[[7359,3981],[-88,44],[-255,55],[-93,58],[-66,52]],[[6857,4190],[15,16],[-40,77],[24,45],[42,29],[15,51],[36,-6],[33,24],[-11,23],[44,103],[30,38],[3,46],[-19,60],[8,47],[25,39],[31,146],[24,51]],[[8894,2895],[56,56],[55,-5],[62,24],[62,-16],[25,17],[-4,49],[13,30]],[[9163,3050],[48,-89],[104,-61],[73,-10],[24,-23],[118,-39],[33,-29],[45,-8]],[[9608,2791],[-16,-133],[-187,-345],[-195,-373]],[[9210,1940],[-35,-1],[-48,-22],[-21,31],[-46,25],[-52,58],[-3,34],[-24,16]],[[8981,2081],[-38,-23],[-38,10],[6,49],[-87,39],[-38,67],[-213,233]],[[8573,2456],[17,46],[-26,23],[2,34],[32,17],[-22,48],[4,25],[59,25],[86,-26],[47,23],[-11,50],[15,27],[39,13],[12,49],[30,-44],[40,7],[-22,74],[19,48]],[[10641,2484],[-89,61],[-53,6],[-56,52],[-83,-16],[-16,45],[-36,39],[-95,66],[-22,49],[-29,5],[-33,-25],[-19,-47],[20,-41],[-22,-46],[-47,-1],[-60,44],[-45,0],[-52,36]],[[9904,2711],[-21,27],[-46,23],[34,45],[-3,28],[-74,73],[-44,25]],[[9750,2932],[9,36],[160,338],[1,6]],[[2697,1216],[22,21],[-62,192],[-51,64],[-62,137],[-24,140],[-76,87],[-25,-9]],[[2419,1848],[322,304],[130,130],[147,139],[19,-7],[52,-55],[-27,-9],[-61,-59],[-34,-19],[8,-38],[43,-35],[33,-2],[30,-74],[6,-52],[-12,-37],[34,-71],[67,-50],[43,-54],[1,-46],[60,-20],[29,16],[74,-25],[36,-52],[3,-37]],[[3422,1695],[-3,-31],[-28,-45],[-30,-9],[-42,-43],[-26,-3],[-106,-50],[9,-16],[-59,-37]],[[9173,4566],[-13,-37],[-68,-97],[-39,-43],[-6,-40],[-54,-18],[-27,-43],[-85,-33],[-21,-37]],[[8860,4218],[10,-43],[-42,-13],[-80,-56],[-41,-62]],[[8707,4044],[-109,100],[-145,143],[-37,-5],[-548,420]],[[7868,4702],[24,37],[8,77],[75,142],[15,69],[43,102],[19,17],[48,-2],[15,66],[-15,38],[36,110],[27,33],[4,59],[49,16],[14,63],[23,16],[22,62],[220,-212]],[[8409,4500],[50,-8],[26,52],[42,3],[37,22],[11,30],[-43,42],[-1,30],[-39,37],[-52,-50],[-26,-53],[23,-32],[-28,-73]],[[12585,3607],[34,-13],[35,12],[70,-29],[3,-53],[61,-21],[58,-51],[113,-37],[138,-87],[51,-51],[-22,-94],[-2,-41],[-27,-43],[-72,11],[-2,-52],[-15,-18],[11,-44],[2,-83],[-20,-50],[30,-43],[1,-28],[-51,-13]],[[11848,1718],[51,-33]],[[11899,1685],[-6,-16],[79,-69],[65,22],[83,-9],[28,-17],[35,-48],[37,-25],[25,-43],[58,-6],[50,120],[41,-57],[-14,-77]],[[12380,1460],[-22,-93],[-30,-91],[-19,-27],[-106,-59],[-138,-84]],[[12065,1106],[-183,-126]],[[11882,980],[-23,135],[-7,132],[-29,-11],[-85,48],[-26,-17],[-45,9],[-8,44],[-36,-2],[-17,36],[-69,7],[-12,26]],[[11525,1387],[119,138],[26,37],[87,41],[22,28],[-1,49],[70,38]],[[12380,1460],[26,-78],[-23,-122],[19,-42],[23,-15],[60,-2],[45,-16],[42,-61],[67,-48],[21,-39],[47,-28],[2,-43],[-17,-39]],[[12692,927],[-46,-39],[-22,22],[-242,-251],[-151,-161],[-251,-247]],[[11980,251],[-21,10]],[[11959,261],[-18,81],[7,47],[-15,16]],[[11933,405],[13,63],[39,33],[20,83],[32,20],[-6,46],[16,66],[75,113],[3,78],[-34,14],[-43,92],[14,39],[3,54]],[[10288,2131],[81,19],[20,79],[234,232],[18,23]],[[10747,2464],[5,-53],[25,-4],[46,23],[13,-33],[29,9],[2,-54],[24,-82],[40,-47],[56,19],[69,-41]],[[11358,2042],[10,-31],[-36,-61],[-11,-56]],[[11321,1894],[-24,-19]],[[11297,1875],[-61,-11],[-30,11]],[[11206,1875],[-30,-7],[-14,-80],[-23,-25],[-6,-54]],[[11133,1709],[-47,-18]],[[11086,1691],[41,20],[2,54],[30,39],[-81,-9],[-42,-14],[31,-33],[-4,-67]],[[11063,1681],[-54,-24]],[[11009,1657],[-93,2],[-40,-17],[-24,22],[-43,-1],[-12,30],[-59,38],[-23,42],[-66,-14]],[[11933,405],[-50,3],[-26,-15],[9,-85],[93,-47]],[[11980,251],[7,-45],[-32,-21],[4,-92],[-38,-47],[27,-18]],[[11948,28],[0,-21],[-317,2],[-122,4],[-72,-4],[-162,1]],[[11275,10],[-52,21],[-39,-7],[-22,34],[4,85],[-27,73],[-68,56],[-80,-5],[-36,45],[-43,3],[126,89]],[[11038,404],[152,110],[210,132],[184,124],[212,153],[86,57]],[[8734,3],[-110,-1],[-604,0],[-142,0]],[[8433,1169],[23,-51],[-19,-34],[17,-26],[37,23],[96,-5],[22,-18],[29,-58],[22,7],[2,62],[35,8],[26,42],[12,-127],[11,-27],[-37,-22],[95,-124],[13,-35],[28,-14],[10,-39],[-38,-40],[36,-33],[-28,-35],[29,-80],[-44,-55],[35,-51],[10,-34],[30,-21]],[[7073,2968],[-252,92],[-51,-46],[2,-18],[-40,-63],[-42,-26],[-48,-88],[-42,-7],[-28,-37],[-112,-88]],[[6460,2687],[-21,31],[-97,-82],[-31,-9],[-70,-64],[-42,46],[-65,2],[-28,28]],[[6106,2639],[-82,45],[-21,26],[-30,84],[78,93],[-19,21],[57,97],[21,76],[57,68],[43,91],[36,18],[119,145],[32,24]],[[6397,3427],[51,-23],[45,43],[46,-16],[72,1],[73,-137],[12,-12],[140,-30],[104,12],[50,-42],[50,-58],[57,67],[23,6]],[[6481,2963],[29,-31],[25,40],[-3,39],[23,54],[-44,-8],[-30,-94]],[[11386,5148],[18,-37],[-41,-26],[3,-35],[-36,-98],[15,-47],[-35,-34],[-25,-76],[-15,-10]],[[10860,4894],[-2,2],[-324,667],[19,27],[22,106],[22,15],[27,57],[17,63]],[[10989,5418],[55,-46],[9,56],[-40,-15],[-54,26]],[[10959,5439],[-36,-26],[-55,-90],[49,9],[50,-23],[34,26],[7,55],[-19,28]],[[7383,2408],[-36,-59],[-25,-7],[-23,-39],[-38,-4],[-46,-94],[-42,22],[-73,65],[-56,-20],[-38,-53],[-78,-71],[-61,-41],[-42,-12],[39,-55],[24,2],[-18,-79],[-98,-77],[-6,-20]],[[6766,1866],[-31,46],[-143,85],[-206,109],[-20,35]],[[6366,2141],[46,50],[31,78],[28,47],[9,39],[71,82],[-103,193],[-8,35],[20,22]],[[7960,3065],[53,24],[36,-26],[13,-39],[43,4],[28,-17],[15,-84],[-3,-63],[65,-43],[79,-17],[5,-32],[29,-15],[19,-64],[99,-250],[54,-12]],[[8495,2431],[-51,-26],[5,-44],[-85,-77],[-35,-13],[-103,-114]],[[8114,2072],[-44,31],[-30,-11],[-26,67],[-39,26],[-39,61]],[[7936,2246],[-42,28],[-55,70],[-31,-29],[-16,37],[-55,-21],[-73,38],[-49,84],[-23,96],[-43,41],[-32,-14],[-25,37]],[[11495,5711],[40,-42]],[[12167,2372],[-46,79],[-58,-59],[-48,11],[43,102],[-26,21],[-24,-11],[13,-59],[-54,-8],[4,41],[-33,7],[-39,-28],[-6,-53],[-48,14],[31,38],[-12,64],[-52,-6],[21,-33],[-34,-13],[-33,14],[0,36],[-37,12],[-48,40],[-42,1],[2,29],[-60,26]],[[11486,2306],[28,-34],[61,-12],[21,-46],[34,-30],[35,2],[38,-23],[49,-6],[34,-38],[43,16],[26,-33],[45,9],[65,-43],[3,-36]],[[12020,1748],[-39,-25],[-36,-39],[-46,1]],[[11848,1718],[-33,72],[2,41],[-35,25],[-40,-26],[-65,-60],[-18,11],[-12,89],[-69,-20],[-110,21],[-58,19],[-55,-25],[-34,29]],[[11086,1691],[-23,-10]],[[11690,3935],[-9,-34],[-28,-2],[-21,36],[-38,-28]],[[11292,4390],[40,-40],[43,-4],[63,23],[74,14],[43,53],[94,1],[56,74],[21,3],[41,-44],[6,-119],[-28,-52],[53,-86]],[[11928,3716],[18,-101],[-24,-13],[23,-53],[-17,-50],[20,-20],[68,-8],[-6,-47],[59,-84],[26,-1],[19,-33],[49,-18],[20,-77],[21,-21],[13,-47],[52,-89],[33,-31],[46,-2],[12,-36]],[[13684,2456],[-13,28],[56,143],[21,-36],[28,-2],[-10,112],[33,36],[40,4],[-11,38],[29,59],[47,19],[-36,42],[31,36],[44,18],[-30,59],[-21,19],[40,37],[40,0],[47,-45],[45,18],[-1,66],[29,71],[24,-32],[30,35],[-30,21],[18,70],[-31,32],[-42,1],[-41,24],[43,55],[45,-10],[27,30],[63,-16],[11,47],[-20,27],[42,67],[402,46],[273,33],[-99,-170],[-84,-159],[-63,4],[-44,16],[-44,-59],[-39,-28],[-63,-76],[-67,-106],[-44,-99],[-19,-28],[-32,-97],[-15,-13],[-3,-58],[-15,-74],[-27,-67],[3,-78],[23,-14],[-80,-135],[-30,-61],[-40,-8],[-11,-33],[22,-33]],[[13485,3430],[93,0],[-55,-24],[-38,24]],[[6397,3427],[95,98],[76,172],[9,41],[50,65],[-22,11],[-11,48],[28,20],[22,57],[-8,42],[40,30],[92,114],[45,21],[44,44]],[[7359,3981],[-26,-23],[31,-39],[49,37],[40,-17],[24,-38],[-85,-127],[19,-22]],[[11525,1387],[-96,-62],[-334,-227]],[[11095,1098],[7,104],[-2,185],[-6,143]],[[11094,1530],[25,10],[69,-2],[29,56],[-71,112],[-13,3]],[[11206,1875],[13,-51],[5,-76],[115,54],[12,33],[-35,48],[-19,-8]],[[9490,3558],[-327,-508]],[[8894,2895],[-47,-18],[-28,28],[6,56],[-16,88],[-260,609]],[[8549,3658],[30,29],[51,25],[25,36],[-1,54],[-15,48],[22,35],[13,79],[33,80]],[[8860,4218],[122,-60],[398,-168]],[[9106,3597],[8,-28],[53,16],[35,-14],[26,82],[-31,17],[-23,40],[-39,-31],[-29,-82]],[[9522,4204],[-12,11],[-66,-13],[-58,51],[-1,60],[-28,2],[-40,43],[-44,77],[10,37],[-23,30],[1,145],[-30,50]],[[9434,5066],[188,-230]],[[7986,3278],[19,-5],[98,54],[69,-2],[14,-47],[47,3],[21,-26],[36,50],[47,45],[30,48],[73,22],[14,59],[-25,34],[26,16],[32,83],[28,2],[34,44]],[[8573,2456],[-10,-41],[-45,22],[-23,-6]],[[11009,1657],[9,-31],[-13,-52],[47,-19],[-1,-39],[43,14]],[[11095,1098],[-390,-280]],[[10705,818],[-21,24],[-24,-26],[-23,43]],[[10637,859],[-65,29],[-91,127],[-28,7],[-7,31],[-51,24],[-28,-2],[-56,30],[-15,-13],[-69,-4]],[[10227,1088],[-19,376],[53,16],[26,34],[74,13],[32,56]],[[9801,5643],[55,-84],[32,-13],[88,-76],[27,-97],[3,-65],[33,-40],[60,-28],[47,-8]],[[1982,1607],[60,25],[38,34],[87,41],[174,56],[47,39],[31,46]],[[11275,10],[-314,0],[-518,1]],[[10443,11],[197,408],[-3,440]],[[10705,818],[41,-15],[35,-47],[34,-16],[48,18],[34,-19],[34,8],[28,31],[30,4],[-55,-345],[104,-33]],[[10802,394],[15,-68],[46,-2],[37,24],[-23,70],[-61,3],[-14,-27]],[[5376,949],[-44,-44],[-37,-15],[-5,-30],[-102,-39]],[[5188,821],[-87,131],[-81,112],[-102,117],[-35,112]],[[4883,1293],[-31,101],[48,13],[86,66]],[[4986,1473],[71,51],[23,27],[75,34],[44,11],[109,63],[116,50]],[[5560,1440],[-34,31],[-42,-16],[-35,-30],[-6,-29],[28,-63]],[[6033,1944],[110,90],[93,10],[130,97]],[[6766,1866],[0,-75],[-19,-27],[21,-48],[-1,-54]],[[6767,1662],[-9,-25],[-35,1],[-39,-39],[-2,-43],[-30,-11],[-16,-40],[-74,-57],[-67,35],[-15,51],[-122,-30],[-51,-30],[1,-23],[-39,-38]],[[6437,1753],[9,-47],[43,13],[58,-47],[24,-41],[24,25],[35,4],[7,38],[36,42],[-16,50],[54,34],[-4,25],[-43,47],[-95,-4],[-35,30],[-77,-58]],[[6457,1864],[-17,35],[-90,-61],[-61,-23],[22,-25],[29,10],[12,-42],[54,-31],[31,26]],[[3531,115],[55,58]],[[3586,173],[63,12],[9,51]],[[3658,236],[81,50],[23,-5],[25,48],[14,76],[29,-2],[146,34],[74,47],[147,33],[69,23]],[[4266,540],[134,-12],[57,26],[30,-14],[86,10],[3,49],[78,46]],[[4654,645],[195,-327]],[[4849,318],[-31,-21],[3,-36],[46,-11],[14,16]],[[4881,266],[134,-221]],[[5015,45],[-112,6],[-181,5],[-97,8],[-440,19],[-80,-1],[-158,6],[-139,9],[-141,15],[-136,3]],[[6437,1753],[27,4],[8,39],[-17,24],[2,44]],[[4986,1473],[-47,57],[35,18],[-18,37],[-40,-35],[-151,172],[-62,62],[61,42]],[[4764,1826],[57,7],[84,47],[56,57],[34,20],[-60,90],[37,68],[5,43],[2,-3],[39,-10],[53,-49],[39,-23],[25,-54],[115,54],[186,125],[85,67],[72,19],[32,-58],[-3,-55],[39,-27]],[[5661,2144],[65,-204],[-16,-42],[25,-15]],[[13254,945],[-27,-29],[18,-28],[-29,-48],[9,-52],[29,-20],[-31,-66],[-56,24]],[[13167,726],[-31,-7],[-24,-39],[-31,17],[-27,-14]],[[13054,683],[-20,70]],[[13034,753],[-45,55],[20,35],[-18,38],[-8,93],[61,66],[50,-11],[81,-61],[79,-23]],[[12794,2364],[-26,-73],[17,-79],[-13,-58],[9,-23],[53,-12]],[[12834,2119],[0,-110],[-25,32],[-68,-4],[0,-32],[41,0],[41,-56],[8,-35],[-39,-37],[74,-26],[26,-25],[34,-59],[-49,-12],[-47,4],[-84,-37],[-32,12],[-42,-28]],[[10989,5418],[-30,21]],[[7809,1979],[44,94],[-38,26],[22,34],[-44,70],[35,-2],[67,50],[41,-5]],[[5415,42],[-164,10],[-236,-7]],[[4881,266],[65,102],[-69,2],[-28,-52]],[[4654,645],[336,104],[70,10],[32,24],[96,38]],[[8355,3708],[79,77],[73,-24],[12,-37],[-17,-68],[-46,-17],[-60,9],[-38,21],[-3,39]],[[13054,683],[-2,-54],[-149,-33],[-50,68],[36,57],[-26,69],[-39,0]],[[12824,790],[23,29],[1,47]],[[12848,866],[34,5],[3,58],[55,-2],[6,-104],[17,-48],[71,-22]],[[12867,1375],[50,14],[41,-39],[86,31]],[[13044,1381],[43,-53],[-38,-128],[-13,-64],[-71,16],[-13,-21],[-70,-41]],[[12882,1090],[-31,9],[-35,78],[-24,-13],[-19,42],[-4,96],[24,41]],[[6423,616],[29,-33],[21,7],[24,114],[349,-94],[28,21],[40,-20],[45,47],[84,41],[38,-2],[51,69]],[[7001,3],[-305,2],[-248,-1],[-46,0]],[[6666,348],[18,-29],[60,-25],[0,-28],[51,4],[-22,54],[11,73],[-66,27],[-52,-76]],[[11588,5811],[0,0],[46,-69],[46,-16],[63,-118],[-22,-27]],[[11721,5581],[-117,10]],[[12698,24],[-88,-1],[-470,1],[-192,4]],[[12692,927],[26,-20],[-20,-81],[65,8],[23,53],[62,-21]],[[12824,790],[-37,-57],[-29,-68],[-60,-641]],[[4266,540],[-19,70],[-78,205],[-18,56],[-93,128]],[[4058,999],[22,36],[51,20],[40,56],[52,50],[109,70],[103,-56],[62,32],[30,-37],[145,59],[93,15],[118,49]],[[10025,1170],[63,-86],[23,10],[61,-21],[55,15]],[[10443,11],[-234,-2],[-259,-1]],[[7214,1217],[3,21],[-53,68],[19,19],[-52,40],[-18,58],[-47,69],[-44,-14],[-27,98],[-70,0],[-34,31],[-5,70],[-26,-1],[-16,-38],[-26,26],[-26,-25],[-25,23]],[[5661,2144],[83,63],[223,142],[30,61],[-47,-15],[-6,46],[-28,44],[123,76],[33,28],[34,50]],[[8981,2081],[-12,-113],[12,-14],[-58,-57],[-17,-38],[-64,-92],[-15,-48]],[[8827,1719],[-80,-57],[-48,-11],[-41,20],[-55,-66],[-28,9]],[[9609,1407],[2,181],[12,246]],[[10099,6004],[-34,-28],[-41,-55]],[[9973,6613],[362,-321]],[[13801,23],[-450,1]],[[13351,24],[0,279],[75,32],[21,34],[-25,48],[-27,9],[-81,99],[-107,31],[-43,153],[3,17]],[[13254,945],[66,-17],[87,-37],[57,22],[29,32],[61,-2],[20,-17],[42,-194],[40,-197],[49,-168],[55,-149],[29,-113],[12,-82]],[[7658,1],[-225,0]],[[2442,133],[-305,-3],[-27,4],[-225,-4],[-391,-1],[-274,0]],[[2374,408],[43,-216],[25,-59]],[[7712,4543],[58,30],[70,110],[28,19]],[[8063,3915],[48,-64],[30,10],[35,-24],[52,55],[16,92],[-40,42],[-19,-22],[-87,-9],[-35,-80]],[[9750,2932],[-26,-2],[-68,-59],[-48,-80]],[[11721,5581],[9,-18],[0,-98],[-2,-16]],[[12929,2398],[15,-57],[29,-1],[33,-47],[35,53],[29,2],[16,-52],[-15,-50],[43,-32],[15,-179],[-48,-71],[1,-88],[-60,39],[-71,102],[-65,31],[-20,43],[-32,28]],[[2704,131],[-166,2]],[[2538,133],[106,76],[102,49],[29,-42],[-71,-85]],[[4058,999],[-101,141]],[[3957,1140],[-45,61],[65,24],[46,30],[73,1],[55,22],[101,63],[15,52],[-14,32],[-44,7],[-69,45],[34,25],[89,33],[-37,104],[73,20],[32,26]],[[4331,1685],[103,68],[96,38],[133,29],[102,29],[-1,-23]],[[3349,1015],[37,4],[90,40],[46,-107],[74,38],[115,100],[25,1],[91,32],[27,28],[27,3],[13,-44],[63,30]],[[3658,236],[-23,-10],[-143,377],[-243,340]],[[12882,1090],[-37,-50],[-30,-7],[-47,77],[7,24],[-29,48],[-109,86],[-1,38],[-29,25],[-42,-13],[-22,32],[-82,74],[38,80],[-6,21]],[[13013,24],[-315,0]],[[13351,24],[-338,0]],[[12850,1503],[56,1],[45,21],[14,-44],[52,-32],[27,-35],[0,-33]],[[2538,133],[-96,0]],[[3586,173],[-318,5],[-170,5],[-20,-53],[-374,1]],[[9616,2009],[-37,-38],[-29,-10],[-35,-57],[-53,-39],[-36,25],[-32,-22],[-61,-12],[-12,25],[-78,47],[-33,12]],[[9904,2711],[-27,-71],[-79,-421]],[[8827,1719],[-19,-107],[20,-18],[64,-7],[18,-59],[25,-30],[64,-41],[66,23],[55,-42],[21,-64],[41,-52],[66,-14]],[[3422,1695],[93,-63],[15,-28],[208,13],[29,34],[63,29],[10,48],[40,-3],[35,35],[41,20],[37,-2],[32,91],[42,19],[22,47],[74,-93],[168,-157]]],"transform":{"scale":[0.000565740373004159,0.0004118915992583213],"translate":[-83.675395,36.5407578620674]},"objects":{"51":{"type":"GeometryCollection","geometries":[{"arcs":[[0,1,2,3,4,5]],"type":"Polygon","properties":{"STATEFP":"51","COUNTYFP":"107","COUNTYNS":"01480141","GEOIDFQ":"0500000US51107","GEOID":"51107","NAME":"Loudoun","NAMELSAD":"Loudoun County","STUSPS":"VA","STATE_NAME":"Virginia","LSAD":"06","ALAND":1335776890,"AWATER":14472726},"id":"51107"},{"arcs":[[6,7,8,9,10,11,12],[13],[14]],"type":"Polygon","properties":{"STATEFP":"51","COUNTYFP":"163","COUNTYNS":"01480166","GEOIDFQ":"0500000US51163","GEOID":"51163","NAME":"Rockbridge","NAMELSAD":"Rockbridge County","STUSPS":"VA","STATE_NAME":"Virginia","LSAD":"06","ALAND":1545053255,"AWATER":8821787},"id":"51163"},{"arcs":[[15,16,17,18,19]],"type":"Polygon","properties":{"STATEFP":"51","COUNTYFP":"117","COUNTYNS":"01500747","GEOIDFQ":"0500000US51117","GEOID":"51117","NAME":"Mecklenburg","NAMELSAD":"Mecklenburg County","STUSPS":"VA","STATE_NAME":"Virginia","LSAD":"06","ALAND":1619544367,"AWATER":139655803},"id":"51117"},{"arcs":[[20,21,22,23,24,25]],"type":"Polygon","properties":{"STATEFP":"51","COUNTYFP":"109","COUNTYNS":"01494707","GEOIDFQ":"0500000US51109","GEOID":"51109","NAME":"Louisa","NAMELSAD":"Louisa County","STUSPS":"VA","STATE_NAME":"Virginia","LSAD":"06","ALAND":1282209973,"AWATER":37801171},"id":"51109"},{"arcs":[[26,27,28,29,30]],"type":"Polygon","properties":{"STATEFP":"51","COUNTYFP":"193","COUNTYNS":"01480179","GEOIDFQ":"0500000US51193","GEOID":"51193","NAME":"Westmoreland","NAMELSAD":"Westmoreland County","STUSPS":"VA","STATE_NAME":"Virginia","LSAD":"06","ALAND":593954110,"AWATER":61106474},"id":"51193"},{"arcs":[[-2,31,32,33,34,35,36,37],[38]],"type":"Polygon","properties":{"STATEFP":"51","COUNTYFP":"059","COUNTYNS":"01480119","GEOIDFQ":"0500000US51059","GEOID":"51059","NAME":"Fairfax","NAMELSAD":"Fairfax County","STUSPS":"VA","STATE_NAME":"Virginia","LSAD":"06","ALAND":1012740195,"AWATER":40014055},"id":"51059"},{"arcs":[[39,40,41,42,43],[44]],"type":"Polygon","properties":{"STATEFP":"51","COUNTYFP":"069","COUNTYNS":"01480124","GEOIDFQ":"0500000US51069","GEOID":"51069","NAME":"Frederick","NAMELSAD":"Frederick County","STUSPS":"VA","STATE_NAME":"Virginia","LSAD":"06","ALAND":1070014040,"AWATER":5860148},"id":"51069"},{"arcs":[[-21,45,46,47,48,49]],"type":"Polygon","properties":{"STATEFP":"51","COUNTYFP":"137","COUNTYNS":"01494761","GEOIDFQ":"0500000US51137","GEOID":"51137","NAME":"Orange","NAMELSAD":"Orange County","STUSPS":"VA","STATE_NAME":"Virginia","LSAD":"06","ALAND":882014693,"AWATER":7002015},"id":"51137"},{"arcs":[[50,51,52,53,54,55,56]],"type":"Polygon","properties":{"STATEFP":"51","COUNTYFP":"121","COUNTYNS":"01674630","GEOIDFQ":"0500000US51121","GEOID":"51121","NAME":"Montgomery","NAMELSAD":"Montgomery County","STUSPS":"VA","STATE_NAME":"Virginia","LSAD":"06","ALAND":1001932838,"AWATER":6278532},"id":"51121"},{"arcs":[[-54,57,58,59,60,61]],"type":"Polygon","properties":{"STATEFP":"51","COUNTYFP":"063","COUNTYNS":"01494354","GEOIDFQ":"0500000US51063","GEOID":"51063","NAME":"Floyd","NAMELSAD":"Floyd County","STUSPS":"VA","STATE_NAME":"Virginia","LSAD":"06","ALAND":986585625,"AWATER":2190752},"id":"51063"},{"arcs":[[-29,62,63,64,65]],"type":"Polygon","properties":{"STATEFP":"51","COUNTYFP":"159","COUNTYNS":"01480164","GEOIDFQ":"0500000US51159","GEOID":"51159","NAME":"Richmond","NAMELSAD":"Richmond County","STUSPS":"VA","STATE_NAME":"Virginia","LSAD":"06","ALAND":495925429,"AWATER":64458631},"id":"51159"},{"arcs":[[66,67,68,69,70,71,72]],"type":"Polygon","properties":{"STATEFP":"51","COUNTYFP":"167","COUNTYNS":"01497573","GEOIDFQ":"0500000US51167","GEOID":"51167","NAME":"Russell","NAMELSAD":"Russell County","STUSPS":"VA","STATE_NAME":"Virginia","LSAD":"06","ALAND":1226421370,"AWATER":7558481},"id":"51167"},{"arcs":[[73,74,75,76,77,78]],"type":"Polygon","properties":{"STATEFP":"51","COUNTYFP":"007","COUNTYNS":"01497770","GEOIDFQ":"0500000US51007","GEOID":"51007","NAME":"Amelia","NAMELSAD":"Amelia County","STUSPS":"VA","STATE_NAME":"Virginia","LSAD":"06","ALAND":920379348,"AWATER":8188217},"id":"51007"},{"arcs":[[-73,79,80,81,82],[83]],"type":"Polygon","properties":{"STATEFP":"51","COUNTYFP":"195","COUNTYNS":"01496656","GEOIDFQ":"0500000US51195","GEOID":"51195","NAME":"Wise","NAMELSAD":"Wise County","STUSPS":"VA","STATE_NAME":"Virginia","LSAD":"06","ALAND":1044913727,"AWATER":5238468},"id":"51195"},{"arcs":[[[84]],[[85,86]]],"type":"MultiPolygon","properties":{"STATEFP":"51","COUNTYFP":"131","COUNTYNS":"01480151","GEOIDFQ":"0500000US51131","GEOID":"51131","NAME":"Northampton","NAMELSAD":"Northampton County","STUSPS":"VA","STATE_NAME":"Virginia","LSAD":"06","ALAND":548338645,"AWATER":1511361535},"id":"51131"},{"arcs":[[-45]],"type":"Polygon","properties":{"STATEFP":"51","COUNTYFP":"840","COUNTYNS":"01789077","GEOIDFQ":"0500000US51840","GEOID":"51840","NAME":"Winchester","NAMELSAD":"Winchester city","STUSPS":"VA","STATE_NAME":"Virginia","LSAD":"25","ALAND":23809503,"AWATER":54462},"id":"51840"},{"arcs":[[87,88,89,90,91,92,93,94]],"type":"Polygon","properties":{"STATEFP":"51","COUNTYFP":"199","COUNTYNS":"01480182","GEOIDFQ":"0500000US51199","GEOID":"51199","NAME":"York","NAMELSAD":"York County","STUSPS":"VA","STATE_NAME":"Virginia","LSAD":"06","ALAND":271178812,"AWATER":285632252},"id":"51199"},{"arcs":[[95,96,97,98,99,100,101,102,103]],"type":"Polygon","properties":{"STATEFP":"51","COUNTYFP":"179","COUNTYNS":"01480173","GEOIDFQ":"0500000US51179","GEOID":"51179","NAME":"Stafford","NAMELSAD":"Stafford County","STUSPS":"VA","STATE_NAME":"Virginia","LSAD":"06","ALAND":695382260,"AWATER":29942927},"id":"51179"},{"arcs":[[-23,104,105,106,107,108,109]],"type":"Polygon","properties":{"STATEFP":"51","COUNTYFP":"085","COUNTYNS":"01480132","GEOIDFQ":"0500000US51085","GEOID":"51085","NAME":"Hanover","NAMELSAD":"Hanover County","STUSPS":"VA","STATE_NAME":"Virginia","LSAD":"06","ALAND":1211105217,"AWATER":12701750},"id":"51085"},{"arcs":[[-64,110,111]],"type":"Polygon","properties":{"STATEFP":"51","COUNTYFP":"103","COUNTYNS":"01480139","GEOIDFQ":"0500000US51103","GEOID":"51103","NAME":"Lancaster","NAMELSAD":"Lancaster County","STUSPS":"VA","STATE_NAME":"Virginia","LSAD":"06","ALAND":345309178,"AWATER":254066484},"id":"51103"},{"arcs":[[-109,112,113,114,115,116,117]],"type":"Polygon","properties":{"STATEFP":"51","COUNTYFP":"087","COUNTYNS":"01480133","GEOIDFQ":"0500000US51087","GEOID":"51087","NAME":"Henrico","NAMELSAD":"Henrico County","STUSPS":"VA","STATE_NAME":"Virginia","LSAD":"06","ALAND":605188390,"AWATER":28877896},"id":"51087"},{"arcs":[[118,119,120,121,122,123]],"type":"Polygon","properties":{"STATEFP":"51","COUNTYFP":"139","COUNTYNS":"01500440","GEOIDFQ":"0500000US51139","GEOID":"51139","NAME":"Page","NAMELSAD":"Page County","STUSPS":"VA","STATE_NAME":"Virginia","LSAD":"06","ALAND":802941044,"AWATER":8378554},"id":"51139"},{"arcs":[[-49,124,125,126,-103,127]],"type":"Polygon","properties":{"STATEFP":"51","COUNTYFP":"047","COUNTYNS":"01497831","GEOIDFQ":"0500000US51047","GEOID":"51047","NAME":"Culpeper","NAMELSAD":"Culpeper County","STUSPS":"VA","STATE_NAME":"Virginia","LSAD":"06","ALAND":982040771,"AWATER":9003844},"id":"51047"},{"arcs":[[-93,128,129,130,131,132,133,-95,134]],"type":"Polygon","properties":{"STATEFP":"51","COUNTYFP":"095","COUNTYNS":"01480135","GEOIDFQ":"0500000US51095","GEOID":"51095","NAME":"James City","NAMELSAD":"James City County","STUSPS":"VA","STATE_NAME":"Virginia","LSAD":"06","ALAND":368550688,"AWATER":95239463},"id":"51095"},{"arcs":[[-60,135,136,137,138]],"type":"Polygon","properties":{"STATEFP":"51","COUNTYFP":"141","COUNTYNS":"01497999","GEOIDFQ":"0500000US51141","GEOID":"51141","NAME":"Patrick","NAMELSAD":"Patrick County","STUSPS":"VA","STATE_NAME":"Virginia","LSAD":"06","ALAND":1250852627,"AWATER":7141128},"id":"51141"},{"arcs":[[139,-81,140,141]],"type":"Polygon","properties":{"STATEFP":"51","COUNTYFP":"105","COUNTYNS":"01496538","GEOIDFQ":"0500000US51105","GEOID":"51105","NAME":"Lee","NAMELSAD":"Lee County","STUSPS":"VA","STATE_NAME":"Virginia","LSAD":"06","ALAND":1127622849,"AWATER":4896591},"id":"51105"},{"arcs":[[-22,-50,-128,-102,142,-100,143,-105]],"type":"Polygon","properties":{"STATEFP":"51","COUNTYFP":"177","COUNTYNS":"01480172","GEOIDFQ":"0500000US51177","GEOID":"51177","NAME":"Spotsylvania","NAMELSAD":"Spotsylvania County","STUSPS":"VA","STATE_NAME":"Virginia","LSAD":"06","ALAND":1041025703,"AWATER":32952871},"id":"51177"},{"arcs":[[144,145,146,147,148,149,150]],"type":"Polygon","properties":{"STATEFP":"51","COUNTYFP":"031","COUNTYNS":"01674917","GEOIDFQ":"0500000US51031","GEOID":"51031","NAME":"Campbell","NAMELSAD":"Campbell County","STUSPS":"VA","STATE_NAME":"Virginia","LSAD":"06","ALAND":1303430815,"AWATER":8887974},"id":"51031"},{"arcs":[[-99,151,152,153,154,-106,-144]],"type":"Polygon","properties":{"STATEFP":"51","COUNTYFP":"033","COUNTYNS":"01480107","GEOIDFQ":"0500000US51033","GEOID":"51033","NAME":"Caroline","NAMELSAD":"Caroline County","STUSPS":"VA","STATE_NAME":"Virginia","LSAD":"06","ALAND":1365870126,"AWATER":24919385},"id":"51033"},{"arcs":[[-43,155,-119,156,157]],"type":"Polygon","properties":{"STATEFP":"51","COUNTYFP":"171","COUNTYNS":"01673918","GEOIDFQ":"0500000US51171","GEOID":"51171","NAME":"Shenandoah","NAMELSAD":"Shenandoah County","STUSPS":"VA","STATE_NAME":"Virginia","LSAD":"06","ALAND":1315922186,"AWATER":9714047},"id":"51171"},{"arcs":[[-133,158,159,-154,160,161,162]],"type":"Polygon","properties":{"STATEFP":"51","COUNTYFP":"097","COUNTYNS":"01480136","GEOIDFQ":"0500000US51097","GEOID":"51097","NAME":"King and Queen","NAMELSAD":"King and Queen County","STUSPS":"VA","STATE_NAME":"Virginia","LSAD":"06","ALAND":816221981,"AWATER":28929275},"id":"51097"},{"arcs":[[-162,163,164,165,166]],"type":"Polygon","properties":{"STATEFP":"51","COUNTYFP":"119","COUNTYNS":"01480147","GEOIDFQ":"0500000US51119","GEOID":"51119","NAME":"Middlesex","NAMELSAD":"Middlesex County","STUSPS":"VA","STATE_NAME":"Virginia","LSAD":"06","ALAND":337548267,"AWATER":208316469},"id":"51119"},{"arcs":[[-17,167,168,169,170]],"type":"Polygon","properties":{"STATEFP":"51","COUNTYFP":"111","COUNTYNS":"01492239","GEOIDFQ":"0500000US51111","GEOID":"51111","NAME":"Lunenburg","NAMELSAD":"Lunenburg County","STUSPS":"VA","STATE_NAME":"Virginia","LSAD":"06","ALAND":1118097706,"AWATER":1743628},"id":"51111"},{"arcs":[[-42,171,172,173,-120,-156]],"type":"Polygon","properties":{"STATEFP":"51","COUNTYFP":"187","COUNTYNS":"01674058","GEOIDFQ":"0500000US51187","GEOID":"51187","NAME":"Warren","NAMELSAD":"Warren County","STUSPS":"VA","STATE_NAME":"Virginia","LSAD":"06","ALAND":555738450,"AWATER":8583334},"id":"51187"},{"arcs":[[174,175,176,177,-151,178,179,180]],"type":"Polygon","properties":{"STATEFP":"51","COUNTYFP":"143","COUNTYNS":"01480157","GEOIDFQ":"0500000US51143","GEOID":"51143","NAME":"Pittsylvania","NAMELSAD":"Pittsylvania County","STUSPS":"VA","STATE_NAME":"Virginia","LSAD":"06","ALAND":2509705692,"AWATER":23903851},"id":"51143"},{"arcs":[[181,182,183,184]],"type":"Polygon","properties":{"STATEFP":"51","COUNTYFP":"091","COUNTYNS":"01673774","GEOIDFQ":"0500000US51091","GEOID":"51091","NAME":"Highland","NAMELSAD":"Highland County","STUSPS":"VA","STATE_NAME":"Virginia","LSAD":"06","ALAND":1075266902,"AWATER":1791758},"id":"51091"},{"arcs":[[185,186,187,188,189,190]],"type":"Polygon","properties":{"STATEFP":"51","COUNTYFP":"029","COUNTYNS":"01501502","GEOIDFQ":"0500000US51029","GEOID":"51029","NAME":"Buckingham","NAMELSAD":"Buckingham County","STUSPS":"VA","STATE_NAME":"Virginia","LSAD":"06","ALAND":1501215437,"AWATER":9911855},"id":"51029"},{"arcs":[[-24,-110,-118,191,192,193]],"type":"Polygon","properties":{"STATEFP":"51","COUNTYFP":"075","COUNTYNS":"01674271","GEOIDFQ":"0500000US51075","GEOID":"51075","NAME":"Goochland","NAMELSAD":"Goochland County","STUSPS":"VA","STATE_NAME":"Virginia","LSAD":"06","ALAND":730485348,"AWATER":21955829},"id":"51075"},{"arcs":[[-68,194,195,196]],"type":"Polygon","properties":{"STATEFP":"51","COUNTYFP":"027","COUNTYNS":"01497431","GEOIDFQ":"0500000US51027","GEOID":"51027","NAME":"Buchanan","NAMELSAD":"Buchanan County","STUSPS":"VA","STATE_NAME":"Virginia","LSAD":"06","ALAND":1302387769,"AWATER":2803578},"id":"51027"},{"arcs":[[-124,197,198,199,200,-157],[201]],"type":"Polygon","properties":{"STATEFP":"51","COUNTYFP":"165","COUNTYNS":"01488970","GEOIDFQ":"0500000US51165","GEOID":"51165","NAME":"Rockingham","NAMELSAD":"Rockingham County","STUSPS":"VA","STATE_NAME":"Virginia","LSAD":"06","ALAND":2200961626,"AWATER":10639220},"id":"51165"},{"arcs":[[-28,202,-111,-63]],"type":"Polygon","properties":{"STATEFP":"51","COUNTYFP":"133","COUNTYNS":"01480152","GEOIDFQ":"0500000US51133","GEOID":"51133","NAME":"Northumberland","NAMELSAD":"Northumberland County","STUSPS":"VA","STATE_NAME":"Virginia","LSAD":"06","ALAND":495808170,"AWATER":243884091},"id":"51133"},{"arcs":[[203,204,205,206,207,208]],"type":"Polygon","properties":{"STATEFP":"51","COUNTYFP":"181","COUNTYNS":"01480174","GEOIDFQ":"0500000US51181","GEOID":"51181","NAME":"Surry","NAMELSAD":"Surry County","STUSPS":"VA","STATE_NAME":"Virginia","LSAD":"06","ALAND":722475750,"AWATER":81216905},"id":"51181"},{"arcs":[[-206,209,210,211,212,213]],"type":"Polygon","properties":{"STATEFP":"51","COUNTYFP":"093","COUNTYNS":"01702378","GEOIDFQ":"0500000US51093","GEOID":"51093","NAME":"Isle of Wight","NAMELSAD":"Isle of Wight County","STUSPS":"VA","STATE_NAME":"Virginia","LSAD":"06","ALAND":817621463,"AWATER":122099188},"id":"51093"},{"arcs":[[-75,214,-117,215,-115,216,217,218,219,220,221,222,223]],"type":"Polygon","properties":{"STATEFP":"51","COUNTYFP":"041","COUNTYNS":"01480111","GEOIDFQ":"0500000US51041","GEOID":"51041","NAME":"Chesterfield","NAMELSAD":"Chesterfield County","STUSPS":"VA","STATE_NAME":"Virginia","LSAD":"06","ALAND":1096885427,"AWATER":34956371},"id":"51041"},{"arcs":[[-207,-214,224,-212,225,226,227,228]],"type":"Polygon","properties":{"STATEFP":"51","COUNTYFP":"175","COUNTYNS":"01480171","GEOIDFQ":"0500000US51175","GEOID":"51175","NAME":"Southampton","NAMELSAD":"Southampton County","STUSPS":"VA","STATE_NAME":"Virginia","LSAD":"06","ALAND":1552048348,"AWATER":8090235},"id":"51175"},{"arcs":[[-20,229,-179,-150,230]],"type":"Polygon","properties":{"STATEFP":"51","COUNTYFP":"083","COUNTYNS":"01496705","GEOIDFQ":"0500000US51083","GEOID":"51083","NAME":"Halifax","NAMELSAD":"Halifax County","STUSPS":"VA","STATE_NAME":"Virginia","LSAD":"06","ALAND":2117913733,"AWATER":30524203},"id":"51083"},{"arcs":[[-7,231,232,233,234],[235]],"type":"Polygon","properties":{"STATEFP":"51","COUNTYFP":"005","COUNTYNS":"01673675","GEOIDFQ":"0500000US51005","GEOID":"51005","NAME":"Alleghany","NAMELSAD":"Alleghany County","STUSPS":"VA","STATE_NAME":"Virginia","LSAD":"06","ALAND":1156616595,"AWATER":8162743},"id":"51005"},{"arcs":[[-3,-38,236,-96,237],[238,239]],"type":"Polygon","properties":{"STATEFP":"51","COUNTYFP":"153","COUNTYNS":"01480161","GEOIDFQ":"0500000US51153","GEOID":"51153","NAME":"Prince William","NAMELSAD":"Prince William County","STUSPS":"VA","STATE_NAME":"Virginia","LSAD":"06","ALAND":868329504,"AWATER":30896245},"id":"51153"},{"arcs":[[-13,240,241,242,-232]],"type":"Polygon","properties":{"STATEFP":"51","COUNTYFP":"023","COUNTYNS":"01674418","GEOIDFQ":"0500000US51023","GEOID":"51023","NAME":"Botetourt","NAMELSAD":"Botetourt County","STUSPS":"VA","STATE_NAME":"Virginia","LSAD":"06","ALAND":1401898974,"AWATER":12126227},"id":"51023"},{"arcs":[[-11,243,244,-147,245,246]],"type":"Polygon","properties":{"STATEFP":"51","COUNTYFP":"009","COUNTYNS":"01480095","GEOIDFQ":"0500000US51009","GEOID":"51009","NAME":"Amherst","NAMELSAD":"Amherst County","STUSPS":"VA","STATE_NAME":"Virginia","LSAD":"06","ALAND":1227554639,"AWATER":12898694},"id":"51009"},{"arcs":[[-34,247]],"type":"Polygon","properties":{"STATEFP":"51","COUNTYFP":"610","COUNTYNS":"01498423","GEOIDFQ":"0500000US51610","GEOID":"51610","NAME":"Falls Church","NAMELSAD":"Falls Church city","STUSPS":"VA","STATE_NAME":"Virginia","LSAD":"25","ALAND":5300259,"AWATER":32},"id":"51610"},{"arcs":[[-107,-155,-160,248]],"type":"Polygon","properties":{"STATEFP":"51","COUNTYFP":"101","COUNTYNS":"01480138","GEOIDFQ":"0500000US51101","GEOID":"51101","NAME":"King William","NAMELSAD":"King William County","STUSPS":"VA","STATE_NAME":"Virginia","LSAD":"06","ALAND":709424847,"AWATER":31090166},"id":"51101"},{"arcs":[[-114,249,-131,250,-204,251,-217]],"type":"Polygon","properties":{"STATEFP":"51","COUNTYFP":"036","COUNTYNS":"01480109","GEOIDFQ":"0500000US51036","GEOID":"51036","NAME":"Charles City","NAMELSAD":"Charles City County","STUSPS":"VA","STATE_NAME":"Virginia","LSAD":"06","ALAND":473711551,"AWATER":55274680},"id":"51036"},{"arcs":[[-108,-249,-159,-132,-250,-113]],"type":"Polygon","properties":{"STATEFP":"51","COUNTYFP":"127","COUNTYNS":"01480150","GEOIDFQ":"0500000US51127","GEOID":"51127","NAME":"New Kent","NAMELSAD":"New Kent County","STUSPS":"VA","STATE_NAME":"Virginia","LSAD":"06","ALAND":543978943,"AWATER":35605786},"id":"51127"},{"arcs":[[-222,252]],"type":"Polygon","properties":{"STATEFP":"51","COUNTYFP":"570","COUNTYNS":"01498420","GEOIDFQ":"0500000US51570","GEOID":"51570","NAME":"Colonial Heights","NAMELSAD":"Colonial Heights city","STUSPS":"VA","STATE_NAME":"Virginia","LSAD":"25","ALAND":19475360,"AWATER":709877},"id":"51570"},{"arcs":[[-31,253,-152,-98,254]],"type":"Polygon","properties":{"STATEFP":"51","COUNTYFP":"099","COUNTYNS":"01480137","GEOIDFQ":"0500000US51099","GEOID":"51099","NAME":"King George","NAMELSAD":"King George County","STUSPS":"VA","STATE_NAME":"Virginia","LSAD":"06","ALAND":465234042,"AWATER":21087162},"id":"51099"},{"arcs":[[-30,-66,255,-164,-161,-153,-254]],"type":"Polygon","properties":{"STATEFP":"51","COUNTYFP":"057","COUNTYNS":"01480118","GEOIDFQ":"0500000US51057","GEOID":"51057","NAME":"Essex","NAMELSAD":"Essex County","STUSPS":"VA","STATE_NAME":"Virginia","LSAD":"06","ALAND":666506845,"AWATER":74795386},"id":"51057"},{"arcs":[[[-86,256]],[[257]]],"type":"MultiPolygon","properties":{"STATEFP":"51","COUNTYFP":"001","COUNTYNS":"01480091","GEOIDFQ":"0500000US51001","GEOID":"51001","NAME":"Accomack","NAMELSAD":"Accomack County","STUSPS":"VA","STATE_NAME":"Virginia","LSAD":"06","ALAND":1163694094,"AWATER":2229291796},"id":"51001"},{"arcs":[[-14]],"type":"Polygon","properties":{"STATEFP":"51","COUNTYFP":"678","COUNTYNS":"01789071","GEOIDFQ":"0500000US51678","GEOID":"51678","NAME":"Lexington","NAMELSAD":"Lexington city","STUSPS":"VA","STATE_NAME":"Virginia","LSAD":"25","ALAND":6473001,"AWATER":67783},"id":"51678"},{"arcs":[[-8,-235,258,-184,259]],"type":"Polygon","properties":{"STATEFP":"51","COUNTYFP":"017","COUNTYNS":"01673638","GEOIDFQ":"0500000US51017","GEOID":"51017","NAME":"Bath","NAMELSAD":"Bath County","STUSPS":"VA","STATE_NAME":"Virginia","LSAD":"06","ALAND":1370626042,"AWATER":14039993},"id":"51017"},{"arcs":[[-209,260,261,262,-220,263,-218,-252]],"type":"Polygon","properties":{"STATEFP":"51","COUNTYFP":"149","COUNTYNS":"01480160","GEOIDFQ":"0500000US51149","GEOID":"51149","NAME":"Prince George","NAMELSAD":"Prince George County","STUSPS":"VA","STATE_NAME":"Virginia","LSAD":"06","ALAND":687232243,"AWATER":42745198},"id":"51149"},{"arcs":[[-26,264,-186,265,266,-199,267,-46],[268]],"type":"Polygon","properties":{"STATEFP":"51","COUNTYFP":"003","COUNTYNS":"01675170","GEOIDFQ":"0500000US51003","GEOID":"51003","NAME":"Albemarle","NAMELSAD":"Albemarle County","STUSPS":"VA","STATE_NAME":"Virginia","LSAD":"06","ALAND":1866027161,"AWATER":14210136},"id":"51003"},{"arcs":[[-48,269,-122,270,-125]],"type":"Polygon","properties":{"STATEFP":"51","COUNTYFP":"113","COUNTYNS":"01494590","GEOIDFQ":"0500000US51113","GEOID":"51113","NAME":"Madison","NAMELSAD":"Madison County","STUSPS":"VA","STATE_NAME":"Virginia","LSAD":"06","ALAND":830449705,"AWATER":3206141},"id":"51113"},{"arcs":[[-10,271,-266,-191,272,-244]],"type":"Polygon","properties":{"STATEFP":"51","COUNTYFP":"125","COUNTYNS":"01500936","GEOIDFQ":"0500000US51125","GEOID":"51125","NAME":"Nelson","NAMELSAD":"Nelson County","STUSPS":"VA","STATE_NAME":"Virginia","LSAD":"06","ALAND":1219224535,"AWATER":8983980},"id":"51125"},{"arcs":[[-76,-224,273,-262,274,275,276,277]],"type":"Polygon","properties":{"STATEFP":"51","COUNTYFP":"053","COUNTYNS":"01690739","GEOIDFQ":"0500000US51053","GEOID":"51053","NAME":"Dinwiddie","NAMELSAD":"Dinwiddie County","STUSPS":"VA","STATE_NAME":"Virginia","LSAD":"06","ALAND":1304903543,"AWATER":8988308},"id":"51053"},{"arcs":[[-121,-174,278,-126,-271]],"type":"Polygon","properties":{"STATEFP":"51","COUNTYFP":"157","COUNTYNS":"01673976","GEOIDFQ":"0500000US51157","GEOID":"51157","NAME":"Rappahannock","NAMELSAD":"Rappahannock County","STUSPS":"VA","STATE_NAME":"Virginia","LSAD":"06","ALAND":689900922,"AWATER":2142396},"id":"51157"},{"arcs":[[-67,-83,279,-195]],"type":"Polygon","properties":{"STATEFP":"51","COUNTYFP":"051","COUNTYNS":"01497376","GEOIDFQ":"0500000US51051","GEOID":"51051","NAME":"Dickenson","NAMELSAD":"Dickenson County","STUSPS":"VA","STATE_NAME":"Virginia","LSAD":"06","ALAND":855841910,"AWATER":8100226},"id":"51051"},{"arcs":[[-228,280,281,-276,282],[283]],"type":"Polygon","properties":{"STATEFP":"51","COUNTYFP":"081","COUNTYNS":"01501122","GEOIDFQ":"0500000US51081","GEOID":"51081","NAME":"Greensville","NAMELSAD":"Greensville County","STUSPS":"VA","STATE_NAME":"Virginia","LSAD":"06","ALAND":765023844,"AWATER":4132842},"id":"51081"},{"arcs":[[-55,-62,284,285,286,287,-57,288]],"type":"Polygon","properties":{"STATEFP":"51","COUNTYFP":"155","COUNTYNS":"01501465","GEOIDFQ":"0500000US51155","GEOID":"51155","NAME":"Pulaski","NAMELSAD":"Pulaski County","STUSPS":"VA","STATE_NAME":"Virginia","LSAD":"06","ALAND":828380601,"AWATER":24874335},"id":"51155"},{"arcs":[[-53,289,-242,290,291,-58],[292,293]],"type":"Polygon","properties":{"STATEFP":"51","COUNTYFP":"161","COUNTYNS":"01480165","GEOIDFQ":"0500000US51161","GEOID":"51161","NAME":"Roanoke","NAMELSAD":"Roanoke County","STUSPS":"VA","STATE_NAME":"Virginia","LSAD":"06","ALAND":648919660,"AWATER":1752263},"id":"51161"},{"arcs":[[294,295,296,297,298,299,300,301]],"type":"Polygon","properties":{"STATEFP":"51","COUNTYFP":"077","COUNTYNS":"01501196","GEOIDFQ":"0500000US51077","GEOID":"51077","NAME":"Grayson","NAMELSAD":"Grayson County","STUSPS":"VA","STATE_NAME":"Virginia","LSAD":"06","ALAND":1144218750,"AWATER":9792930},"id":"51077"},{"arcs":[[-293,302]],"type":"Polygon","properties":{"STATEFP":"51","COUNTYFP":"770","COUNTYNS":"01498439","GEOIDFQ":"0500000US51770","GEOID":"51770","NAME":"Roanoke","NAMELSAD":"Roanoke city","STUSPS":"VA","STATE_NAME":"Virginia","LSAD":"25","ALAND":110129887,"AWATER":855753},"id":"51770"},{"arcs":[[-51,-288,303,304,305]],"type":"Polygon","properties":{"STATEFP":"51","COUNTYFP":"071","COUNTYNS":"01494551","GEOIDFQ":"0500000US51071","GEOID":"51071","NAME":"Giles","NAMELSAD":"Giles County","STUSPS":"VA","STATE_NAME":"Virginia","LSAD":"06","ALAND":925207242,"AWATER":11232364},"id":"51071"},{"arcs":[[306,307,308,309]],"type":"Polygon","properties":{"STATEFP":"51","COUNTYFP":"710","COUNTYNS":"01498557","GEOIDFQ":"0500000US51710","GEOID":"51710","NAME":"Norfolk","NAMELSAD":"Norfolk city","STUSPS":"VA","STATE_NAME":"Virginia","LSAD":"25","ALAND":137981433,"AWATER":111701531},"id":"51710"},{"arcs":[[-88,-134,-163,-167,310,311]],"type":"Polygon","properties":{"STATEFP":"51","COUNTYFP":"073","COUNTYNS":"01480126","GEOIDFQ":"0500000US51073","GEOID":"51073","NAME":"Gloucester","NAMELSAD":"Gloucester County","STUSPS":"VA","STATE_NAME":"Virginia","LSAD":"06","ALAND":564137398,"AWATER":181734822},"id":"51073"},{"arcs":[[-219,-264]],"type":"Polygon","properties":{"STATEFP":"51","COUNTYFP":"670","COUNTYNS":"01498428","GEOIDFQ":"0500000US51670","GEOID":"51670","NAME":"Hopewell","NAMELSAD":"Hopewell city","STUSPS":"VA","STATE_NAME":"Virginia","LSAD":"25","ALAND":26817672,"AWATER":1228128},"id":"51670"},{"arcs":[[-239,312]],"type":"Polygon","properties":{"STATEFP":"51","COUNTYFP":"685","COUNTYNS":"01498431","GEOIDFQ":"0500000US51685","GEOID":"51685","NAME":"Manassas Park","NAMELSAD":"Manassas Park city","STUSPS":"VA","STATE_NAME":"Virginia","LSAD":"25","ALAND":7835184,"AWATER":1609},"id":"51685"},{"arcs":[[-146,313,-246]],"type":"Polygon","properties":{"STATEFP":"51","COUNTYFP":"680","COUNTYNS":"01498429","GEOIDFQ":"0500000US51680","GEOID":"51680","NAME":"Lynchburg","NAMELSAD":"Lynchburg city","STUSPS":"VA","STATE_NAME":"Virginia","LSAD":"25","ALAND":126695080,"AWATER":1427120},"id":"51680"},{"arcs":[[-61,-139,314,-301,315,-299,316,-285]],"type":"Polygon","properties":{"STATEFP":"51","COUNTYFP":"035","COUNTYNS":"01480108","GEOIDFQ":"0500000US51035","GEOID":"51035","NAME":"Carroll","NAMELSAD":"Carroll County","STUSPS":"VA","STATE_NAME":"Virginia","LSAD":"06","ALAND":1229575927,"AWATER":7586185},"id":"51035"},{"arcs":[[-101,-143]],"type":"Polygon","properties":{"STATEFP":"51","COUNTYFP":"630","COUNTYNS":"01498425","GEOIDFQ":"0500000US51630","GEOID":"51630","NAME":"Fredericksburg","NAMELSAD":"Fredericksburg city","STUSPS":"VA","STATE_NAME":"Virginia","LSAD":"25","ALAND":27066499,"AWATER":178344},"id":"51630"},{"arcs":[[317]],"type":"Polygon","properties":{"STATEFP":"51","COUNTYFP":"820","COUNTYNS":"01498443","GEOIDFQ":"0500000US51820","GEOID":"51820","NAME":"Waynesboro","NAMELSAD":"Waynesboro city","STUSPS":"VA","STATE_NAME":"Virginia","LSAD":"25","ALAND":38771596,"AWATER":364644},"id":"51820"},{"arcs":[[-56,-289]],"type":"Polygon","properties":{"STATEFP":"51","COUNTYFP":"750","COUNTYNS":"01498438","GEOIDFQ":"0500000US51750","GEOID":"51750","NAME":"Radford","NAMELSAD":"Radford city","STUSPS":"VA","STATE_NAME":"Virginia","LSAD":"25","ALAND":25061729,"AWATER":858277},"id":"51750"},{"arcs":[[-309,318,319,320]],"type":"Polygon","properties":{"STATEFP":"51","COUNTYFP":"740","COUNTYNS":"01498556","GEOIDFQ":"0500000US51740","GEOID":"51740","NAME":"Portsmouth","NAMELSAD":"Portsmouth city","STUSPS":"VA","STATE_NAME":"Virginia","LSAD":"25","ALAND":86250120,"AWATER":34656357},"id":"51740"},{"arcs":[[-91,321,322,323]],"type":"Polygon","properties":{"STATEFP":"51","COUNTYFP":"650","COUNTYNS":"01498554","GEOIDFQ":"0500000US51650","GEOID":"51650","NAME":"Hampton","NAMELSAD":"Hampton city","STUSPS":"VA","STATE_NAME":"Virginia","LSAD":"25","ALAND":133290524,"AWATER":219660054},"id":"51650"},{"arcs":[[-137,324,-176,325],[326]],"type":"Polygon","properties":{"STATEFP":"51","COUNTYFP":"089","COUNTYNS":"01502770","GEOIDFQ":"0500000US51089","GEOID":"51089","NAME":"Henry","NAMELSAD":"Henry County","STUSPS":"VA","STATE_NAME":"Virginia","LSAD":"06","ALAND":990284627,"AWATER":5269785},"id":"51089"},{"arcs":[[-33,327,328,-35,-248]],"type":"Polygon","properties":{"STATEFP":"51","COUNTYFP":"013","COUNTYNS":"01480097","GEOIDFQ":"0500000US51013","GEOID":"51013","NAME":"Arlington","NAMELSAD":"Arlington County","STUSPS":"VA","STATE_NAME":"Virginia","LSAD":"06","ALAND":67332992,"AWATER":273562},"id":"51013"},{"arcs":[[-94,-135]],"type":"Polygon","properties":{"STATEFP":"51","COUNTYFP":"830","COUNTYNS":"01789076","GEOIDFQ":"0500000US51830","GEOID":"51830","NAME":"Williamsburg","NAMELSAD":"Williamsburg city","STUSPS":"VA","STATE_NAME":"Virginia","LSAD":"25","ALAND":23149766,"AWATER":416905},"id":"51830"},{"arcs":[[329,-226,-211,330,-320,331]],"type":"Polygon","properties":{"STATEFP":"51","COUNTYFP":"800","COUNTYNS":"01498560","GEOIDFQ":"0500000US51800","GEOID":"51800","NAME":"Suffolk","NAMELSAD":"Suffolk city","STUSPS":"VA","STATE_NAME":"Virginia","LSAD":"25","ALAND":1033846634,"AWATER":77018053},"id":"51800"},{"arcs":[[-286,-317,-298,332,333]],"type":"Polygon","properties":{"STATEFP":"51","COUNTYFP":"197","COUNTYNS":"01501379","GEOIDFQ":"0500000US51197","GEOID":"51197","NAME":"Wythe","NAMELSAD":"Wythe County","STUSPS":"VA","STATE_NAME":"Virginia","LSAD":"06","ALAND":1196450499,"AWATER":7232492},"id":"51197"},{"arcs":[[-18,-171,334,-277,-282,335]],"type":"Polygon","properties":{"STATEFP":"51","COUNTYFP":"025","COUNTYNS":"01493961","GEOIDFQ":"0500000US51025","GEOID":"51025","NAME":"Brunswick","NAMELSAD":"Brunswick County","STUSPS":"VA","STATE_NAME":"Virginia","LSAD":"06","ALAND":1466842627,"AWATER":8368077},"id":"51025"},{"arcs":[[-12,-247,-314,-145,-178,336,-291,-241]],"type":"Polygon","properties":{"STATEFP":"51","COUNTYFP":"019","COUNTYNS":"01674818","GEOIDFQ":"0500000US51019","GEOID":"51019","NAME":"Bedford","NAMELSAD":"Bedford County","STUSPS":"VA","STATE_NAME":"Virginia","LSAD":"06","ALAND":1968687982,"AWATER":42062313},"id":"51019"},{"arcs":[[-52,-306,337,-233,-243,-290]],"type":"Polygon","properties":{"STATEFP":"51","COUNTYFP":"045","COUNTYNS":"01673664","GEOIDFQ":"0500000US51045","GEOID":"51045","NAME":"Craig","NAMELSAD":"Craig County","STUSPS":"VA","STATE_NAME":"Virginia","LSAD":"06","ALAND":849770441,"AWATER":2793174},"id":"51045"},{"arcs":[[-15]],"type":"Polygon","properties":{"STATEFP":"51","COUNTYFP":"530","COUNTYNS":"01498417","GEOIDFQ":"0500000US51530","GEOID":"51530","NAME":"Buena Vista","NAMELSAD":"Buena Vista city","STUSPS":"VA","STATE_NAME":"Virginia","LSAD":"25","ALAND":16674752,"AWATER":219579},"id":"51530"},{"arcs":[[-148,-245,-273,-190,338,339]],"type":"Polygon","properties":{"STATEFP":"51","COUNTYFP":"011","COUNTYNS":"01497238","GEOIDFQ":"0500000US51011","GEOID":"51011","NAME":"Appomattox","NAMELSAD":"Appomattox County","STUSPS":"VA","STATE_NAME":"Virginia","LSAD":"06","ALAND":865635290,"AWATER":3206454},"id":"51011"},{"arcs":[[-116,-216]],"type":"Polygon","properties":{"STATEFP":"51","COUNTYFP":"760","COUNTYNS":"01789073","GEOIDFQ":"0500000US51760","GEOID":"51760","NAME":"Richmond","NAMELSAD":"Richmond city","STUSPS":"VA","STATE_NAME":"Virginia","LSAD":"25","ALAND":155205068,"AWATER":6849165},"id":"51760"},{"arcs":[[-284]],"type":"Polygon","properties":{"STATEFP":"51","COUNTYFP":"595","COUNTYNS":"01498422","GEOIDFQ":"0500000US51595","GEOID":"51595","NAME":"Emporia","NAMELSAD":"Emporia city","STUSPS":"VA","STATE_NAME":"Virginia","LSAD":"25","ALAND":17168108,"AWATER":124634},"id":"51595"},{"arcs":[[-269]],"type":"Polygon","properties":{"STATEFP":"51","COUNTYFP":"540","COUNTYNS":"01789068","GEOIDFQ":"0500000US51540","GEOID":"51540","NAME":"Charlottesville","NAMELSAD":"Charlottesville city","STUSPS":"VA","STATE_NAME":"Virginia","LSAD":"25","ALAND":26535238,"AWATER":46120},"id":"51540"},{"arcs":[[-77,-278,-335,-170,340]],"type":"Polygon","properties":{"STATEFP":"51","COUNTYFP":"135","COUNTYNS":"01493928","GEOIDFQ":"0500000US51135","GEOID":"51135","NAME":"Nottoway","NAMELSAD":"Nottoway County","STUSPS":"VA","STATE_NAME":"Virginia","LSAD":"06","ALAND":814265584,"AWATER":4297830},"id":"51135"},{"arcs":[[-208,-229,-283,-275,-261]],"type":"Polygon","properties":{"STATEFP":"51","COUNTYFP":"183","COUNTYNS":"01690257","GEOIDFQ":"0500000US51183","GEOID":"51183","NAME":"Sussex","NAMELSAD":"Sussex County","STUSPS":"VA","STATE_NAME":"Virginia","LSAD":"06","ALAND":1269725163,"AWATER":6739204},"id":"51183"},{"arcs":[[-5,341,-172,-41,342]],"type":"Polygon","properties":{"STATEFP":"51","COUNTYFP":"043","COUNTYNS":"01690562","GEOIDFQ":"0500000US51043","GEOID":"51043","NAME":"Clarke","NAMELSAD":"Clarke County","STUSPS":"VA","STATE_NAME":"Virginia","LSAD":"06","ALAND":455729731,"AWATER":5685740},"id":"51043"},{"arcs":[[-236]],"type":"Polygon","properties":{"STATEFP":"51","COUNTYFP":"580","COUNTYNS":"01789069","GEOIDFQ":"0500000US51580","GEOID":"51580","NAME":"Covington","NAMELSAD":"Covington city","STUSPS":"VA","STATE_NAME":"Virginia","LSAD":"25","ALAND":14163840,"AWATER":521492},"id":"51580"},{"arcs":[[-59,-292,-337,-177,-325,-136]],"type":"Polygon","properties":{"STATEFP":"51","COUNTYFP":"067","COUNTYNS":"01494434","GEOIDFQ":"0500000US51067","GEOID":"51067","NAME":"Franklin","NAMELSAD":"Franklin County","STUSPS":"VA","STATE_NAME":"Virginia","LSAD":"06","ALAND":1788673577,"AWATER":54402647},"id":"51067"},{"arcs":[[-294,-303]],"type":"Polygon","properties":{"STATEFP":"51","COUNTYFP":"775","COUNTYNS":"01789074","GEOIDFQ":"0500000US51775","GEOID":"51775","NAME":"Salem","NAMELSAD":"Salem city","STUSPS":"VA","STATE_NAME":"Virginia","LSAD":"25","ALAND":37597966,"AWATER":275156},"id":"51775"},{"arcs":[[-327]],"type":"Polygon","properties":{"STATEFP":"51","COUNTYFP":"690","COUNTYNS":"01789072","GEOIDFQ":"0500000US51690","GEOID":"51690","NAME":"Martinsville","NAMELSAD":"Martinsville city","STUSPS":"VA","STATE_NAME":"Virginia","LSAD":"25","ALAND":28374648,"AWATER":135578},"id":"51690"},{"arcs":[[-300,-316]],"type":"Polygon","properties":{"STATEFP":"51","COUNTYFP":"640","COUNTYNS":"01498426","GEOIDFQ":"0500000US51640","GEOID":"51640","NAME":"Galax","NAMELSAD":"Galax city","STUSPS":"VA","STATE_NAME":"Virginia","LSAD":"25","ALAND":21332079,"AWATER":105290},"id":"51640"},{"arcs":[[-84]],"type":"Polygon","properties":{"STATEFP":"51","COUNTYFP":"720","COUNTYNS":"01498434","GEOIDFQ":"0500000US51720","GEOID":"51720","NAME":"Norton","NAMELSAD":"Norton city","STUSPS":"VA","STATE_NAME":"Virginia","LSAD":"25","ALAND":19366552,"AWATER":88961},"id":"51720"},{"arcs":[[343,344,-307,345]],"type":"Polygon","properties":{"STATEFP":"51","COUNTYFP":"810","COUNTYNS":"01498559","GEOIDFQ":"0500000US51810","GEOID":"51810","NAME":"Virginia Beach","NAMELSAD":"Virginia Beach city","STUSPS":"VA","STATE_NAME":"Virginia","LSAD":"25","ALAND":633821983,"AWATER":654694007},"id":"51810"},{"arcs":[[-213,-225]],"type":"Polygon","properties":{"STATEFP":"51","COUNTYFP":"620","COUNTYNS":"01498424","GEOIDFQ":"0500000US51620","GEOID":"51620","NAME":"Franklin","NAMELSAD":"Franklin city","STUSPS":"VA","STATE_NAME":"Virginia","LSAD":"25","ALAND":21438216,"AWATER":227442},"id":"51620"},{"arcs":[[346,-181]],"type":"Polygon","properties":{"STATEFP":"51","COUNTYFP":"590","COUNTYNS":"01498421","GEOIDFQ":"0500000US51590","GEOID":"51590","NAME":"Danville","NAMELSAD":"Danville city","STUSPS":"VA","STATE_NAME":"Virginia","LSAD":"25","ALAND":110858275,"AWATER":2327667},"id":"51590"},{"arcs":[[347,-141,-80,-72,348]],"type":"Polygon","properties":{"STATEFP":"51","COUNTYFP":"169","COUNTYNS":"01498172","GEOIDFQ":"0500000US51169","GEOID":"51169","NAME":"Scott","NAMELSAD":"Scott County","STUSPS":"VA","STATE_NAME":"Virginia","LSAD":"06","ALAND":1387786259,"AWATER":8105326},"id":"51169"},{"arcs":[[-47,-268,-198,-123,-270]],"type":"Polygon","properties":{"STATEFP":"51","COUNTYFP":"079","COUNTYNS":"01480129","GEOIDFQ":"0500000US51079","GEOID":"51079","NAME":"Greene","NAMELSAD":"Greene County","STUSPS":"VA","STATE_NAME":"Virginia","LSAD":"06","ALAND":403900808,"AWATER":1680201},"id":"51079"},{"arcs":[[-9,-260,-183,349,-200,-267,-272],[-318],[350]],"type":"Polygon","properties":{"STATEFP":"51","COUNTYFP":"015","COUNTYNS":"01480098","GEOIDFQ":"0500000US51015","GEOID":"51015","NAME":"Augusta","NAMELSAD":"Augusta County","STUSPS":"VA","STATE_NAME":"Virginia","LSAD":"06","ALAND":2504708858,"AWATER":9537137},"id":"51015"},{"arcs":[[-240,-313]],"type":"Polygon","properties":{"STATEFP":"51","COUNTYFP":"683","COUNTYNS":"01498430","GEOIDFQ":"0500000US51683","GEOID":"51683","NAME":"Manassas","NAMELSAD":"Manassas city","STUSPS":"VA","STATE_NAME":"Virginia","LSAD":"25","ALAND":25493247,"AWATER":146287},"id":"51683"},{"arcs":[[-25,-194,351,-187,-265]],"type":"Polygon","properties":{"STATEFP":"51","COUNTYFP":"065","COUNTYNS":"01494061","GEOIDFQ":"0500000US51065","GEOID":"51065","NAME":"Fluvanna","NAMELSAD":"Fluvanna County","STUSPS":"VA","STATE_NAME":"Virginia","LSAD":"06","ALAND":743637222,"AWATER":10740210},"id":"51065"},{"arcs":[[-36,-329,352]],"type":"Polygon","properties":{"STATEFP":"51","COUNTYFP":"510","COUNTYNS":"01498415","GEOIDFQ":"0500000US51510","GEOID":"51510","NAME":"Alexandria","NAMELSAD":"Alexandria city","STUSPS":"VA","STATE_NAME":"Virginia","LSAD":"25","ALAND":38682331,"AWATER":1069028},"id":"51510"},{"arcs":[[-202]],"type":"Polygon","properties":{"STATEFP":"51","COUNTYFP":"660","COUNTYNS":"01498563","GEOIDFQ":"0500000US51660","GEOID":"51660","NAME":"Harrisonburg","NAMELSAD":"Harrisonburg city","STUSPS":"VA","STATE_NAME":"Virginia","LSAD":"25","ALAND":44898872,"AWATER":131080},"id":"51660"},{"arcs":[[-166,353,-311]],"type":"Polygon","properties":{"STATEFP":"51","COUNTYFP":"115","COUNTYNS":"01480145","GEOIDFQ":"0500000US51115","GEOID":"51115","NAME":"Mathews","NAMELSAD":"Mathews County","STUSPS":"VA","STATE_NAME":"Virginia","LSAD":"06","ALAND":222510317,"AWATER":430069398},"id":"51115"},{"arcs":[[354,355]],"type":"Polygon","properties":{"STATEFP":"51","COUNTYFP":"520","COUNTYNS":"01498416","GEOIDFQ":"0500000US51520","GEOID":"51520","NAME":"Bristol","NAMELSAD":"Bristol city","STUSPS":"VA","STATE_NAME":"Virginia","LSAD":"25","ALAND":33342735,"AWATER":315904},"id":"51520"},{"arcs":[[-287,-334,356,357,358,-304]],"type":"Polygon","properties":{"STATEFP":"51","COUNTYFP":"021","COUNTYNS":"01494613","GEOIDFQ":"0500000US51021","GEOID":"51021","NAME":"Bland","NAMELSAD":"Bland County","STUSPS":"VA","STATE_NAME":"Virginia","LSAD":"06","ALAND":926296567,"AWATER":2561891},"id":"51021"},{"arcs":[[-70,359,-357,-333,-297,360]],"type":"Polygon","properties":{"STATEFP":"51","COUNTYFP":"173","COUNTYNS":"01500545","GEOIDFQ":"0500000US51173","GEOID":"51173","NAME":"Smyth","NAMELSAD":"Smyth County","STUSPS":"VA","STATE_NAME":"Virginia","LSAD":"06","ALAND":1169221994,"AWATER":3289166},"id":"51173"},{"arcs":[[-39]],"type":"Polygon","properties":{"STATEFP":"51","COUNTYFP":"600","COUNTYNS":"01789070","GEOIDFQ":"0500000US51600","GEOID":"51600","NAME":"Fairfax","NAMELSAD":"Fairfax city","STUSPS":"VA","STATE_NAME":"Virginia","LSAD":"25","ALAND":16163923,"AWATER":84155},"id":"51600"},{"arcs":[[-351]],"type":"Polygon","properties":{"STATEFP":"51","COUNTYFP":"790","COUNTYNS":"01789075","GEOIDFQ":"0500000US51790","GEOID":"51790","NAME":"Staunton","NAMELSAD":"Staunton city","STUSPS":"VA","STATE_NAME":"Virginia","LSAD":"25","ALAND":51593818,"AWATER":147694},"id":"51790"},{"arcs":[[-92,-324,361,-129]],"type":"Polygon","properties":{"STATEFP":"51","COUNTYFP":"700","COUNTYNS":"01498555","GEOIDFQ":"0500000US51700","GEOID":"51700","NAME":"Newport News","NAMELSAD":"Newport News city","STUSPS":"VA","STATE_NAME":"Virginia","LSAD":"25","ALAND":178698605,"AWATER":131131002},"id":"51700"},{"arcs":[[362,-332,-319,-308,-345,363]],"type":"Polygon","properties":{"STATEFP":"51","COUNTYFP":"550","COUNTYNS":"01498558","GEOIDFQ":"0500000US51550","GEOID":"51550","NAME":"Chesapeake","NAMELSAD":"Chesapeake city","STUSPS":"VA","STATE_NAME":"Virginia","LSAD":"25","ALAND":876598059,"AWATER":32349710},"id":"51550"},{"arcs":[[-90,364,-322]],"type":"Polygon","properties":{"STATEFP":"51","COUNTYFP":"735","COUNTYNS":"01498436","GEOIDFQ":"0500000US51735","GEOID":"51735","NAME":"Poquoson","NAMELSAD":"Poquoson city","STUSPS":"VA","STATE_NAME":"Virginia","LSAD":"25","ALAND":39773692,"AWATER":163429842},"id":"51735"},{"arcs":[[365,-349,-71,-361,-296,366,-356]],"type":"Polygon","properties":{"STATEFP":"51","COUNTYFP":"191","COUNTYNS":"01498359","GEOIDFQ":"0500000US51191","GEOID":"51191","NAME":"Washington","NAMELSAD":"Washington County","STUSPS":"VA","STATE_NAME":"Virginia","LSAD":"06","ALAND":1453483671,"AWATER":12984239},"id":"51191"},{"arcs":[[-4,-238,-104,-127,-279,-173,-342]],"type":"Polygon","properties":{"STATEFP":"51","COUNTYFP":"061","COUNTYNS":"01480120","GEOIDFQ":"0500000US51061","GEOID":"51061","NAME":"Fauquier","NAMELSAD":"Fauquier County","STUSPS":"VA","STATE_NAME":"Virginia","LSAD":"06","ALAND":1678296506,"AWATER":9665073},"id":"51061"},{"arcs":[[-79,367,-188,-352,-193,368]],"type":"Polygon","properties":{"STATEFP":"51","COUNTYFP":"049","COUNTYNS":"01494109","GEOIDFQ":"0500000US51049","GEOID":"51049","NAME":"Cumberland","NAMELSAD":"Cumberland County","STUSPS":"VA","STATE_NAME":"Virginia","LSAD":"06","ALAND":770454311,"AWATER":5917833},"id":"51049"},{"arcs":[[-74,-369,-192,-215]],"type":"Polygon","properties":{"STATEFP":"51","COUNTYFP":"145","COUNTYNS":"01674225","GEOIDFQ":"0500000US51145","GEOID":"51145","NAME":"Powhatan","NAMELSAD":"Powhatan County","STUSPS":"VA","STATE_NAME":"Virginia","LSAD":"06","ALAND":673921300,"AWATER":5444149},"id":"51145"},{"arcs":[[-16,-231,-149,-340,369,-168]],"type":"Polygon","properties":{"STATEFP":"51","COUNTYFP":"037","COUNTYNS":"01492442","GEOIDFQ":"0500000US51037","GEOID":"51037","NAME":"Charlotte","NAMELSAD":"Charlotte County","STUSPS":"VA","STATE_NAME":"Virginia","LSAD":"06","ALAND":1231010117,"AWATER":5809378},"id":"51037"},{"arcs":[[-78,-341,-169,-370,-339,-189,-368]],"type":"Polygon","properties":{"STATEFP":"51","COUNTYFP":"147","COUNTYNS":"01492359","GEOIDFQ":"0500000US51147","GEOID":"51147","NAME":"Prince Edward","NAMELSAD":"Prince Edward County","STUSPS":"VA","STATE_NAME":"Virginia","LSAD":"06","ALAND":906356805,"AWATER":10079281},"id":"51147"},{"arcs":[[-221,-263,-274,-223,-253]],"type":"Polygon","properties":{"STATEFP":"51","COUNTYFP":"730","COUNTYNS":"01498435","GEOIDFQ":"0500000US51730","GEOID":"51730","NAME":"Petersburg","NAMELSAD":"Petersburg city","STUSPS":"VA","STATE_NAME":"Virginia","LSAD":"25","ALAND":58845730,"AWATER":577678},"id":"51730"},{"arcs":[[-69,-197,370,-358,-360]],"type":"Polygon","properties":{"STATEFP":"51","COUNTYFP":"185","COUNTYNS":"01497748","GEOIDFQ":"0500000US51185","GEOID":"51185","NAME":"Tazewell","NAMELSAD":"Tazewell County","STUSPS":"VA","STATE_NAME":"Virginia","LSAD":"06","ALAND":1343663014,"AWATER":2920222},"id":"51185"}]}}}