{"type":"Topology","arcs":[[[2964,4705],[36,41],[1,63],[16,23],[32,-37],[36,-21],[-7,-52],[11,-25],[-10,-36],[26,-23],[-16,-34],[3,-44],[20,-26],[-27,-24],[-27,0],[-21,46],[-53,9],[-2,96],[-18,44]],[[3020,4128],[-347,0]],[[2673,4128],[0,260],[-192,4],[-116,-4]],[[2365,4388],[72,112],[9,32],[59,28],[7,50],[80,40],[39,37],[32,-11],[77,39],[11,33],[-5,78],[36,69],[11,41],[34,26],[8,43],[44,52],[40,32],[21,45],[48,2],[1,37],[-32,102],[65,-2],[33,-15],[18,-68],[-3,-35],[11,-76],[33,-36],[-27,-55],[43,-55],[-1,-36],[-23,-14],[-68,8],[-17,-36],[-60,-81],[-35,39],[7,-107],[-6,-31],[37,-32],[-10,-73],[9,-18],[-15,-45],[-33,-29],[-64,-32],[-16,-43],[89,46],[19,-2],[51,79],[43,-44],[-9,-89],[33,1],[35,-27],[-51,-93],[1,-86],[-26,-60]],[[522,4417],[427,0],[0,-33],[426,-2],[322,0]],[[1697,4382],[2,-575],[19,-1],[3,-390],[166,0],[231,5]],[[2118,3421],[2,-165],[-3,-30],[61,-2],[-3,-192],[0,-258]],[[2175,2774],[-264,0],[-27,-3]],[[1884,2771],[-223,5],[-449,-6],[-335,6]],[[877,2776],[-13,94],[-35,133],[31,36],[25,-25],[5,-75],[22,-14],[25,20],[8,46],[49,28],[40,40],[38,-1],[28,16],[93,33],[27,19],[-12,35],[-86,9],[-35,-7],[-17,29],[-45,-3],[-37,29],[18,23],[-29,59],[-55,24],[-78,1],[-27,-14],[-13,-31],[19,-49],[-1,-63],[15,-56],[-65,-41],[7,149],[-10,219],[-27,180],[-18,98],[-38,153],[-29,38],[-29,5],[-30,93],[-27,16],[-15,99],[-8,11],[-13,186],[-13,99]],[[6726,2408],[71,-5],[99,21],[55,29],[72,-19],[47,10],[60,56],[90,128],[43,-26],[50,-66],[-5,-15]],[[7308,2521],[-4,-18],[60,-41],[8,-73],[55,-83],[56,-43],[30,-53],[48,-40],[15,-55],[-6,-39],[7,-96],[-14,-145],[17,-55],[9,-68],[-22,-61],[9,-40],[32,-18],[36,-50],[52,-23],[66,-9],[116,-70]],[[7878,1441],[38,-37],[64,-100],[-1,-27],[37,-99],[-7,-68],[7,-37],[-27,-17],[-36,-43]],[[7953,1013],[-29,-46],[-73,-46],[-44,-35],[-46,-22],[-96,-11],[-85,27],[-91,-15],[-58,-26],[-94,-7],[-77,-27],[-51,5],[-65,38],[-40,-13],[-31,-31],[-65,-109],[-142,-25],[-42,5],[-90,-26]],[[6734,649],[1,421],[2,34]],[[6737,1104],[-1,385],[-10,0],[0,227],[-2,578],[2,114]],[[2498,5597],[-30,0],[-3,-311],[3,-129],[-288,0],[-483,0],[0,31],[-581,1],[-477,0],[-247,3],[-224,-5]],[[168,5187],[-43,61],[-5,61],[-23,25],[-22,101],[-11,127],[-15,44],[11,51],[-5,35],[-55,138],[38,32],[19,62],[-21,61],[29,34],[-2,71],[28,27],[10,70],[-40,17],[-61,94],[21,19],[79,3],[28,-12],[40,-42],[27,15],[36,-12],[36,-40],[19,-2],[154,-107],[46,-36],[27,7],[31,-26],[55,-17],[5,-22],[43,-9],[19,23],[80,-41],[86,-57],[40,-8],[-8,-38],[45,-20],[34,-29],[107,-30],[120,-7],[28,-14],[122,1],[95,27],[93,-30],[9,-26],[63,-16],[55,36],[60,-43],[63,6],[52,-37],[69,-9],[29,9],[54,-9],[37,16],[26,-11],[42,5],[30,20],[73,85],[73,-38],[37,-48],[26,-14],[36,-81],[-8,-27],[35,-87],[34,-12],[-20,60],[5,34],[-20,32],[58,26],[46,6],[42,-7],[-16,-67]],[[2118,3421],[176,0],[0,44],[20,21],[54,9],[26,73],[69,42],[8,35],[49,-22],[11,-41],[33,2],[30,21]],[[2594,3605],[23,-10],[-7,-61],[26,-23],[0,79],[9,35],[39,-54],[10,-56],[101,-75],[28,18]],[[2823,3458],[-21,-53],[42,-76],[8,-63],[58,-37],[-10,-47],[35,-22],[47,19],[16,-80],[95,-69],[10,-92],[33,-3],[21,-29],[56,-15],[55,-1],[73,-38],[21,-1],[1,-42],[-13,-29],[59,-65],[46,14],[46,-22]],[[3501,2707],[-385,0],[-186,-2],[-99,3],[-161,-1],[-263,3],[-232,0],[0,64]],[[3221,6011],[52,89],[-7,13]],[[3266,6113],[713,-1],[132,4],[175,-1],[265,-6],[613,0]],[[5164,6109],[-13,-39],[71,-112],[-7,-37],[62,-53],[18,-54],[-57,-18],[-24,-32],[18,-52],[-27,-19],[-11,-30],[-49,-45],[-28,5],[-111,-42],[-20,-28],[-31,-13],[33,-44],[15,-50],[-65,-95],[-9,-91],[-13,-32],[32,-50],[33,-74],[38,-31],[37,11],[13,-17],[-30,-57],[-37,-46]],[[5002,4964],[-106,-2],[-360,3],[-179,-8],[-468,0],[-95,-3],[-298,2],[-261,3]],[[3235,4959],[-1,64],[59,75],[19,14],[14,50],[-6,24],[16,73],[16,27],[5,53],[80,23],[27,26],[-2,84],[17,25],[-77,62],[-7,33],[-58,40],[-30,37],[-34,83],[-3,66],[17,39],[-17,19],[2,53],[-36,33]],[[3236,5962],[-15,49]],[[9029,2653],[28,28],[37,-11],[10,29],[42,4],[42,39],[66,-24],[17,38],[32,12],[-10,48],[31,23],[7,34],[-17,23],[46,42],[6,106],[10,0],[0,324],[-2,443]],[[9374,3811],[190,-1]],[[9564,3810],[485,-1],[600,-1]],[[10649,3808],[1,-293],[0,-477],[0,-471],[0,-352],[0,-257]],[[10650,1958],[-25,9],[-40,-28],[-90,30],[-67,-23],[-20,27],[11,36],[-30,30]],[[10389,2039],[-15,42],[10,43],[-30,97],[-81,81],[-36,3],[-29,45],[-33,27],[-4,74],[-10,14],[-55,12],[-45,89],[-35,-9],[-37,-41],[-45,7],[-67,-17],[-39,15],[-31,45],[-54,7],[-74,-18],[-27,-42],[-17,-67],[-39,-44],[-71,-2]],[[9525,2400],[-36,-35],[-5,-37],[-38,-17],[-61,16],[-44,-11],[-69,-4],[-47,-23],[-33,-1],[-36,-39],[-75,0],[-59,71]],[[9022,2320],[24,48],[-2,31],[-24,20],[-19,51],[18,51],[-44,118],[54,14]],[[2096,1869],[144,5],[220,-1],[356,-1],[172,2],[291,-1],[25,-4],[145,-1]],[[3449,1868],[-2,-385],[-6,-25],[1,-325]],[[3442,1133],[-32,12],[-35,-23],[-24,-45],[-19,-64],[-10,-77],[-59,-11],[-33,27],[-60,8],[-6,16],[-45,10],[-38,-17],[-23,9],[-48,-67],[-28,2],[-52,-43],[-74,3],[-28,-17],[-44,6],[-25,-37],[7,-65],[-13,-35],[-58,-44]],[[2695,681],[0,38],[-36,100],[7,44],[-11,64],[-33,44],[-25,74],[-31,38],[-8,64],[-28,52],[-81,47],[-57,64],[-140,97],[-15,17],[-70,9],[-64,-37]],[[2103,1396],[-5,131],[2,115],[-4,227]],[[3266,6113],[-71,81],[-26,8],[-64,65],[-60,18],[-36,112],[14,44],[-38,-1],[-14,-43],[-40,-26],[-57,-14],[-27,64],[29,39],[-19,72],[-48,12],[25,38],[19,-11],[77,39],[22,-2],[-1,-63],[21,-58],[19,0],[-10,58],[28,17],[30,-75],[47,-19],[45,25],[-18,52],[1,58],[-30,103],[30,-12],[39,14],[30,35],[10,40],[-32,51],[-22,7],[-34,44]],[[3105,6885],[319,0],[469,-2],[321,-3],[1080,-5],[0,35],[216,0]],[[5510,6910],[-50,-70],[6,-52],[32,-42],[42,-1],[11,30],[47,-45],[-28,-75],[9,-23]],[[5579,6632],[-10,-18],[-109,-36],[-40,28],[9,17],[-22,42],[-43,3],[-8,-39],[-31,18],[-26,-33],[-64,14],[-1,-67],[-117,-9],[-19,-22],[-19,-57],[31,-31],[5,-31],[-35,-59],[1,-57],[25,-35],[4,-36],[-39,-19],[0,-43],[31,-24],[62,-29]],[[2877,6671],[12,26],[-10,50],[102,-78],[-29,-25],[-56,-25],[-19,52]],[[2814,6831],[35,19],[11,-48],[-46,29]],[[2757,6751],[41,54],[20,-47],[39,-49],[-75,-57],[0,53],[-25,46]],[[3501,2707],[35,-18],[68,-1],[18,-12],[46,7],[81,-22],[22,22],[47,-15],[29,20],[30,-31],[83,-23],[53,-2],[22,40],[57,65],[24,15],[420,1]],[[4536,2753],[34,-93],[32,-30],[54,-5],[15,-31],[-25,-15],[-1,-42],[-31,3],[-19,-27],[-1,-60],[38,-28],[-1,-34],[-29,-43],[3,-42],[-26,-28],[16,-25],[-10,-31],[-43,-24],[-6,-46],[35,-33],[-9,-44],[29,-41],[12,-67],[29,-43],[-14,-49],[-174,0]],[[4444,1875],[-648,1],[-347,-8]],[[2096,1869],[-57,-5],[-137,1]],[[1902,1865],[1,224],[-3,173],[-8,1],[1,143],[-8,238],[-1,127]],[[7878,1441],[25,53],[70,49],[31,1],[125,29],[54,75],[61,9],[15,30],[-10,32],[18,23],[20,69],[68,8],[8,40],[30,16],[12,32],[38,25],[-6,43],[26,91],[5,67],[32,47],[37,21],[24,46],[28,26],[44,18],[28,43],[33,4],[40,-29],[47,-7],[38,38],[73,19],[31,-25],[59,12],[22,-16]],[[9004,2330],[1,-73],[-20,-13],[1,-189],[-1,-387],[174,1],[0,-194],[173,-1],[-2,-417],[-6,-42]],[[9324,1015],[-179,-1],[-513,1],[-615,-1],[-64,-1]],[[5002,4964],[55,-91],[-13,-80],[-56,-60],[8,-28],[-14,-39],[27,-62],[0,-46]],[[5009,4558],[-81,-16],[-14,-55],[-48,10],[-22,-20],[-3,-35],[-39,-48],[-31,-14],[-24,-69],[-49,-21],[-56,-49],[-8,-44],[-54,-27],[-23,-105],[-35,-19],[2,-27],[47,-45],[-20,-57],[16,-31],[67,-20],[60,-9],[2,-76],[-27,-13],[-8,-37],[66,-27],[16,-55],[-16,-32],[27,-54],[-7,-22],[-44,-14],[-41,20],[-41,-20],[-19,-32],[7,-45],[32,-23]],[[4641,3427],[0,-1]],[[4641,3426],[-104,5],[-49,61],[-57,17],[-70,-13],[-17,8],[-24,46],[-27,23],[-46,14],[-27,-21],[-49,2],[-14,15],[-92,34],[-63,-67],[-35,21],[-49,7],[-36,-18],[-88,35],[-28,28],[-50,-10],[-25,35],[-48,29],[-21,36],[0,33],[-39,58],[-264,0],[0,13],[-115,127]],[[3204,3944],[112,46],[16,16],[-3,87],[-11,46],[-18,17],[-9,58],[-18,38],[9,49],[-52,80],[1,73],[-32,57],[47,44],[35,-27],[26,17],[-2,40],[-35,35],[-62,33],[-21,42],[28,39],[9,47],[24,15],[18,55],[-10,65],[-21,43]],[[3054,4029],[13,41],[-15,33],[18,49],[1,77],[22,60],[21,16],[8,62],[34,-17],[-11,-37],[37,-45],[-13,-29],[18,-66],[4,-48],[44,-6],[30,-24],[-89,-51],[-22,-49],[-32,17],[18,53],[-28,11],[-13,-110],[-35,6],[-10,57]],[[3438,9],[-64,-9],[-51,10],[-29,47],[-38,15],[-81,-28],[-50,33],[-102,41],[-75,24],[-57,5],[-43,18],[-53,43],[-70,44],[-15,52],[17,107],[1,68],[-11,47],[-36,65],[14,90]],[[3442,1133],[-1,-222],[3,-194],[-8,0],[2,-708]],[[3105,6885],[-29,42],[27,15],[-12,59],[-28,43],[39,56],[-62,75],[-38,5],[-62,-35],[-40,-60],[-14,-40],[-38,44],[38,81],[1,25],[-50,40],[-33,-2],[-7,67],[-15,45],[-34,19],[-54,53],[3,21],[45,37],[7,43],[-33,26],[-24,-24],[-43,17],[2,37],[28,42],[54,61],[485,0],[428,0],[481,-11],[492,5],[70,3],[683,-2]],[[5372,7672],[-19,-45],[-24,-25],[47,-28],[19,-37],[21,4],[39,41],[32,-11],[20,-41],[-22,-19],[10,-62],[-6,-52],[44,-26],[-10,-94],[10,-79],[35,-33],[26,-53],[49,-51],[-31,-16],[0,-48],[-35,2],[-21,-50],[-46,-39]],[[2782,7076],[27,27],[48,-78],[69,-84],[12,-45],[-35,3],[-53,64],[-26,68],[-37,12],[-5,33]],[[2272,7676],[77,1],[15,-41],[-23,-15],[-60,-13],[-9,68]],[[5372,7672],[187,0],[471,1],[520,-3],[173,3],[619,-1],[411,0],[409,0]],[[8162,7672],[-1,-768],[-45,-1],[0,-381],[36,-1],[-3,-661],[0,-489],[-8,-12]],[[8141,5359],[-68,-22],[-78,-16],[-23,6]],[[7972,5327],[-12,41]],[[7960,5368],[23,46],[21,80],[-39,40],[-36,16],[-19,57],[-15,99],[-40,51],[-65,5],[-29,24],[-34,-10],[-36,-39],[-32,-7],[-73,-50],[-64,29],[-40,-42],[0,-59],[-22,-46],[-81,2],[-47,58],[-90,13],[-23,-44],[-107,-92],[-36,-54],[-52,13],[-49,65],[32,80],[-18,56],[-24,-20],[-33,-1],[-34,43],[-33,3],[-5,-34],[-47,-5],[-101,-62],[-16,-20],[36,-70],[3,-25],[-23,-76],[18,-28]],[[6730,5364],[-246,1],[-30,23],[9,23],[-24,26],[-3,39],[-53,48],[-34,11],[-14,63],[-95,42],[-47,57],[-55,43],[-29,-12],[-58,74],[0,33],[21,61],[-16,43],[-35,1],[-13,51],[-40,15],[-66,43],[-41,58],[-13,34],[-54,-8],[-50,28],[-4,39],[36,54],[-10,32],[-45,22],[-30,29],[-40,-1],[-6,122],[23,45],[-27,75],[7,66],[-69,-12]],[[1902,1865],[-184,0],[-326,2],[-2,-211]],[[1390,1656],[-31,5],[-13,-37],[-50,21],[-32,-33],[-42,-21],[-36,-46],[-47,13],[-55,57],[-30,63],[-20,21],[-49,15],[-33,-35],[3,-53],[-50,0],[3,45],[16,68],[8,132],[2,237],[-17,305],[26,33],[23,-32],[-25,-25],[40,-83],[-1,-156],[-11,-35],[20,-178],[3,-83],[11,-16],[43,18],[31,-2],[6,70],[-22,-4],[-6,68],[-30,21],[-4,45],[33,14],[39,-22],[0,50],[65,58],[-1,80],[-37,45],[-8,41],[-42,55],[9,50],[42,31],[9,63],[16,1],[54,44],[50,13],[-6,30],[-60,28],[-17,44],[-30,-9],[-4,-44],[-49,-3],[-27,24],[-16,-25],[9,-48],[-35,6],[-135,89],[-3,107]],[[3020,4128],[17,-61],[-49,-128],[36,-73],[-25,-44],[-28,-26],[-62,52],[-56,20],[-36,-5],[10,52],[26,75],[46,47],[14,44],[-78,-38],[-64,-71],[-37,-125],[15,-36],[33,-35],[4,-53],[-42,-48],[-3,-60],[-27,-11],[-48,96],[-1,26],[-36,47],[24,70],[40,55],[-11,43],[8,43],[-17,45]],[[2673,4029],[0,99]],[[2823,3458],[23,1],[25,56],[44,33],[17,61],[29,14],[17,77],[19,25],[4,48],[43,73],[0,89],[129,-121],[26,19],[17,40],[-36,42],[24,29]],[[4641,3426],[8,-67],[-36,-52],[7,-23],[-16,-54],[-55,-41],[-12,-34],[7,-68],[-35,-47],[-30,-11],[-36,-79],[35,-22],[18,-63],[20,-18],[38,-75],[-18,-19]],[[2855,3846],[28,-2],[84,-85],[-19,-44],[-91,118],[-2,13]],[[2776,3693],[31,52],[34,1],[43,-35],[9,-33],[-49,-21],[-52,17],[-16,19]],[[2755,3577],[20,12],[5,35],[39,28],[30,-32],[-2,-72],[-27,4],[-24,-36],[-41,61]],[[8162,7672],[461,1],[424,0]],[[9047,7673],[-30,-12],[2,-48],[14,-23],[-20,-58],[29,-49],[-19,-59],[22,-47],[5,-59],[22,-7],[25,-63],[5,-40],[34,-31],[-1,-44],[20,-85],[-2,-37],[22,-108],[-33,-108],[5,-45],[-18,-43],[-12,-97],[-45,-11],[-14,-78],[-24,-25],[-7,-45],[12,-17],[-1,-72],[20,-41],[13,-62],[6,-98],[29,-52],[20,-61],[-20,-68],[-56,-56],[5,-120],[-22,-45],[-49,-6],[-16,-15],[5,-40],[27,-50],[-3,-51],[-34,-12],[-24,-43],[-56,3],[-60,17],[-52,-39],[-6,-20],[36,-51],[6,-32],[30,-30],[-10,-95],[21,-77]],[[8848,5218],[-12,-26],[-10,-91],[-49,-25],[-74,33],[-14,20],[-1,46],[-103,0],[-18,20],[15,68],[-52,39],[-112,-12],[-14,23],[-37,12],[-27,-20],[-5,-67],[-26,-7],[-73,34],[-40,10],[-24,29],[-5,38],[-26,17]],[[3236,5962],[-29,-7],[-21,22],[-32,-17],[16,-43],[-18,-28],[-32,-19],[3,-48],[47,-79],[26,-19],[61,-78],[31,-68],[-28,2],[-22,46],[-42,55],[-27,9],[-34,52],[-27,-21],[-35,28],[-2,33],[-33,78],[-1,42],[10,105],[43,15],[35,-3],[11,32],[85,-40]],[[2716,5957],[24,72],[29,43],[13,56],[67,111],[13,45],[0,59],[56,-2],[20,25],[34,-37],[7,-52],[-24,-31],[64,-34],[62,-72],[-6,-36],[-28,-25],[-38,-1],[-23,29],[-60,-2],[-10,-50],[-37,-14],[-9,-46],[-25,-13],[-71,-14],[10,-41],[39,18],[89,1],[33,-36],[26,-53],[7,-51],[18,-24],[14,-68],[-20,-35],[24,-55],[8,-53],[14,-7],[3,-54],[26,-8],[12,38],[-9,31],[7,48],[-20,47],[47,-5],[59,-88],[63,-39],[37,-5],[10,-87],[21,-24],[5,-70],[-12,-35],[-43,-70],[-56,26],[-21,28],[-1,73],[-45,60],[-31,-6],[-27,-32],[-36,-13],[7,58],[-25,30],[-30,8],[-21,34],[3,68],[-27,37],[22,84],[-5,54],[-15,46],[-46,18],[-43,-22],[-13,46],[-35,42],[-32,14],[-39,34],[-10,27]],[[7308,2521],[117,-3],[-1,132]],[[7424,2650],[400,1],[252,-4],[266,-1],[481,2],[206,5]],[[9022,2320],[-18,10]],[[522,4417],[-16,108],[-41,185],[-22,57],[-12,76],[-14,46],[-29,38],[-24,11],[-17,45],[-5,44],[-18,31],[-34,22],[-49,47],[-31,47],[-42,13]],[[2498,5597],[11,-16],[61,-26],[37,-111],[21,29],[6,87],[-28,13],[-34,45],[-11,75],[68,58],[67,18],[30,0],[19,-57],[-44,-26],[-28,-39],[37,-61],[13,-44],[23,-23],[21,136],[51,26],[15,-67],[4,-67],[19,-25],[-2,-31],[-22,-19],[-49,38],[-13,-10],[18,-75],[58,-64],[-12,-33],[17,-56],[49,-64],[5,-48],[-23,-10],[-60,9],[17,-54],[-8,-28],[-36,-37],[-41,-10],[-19,-130],[-38,-64],[1,-41],[15,-27],[-57,-20],[-23,14],[7,48],[16,11],[5,71],[14,24],[16,102],[-30,80],[-21,-41],[14,-32],[-10,-41],[-43,-20],[1,-76],[-26,-5],[-16,-27],[-9,-57],[15,-35],[-42,-55],[6,-43],[-42,-3],[-10,-28],[-55,-56]],[[2423,4579],[-534,2],[-13,-6],[-179,0],[0,-193]],[[6730,5364],[15,-41],[-76,-90],[9,-48],[-15,-38],[-57,-37],[-6,-44],[-39,-95],[-139,-44],[-52,29],[-84,-38],[-22,-21],[-21,-59],[24,-47],[9,-44],[-25,-41],[-28,-71],[5,-76],[-36,-87],[-46,-45],[-14,-40],[-21,-138],[12,-55],[31,-89],[47,-25],[71,-12],[50,-19],[49,-3],[65,-73],[-10,-32],[6,-42],[-12,-84]],[[6420,3815],[-408,-3],[-23,29],[-29,1],[-31,44],[-67,52],[-24,5],[-58,-30],[-18,10],[-12,59],[-56,17],[-63,-4],[-50,49],[-31,15],[-4,34],[-78,26],[-28,52],[-36,2],[-21,-27],[-39,8],[-27,28],[-45,13],[-9,54],[-38,56],[-35,22],[-19,57],[-37,11],[-71,61],[-29,85],[-25,17]],[[9374,3811],[-670,1],[-740,2]],[[7964,3814],[2,442],[2,409],[4,662]],[[8848,5218],[33,32],[79,57],[13,18],[62,-1],[8,-31],[78,-97],[32,-73],[4,-42],[26,-20],[29,-53],[44,-10],[46,23],[33,64],[75,-25],[31,26],[37,7],[8,21],[72,-32],[10,-16]],[[9568,5066],[2,-469],[-3,0],[-3,-787]],[[7960,5368],[-168,-1],[0,-33],[-30,0],[-1,-65],[-29,0],[0,-33],[-60,0],[0,-33],[-30,0],[0,-193],[-30,0],[-1,-64],[-30,-1],[1,-64],[-30,0],[0,-32],[-30,0],[0,-128],[-30,-1],[0,-96],[-29,0],[0,-32],[-88,0],[-59,-61],[0,-32],[-30,1],[-29,-32],[0,-32],[-30,0],[0,-32],[-29,0],[-1,-192],[-94,0],[-380,-8],[0,-65],[-29,-1],[-1,-32],[-29,0],[-1,-64],[-29,-1],[0,-33],[-29,-1],[-1,-31],[-30,-1],[1,-31],[-30,-1],[0,-164],[-4,-58]],[[6541,3721],[-16,15],[-81,0],[-20,35],[-4,44]],[[2673,4029],[-28,-27],[-14,-72],[-32,-10],[10,-28],[-29,-37],[0,-64],[22,-64],[18,-29],[-26,-93]],[[2423,4579],[-56,-111],[-12,-37],[-25,-24],[-12,-63],[-61,-83],[-55,-132],[-8,-63],[-17,-47],[26,-28],[43,2],[6,31],[48,-15],[56,3],[64,52],[79,33],[21,-1],[29,41],[3,37],[-73,-47],[-50,-15],[-50,-39],[-15,-39],[-85,30],[-28,-5],[-20,43],[40,92],[45,84],[35,51],[14,59]],[[3890,234],[-47,-12],[-10,-24],[-56,-37],[-56,-15],[-80,-57],[-54,2],[-59,-15],[-25,-30],[-65,-37]],[[4444,1875],[0,-764]],[[4444,1111],[-125,0],[0,-385],[5,-1],[-1,-195],[127,-1],[-28,-24],[21,-53],[-1,-49]],[[4442,403],[-13,3],[-136,-48],[-52,1],[-54,-23],[-38,-2],[-106,28],[-77,-30],[-48,-50],[-28,-48]],[[6734,649],[-55,-17],[-80,-9],[-47,-26],[-98,-61],[-99,-26],[-40,-25],[-56,-80],[-98,-11],[-65,-22],[-104,-26],[-109,-11],[-32,12],[-74,85],[-44,19],[-61,-2],[-26,-19],[-49,-48],[-138,-65],[-92,-33],[-56,-63],[-28,-4],[-39,34],[-54,-18],[-34,10],[-78,-1],[-29,-10],[-49,-55],[-16,-30],[-72,-7],[-17,22],[-6,74],[-21,47],[-99,35],[-35,29],[-35,11],[-48,-4],[-41,-23],[-54,10],[-30,9],[-50,44],[-34,9]],[[4444,1111],[369,2],[285,-5],[588,-4],[663,1],[388,-1]],[[1894,1338],[-37,18],[-56,60],[5,106],[-28,46],[-44,42],[-30,5],[-65,-27],[-91,2],[-77,15],[-14,13],[-2,52],[-27,19],[-33,-7],[-5,-26]],[[2103,1396],[-93,-61],[-116,3]],[[10650,1958],[7,-16],[-17,-86],[-22,-32],[9,-44],[45,-21],[4,-47],[50,-49],[-9,-37],[29,-33],[20,-78],[-10,-59],[29,-32],[27,-54],[-16,-15],[-2,-41],[-20,-27],[-13,-54],[-32,-17],[5,-25],[30,-10],[20,-32],[37,-146],[-97,3],[-487,4],[-197,-2]],[[10040,1008],[0,276],[84,0],[0,580],[29,0],[0,33],[59,-1],[0,32],[176,-2],[1,113]],[[6726,2408],[-38,16],[-22,44],[-41,45],[-36,105],[0,31]],[[6589,2649],[4,40],[37,44],[22,52],[0,42],[-52,92],[2,133],[-3,55],[-49,112],[-14,101],[-30,33],[-14,43],[21,70],[35,47],[2,43],[-13,35],[9,51],[-5,79]],[[7964,3814],[-4,-778],[-535,3],[-1,-389]],[[6589,2649],[-567,1],[-177,1],[2,193],[-174,2],[0,192],[-249,-3],[-294,1],[-22,24],[-37,80],[-29,25],[0,48],[-47,20],[-16,38],[-42,40],[-32,16],[-93,88],[-34,15],[-42,-27],[-50,4],[-45,20]],[[10040,1008],[-171,3]],[[9869,1011],[0,271],[-12,0],[1,482],[-88,-1],[2,101],[-29,0],[-1,32],[-29,0],[0,98],[-29,0],[0,66],[-175,-2],[3,199],[11,0],[2,143]],[[9869,1011],[-518,4],[-27,0]],[[10660,7670],[0,-339],[-2,-421],[-2,-348],[0,-287],[-8,-546],[-1,-176]],[[10647,5553],[-201,1],[-346,3]],[[10100,5557],[-1,194],[-90,0],[0,197],[3,33],[-1,740],[1,188],[-178,-1],[-1,193],[91,0],[0,208],[91,1],[-1,191],[95,0],[0,172]],[[10109,7673],[421,-4],[130,1]],[[9568,5066],[42,-32],[13,33],[39,1],[77,65],[7,60],[27,12],[17,-100],[42,-21],[42,-69],[29,-21],[38,18],[25,-14],[-5,560],[139,-1]],[[10647,5553],[-1,-151],[0,-307],[2,-588],[1,-462],[0,-237]],[[9047,7673],[445,0],[617,0]],[[2632,6723],[28,36],[55,-57],[-2,-24],[-49,-46],[-27,51],[-5,40]],[[2473,6513],[19,88],[22,12],[-6,61],[41,17],[45,-35],[-21,-81],[31,-63],[31,102],[49,4],[12,-33],[-44,-50],[-4,-61],[22,-67],[-27,-21],[-22,24],[-21,-26],[-36,15],[25,29],[-59,15],[-30,32],[-25,-6],[-2,44]],[[2374,6762],[52,7],[54,-16],[30,2],[21,-25],[-24,-30],[-62,-29],[-29,18],[8,24],[-50,49]],[[2356,6850],[28,56],[35,44],[31,20],[28,41],[34,25],[55,-2],[56,-28],[59,-47],[73,-37],[-18,-28],[-75,-66],[-26,-9],[-28,14],[-49,85],[1,55],[-17,21],[-35,-19],[16,-34],[-1,-37],[39,-36],[27,-57],[-31,-52],[-58,6],[-30,13],[-12,47],[-38,52],[-23,-59],[-38,-10],[-3,42]],[[2304,7007],[80,48],[7,-62],[-44,-9],[-43,23]],[[2116,6774],[33,59],[32,-12],[71,13],[7,-52],[35,-16],[54,-63],[27,-3],[29,-59],[36,1],[-4,-35],[-27,-12],[-34,8],[-5,-52],[20,-54],[26,-18],[37,3],[-1,-28],[-111,23],[-127,81],[-42,71],[2,40],[-20,31],[7,30],[-45,44]],[[2071,6973],[28,11],[45,-13],[47,-34],[-55,-18],[-43,22],[-22,32]]],"transform":{"scale":[0.0007222843544958874,0.0004505426598931882],"translate":[-124.731828,45.543541]},"objects":{"53":{"type":"GeometryCollection","geometries":[{"arcs":[[[0]],[[1,2,3]]],"type":"MultiPolygon","properties":{"STATEFP":"53","COUNTYFP":"035","COUNTYNS":"01529223","GEOIDFQ":"0500000US53035","GEOID":"53035","NAME":"Kitsap","NAMELSAD":"Kitsap County","STUSPS":"WA","STATE_NAME":"Washington","LSAD":"06","ALAND":1023271578,"AWATER":442224284},"id":"53035"},{"arcs":[[4,5,6,7,8,9]],"type":"Polygon","properties":{"STATEFP":"53","COUNTYFP":"027","COUNTYNS":"01531823","GEOIDFQ":"0500000US53027","GEOID":"53027","NAME":"Grays Harbor","NAMELSAD":"Grays Harbor County","STUSPS":"WA","STATE_NAME":"Washington","LSAD":"06","ALAND":4926850759,"AWATER":832254152},"id":"53027"},{"arcs":[[10,11,12,13,14,15]],"type":"Polygon","properties":{"STATEFP":"53","COUNTYFP":"005","COUNTYNS":"01513302","GEOIDFQ":"0500000US53005","GEOID":"53005","NAME":"Benton","NAMELSAD":"Benton County","STUSPS":"WA","STATE_NAME":"Washington","LSAD":"06","ALAND":4403309880,"AWATER":154293636},"id":"53005"},{"arcs":[[16,17]],"type":"Polygon","properties":{"STATEFP":"53","COUNTYFP":"009","COUNTYNS":"01531341","GEOIDFQ":"0500000US53009","GEOID":"53009","NAME":"Clallam","NAMELSAD":"Clallam County","STUSPS":"WA","STATE_NAME":"Washington","LSAD":"06","ALAND":4503408680,"AWATER":2409314039},"id":"53009"},{"arcs":[[-7,18,19,20,21]],"type":"Polygon","properties":{"STATEFP":"53","COUNTYFP":"067","COUNTYNS":"01529226","GEOIDFQ":"0500000US53067","GEOID":"53067","NAME":"Thurston","NAMELSAD":"Thurston County","STUSPS":"WA","STATE_NAME":"Washington","LSAD":"06","ALAND":1871300040,"AWATER":133584564},"id":"53067"},{"arcs":[[22,23,24,25,26,27]],"type":"Polygon","properties":{"STATEFP":"53","COUNTYFP":"061","COUNTYNS":"01529222","GEOIDFQ":"0500000US53061","GEOID":"53061","NAME":"Snohomish","NAMELSAD":"Snohomish County","STUSPS":"WA","STATE_NAME":"Washington","LSAD":"06","ALAND":5404057419,"AWATER":282914759},"id":"53061"},{"arcs":[[28,29,30,31,32,33,34,35]],"type":"Polygon","properties":{"STATEFP":"53","COUNTYFP":"075","COUNTYNS":"01533501","GEOIDFQ":"0500000US53075","GEOID":"53075","NAME":"Whitman","NAMELSAD":"Whitman County","STUSPS":"WA","STATE_NAME":"Washington","LSAD":"06","ALAND":5592463288,"AWATER":48246698},"id":"53075"},{"arcs":[[36,37,38,39,40]],"type":"Polygon","properties":{"STATEFP":"53","COUNTYFP":"015","COUNTYNS":"01529156","GEOIDFQ":"0500000US53015","GEOID":"53015","NAME":"Cowlitz","NAMELSAD":"Cowlitz County","STUSPS":"WA","STATE_NAME":"Washington","LSAD":"06","ALAND":2955632728,"AWATER":65381492},"id":"53015"},{"arcs":[[[-24,41,42,43,44]],[[45]],[[46]],[[47]]],"type":"MultiPolygon","properties":{"STATEFP":"53","COUNTYFP":"057","COUNTYNS":"01531402","GEOIDFQ":"0500000US53057","GEOID":"53057","NAME":"Skagit","NAMELSAD":"Skagit County","STUSPS":"WA","STATE_NAME":"Washington","LSAD":"06","ALAND":4481279020,"AWATER":483819796},"id":"53057"},{"arcs":[[-8,-22,48,49,50,-37,51,52]],"type":"Polygon","properties":{"STATEFP":"53","COUNTYFP":"041","COUNTYNS":"01531927","GEOIDFQ":"0500000US53041","GEOID":"53041","NAME":"Lewis","NAMELSAD":"Lewis County","STUSPS":"WA","STATE_NAME":"Washington","LSAD":"06","ALAND":6223175362,"AWATER":86929744},"id":"53041"},{"arcs":[[-13,53,54,55]],"type":"Polygon","properties":{"STATEFP":"53","COUNTYFP":"071","COUNTYNS":"01531819","GEOIDFQ":"0500000US53071","GEOID":"53071","NAME":"Walla Walla","NAMELSAD":"Walla Walla County","STUSPS":"WA","STATE_NAME":"Washington","LSAD":"06","ALAND":3289370358,"AWATER":74932288},"id":"53071"},{"arcs":[[[-26,56,57,58,59,60]],[[61]]],"type":"MultiPolygon","properties":{"STATEFP":"53","COUNTYFP":"033","COUNTYNS":"01531933","GEOIDFQ":"0500000US53033","GEOID":"53033","NAME":"King","NAMELSAD":"King County","STUSPS":"WA","STATE_NAME":"Washington","LSAD":"06","ALAND":5479767260,"AWATER":496378018},"id":"53033"},{"arcs":[[62,-39,63]],"type":"Polygon","properties":{"STATEFP":"53","COUNTYFP":"011","COUNTYNS":"01531820","GEOIDFQ":"0500000US53011","GEOID":"53011","NAME":"Clark","NAMELSAD":"Clark County","STUSPS":"WA","STATE_NAME":"Washington","LSAD":"06","ALAND":1627830710,"AWATER":70162369},"id":"53011"},{"arcs":[[[-43,64,65]],[[66]],[[67]]],"type":"MultiPolygon","properties":{"STATEFP":"53","COUNTYFP":"073","COUNTYNS":"01529224","GEOIDFQ":"0500000US53073","GEOID":"53073","NAME":"Whatcom","NAMELSAD":"Whatcom County","STUSPS":"WA","STATE_NAME":"Washington","LSAD":"06","ALAND":5459507981,"AWATER":1028087021},"id":"53073"},{"arcs":[[-44,-66,68,69,70,71,72,73]],"type":"Polygon","properties":{"STATEFP":"53","COUNTYFP":"047","COUNTYNS":"01531928","GEOIDFQ":"0500000US53047","GEOID":"53047","NAME":"Okanogan","NAMELSAD":"Okanogan County","STUSPS":"WA","STATE_NAME":"Washington","LSAD":"06","ALAND":13639376682,"AWATER":120435134},"id":"53047"},{"arcs":[[-9,-53,74,75]],"type":"Polygon","properties":{"STATEFP":"53","COUNTYFP":"049","COUNTYNS":"01513274","GEOIDFQ":"0500000US53049","GEOID":"53049","NAME":"Pacific","NAMELSAD":"Pacific County","STUSPS":"WA","STATE_NAME":"Washington","LSAD":"06","ALAND":2417427234,"AWATER":759290650},"id":"53049"},{"arcs":[[[-2,76,77]],[[-21,78,-60,79,-49]],[[80]],[[81]],[[82]]],"type":"MultiPolygon","properties":{"STATEFP":"53","COUNTYFP":"053","COUNTYNS":"01529159","GEOIDFQ":"0500000US53053","GEOID":"53053","NAME":"Pierce","NAMELSAD":"Pierce County","STUSPS":"WA","STATE_NAME":"Washington","LSAD":"06","ALAND":4320164733,"AWATER":356034701},"id":"53053"},{"arcs":[[-70,83,84,85]],"type":"Polygon","properties":{"STATEFP":"53","COUNTYFP":"019","COUNTYNS":"01531821","GEOIDFQ":"0500000US53019","GEOID":"53019","NAME":"Ferry","NAMELSAD":"Ferry County","STUSPS":"WA","STATE_NAME":"Washington","LSAD":"06","ALAND":5706339544,"AWATER":140323410},"id":"53019"},{"arcs":[[[-28,86]],[[87]]],"type":"MultiPolygon","properties":{"STATEFP":"53","COUNTYFP":"029","COUNTYNS":"01513272","GEOIDFQ":"0500000US53029","GEOID":"53029","NAME":"Island","NAMELSAD":"Island County","STUSPS":"WA","STATE_NAME":"Washington","LSAD":"06","ALAND":540526441,"AWATER":799338264},"id":"53029"},{"arcs":[[-12,88,89,-36,90,-54]],"type":"Polygon","properties":{"STATEFP":"53","COUNTYFP":"021","COUNTYNS":"01531822","GEOIDFQ":"0500000US53021","GEOID":"53021","NAME":"Franklin","NAMELSAD":"Franklin County","STUSPS":"WA","STATE_NAME":"Washington","LSAD":"06","ALAND":3215718475,"AWATER":60508754},"id":"53021"},{"arcs":[[-5,91,-17,92,93]],"type":"Polygon","properties":{"STATEFP":"53","COUNTYFP":"031","COUNTYNS":"01531936","GEOIDFQ":"0500000US53031","GEOID":"53031","NAME":"Jefferson","NAMELSAD":"Jefferson County","STUSPS":"WA","STATE_NAME":"Washington","LSAD":"06","ALAND":4671633807,"AWATER":994992501},"id":"53031"},{"arcs":[[-25,-45,-74,94,95,-57]],"type":"Polygon","properties":{"STATEFP":"53","COUNTYFP":"007","COUNTYNS":"01531932","GEOIDFQ":"0500000US53007","GEOID":"53007","NAME":"Chelan","NAMELSAD":"Chelan County","STUSPS":"WA","STATE_NAME":"Washington","LSAD":"06","ALAND":7565814950,"AWATER":189653434},"id":"53007"},{"arcs":[[-30,96,97,-71,-86,98,99]],"type":"Polygon","properties":{"STATEFP":"53","COUNTYFP":"043","COUNTYNS":"01514052","GEOIDFQ":"0500000US53043","GEOID":"53043","NAME":"Lincoln","NAMELSAD":"Lincoln County","STUSPS":"WA","STATE_NAME":"Washington","LSAD":"06","ALAND":5984433987,"AWATER":75253168},"id":"53043"},{"arcs":[[-73,100,101,-95]],"type":"Polygon","properties":{"STATEFP":"53","COUNTYFP":"017","COUNTYNS":"01531818","GEOIDFQ":"0500000US53017","GEOID":"53017","NAME":"Douglas","NAMELSAD":"Douglas County","STUSPS":"WA","STATE_NAME":"Washington","LSAD":"06","ALAND":4711819962,"AWATER":76557106},"id":"53017"},{"arcs":[[-3,-78,102,-19,-6,-94,103]],"type":"Polygon","properties":{"STATEFP":"53","COUNTYFP":"045","COUNTYNS":"01529221","GEOIDFQ":"0500000US53045","GEOID":"53045","NAME":"Mason","NAMELSAD":"Mason County","STUSPS":"WA","STATE_NAME":"Washington","LSAD":"06","ALAND":2485261407,"AWATER":236927323},"id":"53045"},{"arcs":[[104,-64,-38,-51,105,106,107]],"type":"Polygon","properties":{"STATEFP":"53","COUNTYFP":"059","COUNTYNS":"01529220","GEOIDFQ":"0500000US53059","GEOID":"53059","NAME":"Skamania","NAMELSAD":"Skamania County","STUSPS":"WA","STATE_NAME":"Washington","LSAD":"06","ALAND":4294894336,"AWATER":73326450},"id":"53059"},{"arcs":[[-15,108,-107,109]],"type":"Polygon","properties":{"STATEFP":"53","COUNTYFP":"039","COUNTYNS":"01529219","GEOIDFQ":"0500000US53039","GEOID":"53039","NAME":"Klickitat","NAMELSAD":"Klickitat County","STUSPS":"WA","STATE_NAME":"Washington","LSAD":"06","ALAND":4847515942,"AWATER":84930636},"id":"53039"},{"arcs":[[110,-75,-52,-41,111]],"type":"Polygon","properties":{"STATEFP":"53","COUNTYFP":"069","COUNTYNS":"01513275","GEOIDFQ":"0500000US53069","GEOID":"53069","NAME":"Wahkiakum","NAMELSAD":"Wahkiakum County","STUSPS":"WA","STATE_NAME":"Washington","LSAD":"06","ALAND":680980773,"AWATER":61564428},"id":"53069"},{"arcs":[[-33,112,113]],"type":"Polygon","properties":{"STATEFP":"53","COUNTYFP":"003","COUNTYNS":"01533502","GEOIDFQ":"0500000US53003","GEOID":"53003","NAME":"Asotin","NAMELSAD":"Asotin County","STUSPS":"WA","STATE_NAME":"Washington","LSAD":"06","ALAND":1647427911,"AWATER":11291731},"id":"53003"},{"arcs":[[-11,114,115,-101,-72,-98,116,-89]],"type":"Polygon","properties":{"STATEFP":"53","COUNTYFP":"025","COUNTYNS":"01531924","GEOIDFQ":"0500000US53025","GEOID":"53025","NAME":"Grant","NAMELSAD":"Grant County","STUSPS":"WA","STATE_NAME":"Washington","LSAD":"06","ALAND":6940013358,"AWATER":289801991},"id":"53025"},{"arcs":[[-58,-96,-102,-116,117]],"type":"Polygon","properties":{"STATEFP":"53","COUNTYFP":"037","COUNTYNS":"01531926","GEOIDFQ":"0500000US53037","GEOID":"53037","NAME":"Kittitas","NAMELSAD":"Kittitas County","STUSPS":"WA","STATE_NAME":"Washington","LSAD":"06","ALAND":5949957156,"AWATER":92507199},"id":"53037"},{"arcs":[[-34,-114,118,119]],"type":"Polygon","properties":{"STATEFP":"53","COUNTYFP":"023","COUNTYNS":"01533500","GEOIDFQ":"0500000US53023","GEOID":"53023","NAME":"Garfield","NAMELSAD":"Garfield County","STUSPS":"WA","STATE_NAME":"Washington","LSAD":"06","ALAND":1841054901,"AWATER":19294817},"id":"53023"},{"arcs":[[-35,-120,120,-55,-91]],"type":"Polygon","properties":{"STATEFP":"53","COUNTYFP":"013","COUNTYNS":"01513273","GEOIDFQ":"0500000US53013","GEOID":"53013","NAME":"Columbia","NAMELSAD":"Columbia County","STUSPS":"WA","STATE_NAME":"Washington","LSAD":"06","ALAND":2249624762,"AWATER":12561759},"id":"53013"},{"arcs":[[-29,-90,-117,-97]],"type":"Polygon","properties":{"STATEFP":"53","COUNTYFP":"001","COUNTYNS":"01531601","GEOIDFQ":"0500000US53001","GEOID":"53001","NAME":"Adams","NAMELSAD":"Adams County","STUSPS":"WA","STATE_NAME":"Washington","LSAD":"06","ALAND":4985698853,"AWATER":12464425},"id":"53001"},{"arcs":[[-16,-110,-106,-50,-80,-59,-118,-115]],"type":"Polygon","properties":{"STATEFP":"53","COUNTYFP":"077","COUNTYNS":"01531929","GEOIDFQ":"0500000US53077","GEOID":"53077","NAME":"Yakima","NAMELSAD":"Yakima County","STUSPS":"WA","STATE_NAME":"Washington","LSAD":"06","ALAND":11122734403,"AWATER":41188783},"id":"53077"},{"arcs":[[121,122,123,124]],"type":"Polygon","properties":{"STATEFP":"53","COUNTYFP":"051","COUNTYNS":"01529157","GEOIDFQ":"0500000US53051","GEOID":"53051","NAME":"Pend Oreille","NAMELSAD":"Pend Oreille County","STUSPS":"WA","STATE_NAME":"Washington","LSAD":"06","ALAND":3626617242,"AWATER":65406812},"id":"53051"},{"arcs":[[-31,-100,125,-123,126]],"type":"Polygon","properties":{"STATEFP":"53","COUNTYFP":"063","COUNTYNS":"01529225","GEOIDFQ":"0500000US53063","GEOID":"53063","NAME":"Spokane","NAMELSAD":"Spokane County","STUSPS":"WA","STATE_NAME":"Washington","LSAD":"06","ALAND":4569319085,"AWATER":43407377},"id":"53063"},{"arcs":[[-85,127,-124,-126,-99]],"type":"Polygon","properties":{"STATEFP":"53","COUNTYFP":"065","COUNTYNS":"01531930","GEOIDFQ":"0500000US53065","GEOID":"53065","NAME":"Stevens","NAMELSAD":"Stevens County","STUSPS":"WA","STATE_NAME":"Washington","LSAD":"06","ALAND":6415666347,"AWATER":162933467},"id":"53065"},{"arcs":[[[128]],[[129]],[[130]],[[131]],[[132]],[[133]],[[134]]],"type":"MultiPolygon","properties":{"STATEFP":"53","COUNTYFP":"055","COUNTYNS":"01531931","GEOIDFQ":"0500000US53055","GEOID":"53055","NAME":"San Juan","NAMELSAD":"San Juan County","STUSPS":"WA","STATE_NAME":"Washington","LSAD":"06","ALAND":450440703,"AWATER":1157470042},"id":"53055"}]}}}