{"type":"Topology","arcs":[[[2195,4584],[41,8],[86,61],[47,25],[50,9],[31,-9],[65,96],[27,18],[56,10],[29,30]],[[2627,4832],[45,-1],[70,40],[51,-30],[18,-110],[13,-128]],[[2824,4603],[-40,-1],[-24,-46],[-30,-12],[-32,17],[-66,-34],[-94,-20],[-84,4],[-31,-85]],[[2423,4426],[-36,29],[-12,30],[-97,12],[-5,41],[-65,0],[-13,46]],[[4280,4370],[29,-8],[220,21],[107,44],[41,61],[19,-18],[53,23]],[[4749,4493],[37,-10],[37,-50],[4,-53],[55,-13],[16,-22]],[[4898,4345],[-12,-24],[-27,-135],[-8,-61],[20,-25]],[[4871,4100],[-19,-42],[-23,-3],[-24,-48],[-16,-82],[-26,-67],[-15,-63],[-327,-56]],[[4421,3739],[37,23],[19,36],[-11,101],[-14,34],[-105,-1],[-41,73],[-28,34],[-72,21],[-31,33]],[[4175,4093],[5,125],[100,152]],[[2178,1644],[84,415],[175,215]],[[2437,2274],[17,-2],[50,-47],[58,-30],[46,19],[40,-48],[60,-36],[9,32],[38,26],[47,-19],[26,17],[38,1],[68,-62],[-10,-55],[39,-37],[45,-61],[24,-2],[9,-38]],[[3041,1932],[-4,-45],[13,-38],[64,-26],[36,26],[12,-38],[-27,-33],[48,-10],[25,-45],[-8,-22],[34,-24],[-69,-76],[107,-180],[-99,8]],[[3173,1429],[-241,-106]],[[2932,1323],[-32,26],[-113,-3],[-48,11],[-28,83],[-140,15],[-245,18],[-10,95],[8,22],[-44,18],[-11,31],[-38,21],[-53,-16]],[[5829,4555],[31,23],[8,35],[30,19],[30,-2],[30,54],[21,-7],[61,62],[37,7],[-1,25],[58,71],[49,36],[35,9],[23,-34],[133,-59],[5,31],[35,68],[30,0],[41,57],[31,21],[63,95],[30,-14],[-8,60],[52,39],[-10,44],[42,-12],[50,10],[25,-27],[-59,-11],[1,-45],[36,-17],[22,15],[15,-49],[53,-23],[9,-16],[55,-23]],[[6892,4997],[-57,-69],[-22,-11],[-46,-74],[-69,-36],[-25,-39],[-46,-110],[-69,-97],[-64,-13],[-60,-69],[-8,-30],[-56,-39],[-36,-50]],[[6334,4360],[-267,161],[-178,20],[-60,14]],[[2355,3669],[10,46],[191,202]],[[2556,3917],[13,21],[44,10],[47,-50],[47,-25],[72,-1]],[[2779,3872],[4,-54],[48,-50],[2,-61],[-19,-21],[10,-48],[8,-116],[-16,-51],[-69,-67],[25,-60],[31,-4],[39,-30],[21,-63]],[[2863,3247],[-81,-107]],[[2782,3140],[-90,-119]],[[2692,3021],[2,14],[-43,44],[-28,-18],[-44,23],[-29,41],[-13,58],[3,111],[-42,59],[-54,53],[11,41],[0,70],[-44,20],[4,64],[-28,22],[-5,38],[-27,8]],[[3082,486],[111,213],[80,128],[152,272],[-5,36]],[[3420,1135],[15,-9],[256,-77],[75,4],[25,-14],[86,59],[24,-14],[0,-32],[65,3],[49,-16],[41,11]],[[4056,1050],[29,-74],[20,-24],[81,-39],[-34,-45],[-32,-24],[-120,-67],[28,-39],[5,-40],[47,13],[-31,-54],[-217,-125],[-82,-56],[-38,24],[3,49],[-32,51],[-70,-17],[-84,-59],[-181,-110],[-113,-48],[-24,48],[-38,20],[-53,43],[-38,9]],[[3308,4056],[45,-11],[36,46],[0,21],[42,42],[34,-8],[71,63]],[[3536,4209],[32,2],[50,-19],[5,-17],[49,-11],[87,-1],[28,-15],[262,-74]],[[4049,4074],[-9,-91],[-22,-103],[-29,-36],[27,-76],[-42,-47],[-9,-51],[-24,-18],[-9,-43],[-34,-26],[-39,-228],[29,-87]],[[3888,3268],[-58,7],[-32,-8],[-21,26]],[[3777,3293],[10,21],[-9,56],[-50,54],[20,62],[-29,34],[-58,38],[-34,-20],[-25,30],[-49,-12],[-8,46],[-25,44]],[[3520,3646],[-192,223],[-21,161],[1,26]],[[2824,4603],[78,-24],[24,22],[20,78],[58,-20],[37,-40],[-3,-108],[-8,-29]],[[3030,4482],[-44,-46],[128,-252],[47,-98]],[[3161,4086],[4,-21],[-98,-56],[-89,-64],[-27,2],[-54,-20],[-57,-51],[-61,-4]],[[2556,3917],[-28,22],[-50,8],[-73,-21],[-20,146],[-31,39],[-78,46],[13,53],[32,39]],[[2321,4249],[-6,34],[58,125],[50,18]],[[2178,1644],[-58,9],[-38,-11],[-35,41]],[[2047,1683],[-17,45],[11,40],[-31,71],[-47,1],[-42,32],[-8,45],[28,29],[-47,59],[-42,-1],[-73,84],[-64,18],[8,77],[-28,6],[-47,-12],[-15,20],[-46,-10],[-4,-37],[-22,-16],[-30,15],[-17,48],[-34,7],[-2,-35],[-68,-31],[-15,21]],[[1395,2159],[40,39],[12,46],[-6,96],[-20,48],[-22,13],[-27,-20],[-68,3],[-51,23]],[[1253,2407],[26,157],[111,64],[102,39],[94,45],[-20,69],[-31,50],[9,64],[-6,81],[38,11],[56,65]],[[1632,3052],[110,-155],[94,49],[97,76]],[[1933,3022],[26,-64],[62,-78],[11,8],[201,-19],[79,-14],[51,-27],[92,21],[46,-9]],[[2501,2840],[-155,-119],[51,-213],[40,-233]],[[2437,2275],[0,-1]],[[2321,4249],[-163,-95],[-56,-12],[-223,-185],[-48,-49]],[[1831,3908],[-287,148]],[[1544,4056],[7,24],[-3,89],[-19,69],[25,20],[27,56],[60,26],[-9,62],[31,36],[38,7],[83,-2],[66,-18],[22,152],[26,30],[68,44],[52,57],[30,20],[47,-8],[38,-37],[19,-70],[43,-29]],[[776,1656],[253,86],[194,22]],[[1223,1764],[-81,-72],[3,-19],[47,-23],[24,12],[59,-18],[-1,-41],[152,-6],[51,-23],[47,-85],[-26,-53],[20,-49],[28,-11],[2,-32],[51,-41],[94,48],[29,-19],[21,-43],[43,-31]],[[1786,1258],[-53,-24],[-33,4],[-71,-25],[-78,-7],[-33,-31],[105,-104],[-55,-18],[-24,-29],[-78,-18],[-19,-23]],[[1447,983],[-20,-11],[-40,36],[-28,-13],[-35,10],[-55,-17],[-14,38],[-28,3],[-62,-37],[-61,-5],[-37,12],[-2,29],[-30,43],[-40,8],[-27,-11],[-11,69],[-20,29],[-32,1],[28,87],[-10,30],[-48,20],[0,34],[-22,25],[56,31],[-26,54],[-1,50],[-27,0],[-32,24],[-15,51],[-26,21],[-17,40],[11,22]],[[4871,4100],[45,-17],[41,-67],[-3,-65],[-15,-19],[480,-134],[55,6],[97,-13],[21,4],[88,-19]],[[5680,3776],[14,-15]],[[5694,3761],[-32,-71],[-82,-3],[-48,20],[-21,-6],[16,-65],[-63,-28],[-50,17],[-14,-17],[12,-41],[-46,-55],[28,-24],[-7,-34],[33,-29],[-4,-43],[-44,-73],[-34,-30],[-10,-33],[-63,-63],[1,-53],[-52,2]],[[5214,3132],[0,32],[-53,22],[-36,-16],[-3,-37],[-30,3],[-22,42],[-50,-13],[6,70],[-71,59],[-44,-63],[7,-14],[-55,-141],[-29,-17],[8,-46],[-25,-53],[-12,-71],[-287,-196],[-152,32],[-223,-183]],[[4143,2542],[107,293],[-166,363]],[[4084,3198],[75,105],[191,4],[48,203],[-19,122],[28,28],[14,79]],[[60,2240],[32,-4],[19,39],[-11,78],[16,28],[-8,32],[-37,36],[8,75],[0,89],[38,-35],[38,-5],[72,17]],[[227,2590],[268,-216],[37,3],[6,26],[31,12],[42,-22],[-7,-32],[-27,-19],[-10,-83],[37,-49],[44,-9]],[[648,2201],[-3,-40],[-20,-11],[11,-77],[-24,-53],[50,-28],[-18,-36],[36,-27],[13,-45],[19,-23],[39,-10],[22,-42],[-21,-46],[-67,-51],[-109,-123]],[[576,1589],[-169,-173],[-19,-15]],[[388,1401],[-13,18],[0,48],[-52,48],[-62,23],[-24,29],[8,26],[45,29],[10,55],[-32,-1],[-9,32],[-43,0],[-20,59],[-22,23],[-22,72],[-57,42],[-3,35],[-61,54],[-28,15],[-3,68],[48,1],[21,55],[1,44],[-24,36],[14,28]],[[4898,4345],[212,88],[311,-118],[35,-46]],[[5456,4269],[34,-35],[57,28],[72,3],[19,23],[29,-9],[35,30],[61,-5],[23,-28],[-61,-108],[1,-62],[-27,-24],[-2,-30],[58,-50],[28,6],[-21,-92],[-57,-133],[-25,-7]],[[2935,5151],[45,25],[64,5],[24,68],[9,88],[48,21],[1,37]],[[3126,5395],[543,1]],[[3669,5396],[170,0]],[[3839,5396],[25,-17],[20,-70],[-13,-30],[23,-48],[-11,-15]],[[3883,5216],[-65,4],[-1,-39],[-46,-43],[-31,-7],[-3,-29],[-31,-44],[30,-104],[23,-24],[-7,-37],[-36,-13],[-3,-23]],[[3713,4857],[-32,-23],[-13,-52],[-42,-12]],[[3626,4770],[-64,46],[-65,0]],[[3497,4816],[-92,58],[-76,-4],[-31,34],[-12,46],[-76,51],[-8,31],[-70,32],[-39,77],[-58,-47],[-100,57]],[[7430,4849],[0,-82],[-22,-32],[28,-51],[-41,-63],[46,-12],[-34,-77],[-47,-52],[-56,-77],[34,-29],[-10,-27],[-57,-71],[61,-66],[-41,-31],[-21,-44],[-36,-41],[-32,-7],[-51,-46]],[[7151,4041],[-92,92],[-71,19],[-37,-47],[-58,16],[-59,45],[-72,7],[-190,73],[-99,32],[-139,82]],[[6892,4997],[60,10],[53,-17],[46,-26],[77,11],[31,-13],[60,-4]],[[7219,4958],[54,-36],[91,-46],[66,-27]],[[3161,4086],[147,-30]],[[3520,3646],[-60,-30],[-51,6],[-55,-30],[-258,-185],[-233,-160]],[[227,2590],[178,61],[27,-11],[85,14],[28,18],[35,101],[2,57],[12,33],[4,73],[11,22],[22,23],[49,11],[47,-15]],[[727,2977],[284,-251]],[[1011,2726],[14,-214]],[[1025,2512],[-31,5],[-56,-20],[-31,-36],[-40,-19],[-57,-13],[-43,-26],[-28,-80],[-56,-38],[-1,-27],[-26,-21],[-8,-36]],[[4175,4093],[-37,-26],[-89,7]],[[3536,4209],[61,26],[40,35],[13,36],[-61,18],[5,57],[-43,30],[17,45],[-46,8],[58,71],[45,70],[9,67],[-14,44],[15,14],[-9,40]],[[3713,4857],[347,-75],[19,3],[148,-91]],[[4227,4694],[-9,-44],[0,-202],[62,-78]],[[5457,4293],[29,-5],[79,52],[54,72],[25,22],[43,13],[16,33],[52,23],[42,-10],[14,50],[18,12]],[[6334,4360],[-30,-54],[-7,-36],[-59,-106],[-3,-57],[-50,-69],[-13,-49],[-28,-56],[20,-35],[-6,-46],[62,-154],[-49,-64],[-11,-46],[-55,-90],[-38,-46]],[[6067,3452],[-142,118],[-183,148],[-48,43]],[[5456,4269],[1,24]],[[7151,4041],[-25,-37],[-38,-31],[-48,-53],[38,-30],[-52,-59],[-37,-55],[-33,38],[-45,-31],[-21,-44],[-37,-47],[-62,-44],[-11,57],[-29,-9],[-35,-58],[-50,-32],[-57,-116],[-83,-146],[-216,187],[-21,-55],[-23,-14],[-14,-56],[-48,-13],[-4,-52]],[[6200,3341],[-133,111]],[[3777,3293],[-89,-201],[-246,-254]],[[3442,2838],[-47,14],[-102,-1],[-11,-12],[-73,65],[-166,-108]],[[3043,2796],[-21,66],[-27,11],[-7,43],[-77,73],[-36,62],[-93,89]],[[2047,1683],[-88,2],[-33,-37],[-22,0],[-56,-93],[31,-71],[-24,-58],[11,-56],[25,-28],[46,-15],[10,-64]],[[1947,1263],[-29,-5],[-56,-46],[-76,46]],[[1223,1764],[-2,19],[-65,30],[12,89],[32,41],[-13,20],[36,68],[74,-16],[5,52],[26,22],[35,-5],[18,67],[14,8]],[[776,1656],[-200,-67]],[[1025,2512],[7,-80],[-10,-100],[56,-40],[42,-6],[133,121]],[[2932,1323],[33,-20],[8,-35],[36,-27],[11,-30],[-50,-53],[43,-28],[28,-104],[-56,48],[-56,27],[-52,-2],[-21,-62],[-56,-35],[-10,-23],[-71,-38],[-8,-17],[15,-47],[-53,-48]],[[2673,829],[-42,0],[-28,20],[-110,-48],[-2,-75],[-38,-64]],[[2453,662],[-53,48],[-17,-12],[-72,41],[-22,34],[11,30],[-20,46],[-183,324],[-18,8],[-45,71],[-22,-11],[-28,23],[-37,-1]],[[7973,4418],[-216,169],[-123,102]],[[7634,4689],[50,107],[19,84],[29,95],[58,148],[40,0],[35,-25],[27,38],[35,-3],[65,45]],[[7992,5178],[19,-33],[60,-9],[25,19],[40,-46],[27,38],[61,-16],[5,39],[82,-20],[14,-33],[-21,-57],[-63,-2],[-14,-24],[38,-37],[-3,-37],[71,-50]],[[8333,4910],[-39,-99],[-144,-143],[-28,-2],[-31,-60],[-34,-41],[-7,-29],[-51,-56],[-26,-62]],[[5214,3132],[14,-14],[-27,-45],[26,-29],[-13,-32],[-38,-35]],[[5176,2977],[-24,-45],[-30,-128],[-25,-36],[-8,-40],[19,-53],[-2,-41],[-30,-34],[-43,-90],[10,-21],[-32,-21],[-35,5],[-15,-44],[-40,-26],[-24,-40],[39,-68],[-15,-14],[-43,-39],[-44,-18],[-90,-101],[-39,-27],[8,-37],[-22,-50],[-27,-17],[10,-43],[22,-10],[-49,-57],[-9,-36]],[[4638,1846],[-255,-16],[-107,-43],[-50,15],[-116,8],[-171,145],[6,239]],[[3945,2194],[14,256],[38,-21],[146,113]],[[2627,4832],[36,63],[52,62],[55,51],[165,143]],[[3497,4816],[-51,-16],[-18,-21],[-55,-13],[-42,5],[-32,-72],[-166,-112],[-103,-105]],[[8516,4540],[-48,-57],[-42,-124],[-38,-58],[-20,-76],[-40,-90],[-355,283],[0,0]],[[8333,4910],[51,-10],[17,-91],[-12,-35],[69,-16],[29,-76],[-29,-20],[12,-54],[-17,-41],[63,-27]],[[7634,4689],[-58,50],[-146,110]],[[7219,4958],[32,46],[57,24],[-64,53],[19,36],[61,-26],[18,24],[-40,28],[0,45],[74,-34],[-8,30],[35,8],[18,31],[32,-8],[88,-35],[28,-3],[22,45],[52,48],[-6,29],[42,2],[35,39],[20,1],[110,-29],[52,-28],[72,-71],[24,-35]],[[1632,3052],[-89,123],[-44,-7]],[[1499,3168],[-70,73],[39,39],[-194,279],[-10,32]],[[1264,3591],[34,-9],[52,34],[18,24],[7,59],[23,32],[30,5],[49,-43],[51,16],[-44,67],[30,108],[-67,70],[-15,25],[7,52],[56,-12],[49,37]],[[1831,3908],[85,-44],[-8,-34],[12,-27],[-34,-21],[14,-36],[67,-70]],[[1967,3676],[-46,-56],[13,-143],[-13,-164],[-30,-163],[42,-128]],[[1447,983],[13,-62],[-14,-41],[-28,-9],[-15,-47],[-47,-52],[0,-28]],[[1356,744],[-23,-23],[-70,-24],[-32,-32]],[[1231,665],[-51,50],[-18,6],[-4,18],[-65,-28],[-37,9],[-61,-2],[-16,39],[-46,-5],[-8,16],[-49,-16],[15,51],[-14,36],[-42,-1],[-43,74],[-55,-5],[-22,60],[-25,18],[-29,-10],[-26,15],[-41,48],[-35,76],[-29,41],[31,53],[-36,19],[-8,25],[-62,34],[-38,42],[-29,73]],[[1011,2726],[-17,286],[189,106],[316,50]],[[727,2977],[52,7],[20,19],[9,48],[-32,116],[14,61],[-28,105],[-31,22],[-1,59],[45,42],[52,20],[28,34],[10,52],[-7,71],[55,74],[22,55],[17,38],[65,39],[24,64],[26,11],[48,-14],[30,-64],[45,7],[32,-18],[56,-107],[1,-26],[-46,-52],[0,-21],[31,-28]],[[2437,2275],[401,232],[153,91],[162,137],[-13,34],[-68,12],[-29,15]],[[3442,2838],[-48,-50],[65,-170],[-36,-25],[46,-79],[17,-45],[27,9],[300,-195]],[[3813,2283],[-124,-111],[-317,-267],[-36,-26],[-66,16],[-229,37]],[[5474,5396],[-4,-406],[-6,0],[-3,-401],[-6,-138],[2,-158]],[[4749,4493],[2,291]],[[4751,4784],[-9,100],[191,303],[7,72],[37,85],[0,51]],[[4977,5395],[497,1]],[[3888,3268],[69,7],[34,-23],[4,-41],[45,-35],[44,22]],[[3945,2194],[-132,89]],[[3672,6849],[-2,-123],[0,-391]],[[3670,6335],[-134,38],[-117,3],[-30,15]],[[3389,6391],[23,30],[11,64],[30,46],[38,23],[13,64],[26,55],[-22,65],[9,46],[-39,55]],[[3478,6839],[97,10],[97,0]],[[3173,1429],[95,-71],[43,-50],[101,-106],[8,-67]],[[3082,486],[-2,2]],[[3080,488],[-407,341]],[[3670,7015],[2,-166]],[[3478,6839],[31,19],[1,72],[23,45],[-2,51],[-32,42],[-17,72],[-70,100],[58,72],[62,20],[38,-24],[100,53],[0,-346]],[[3080,488],[-5,-38],[-36,-59],[59,-80],[-34,-17],[-55,-51],[-82,-41],[-55,-7],[1,21],[-100,-26],[-131,-25],[-94,-34],[-100,-59],[-165,138],[-73,82]],[[2210,292],[89,186]],[[2299,478],[32,-24],[8,43],[-34,56],[45,24],[40,60],[63,25]],[[2355,3669],[-113,-41],[-123,54],[-57,45],[-34,-31],[-61,-20]],[[6200,3341],[-26,-30],[-35,-97],[14,-34],[-14,-58],[-48,2],[-18,-15],[-43,-90],[-14,-60],[-73,-126],[-8,-67],[-24,-33],[-27,-17],[-69,-98],[-56,-26],[-285,97],[-77,164],[-27,37],[-194,87]],[[4713,5395],[264,0]],[[4751,4784],[-77,36]],[[4674,4820],[-50,23],[-82,83],[-42,12],[-6,33],[-92,85],[-52,36],[-47,67],[-336,3],[-35,46],[-49,8]],[[3839,5396],[598,0],[276,-1]],[[4227,4694],[129,17],[45,-1],[17,-31],[107,32],[24,34],[125,75]],[[2501,2840],[110,82],[81,99]],[[3670,6028],[0,-116],[-1,-516]],[[3126,5395],[-56,70],[4,47],[64,50],[7,28],[-8,64],[10,18],[37,19],[17,28],[-33,67],[10,33],[60,-19],[22,14],[-15,65],[42,51],[-3,75],[15,59]],[[3299,6064],[371,-36]],[[2299,478],[-33,23],[-28,-4],[-49,21],[-19,38],[-90,-19],[-49,70],[-25,-12],[-83,-6],[-22,24],[-109,17],[-15,45],[-43,-13],[-30,27],[-59,-21],[-40,-35],[-43,-3],[-27,23],[-48,-12],[-26,19],[-40,-7],[-42,91],[-23,0]],[[3670,6335],[0,-307]],[[3299,6064],[4,34],[-13,57],[49,51],[0,83],[13,41],[37,61]],[[1558,80],[-3,33],[-36,46],[-72,22],[-29,-14],[-58,18],[-2,40],[-41,48],[-67,44],[-33,62],[13,33],[-7,46],[-29,65],[-32,2],[-42,31],[-8,33],[33,17],[60,52],[26,7]],[[2210,292],[-21,-41],[-42,-17],[-31,-80],[-35,1],[-41,-18],[-34,-31],[-40,3],[-9,-42],[-62,-26],[-28,-30],[-204,-11],[-14,25],[-91,55]],[[4638,1846],[-74,-151],[-93,-87],[-32,-22],[-116,-127],[-35,-16],[-42,-80],[-56,-60],[-21,-68],[-56,-85],[19,-19],[-76,-81]]],"transform":{"scale":[0.0005776814232033814,0.00046696345605216655],"translate":[-82.639054,37.201483]},"objects":{"54":{"type":"GeometryCollection","geometries":[{"arcs":[[0,1,2,3]],"type":"Polygon","properties":{"STATEFP":"54","COUNTYFP":"073","COUNTYNS":"01678557","GEOIDFQ":"0500000US54073","GEOID":"54073","NAME":"Pleasants","NAMELSAD":"Pleasants County","STUSPS":"WV","STATE_NAME":"West Virginia","LSAD":"06","ALAND":337007570,"AWATER":11468023},"id":"54073"},{"arcs":[[4,5,6,7,8,9]],"type":"Polygon","properties":{"STATEFP":"54","COUNTYFP":"001","COUNTYNS":"01696996","GEOIDFQ":"0500000US54001","GEOID":"54001","NAME":"Barbour","NAMELSAD":"Barbour County","STUSPS":"WV","STATE_NAME":"West Virginia","LSAD":"06","ALAND":883338377,"AWATER":4639586},"id":"54001"},{"arcs":[[10,11,12,13,14]],"type":"Polygon","properties":{"STATEFP":"54","COUNTYFP":"019","COUNTYNS":"01560095","GEOIDFQ":"0500000US54019","GEOID":"54019","NAME":"Fayette","NAMELSAD":"Fayette County","STUSPS":"WV","STATE_NAME":"West Virginia","LSAD":"06","ALAND":1714459787,"AWATER":17468298},"id":"54019"},{"arcs":[[15,16,17]],"type":"Polygon","properties":{"STATEFP":"54","COUNTYFP":"057","COUNTYNS":"01717890","GEOIDFQ":"0500000US54057","GEOID":"54057","NAME":"Mineral","NAMELSAD":"Mineral County","STUSPS":"WV","STATE_NAME":"West Virginia","LSAD":"06","ALAND":849209722,"AWATER":3466312},"id":"54057"},{"arcs":[[18,19,20,21,22,23]],"type":"Polygon","properties":{"STATEFP":"54","COUNTYFP":"013","COUNTYNS":"01696945","GEOIDFQ":"0500000US54013","GEOID":"54013","NAME":"Calhoun","NAMELSAD":"Calhoun County","STUSPS":"WV","STATE_NAME":"West Virginia","LSAD":"06","ALAND":723286841,"AWATER":3670131},"id":"54013"},{"arcs":[[24,25,26]],"type":"Polygon","properties":{"STATEFP":"54","COUNTYFP":"063","COUNTYNS":"01557702","GEOIDFQ":"0500000US54063","GEOID":"54063","NAME":"Monroe","NAMELSAD":"Monroe County","STUSPS":"WV","STATE_NAME":"West Virginia","LSAD":"06","ALAND":1224426897,"AWATER":2297474},"id":"54063"},{"arcs":[[27,28,29,30,31,32]],"type":"Polygon","properties":{"STATEFP":"54","COUNTYFP":"041","COUNTYNS":"01550027","GEOIDFQ":"0500000US54041","GEOID":"54041","NAME":"Lewis","NAMELSAD":"Lewis County","STUSPS":"WV","STATE_NAME":"West Virginia","LSAD":"06","ALAND":1002148944,"AWATER":7031183},"id":"54041"},{"arcs":[[-3,33,34,35,-20,36,37]],"type":"Polygon","properties":{"STATEFP":"54","COUNTYFP":"085","COUNTYNS":"01689049","GEOIDFQ":"0500000US54085","GEOID":"54085","NAME":"Ritchie","NAMELSAD":"Ritchie County","STUSPS":"WV","STATE_NAME":"West Virginia","LSAD":"06","ALAND":1170648853,"AWATER":4424613},"id":"54085"},{"arcs":[[-11,38,39,40,41,42,43,44,45]],"type":"Polygon","properties":{"STATEFP":"54","COUNTYFP":"039","COUNTYNS":"01550026","GEOIDFQ":"0500000US54039","GEOID":"54039","NAME":"Kanawha","NAMELSAD":"Kanawha County","STUSPS":"WV","STATE_NAME":"West Virginia","LSAD":"06","ALAND":2335490949,"AWATER":24050215},"id":"54039"},{"arcs":[[-4,-38,46,47,48]],"type":"Polygon","properties":{"STATEFP":"54","COUNTYFP":"107","COUNTYNS":"01560558","GEOIDFQ":"0500000US54107","GEOID":"54107","NAME":"Wood","NAMELSAD":"Wood County","STUSPS":"WV","STATE_NAME":"West Virginia","LSAD":"06","ALAND":949229786,"AWATER":26590767},"id":"54107"},{"arcs":[[49,50,51,52]],"type":"Polygon","properties":{"STATEFP":"54","COUNTYFP":"045","COUNTYNS":"01550029","GEOIDFQ":"0500000US54045","GEOID":"54045","NAME":"Logan","NAMELSAD":"Logan County","STUSPS":"WV","STATE_NAME":"West Virginia","LSAD":"06","ALAND":1173016684,"AWATER":4686506},"id":"54045"},{"arcs":[[-8,53,54,55,56,57,58]],"type":"Polygon","properties":{"STATEFP":"54","COUNTYFP":"083","COUNTYNS":"01550048","GEOIDFQ":"0500000US54083","GEOID":"54083","NAME":"Randolph","NAMELSAD":"Randolph County","STUSPS":"WV","STATE_NAME":"West Virginia","LSAD":"06","ALAND":2692810854,"AWATER":667359},"id":"54083"},{"arcs":[[59,60,61,62,63]],"type":"Polygon","properties":{"STATEFP":"54","COUNTYFP":"099","COUNTYNS":"01550056","GEOIDFQ":"0500000US54099","GEOID":"54099","NAME":"Wayne","NAMELSAD":"Wayne County","STUSPS":"WV","STATE_NAME":"West Virginia","LSAD":"06","ALAND":1310547894,"AWATER":15816947},"id":"54099"},{"arcs":[[-7,64,65,-54]],"type":"Polygon","properties":{"STATEFP":"54","COUNTYFP":"093","COUNTYNS":"01689423","GEOIDFQ":"0500000US54093","GEOID":"54093","NAME":"Tucker","NAMELSAD":"Tucker County","STUSPS":"WV","STATE_NAME":"West Virginia","LSAD":"06","ALAND":1085313660,"AWATER":5310176},"id":"54093"},{"arcs":[[66,67,68,69,70,71,72,73]],"type":"Polygon","properties":{"STATEFP":"54","COUNTYFP":"103","COUNTYNS":"01717836","GEOIDFQ":"0500000US54103","GEOID":"54103","NAME":"Wetzel","NAMELSAD":"Wetzel County","STUSPS":"WV","STATE_NAME":"West Virginia","LSAD":"06","ALAND":927402614,"AWATER":8435780},"id":"54103"},{"arcs":[[74,75,-17,76,77]],"type":"Polygon","properties":{"STATEFP":"54","COUNTYFP":"027","COUNTYNS":"01718644","GEOIDFQ":"0500000US54027","GEOID":"54027","NAME":"Hampshire","NAMELSAD":"Hampshire County","STUSPS":"WV","STATE_NAME":"West Virginia","LSAD":"06","ALAND":1658634385,"AWATER":10902108},"id":"54027"},{"arcs":[[-21,-36,78,-33,79]],"type":"Polygon","properties":{"STATEFP":"54","COUNTYFP":"021","COUNTYNS":"01689673","GEOIDFQ":"0500000US54021","GEOID":"54021","NAME":"Gilmer","NAMELSAD":"Gilmer County","STUSPS":"WV","STATE_NAME":"West Virginia","LSAD":"06","ALAND":876717619,"AWATER":4082112},"id":"54021"},{"arcs":[[-61,80,81,82,83]],"type":"Polygon","properties":{"STATEFP":"54","COUNTYFP":"011","COUNTYNS":"01550012","GEOIDFQ":"0500000US54011","GEOID":"54011","NAME":"Cabell","NAMELSAD":"Cabell County","STUSPS":"WV","STATE_NAME":"West Virginia","LSAD":"06","ALAND":727850602,"AWATER":18109393},"id":"54011"},{"arcs":[[-10,84,-29,85,-72,86,87]],"type":"Polygon","properties":{"STATEFP":"54","COUNTYFP":"033","COUNTYNS":"01718426","GEOIDFQ":"0500000US54033","GEOID":"54033","NAME":"Harrison","NAMELSAD":"Harrison County","STUSPS":"WV","STATE_NAME":"West Virginia","LSAD":"06","ALAND":1077461994,"AWATER":1313215},"id":"54033"},{"arcs":[[88,-18,89,90,-55,-66,91]],"type":"Polygon","properties":{"STATEFP":"54","COUNTYFP":"023","COUNTYNS":"01697238","GEOIDFQ":"0500000US54023","GEOID":"54023","NAME":"Grant","NAMELSAD":"Grant County","STUSPS":"WV","STATE_NAME":"West Virginia","LSAD":"06","ALAND":1236389409,"AWATER":7544477},"id":"54023"},{"arcs":[[92,93,-90,-76]],"type":"Polygon","properties":{"STATEFP":"54","COUNTYFP":"031","COUNTYNS":"01718557","GEOIDFQ":"0500000US54031","GEOID":"54031","NAME":"Hardy","NAMELSAD":"Hardy County","STUSPS":"WV","STATE_NAME":"West Virginia","LSAD":"06","ALAND":1508190145,"AWATER":5624064},"id":"54031"},{"arcs":[[-22,-80,-32,94,95,96]],"type":"Polygon","properties":{"STATEFP":"54","COUNTYFP":"007","COUNTYNS":"01550010","GEOIDFQ":"0500000US54007","GEOID":"54007","NAME":"Braxton","NAMELSAD":"Braxton County","STUSPS":"WV","STATE_NAME":"West Virginia","LSAD":"06","ALAND":1322796519,"AWATER":14344826},"id":"54007"},{"arcs":[[-40,97,98,-51,99]],"type":"Polygon","properties":{"STATEFP":"54","COUNTYFP":"005","COUNTYNS":"01550009","GEOIDFQ":"0500000US54005","GEOID":"54005","NAME":"Boone","NAMELSAD":"Boone County","STUSPS":"WV","STATE_NAME":"West Virginia","LSAD":"06","ALAND":1301131773,"AWATER":4307457},"id":"54005"},{"arcs":[[-41,-100,-50,100,-62,-84,101]],"type":"Polygon","properties":{"STATEFP":"54","COUNTYFP":"043","COUNTYNS":"01550028","GEOIDFQ":"0500000US54043","GEOID":"54043","NAME":"Lincoln","NAMELSAD":"Lincoln County","STUSPS":"WV","STATE_NAME":"West Virginia","LSAD":"06","ALAND":1132065734,"AWATER":4053591},"id":"54043"},{"arcs":[[-15,102,103,104,-98,-39]],"type":"Polygon","properties":{"STATEFP":"54","COUNTYFP":"081","COUNTYNS":"01550047","GEOIDFQ":"0500000US54081","GEOID":"54081","NAME":"Raleigh","NAMELSAD":"Raleigh County","STUSPS":"WV","STATE_NAME":"West Virginia","LSAD":"06","ALAND":1566865029,"AWATER":10389178},"id":"54081"},{"arcs":[[105,106,107,108]],"type":"Polygon","properties":{"STATEFP":"54","COUNTYFP":"003","COUNTYNS":"01550008","GEOIDFQ":"0500000US54003","GEOID":"54003","NAME":"Berkeley","NAMELSAD":"Berkeley County","STUSPS":"WV","STATE_NAME":"West Virginia","LSAD":"06","ALAND":831725082,"AWATER":1057615},"id":"54003"},{"arcs":[[-57,109,110,111,112]],"type":"Polygon","properties":{"STATEFP":"54","COUNTYFP":"075","COUNTYNS":"01550044","GEOIDFQ":"0500000US54075","GEOID":"54075","NAME":"Pocahontas","NAMELSAD":"Pocahontas County","STUSPS":"WV","STATE_NAME":"West Virginia","LSAD":"06","ALAND":2435206743,"AWATER":4094092},"id":"54075"},{"arcs":[[-2,113,-74,114,-34]],"type":"Polygon","properties":{"STATEFP":"54","COUNTYFP":"095","COUNTYNS":"01678706","GEOIDFQ":"0500000US54095","GEOID":"54095","NAME":"Tyler","NAMELSAD":"Tyler County","STUSPS":"WV","STATE_NAME":"West Virginia","LSAD":"06","ALAND":663818559,"AWATER":11382160},"id":"54095"},{"arcs":[[115,-109,116]],"type":"Polygon","properties":{"STATEFP":"54","COUNTYFP":"037","COUNTYNS":"01550025","GEOIDFQ":"0500000US54037","GEOID":"54037","NAME":"Jefferson","NAMELSAD":"Jefferson County","STUSPS":"WV","STATE_NAME":"West Virginia","LSAD":"06","ALAND":542054913,"AWATER":6150171},"id":"54037"},{"arcs":[[117,-78,118,-107]],"type":"Polygon","properties":{"STATEFP":"54","COUNTYFP":"065","COUNTYNS":"01557950","GEOIDFQ":"0500000US54065","GEOID":"54065","NAME":"Morgan","NAMELSAD":"Morgan County","STUSPS":"WV","STATE_NAME":"West Virginia","LSAD":"06","ALAND":593355928,"AWATER":1401571},"id":"54065"},{"arcs":[[-28,-79,-35,-115,-73,-86]],"type":"Polygon","properties":{"STATEFP":"54","COUNTYFP":"017","COUNTYNS":"01689476","GEOIDFQ":"0500000US54017","GEOID":"54017","NAME":"Doddridge","NAMELSAD":"Doddridge County","STUSPS":"WV","STATE_NAME":"West Virginia","LSAD":"06","ALAND":828078407,"AWATER":1950541},"id":"54017"},{"arcs":[[-43,119,120,121,-48,122,123]],"type":"Polygon","properties":{"STATEFP":"54","COUNTYFP":"035","COUNTYNS":"01559963","GEOIDFQ":"0500000US54035","GEOID":"54035","NAME":"Jackson","NAMELSAD":"Jackson County","STUSPS":"WV","STATE_NAME":"West Virginia","LSAD":"06","ALAND":1202686619,"AWATER":18827429},"id":"54035"},{"arcs":[[-53,124,125,126,-63,-101]],"type":"Polygon","properties":{"STATEFP":"54","COUNTYFP":"059","COUNTYNS":"01550036","GEOIDFQ":"0500000US54059","GEOID":"54059","NAME":"Mingo","NAMELSAD":"Mingo County","STUSPS":"WV","STATE_NAME":"West Virginia","LSAD":"06","ALAND":1095878013,"AWATER":2156358},"id":"54059"},{"arcs":[[-42,-102,-83,127,-120]],"type":"Polygon","properties":{"STATEFP":"54","COUNTYFP":"079","COUNTYNS":"01550046","GEOIDFQ":"0500000US54079","GEOID":"54079","NAME":"Putnam","NAMELSAD":"Putnam County","STUSPS":"WV","STATE_NAME":"West Virginia","LSAD":"06","ALAND":895304357,"AWATER":12224903},"id":"54079"},{"arcs":[[-82,128,-121,-128]],"type":"Polygon","properties":{"STATEFP":"54","COUNTYFP":"053","COUNTYNS":"01560254","GEOIDFQ":"0500000US54053","GEOID":"54053","NAME":"Mason","NAMELSAD":"Mason County","STUSPS":"WV","STATE_NAME":"West Virginia","LSAD":"06","ALAND":1115683497,"AWATER":36124377},"id":"54053"},{"arcs":[[-12,-46,129,-96,130,131]],"type":"Polygon","properties":{"STATEFP":"54","COUNTYFP":"067","COUNTYNS":"01550040","GEOIDFQ":"0500000US54067","GEOID":"54067","NAME":"Nicholas","NAMELSAD":"Nicholas County","STUSPS":"WV","STATE_NAME":"West Virginia","LSAD":"06","ALAND":1675312980,"AWATER":19374524},"id":"54067"},{"arcs":[[132,-92,-65,-6,133,134,135]],"type":"Polygon","properties":{"STATEFP":"54","COUNTYFP":"077","COUNTYNS":"01558642","GEOIDFQ":"0500000US54077","GEOID":"54077","NAME":"Preston","NAMELSAD":"Preston County","STUSPS":"WV","STATE_NAME":"West Virginia","LSAD":"06","ALAND":1680420302,"AWATER":6668159},"id":"54077"},{"arcs":[[-31,136,-58,-113,137,-131,-95]],"type":"Polygon","properties":{"STATEFP":"54","COUNTYFP":"101","COUNTYNS":"01550057","GEOIDFQ":"0500000US54101","GEOID":"54101","NAME":"Webster","NAMELSAD":"Webster County","STUSPS":"WV","STATE_NAME":"West Virginia","LSAD":"06","ALAND":1433479490,"AWATER":7146541},"id":"54101"},{"arcs":[[138,139,140,141]],"type":"Polygon","properties":{"STATEFP":"54","COUNTYFP":"009","COUNTYNS":"01558262","GEOIDFQ":"0500000US54009","GEOID":"54009","NAME":"Brooke","NAMELSAD":"Brooke County","STUSPS":"WV","STATE_NAME":"West Virginia","LSAD":"06","ALAND":230602296,"AWATER":8740202},"id":"54009"},{"arcs":[[-14,142,-25,143,144,-103]],"type":"Polygon","properties":{"STATEFP":"54","COUNTYFP":"089","COUNTYNS":"01557805","GEOIDFQ":"0500000US54089","GEOID":"54089","NAME":"Summers","NAMELSAD":"Summers County","STUSPS":"WV","STATE_NAME":"West Virginia","LSAD":"06","ALAND":933933880,"AWATER":18466643},"id":"54089"},{"arcs":[[145,-142,146]],"type":"Polygon","properties":{"STATEFP":"54","COUNTYFP":"029","COUNTYNS":"01560574","GEOIDFQ":"0500000US54029","GEOID":"54029","NAME":"Hancock","NAMELSAD":"Hancock County","STUSPS":"WV","STATE_NAME":"West Virginia","LSAD":"06","ALAND":213958961,"AWATER":13877476},"id":"54029"},{"arcs":[[-9,-59,-137,-30,-85]],"type":"Polygon","properties":{"STATEFP":"54","COUNTYFP":"097","COUNTYNS":"01696800","GEOIDFQ":"0500000US54097","GEOID":"54097","NAME":"Upshur","NAMELSAD":"Upshur County","STUSPS":"WV","STATE_NAME":"West Virginia","LSAD":"06","ALAND":918506902,"AWATER":302703},"id":"54097"},{"arcs":[[-104,-145,147,148,149]],"type":"Polygon","properties":{"STATEFP":"54","COUNTYFP":"055","COUNTYNS":"01557645","GEOIDFQ":"0500000US54055","GEOID":"54055","NAME":"Mercer","NAMELSAD":"Mercer County","STUSPS":"WV","STATE_NAME":"West Virginia","LSAD":"06","ALAND":1085106257,"AWATER":4442253},"id":"54055"},{"arcs":[[-19,150,-123,-47,-37]],"type":"Polygon","properties":{"STATEFP":"54","COUNTYFP":"105","COUNTYNS":"01678877","GEOIDFQ":"0500000US54105","GEOID":"54105","NAME":"Wirt","NAMELSAD":"Wirt County","STUSPS":"WV","STATE_NAME":"West Virginia","LSAD":"06","ALAND":602201075,"AWATER":5839708},"id":"54105"},{"arcs":[[-56,-91,-94,151,-110]],"type":"Polygon","properties":{"STATEFP":"54","COUNTYFP":"071","COUNTYNS":"01550042","GEOIDFQ":"0500000US54071","GEOID":"54071","NAME":"Pendleton","NAMELSAD":"Pendleton County","STUSPS":"WV","STATE_NAME":"West Virginia","LSAD":"06","ALAND":1802760302,"AWATER":5428393},"id":"54071"},{"arcs":[[152,-135,153,154,-70,155]],"type":"Polygon","properties":{"STATEFP":"54","COUNTYFP":"061","COUNTYNS":"01550037","GEOIDFQ":"0500000US54061","GEOID":"54061","NAME":"Monongalia","NAMELSAD":"Monongalia County","STUSPS":"WV","STATE_NAME":"West Virginia","LSAD":"06","ALAND":932638149,"AWATER":14986271},"id":"54061"},{"arcs":[[-5,-88,156,-154,-134]],"type":"Polygon","properties":{"STATEFP":"54","COUNTYFP":"091","COUNTYNS":"01689856","GEOIDFQ":"0500000US54091","GEOID":"54091","NAME":"Taylor","NAMELSAD":"Taylor County","STUSPS":"WV","STATE_NAME":"West Virginia","LSAD":"06","ALAND":447475054,"AWATER":7532835},"id":"54091"},{"arcs":[[-23,-97,-130,-45,157]],"type":"Polygon","properties":{"STATEFP":"54","COUNTYFP":"015","COUNTYNS":"01550014","GEOIDFQ":"0500000US54015","GEOID":"54015","NAME":"Clay","NAMELSAD":"Clay County","STUSPS":"WV","STATE_NAME":"West Virginia","LSAD":"06","ALAND":885657501,"AWATER":4822199},"id":"54015"},{"arcs":[[158,-68,159,160]],"type":"Polygon","properties":{"STATEFP":"54","COUNTYFP":"051","COUNTYNS":"01717539","GEOIDFQ":"0500000US54051","GEOID":"54051","NAME":"Marshall","NAMELSAD":"Marshall County","STUSPS":"WV","STATE_NAME":"West Virginia","LSAD":"06","ALAND":790973005,"AWATER":17384491},"id":"54051"},{"arcs":[[-52,-99,-105,-150,161,-125]],"type":"Polygon","properties":{"STATEFP":"54","COUNTYFP":"109","COUNTYNS":"01550061","GEOIDFQ":"0500000US54109","GEOID":"54109","NAME":"Wyoming","NAMELSAD":"Wyoming County","STUSPS":"WV","STATE_NAME":"West Virginia","LSAD":"06","ALAND":1293620956,"AWATER":6083278},"id":"54109"},{"arcs":[[162,-161,163,-140]],"type":"Polygon","properties":{"STATEFP":"54","COUNTYFP":"069","COUNTYNS":"01717163","GEOIDFQ":"0500000US54069","GEOID":"54069","NAME":"Ohio","NAMELSAD":"Ohio County","STUSPS":"WV","STATE_NAME":"West Virginia","LSAD":"06","ALAND":274630512,"AWATER":8266005},"id":"54069"},{"arcs":[[164,-126,-162,-149,165]],"type":"Polygon","properties":{"STATEFP":"54","COUNTYFP":"047","COUNTYNS":"01689162","GEOIDFQ":"0500000US54047","GEOID":"54047","NAME":"McDowell","NAMELSAD":"McDowell County","STUSPS":"WV","STATE_NAME":"West Virginia","LSAD":"06","ALAND":1381651949,"AWATER":3728166},"id":"54047"},{"arcs":[[-71,-155,-157,-87]],"type":"Polygon","properties":{"STATEFP":"54","COUNTYFP":"049","COUNTYNS":"01718173","GEOIDFQ":"0500000US54049","GEOID":"54049","NAME":"Marion","NAMELSAD":"Marion County","STUSPS":"WV","STATE_NAME":"West Virginia","LSAD":"06","ALAND":799749345,"AWATER":7079304},"id":"54049"},{"arcs":[[-24,-158,-44,-124,-151]],"type":"Polygon","properties":{"STATEFP":"54","COUNTYFP":"087","COUNTYNS":"01550050","GEOIDFQ":"0500000US54087","GEOID":"54087","NAME":"Roane","NAMELSAD":"Roane County","STUSPS":"WV","STATE_NAME":"West Virginia","LSAD":"06","ALAND":1252422377,"AWATER":404682},"id":"54087"},{"arcs":[[-13,-132,-138,-112,166,-26,-143]],"type":"Polygon","properties":{"STATEFP":"54","COUNTYFP":"025","COUNTYNS":"01557518","GEOIDFQ":"0500000US54025","GEOID":"54025","NAME":"Greenbrier","NAMELSAD":"Greenbrier County","STUSPS":"WV","STATE_NAME":"West Virginia","LSAD":"06","ALAND":2641319246,"AWATER":12136551},"id":"54025"}]}}}