{"type":"Topology","arcs":[[[1258,3080],[123,-1]],[[1381,3079],[0,-327],[-1,-184],[-28,-33],[-44,-20],[-6,-18],[8,-26],[-14,-11],[22,-26],[26,-10],[17,-36],[0,-23],[14,-18],[-37,-85],[12,-18]],[[1350,2244],[-24,3],[-25,29],[-38,22],[-37,51],[-27,10],[-3,24],[-20,18],[-22,3],[-66,43],[-12,21],[-30,21],[-17,11],[-18,51],[5,16],[-8,39],[-25,20],[7,36],[-12,33],[-35,37],[-80,43],[-16,19],[-30,8]],[[817,2802],[1,26],[24,61],[3,33],[12,34],[-4,22],[9,54],[10,32],[27,16],[359,0]],[[1936,6570],[33,12],[16,-11],[3,-29],[-35,-1],[-17,29]],[[1358,6239],[41,2],[85,34],[19,20],[37,-2],[35,37],[50,23],[33,5],[24,34],[29,-2],[14,-15],[55,18],[13,-7],[27,8],[3,27],[26,-3],[29,16],[6,21],[40,21],[30,38],[35,-17],[51,29],[17,16],[27,-8],[7,-31],[39,-4],[12,-36],[13,-1],[17,-30],[-20,-11],[-19,-39],[4,-17],[-51,-76],[-21,-2],[-11,-35],[-18,-12],[14,-49],[18,-34],[-16,-28],[-47,-31],[-7,-46],[-30,-40],[7,-19],[18,-4]],[[1993,5989],[3,-121],[0,-257],[-4,-62],[3,-38],[0,-152]],[[1995,5359],[-204,2],[-51,2],[-128,-1],[-254,1]],[[1358,5363],[1,127],[-1,318],[-2,145],[2,286]],[[1759,726],[21,16],[36,1],[36,-11],[13,14],[41,17],[60,44],[14,27],[24,1],[34,15],[37,7],[24,15],[23,30],[59,22],[23,39],[30,33],[23,-1]],[[2257,995],[60,20],[20,22],[44,16],[108,-18],[9,2]],[[2498,1037],[0,-121],[3,-447]],[[2501,469],[1,-212],[0,-235]],[[2502,22],[-220,2],[7,10],[-8,36],[-18,41],[-26,35],[-16,57],[-18,15],[-50,15],[-84,20],[-46,15],[-24,15],[-32,2],[-29,18],[-15,21],[-56,34],[-15,30],[-13,72],[0,31],[-17,11],[4,22],[-10,48],[-46,39],[-4,45],[4,34],[-11,36]],[[851,5364],[129,0],[368,0],[10,-1]],[[1358,5363],[0,-254],[10,-1],[1,-248],[-1,-68],[1,-189]],[[1369,4603],[-142,2],[-232,0],[-125,1]],[[870,4606],[0,125],[-2,378],[-18,1],[1,254]],[[2892,4229],[-1,253]],[[2891,4482],[126,0],[356,1],[144,-1],[3,-129]],[[3520,4353],[1,-127],[-2,-382]],[[3519,3844],[-377,1],[-251,1]],[[2891,3846],[-2,164],[-1,158],[4,61]],[[2618,1681],[152,2],[231,-2],[152,0]],[[3153,1681],[11,-40],[12,-14],[46,-13],[-15,-21],[5,-16],[56,0],[31,-10],[25,4],[19,-11],[-2,-260],[-48,-28],[-30,0],[-26,-45],[-17,-16],[0,-39]],[[3220,1172],[7,-16],[-20,-45],[-42,-18],[-32,0],[-33,-48]],[[3100,1045],[-21,-16],[-18,2],[-28,-12],[-47,7],[-51,2],[-49,-40],[-14,-31],[-20,22],[-32,-1],[-46,9],[-20,-13],[-16,10]],[[2738,984],[2,3],[1,276],[-1,292],[-121,-1]],[[2619,1554],[-1,127]],[[1381,3079],[189,0],[180,1]],[[1750,3080],[1,-255],[-1,-256],[13,0],[1,-246]],[[1764,2323],[-47,11],[-1,-14],[-31,-29],[-23,5],[-15,16],[-17,-17],[-24,7],[-33,-47],[-4,-22],[22,-49],[-105,0]],[[1486,2184],[-15,25],[-41,9],[-27,16],[-53,10]],[[1759,726],[-18,74],[-3,61],[0,71],[35,40],[25,64],[40,41],[22,38],[-28,55],[-22,32],[-23,19],[-52,28],[-22,5],[-13,25],[18,43],[-8,40]],[[1710,1362],[466,3],[80,-3]],[[2256,1362],[2,-63],[-1,-304]],[[2510,5961],[25,-49],[44,12],[19,19],[21,-21],[-3,-34],[31,4],[19,-22],[49,-3],[39,-90],[15,-8],[6,-37],[24,-55],[16,-18],[-2,-33],[194,-54]],[[3007,5572],[1,-360],[0,-105],[-117,0]],[[2891,5107],[-263,-1]],[[2628,5106],[2,127],[-3,42],[0,85],[-125,-1],[0,126],[-128,1],[3,129],[1,250],[-2,123]],[[2376,5988],[45,8],[69,-41],[20,6]],[[6158,4293],[25,-19],[-24,-10],[-1,29]],[[6030,4185],[9,21],[-8,25],[13,46],[29,-10],[53,6],[19,-20],[-6,-38],[-15,-11],[-3,-43],[-34,1],[-27,-10],[-22,8],[-8,25]],[[5602,3939],[2,21],[41,-4],[-3,-37],[-40,20]],[[5604,3195],[-146,0],[-221,2]],[[5237,3197],[19,31],[-3,39],[35,54],[24,27],[26,49],[27,36],[30,20],[23,-8],[-8,-23],[25,0],[9,28],[33,13],[15,-6],[28,36],[31,5],[22,-33],[23,-10],[0,47],[-23,28],[8,30],[24,46],[14,46],[29,41],[11,33],[23,22],[15,-10],[4,42],[19,16],[1,40],[23,80],[15,9],[54,-31],[-5,29],[29,28],[27,-2],[-3,47],[14,50],[32,-6],[10,63],[16,-15],[30,2],[25,16],[15,-4],[13,-25],[-15,-20],[-1,-71],[-20,-3],[-5,19],[-27,7],[-9,-107],[16,-15],[-21,-17],[-16,30],[-19,-18],[9,-23],[19,-7],[11,-45],[-17,-21],[-19,24],[-42,-42],[-2,-36],[-14,-44],[-25,-11],[-26,-53],[1,-30],[14,-30],[-30,-16],[-13,-28],[13,-32],[-58,-36],[-10,-12],[-12,-41],[-22,-15],[-14,-24],[-1,-25],[-16,-31],[-9,-45],[-32,-64]],[[4317,3842],[160,-1],[-5,-302],[0,-81]],[[4472,3458],[-252,2],[1,127],[-250,-1],[0,126]],[[3971,3712],[-1,130],[347,0]],[[4274,5154],[20,-39],[48,0],[13,42],[15,-16],[24,15],[25,-3],[32,8],[12,-35],[11,-6],[29,12],[42,-35],[37,24],[61,-46],[29,-13],[47,17],[13,-23],[30,1],[56,-15],[32,-23],[22,-9],[-12,-24],[5,-23],[32,-13],[-7,-16],[-57,-60],[4,-20],[22,-8],[14,-27],[37,-7]],[[4910,4812],[-1,-99],[-121,8],[-190,6],[-62,0]],[[4536,4727],[-254,1],[0,243],[1,134],[-10,2],[1,47]],[[2618,1681],[0,133]],[[2618,1814],[0,159],[-1,206],[1,255]],[[2618,2434],[-1,137]],[[2617,2571],[269,0],[148,1]],[[3034,2572],[6,-29],[-23,-17],[-4,-96],[-18,16],[-30,5],[-6,-65],[-31,-1],[3,-28],[-22,-16],[7,-64],[20,-35],[-7,-23],[33,-18],[11,-25],[12,-77],[-32,-15],[4,-25],[16,-23],[2,-28],[39,-38],[7,-25],[26,-36],[26,-19],[22,-38],[2,-31],[18,-53],[19,-36],[17,-10],[3,-41]],[[3154,1681],[-1,0]],[[5125,4727],[35,-16],[3,-16],[22,-20],[6,-20],[-42,-15],[-1,-23],[14,-13],[36,-53],[-23,-59],[-33,10],[-3,-14],[30,-31],[1,-36],[10,-20],[-21,-52],[-20,-12],[-30,-31],[13,-37],[-10,-31],[-26,-37],[47,-26],[6,10],[43,2],[37,-6],[36,41],[25,18],[36,-29],[11,-45],[-40,-60],[-19,-47],[-6,-38],[-13,-10],[-2,-35],[-16,-16],[7,-30],[28,-34],[24,-15],[23,-53],[31,-3],[40,-16],[4,-12],[-24,-19],[-15,-42],[-3,-86],[-45,-17],[-24,1],[-67,-13]],[[5210,3621],[3,35],[-126,0],[-62,4],[2,40],[-181,4],[2,127],[-72,3],[3,126],[-124,5],[0,84],[3,169],[-124,4]],[[4534,4222],[2,126],[0,379]],[[4910,4812],[66,22],[7,-38],[40,-19],[18,5],[30,-10],[20,2],[34,-47]],[[1993,5989],[17,-4],[89,55],[28,8],[84,60],[33,-15],[95,-82],[37,-23]],[[2628,5106],[-381,0]],[[2247,5106],[-250,-1],[-2,254]],[[2462,6600],[8,15],[1,48],[21,41],[42,5],[0,-26],[-13,-31],[3,-19],[-38,-39],[-24,6]],[[2412,6417],[65,31],[-25,-34],[-24,-6],[-16,9]],[[2350,6646],[30,-24],[-18,-30],[-12,54]],[[2270,6483],[18,28],[36,16],[74,23],[19,-20],[-38,-45],[-22,2],[-17,-13],[-54,-14],[-16,23]],[[2246,6533],[24,30],[21,-9],[-38,-32],[-7,11]],[[2212,6578],[10,26],[33,-7],[-26,-26],[-17,7]],[[2159,6352],[6,26],[22,32],[16,-10],[-24,-41],[-20,-7]],[[2157,6519],[25,25],[26,-9],[21,-31],[6,-28],[-49,-6],[-29,49]],[[2147,6632],[19,10],[16,-19],[-10,-26],[-20,7],[-5,28]],[[2131,6282],[59,22],[21,30],[56,33],[42,46],[14,-3],[33,-34],[-15,-14],[-30,-3],[-61,-26],[4,-30],[13,-16],[-40,-10],[-20,5],[-23,-25],[-33,-22],[-20,47]],[[3034,2572],[181,-3]],[[3215,2569],[129,-3]],[[3344,2566],[0,-386]],[[3344,2180],[1,-144],[-2,-352]],[[3343,1684],[-122,0],[-67,-3]],[[4925,2559],[158,-1],[0,128],[124,-1]],[[5207,2685],[227,1]],[[5434,2686],[1,-50],[34,-93],[1,-28],[-13,-45],[-44,-52],[-38,-19],[-48,-41],[-8,-32],[0,-44],[-28,-46],[-13,-44],[-3,-35],[-19,-36],[-14,-72]],[[5242,2049],[-316,-1]],[[4926,2048],[-2,425],[1,86]],[[4250,2],[-71,-2]],[[4179,0],[0,257],[-2,127],[2,129]],[[4179,513],[239,1]],[[4418,514],[239,-2]],[[4657,512],[-1,-126],[2,-212]],[[4658,174],[1,-170]],[[4659,4],[-339,0],[-70,-2]],[[2247,5106],[-2,-62],[2,-94],[0,-187],[-2,-159]],[[2245,4604],[-251,1],[-253,-1],[-84,1],[-288,-2]],[[3100,471],[0,64]],[[3100,535],[120,0],[185,-1],[172,-1],[0,-16]],[[3577,517],[3,-505]],[[3580,12],[-36,0],[-123,2],[-148,5],[-172,1]],[[3101,20],[0,260],[-1,191]],[[4179,0],[-166,4],[-316,5],[-117,3]],[[3577,517],[361,3]],[[3938,520],[121,-2],[120,-5]],[[2245,4604],[-1,-152],[2,-60],[-1,-169]],[[2245,4223],[-250,2],[0,-128]],[[1995,4097],[-442,0],[-185,0]],[[1368,4097],[0,180],[2,224],[-1,102]],[[120,3468],[5,20],[-11,25],[16,22],[9,43],[-4,27],[-15,24],[-2,43],[7,40],[-34,32],[-5,22],[11,20],[48,42],[-8,50],[0,46],[-15,31],[9,22]],[[131,3977],[202,1],[129,-2],[281,0]],[[743,3976],[-1,-128],[22,-1],[0,-274],[-1,-111]],[[763,3462],[-124,0],[-118,6],[-316,1],[-85,-1]],[[851,5364],[-248,-1]],[[603,5363],[1,381],[1,304],[0,57],[26,-19],[55,-2],[7,22],[29,37],[-29,18],[17,22],[43,-2],[9,34],[21,14],[28,0],[56,-59],[19,-3],[55,-35],[19,-4],[87,18],[38,-3],[30,7],[41,21],[106,37],[56,29],[40,2]],[[3220,1172],[363,2],[0,-19],[240,2],[120,3]],[[3943,1160],[0,-127]],[[3943,1033],[-3,-128],[1,-53],[-3,-332]],[[3100,535],[0,127],[0,383]],[[4353,3071],[223,-3],[144,-6]],[[4720,3062],[55,3],[0,-436],[-2,-68]],[[4773,2561],[-215,3]],[[4558,2564],[-341,-1]],[[4217,2563],[3,191],[0,317],[133,0]],[[2256,1362],[-3,190],[147,0],[219,2]],[[2738,984],[-25,13],[-43,36],[-18,-6],[-14,19],[-61,4],[-58,-14],[-21,1]],[[4534,4222],[-254,2]],[[4280,4224],[-253,0],[3,126],[-125,-1]],[[3905,4349],[-1,370],[0,261]],[[3904,4980],[0,127],[116,0],[1,134]],[[4021,5241],[83,-49],[12,-15],[58,-20],[42,16],[58,-19]],[[2501,469],[181,3],[218,-1],[200,0]],[[3101,20],[-91,0],[-150,4],[-358,-2]],[[1995,4097],[-1,-250],[3,-3],[0,-129]],[[1997,3715],[1,-254]],[[1998,3461],[-223,-1],[-394,1],[-124,-2]],[[1257,3459],[-1,387],[-15,1],[1,127]],[[1242,3974],[125,-2],[1,125]],[[870,4606],[-126,0]],[[744,4606],[1,126],[-215,0],[-165,4],[-1,-127],[-364,3]],[[0,4612],[8,32],[10,76],[21,16],[40,23],[25,29],[5,27],[22,42],[-8,23],[27,30],[6,30],[26,39],[69,55],[90,28],[2,24],[28,24],[32,-13],[27,1],[22,59],[22,15],[60,-20],[18,23],[1,21],[16,34],[34,12],[0,121]],[[1242,3974],[-165,0],[-334,2]],[[743,3976],[0,200],[1,278],[0,152]],[[3007,5572],[441,-122],[377,-105],[34,-9],[102,-60],[60,-35]],[[3904,4980],[-76,0],[-57,6],[3,-63],[-84,8],[-44,-2],[1,60],[-127,-5],[-148,1],[-480,-2]],[[2892,4983],[-1,124]],[[3943,1160],[0,127],[4,0],[-2,271],[0,112]],[[3945,1670],[123,0]],[[4068,1670],[245,0],[248,-3],[1,-128]],[[4562,1539],[-1,-254],[-18,0],[0,-129],[1,-128]],[[4544,1028],[-120,2]],[[4424,1030],[-342,3],[-139,0]],[[1258,3080],[-1,127]],[[1257,3207],[0,252]],[[1998,3461],[0,-127],[0,-255]],[[1998,3079],[-248,1]],[[1997,3715],[497,0],[121,4]],[[2615,3719],[-1,-142],[1,-50],[-2,-170],[1,-148]],[[2614,3209],[0,-381]],[[2614,2828],[-122,-3],[-372,0],[0,127],[-123,1],[1,126]],[[3519,3844],[205,-1],[1,-130]],[[3725,3713],[0,-137],[-1,-202],[1,-170]],[[3725,3204],[-125,0],[-146,6],[-241,-1],[-120,0]],[[3093,3209],[-121,0],[-358,0]],[[2615,3719],[120,0],[-1,127],[157,0]],[[4657,512],[241,2]],[[4898,514],[120,0],[127,-2]],[[5145,512],[33,-52],[37,-35],[-16,-18],[-8,-29],[3,-24],[-7,-48],[-21,-49]],[[5166,257],[-150,3],[-239,0],[1,-85],[-120,-1]],[[2617,2571],[-5,0],[2,257]],[[3093,3209],[0,-254],[120,0],[2,-223],[0,-163]],[[3725,3204],[0,-194],[-1,-447]],[[3724,2563],[-262,1],[-118,2]],[[1764,2323],[0,-13],[182,0]],[[1946,2310],[61,1],[3,-221],[-1,-285]],[[2009,1805],[-201,-1],[-151,1]],[[1657,1805],[13,72],[-18,25],[-22,81],[-28,30],[-9,30],[-38,42],[-7,26],[-22,29],[-20,14],[-20,30]],[[4217,2563],[-150,-1]],[[4067,2562],[-343,1]],[[3725,3204],[282,-3],[347,-2],[-1,-128]],[[4068,1670],[1,102],[-1,281]],[[4068,2053],[260,-1],[231,-2],[-1,66]],[[4558,2116],[247,-1],[-1,-67]],[[4804,2048],[2,-381],[-1,-129]],[[4805,1538],[-243,1]],[[2892,4229],[-252,-2],[-217,-5],[-178,1]],[[2892,4983],[-3,-117],[3,-148],[-1,-236]],[[1257,3207],[-384,0],[-109,1]],[[764,3208],[-1,254]],[[817,2802],[-42,22],[-92,24],[-27,23],[-36,29],[-25,39],[-1,23],[-14,36]],[[580,2998],[184,-2],[0,212]],[[4928,1537],[252,1]],[[5180,1538],[1,-74],[-13,-43],[-67,-111],[-13,-51],[-6,-66],[-13,-34],[-10,-49],[15,-53],[5,-33]],[[5079,1024],[-175,0]],[[4904,1024],[1,257],[23,1],[0,255]],[[1710,1362],[-24,33],[-3,21],[17,37],[-3,23],[1,17],[-16,17],[-11,37],[11,23],[1,25],[-38,49],[5,47],[-8,11],[4,80],[11,23]],[[2009,1805],[250,1],[236,-1],[123,9]],[[5170,1],[-318,5],[-86,0],[-107,-2]],[[5166,257],[-11,-47],[-2,-42],[5,-40],[2,-86],[10,-41]],[[4926,2048],[-122,0]],[[4558,2116],[0,234],[0,214]],[[4773,2561],[152,-2]],[[4418,514],[0,258],[3,158],[3,100]],[[4544,1028],[100,-2],[260,-2]],[[4904,1024],[-5,-319],[-1,-191]],[[131,3977],[7,13],[-9,45],[9,18],[-9,25],[15,25],[36,37],[11,22],[-5,25],[25,28],[16,30],[14,8],[3,63],[-6,19],[-28,14],[-22,42],[-25,32],[1,39],[-45,37],[-54,-8],[-49,9],[-13,12],[2,51],[-5,49]],[[5604,3195],[-31,-71],[-32,-32],[-15,-47],[-16,-31],[-16,-59],[-7,-50],[-10,-31],[-2,-30],[-16,-60],[0,-28],[-25,-70]],[[5207,2685],[1,298],[2,167]],[[5210,3150],[27,47]],[[1946,2310],[-1,66],[7,29],[64,33],[236,2],[240,2],[126,-8]],[[86,3298],[-3,33],[17,28],[24,78],[-4,31]],[[580,2998],[-31,24],[-69,5],[-23,-12],[-44,23],[-38,10],[-23,-11],[-29,53],[-53,17],[0,35],[-11,14],[-33,21],[-37,45],[-31,29],[-72,47]],[[3520,4353],[82,5],[223,-4],[80,-5]],[[4280,4224],[-3,-254],[43,0],[-3,-128]],[[3971,3712],[-246,1]],[[3344,2180],[90,0],[347,1]],[[3781,2181],[0,-155],[-31,0],[1,-95],[30,-2],[1,-66],[-70,4],[-9,-12],[0,-171]],[[3703,1684],[-360,0]],[[4805,1538],[123,-1]],[[5210,3621],[-51,-18],[-27,-32],[-5,-20],[14,-34],[-36,-77],[-30,-20],[-22,-43],[-17,-50],[-36,-38],[-21,-57],[2,-34],[-4,0],[-2,0]],[[4975,3198],[-140,-1],[-101,-7],[-12,11]],[[4722,3201],[-10,128],[5,125],[-245,4]],[[4068,2053],[0,129]],[[4068,2182],[0,187],[-1,193]],[[3945,1670],[-122,-2],[0,17],[-120,-1]],[[3781,2181],[287,1]],[[5242,2049],[-5,-28],[8,-32],[2,-60],[31,-69],[-14,-38],[7,-73],[-32,-70],[-48,-89],[-11,-52]],[[4720,3062],[2,139]],[[4975,3198],[-14,-46],[-6,-35],[-1,-54],[-24,-13],[5,-26],[31,-29],[33,-12],[27,-1],[15,9],[42,82],[32,40],[16,-1],[32,26],[47,12]],[[5079,1024],[11,-31],[-21,-55],[3,-18],[23,-32],[12,-41],[-31,-41],[-4,-25],[20,-49],[29,-32],[5,-56],[6,-26],[-8,-26],[4,-34],[17,-46]]],"transform":{"scale":[0.0009835353388322817,0.0006834004726333732],"translate":[-92.887067,42.4920232291027]},"objects":{"55":{"type":"GeometryCollection","geometries":[{"arcs":[[0,1,2,3]],"type":"Polygon","properties":{"STATEFP":"55","COUNTYFP":"011","COUNTYNS":"01581065","GEOIDFQ":"0500000US55011","GEOID":"55011","NAME":"Buffalo","NAMELSAD":"Buffalo County","STUSPS":"WI","STATE_NAME":"Wisconsin","LSAD":"06","ALAND":1750291803,"AWATER":87548524},"id":"55011"},{"arcs":[[[4]],[[5,6,7,8]]],"type":"MultiPolygon","properties":{"STATEFP":"55","COUNTYFP":"007","COUNTYNS":"01581063","GEOIDFQ":"0500000US55007","GEOID":"55007","NAME":"Bayfield","NAMELSAD":"Bayfield County","STUSPS":"WI","STATE_NAME":"Wisconsin","LSAD":"06","ALAND":3827695962,"AWATER":1460282026},"id":"55007"},{"arcs":[[9,10,11,12,13]],"type":"Polygon","properties":{"STATEFP":"55","COUNTYFP":"043","COUNTYNS":"01581081","GEOIDFQ":"0500000US55043","GEOID":"55043","NAME":"Grant","NAMELSAD":"Grant County","STUSPS":"WI","STATE_NAME":"Wisconsin","LSAD":"06","ALAND":2972281812,"AWATER":92642049},"id":"55043"},{"arcs":[[14,15,16,17]],"type":"Polygon","properties":{"STATEFP":"55","COUNTYFP":"129","COUNTYNS":"01581124","GEOIDFQ":"0500000US55129","GEOID":"55129","NAME":"Washburn","NAMELSAD":"Washburn County","STUSPS":"WI","STATE_NAME":"Wisconsin","LSAD":"06","ALAND":2064515984,"AWATER":145563867},"id":"55129"},{"arcs":[[18,19,20,21,22]],"type":"Polygon","properties":{"STATEFP":"55","COUNTYFP":"069","COUNTYNS":"01581094","GEOIDFQ":"0500000US55069","GEOID":"55069","NAME":"Lincoln","NAMELSAD":"Lincoln County","STUSPS":"WI","STATE_NAME":"Wisconsin","LSAD":"06","ALAND":2276025469,"AWATER":72552140},"id":"55069"},{"arcs":[[23,24,25,26,27,28]],"type":"Polygon","properties":{"STATEFP":"55","COUNTYFP":"111","COUNTYNS":"01581115","GEOIDFQ":"0500000US55111","GEOID":"55111","NAME":"Sauk","NAMELSAD":"Sauk County","STUSPS":"WI","STATE_NAME":"Wisconsin","LSAD":"06","ALAND":2153800039,"AWATER":45578932},"id":"55111"},{"arcs":[[-2,29,30,31,32]],"type":"Polygon","properties":{"STATEFP":"55","COUNTYFP":"121","COUNTYNS":"01581120","GEOIDFQ":"0500000US55121","GEOID":"55121","NAME":"Trempealeau","NAMELSAD":"Trempealeau County","STUSPS":"WI","STATE_NAME":"Wisconsin","LSAD":"06","ALAND":1898373579,"AWATER":23331635},"id":"55121"},{"arcs":[[-10,33,34,35]],"type":"Polygon","properties":{"STATEFP":"55","COUNTYFP":"023","COUNTYNS":"01581071","GEOIDFQ":"0500000US55023","GEOID":"55023","NAME":"Crawford","NAMELSAD":"Crawford County","STUSPS":"WI","STATE_NAME":"Wisconsin","LSAD":"06","ALAND":1478377402,"AWATER":73569358},"id":"55023"},{"arcs":[[36,37,38,39,40]],"type":"Polygon","properties":{"STATEFP":"55","COUNTYFP":"051","COUNTYNS":"01581085","GEOIDFQ":"0500000US55051","GEOID":"55051","NAME":"Iron","NAMELSAD":"Iron County","STUSPS":"WI","STATE_NAME":"Wisconsin","LSAD":"06","ALAND":1963763896,"AWATER":416859798},"id":"55051"},{"arcs":[[[41]],[[42]],[[43]],[[44,45]]],"type":"MultiPolygon","properties":{"STATEFP":"55","COUNTYFP":"029","COUNTYNS":"01581074","GEOIDFQ":"0500000US55029","GEOID":"55029","NAME":"Door","NAMELSAD":"Door County","STUSPS":"WI","STATE_NAME":"Wisconsin","LSAD":"06","ALAND":1248209717,"AWATER":4890672315},"id":"55029"},{"arcs":[[46,47,48]],"type":"Polygon","properties":{"STATEFP":"55","COUNTYFP":"078","COUNTYNS":"01581099","GEOIDFQ":"0500000US55078","GEOID":"55078","NAME":"Menominee","NAMELSAD":"Menominee County","STUSPS":"WI","STATE_NAME":"Wisconsin","LSAD":"06","ALAND":926217565,"AWATER":19022479},"id":"55078"},{"arcs":[[49,50,51]],"type":"Polygon","properties":{"STATEFP":"55","COUNTYFP":"037","COUNTYNS":"01581078","GEOIDFQ":"0500000US55037","GEOID":"55037","NAME":"Florence","NAMELSAD":"Florence County","STUSPS":"WI","STATE_NAME":"Wisconsin","LSAD":"06","ALAND":1263988287,"AWATER":24099863},"id":"55037"},{"arcs":[[-24,52,53,54,55,56,57]],"type":"Polygon","properties":{"STATEFP":"55","COUNTYFP":"057","COUNTYNS":"01581088","GEOIDFQ":"0500000US55057","GEOID":"55057","NAME":"Juneau","NAMELSAD":"Juneau County","STUSPS":"WI","STATE_NAME":"Wisconsin","LSAD":"06","ALAND":1986729540,"AWATER":98638538},"id":"55057"},{"arcs":[[58,59,60,-51,61]],"type":"Polygon","properties":{"STATEFP":"55","COUNTYFP":"075","COUNTYNS":"01581097","GEOIDFQ":"0500000US55075","GEOID":"55075","NAME":"Marinette","NAMELSAD":"Marinette County","STUSPS":"WI","STATE_NAME":"Wisconsin","LSAD":"06","ALAND":3624605672,"AWATER":389870112},"id":"55075"},{"arcs":[[[-7,62,-40,63,64]],[[65]],[[66]],[[67]],[[68]],[[69]],[[70]],[[71]],[[72]],[[73]],[[74]]],"type":"MultiPolygon","properties":{"STATEFP":"55","COUNTYFP":"003","COUNTYNS":"01581061","GEOIDFQ":"0500000US55003","GEOID":"55003","NAME":"Ashland","NAMELSAD":"Ashland County","STUSPS":"WI","STATE_NAME":"Wisconsin","LSAD":"06","ALAND":2706458785,"AWATER":3230728302},"id":"55003"},{"arcs":[[-57,75,76,77,78,79]],"type":"Polygon","properties":{"STATEFP":"55","COUNTYFP":"001","COUNTYNS":"01581060","GEOIDFQ":"0500000US55001","GEOID":"55001","NAME":"Adams","NAMELSAD":"Adams County","STUSPS":"WI","STATE_NAME":"Wisconsin","LSAD":"06","ALAND":1672216222,"AWATER":108348983},"id":"55001"},{"arcs":[[80,81,82,83,84]],"type":"Polygon","properties":{"STATEFP":"55","COUNTYFP":"071","COUNTYNS":"01581095","GEOIDFQ":"0500000US55071","GEOID":"55071","NAME":"Manitowoc","NAMELSAD":"Manitowoc County","STUSPS":"WI","STATE_NAME":"Wisconsin","LSAD":"06","ALAND":1526302544,"AWATER":2343337598},"id":"55071"},{"arcs":[[85,86,87,88,89,90,91]],"type":"Polygon","properties":{"STATEFP":"55","COUNTYFP":"127","COUNTYNS":"01581123","GEOIDFQ":"0500000US55127","GEOID":"55127","NAME":"Walworth","NAMELSAD":"Walworth County","STUSPS":"WI","STATE_NAME":"Wisconsin","LSAD":"06","ALAND":1438571926,"AWATER":54805475},"id":"55127"},{"arcs":[[-8,-65,92,93,-16]],"type":"Polygon","properties":{"STATEFP":"55","COUNTYFP":"113","COUNTYNS":"01581116","GEOIDFQ":"0500000US55113","GEOID":"55113","NAME":"Sawyer","NAMELSAD":"Sawyer County","STUSPS":"WI","STATE_NAME":"Wisconsin","LSAD":"06","ALAND":3257178048,"AWATER":239922217},"id":"55113"},{"arcs":[[94,95,96,97,98]],"type":"Polygon","properties":{"STATEFP":"55","COUNTYFP":"045","COUNTYNS":"01581082","GEOIDFQ":"0500000US55045","GEOID":"55045","NAME":"Green","NAMELSAD":"Green County","STUSPS":"WI","STATE_NAME":"Wisconsin","LSAD":"06","ALAND":1512667179,"AWATER":1313241},"id":"55045"},{"arcs":[[99,-97,100,101,-87]],"type":"Polygon","properties":{"STATEFP":"55","COUNTYFP":"105","COUNTYNS":"01581113","GEOIDFQ":"0500000US55105","GEOID":"55105","NAME":"Rock","NAMELSAD":"Rock County","STUSPS":"WI","STATE_NAME":"Wisconsin","LSAD":"06","ALAND":1860046351,"AWATER":20694407},"id":"55105"},{"arcs":[[-94,102,103,104,105]],"type":"Polygon","properties":{"STATEFP":"55","COUNTYFP":"107","COUNTYNS":"01581114","GEOIDFQ":"0500000US55107","GEOID":"55107","NAME":"Rusk","NAMELSAD":"Rusk County","STUSPS":"WI","STATE_NAME":"Wisconsin","LSAD":"06","ALAND":2365981774,"AWATER":44924197},"id":"55107"},{"arcs":[[106,107,108,109]],"type":"Polygon","properties":{"STATEFP":"55","COUNTYFP":"109","COUNTYNS":"01581833","GEOIDFQ":"0500000US55109","GEOID":"55109","NAME":"St. Croix","NAMELSAD":"St. Croix County","STUSPS":"WI","STATE_NAME":"Wisconsin","LSAD":"06","ALAND":1870380164,"AWATER":33740052},"id":"55109"},{"arcs":[[-9,-15,110,111]],"type":"Polygon","properties":{"STATEFP":"55","COUNTYFP":"031","COUNTYNS":"01581075","GEOIDFQ":"0500000US55031","GEOID":"55031","NAME":"Douglas","NAMELSAD":"Douglas County","STUSPS":"WI","STATE_NAME":"Wisconsin","LSAD":"06","ALAND":3378048642,"AWATER":454293036},"id":"55031"},{"arcs":[[-26,112,113,114,-101,-96,115]],"type":"Polygon","properties":{"STATEFP":"55","COUNTYFP":"025","COUNTYNS":"01581072","GEOIDFQ":"0500000US55025","GEOID":"55025","NAME":"Dane","NAMELSAD":"Dane County","STUSPS":"WI","STATE_NAME":"Wisconsin","LSAD":"06","ALAND":3098910440,"AWATER":106205817},"id":"55025"},{"arcs":[[116,117,118,119,120]],"type":"Polygon","properties":{"STATEFP":"55","COUNTYFP":"087","COUNTYNS":"01581104","GEOIDFQ":"0500000US55087","GEOID":"55087","NAME":"Outagamie","NAMELSAD":"Outagamie County","STUSPS":"WI","STATE_NAME":"Wisconsin","LSAD":"06","ALAND":1651266098,"AWATER":18260942},"id":"55087"},{"arcs":[[-11,-36,121,-28,122]],"type":"Polygon","properties":{"STATEFP":"55","COUNTYFP":"103","COUNTYNS":"01581112","GEOIDFQ":"0500000US55103","GEOID":"55103","NAME":"Richland","NAMELSAD":"Richland County","STUSPS":"WI","STATE_NAME":"Wisconsin","LSAD":"06","ALAND":1518120284,"AWATER":8153422},"id":"55103"},{"arcs":[[-52,-61,123,124,125,126,127]],"type":"Polygon","properties":{"STATEFP":"55","COUNTYFP":"041","COUNTYNS":"01581080","GEOIDFQ":"0500000US55041","GEOID":"55041","NAME":"Forest","NAMELSAD":"Forest County","STUSPS":"WI","STATE_NAME":"Wisconsin","LSAD":"06","ALAND":2626935115,"AWATER":83517439},"id":"55041"},{"arcs":[[-13,128,-99,129]],"type":"Polygon","properties":{"STATEFP":"55","COUNTYFP":"065","COUNTYNS":"01581092","GEOIDFQ":"0500000US55065","GEOID":"55065","NAME":"Lafayette","NAMELSAD":"Lafayette County","STUSPS":"WI","STATE_NAME":"Wisconsin","LSAD":"06","ALAND":1640985417,"AWATER":2539010},"id":"55065"},{"arcs":[[-105,130,131,132,133,134]],"type":"Polygon","properties":{"STATEFP":"55","COUNTYFP":"017","COUNTYNS":"01581068","GEOIDFQ":"0500000US55017","GEOID":"55017","NAME":"Chippewa","NAMELSAD":"Chippewa County","STUSPS":"WI","STATE_NAME":"Wisconsin","LSAD":"06","ALAND":2611822002,"AWATER":85039796},"id":"55017"},{"arcs":[[-18,135,136,137,-111]],"type":"Polygon","properties":{"STATEFP":"55","COUNTYFP":"013","COUNTYNS":"01581066","GEOIDFQ":"0500000US55013","GEOID":"55013","NAME":"Burnett","NAMELSAD":"Burnett County","STUSPS":"WI","STATE_NAME":"Wisconsin","LSAD":"06","ALAND":2127924507,"AWATER":151846472},"id":"55013"},{"arcs":[[-17,-106,-135,138,139,-136]],"type":"Polygon","properties":{"STATEFP":"55","COUNTYFP":"005","COUNTYNS":"01581062","GEOIDFQ":"0500000US55005","GEOID":"55005","NAME":"Barron","NAMELSAD":"Barron County","STUSPS":"WI","STATE_NAME":"Wisconsin","LSAD":"06","ALAND":2235375003,"AWATER":69100902},"id":"55005"},{"arcs":[[140,-127,141,142,-38]],"type":"Polygon","properties":{"STATEFP":"55","COUNTYFP":"125","COUNTYNS":"01581122","GEOIDFQ":"0500000US55125","GEOID":"55125","NAME":"Vilas","NAMELSAD":"Vilas County","STUSPS":"WI","STATE_NAME":"Wisconsin","LSAD":"06","ALAND":2221464775,"AWATER":414409101},"id":"55125"},{"arcs":[[-114,143,144,145,146,147,148]],"type":"Polygon","properties":{"STATEFP":"55","COUNTYFP":"027","COUNTYNS":"01581073","GEOIDFQ":"0500000US55027","GEOID":"55027","NAME":"Dodge","NAMELSAD":"Dodge County","STUSPS":"WI","STATE_NAME":"Wisconsin","LSAD":"06","ALAND":2268049932,"AWATER":81331199},"id":"55027"},{"arcs":[[-1,149,150,-133,151,152,-30]],"type":"Polygon","properties":{"STATEFP":"55","COUNTYFP":"035","COUNTYNS":"01581077","GEOIDFQ":"0500000US55035","GEOID":"55035","NAME":"Eau Claire","NAMELSAD":"Eau Claire County","STUSPS":"WI","STATE_NAME":"Wisconsin","LSAD":"06","ALAND":1652211244,"AWATER":18848551},"id":"55035"},{"arcs":[[-132,153,154,155,156,-152]],"type":"Polygon","properties":{"STATEFP":"55","COUNTYFP":"019","COUNTYNS":"01581069","GEOIDFQ":"0500000US55019","GEOID":"55019","NAME":"Clark","NAMELSAD":"Clark County","STUSPS":"WI","STATE_NAME":"Wisconsin","LSAD":"06","ALAND":3133102384,"AWATER":23238614},"id":"55019"},{"arcs":[[-22,157,158,159,160,-155,161]],"type":"Polygon","properties":{"STATEFP":"55","COUNTYFP":"073","COUNTYNS":"01581096","GEOIDFQ":"0500000US55073","GEOID":"55073","NAME":"Marathon","NAMELSAD":"Marathon County","STUSPS":"WI","STATE_NAME":"Wisconsin","LSAD":"06","ALAND":4002176367,"AWATER":80510469},"id":"55073"},{"arcs":[[-90,162,163,164,165]],"type":"Polygon","properties":{"STATEFP":"55","COUNTYFP":"101","COUNTYNS":"01581111","GEOIDFQ":"0500000US55101","GEOID":"55101","NAME":"Racine","NAMELSAD":"Racine County","STUSPS":"WI","STATE_NAME":"Wisconsin","LSAD":"06","ALAND":861465348,"AWATER":1190175268},"id":"55101"},{"arcs":[[-56,166,-156,-161,167,-76]],"type":"Polygon","properties":{"STATEFP":"55","COUNTYFP":"141","COUNTYNS":"01581130","GEOIDFQ":"0500000US55141","GEOID":"55141","NAME":"Wood","NAMELSAD":"Wood County","STUSPS":"WI","STATE_NAME":"Wisconsin","LSAD":"06","ALAND":2053933339,"AWATER":42019652},"id":"55141"},{"arcs":[[-77,-168,-160,168,169]],"type":"Polygon","properties":{"STATEFP":"55","COUNTYFP":"097","COUNTYNS":"01581109","GEOIDFQ":"0500000US55097","GEOID":"55097","NAME":"Portage","NAMELSAD":"Portage County","STUSPS":"WI","STATE_NAME":"Wisconsin","LSAD":"06","ALAND":2074252976,"AWATER":56835086},"id":"55097"},{"arcs":[[-32,170,171,172,173]],"type":"Polygon","properties":{"STATEFP":"55","COUNTYFP":"063","COUNTYNS":"01581091","GEOIDFQ":"0500000US55063","GEOID":"55063","NAME":"La Crosse","NAMELSAD":"La Crosse County","STUSPS":"WI","STATE_NAME":"Wisconsin","LSAD":"06","ALAND":1170172399,"AWATER":73153072},"id":"55063"},{"arcs":[[-121,174,175,-169,176]],"type":"Polygon","properties":{"STATEFP":"55","COUNTYFP":"135","COUNTYNS":"01581127","GEOIDFQ":"0500000US55135","GEOID":"55135","NAME":"Waupaca","NAMELSAD":"Waupaca County","STUSPS":"WI","STATE_NAME":"Wisconsin","LSAD":"06","ALAND":1936539537,"AWATER":45252052},"id":"55135"},{"arcs":[[-146,177,178,179,180,181]],"type":"Polygon","properties":{"STATEFP":"55","COUNTYFP":"039","COUNTYNS":"01581079","GEOIDFQ":"0500000US55039","GEOID":"55039","NAME":"Fond du Lac","NAMELSAD":"Fond du Lac County","STUSPS":"WI","STATE_NAME":"Wisconsin","LSAD":"06","ALAND":1863667253,"AWATER":119853822},"id":"55039"},{"arcs":[[-19,182,-103,-93,-64,-39,-143,183]],"type":"Polygon","properties":{"STATEFP":"55","COUNTYFP":"099","COUNTYNS":"01581110","GEOIDFQ":"0500000US55099","GEOID":"55099","NAME":"Price","NAMELSAD":"Price County","STUSPS":"WI","STATE_NAME":"Wisconsin","LSAD":"06","ALAND":3247997114,"AWATER":62089703},"id":"55099"},{"arcs":[[-109,-139,-134,-151,184,185]],"type":"Polygon","properties":{"STATEFP":"55","COUNTYFP":"033","COUNTYNS":"01581076","GEOIDFQ":"0500000US55033","GEOID":"55033","NAME":"Dunn","NAMELSAD":"Dunn County","STUSPS":"WI","STATE_NAME":"Wisconsin","LSAD":"06","ALAND":2201904315,"AWATER":35571132},"id":"55033"},{"arcs":[[-23,-162,-154,-131,-104,-183]],"type":"Polygon","properties":{"STATEFP":"55","COUNTYFP":"119","COUNTYNS":"01581119","GEOIDFQ":"0500000US55119","GEOID":"55119","NAME":"Taylor","NAMELSAD":"Taylor County","STUSPS":"WI","STATE_NAME":"Wisconsin","LSAD":"06","ALAND":2525374173,"AWATER":24630990},"id":"55119"},{"arcs":[[-4,186,187,-185,-150]],"type":"Polygon","properties":{"STATEFP":"55","COUNTYFP":"091","COUNTYNS":"01581106","GEOIDFQ":"0500000US55091","GEOID":"55091","NAME":"Pepin","NAMELSAD":"Pepin County","STUSPS":"WI","STATE_NAME":"Wisconsin","LSAD":"06","ALAND":600897662,"AWATER":43238263},"id":"55091"},{"arcs":[[188,189,190,191]],"type":"Polygon","properties":{"STATEFP":"55","COUNTYFP":"089","COUNTYNS":"01581105","GEOIDFQ":"0500000US55089","GEOID":"55089","NAME":"Ozaukee","NAMELSAD":"Ozaukee County","STUSPS":"WI","STATE_NAME":"Wisconsin","LSAD":"06","ALAND":603495165,"AWATER":2287434584},"id":"55089"},{"arcs":[[-29,-122,-35,192,-173,193,-53]],"type":"Polygon","properties":{"STATEFP":"55","COUNTYFP":"123","COUNTYNS":"01581121","GEOIDFQ":"0500000US55123","GEOID":"55123","NAME":"Vernon","NAMELSAD":"Vernon County","STUSPS":"WI","STATE_NAME":"Wisconsin","LSAD":"06","ALAND":2050138652,"AWATER":64286576},"id":"55123"},{"arcs":[[194,-91,-166,195]],"type":"Polygon","properties":{"STATEFP":"55","COUNTYFP":"059","COUNTYNS":"01581089","GEOIDFQ":"0500000US55059","GEOID":"55059","NAME":"Kenosha","NAMELSAD":"Kenosha County","STUSPS":"WI","STATE_NAME":"Wisconsin","LSAD":"06","ALAND":704044386,"AWATER":1248872159},"id":"55059"},{"arcs":[[-85,196,-180,197,-119,198]],"type":"Polygon","properties":{"STATEFP":"55","COUNTYFP":"015","COUNTYNS":"01581067","GEOIDFQ":"0500000US55015","GEOID":"55015","NAME":"Calumet","NAMELSAD":"Calumet County","STUSPS":"WI","STATE_NAME":"Wisconsin","LSAD":"06","ALAND":824263567,"AWATER":204161559},"id":"55015"},{"arcs":[[-89,199,-148,200,201,-163]],"type":"Polygon","properties":{"STATEFP":"55","COUNTYFP":"133","COUNTYNS":"01581126","GEOIDFQ":"0500000US55133","GEOID":"55133","NAME":"Waukesha","NAMELSAD":"Waukesha County","STUSPS":"WI","STATE_NAME":"Wisconsin","LSAD":"06","ALAND":1423787374,"AWATER":79799940},"id":"55133"},{"arcs":[[202,-137,-140,-108]],"type":"Polygon","properties":{"STATEFP":"55","COUNTYFP":"095","COUNTYNS":"01581108","GEOIDFQ":"0500000US55095","GEOID":"55095","NAME":"Polk","NAMELSAD":"Polk County","STUSPS":"WI","STATE_NAME":"Wisconsin","LSAD":"06","ALAND":2368075604,"AWATER":109027908},"id":"55095"},{"arcs":[[-88,-102,-115,-149,-200]],"type":"Polygon","properties":{"STATEFP":"55","COUNTYFP":"055","COUNTYNS":"01581087","GEOIDFQ":"0500000US55055","GEOID":"55055","NAME":"Jefferson","NAMELSAD":"Jefferson County","STUSPS":"WI","STATE_NAME":"Wisconsin","LSAD":"06","ALAND":1441311671,"AWATER":67982467},"id":"55055"},{"arcs":[[-45,203,-82,204,205]],"type":"Polygon","properties":{"STATEFP":"55","COUNTYFP":"061","COUNTYNS":"01581090","GEOIDFQ":"0500000US55061","GEOID":"55061","NAME":"Kewaunee","NAMELSAD":"Kewaunee County","STUSPS":"WI","STATE_NAME":"Wisconsin","LSAD":"06","ALAND":886948865,"AWATER":1921339190},"id":"55061"},{"arcs":[[-12,-123,-27,-116,-95,-129]],"type":"Polygon","properties":{"STATEFP":"55","COUNTYFP":"049","COUNTYNS":"01581084","GEOIDFQ":"0500000US55049","GEOID":"55049","NAME":"Iowa","NAMELSAD":"Iowa County","STUSPS":"WI","STATE_NAME":"Wisconsin","LSAD":"06","ALAND":1975379613,"AWATER":13870580},"id":"55049"},{"arcs":[[-54,-194,-172,206]],"type":"Polygon","properties":{"STATEFP":"55","COUNTYFP":"081","COUNTYNS":"01581101","GEOIDFQ":"0500000US55081","GEOID":"55081","NAME":"Monroe","NAMELSAD":"Monroe County","STUSPS":"WI","STATE_NAME":"Wisconsin","LSAD":"06","ALAND":2333329779,"AWATER":18586766},"id":"55081"},{"arcs":[[-31,-153,-157,-167,-55,-207,-171]],"type":"Polygon","properties":{"STATEFP":"55","COUNTYFP":"053","COUNTYNS":"01581086","GEOIDFQ":"0500000US55053","GEOID":"55053","NAME":"Jackson","NAMELSAD":"Jackson County","STUSPS":"WI","STATE_NAME":"Wisconsin","LSAD":"06","ALAND":2558687749,"AWATER":32538319},"id":"55053"},{"arcs":[[207,-110,-186,-188,208]],"type":"Polygon","properties":{"STATEFP":"55","COUNTYFP":"093","COUNTYNS":"01581107","GEOIDFQ":"0500000US55093","GEOID":"55093","NAME":"Pierce","NAMELSAD":"Pierce County","STUSPS":"WI","STATE_NAME":"Wisconsin","LSAD":"06","ALAND":1486700535,"AWATER":48452323},"id":"55093"},{"arcs":[[-21,209,-125,210,-49,211,-158]],"type":"Polygon","properties":{"STATEFP":"55","COUNTYFP":"067","COUNTYNS":"01581093","GEOIDFQ":"0500000US55067","GEOID":"55067","NAME":"Langlade","NAMELSAD":"Langlade County","STUSPS":"WI","STATE_NAME":"Wisconsin","LSAD":"06","ALAND":2255076043,"AWATER":44299597},"id":"55067"},{"arcs":[[-79,212,213,214]],"type":"Polygon","properties":{"STATEFP":"55","COUNTYFP":"077","COUNTYNS":"01581098","GEOIDFQ":"0500000US55077","GEOID":"55077","NAME":"Marquette","NAMELSAD":"Marquette County","STUSPS":"WI","STATE_NAME":"Wisconsin","LSAD":"06","ALAND":1180274245,"AWATER":22683972},"id":"55077"},{"arcs":[[-147,-182,215,-192,-201]],"type":"Polygon","properties":{"STATEFP":"55","COUNTYFP":"131","COUNTYNS":"01581125","GEOIDFQ":"0500000US55131","GEOID":"55131","NAME":"Washington","NAMELSAD":"Washington County","STUSPS":"WI","STATE_NAME":"Wisconsin","LSAD":"06","ALAND":1115362169,"AWATER":12999404},"id":"55131"},{"arcs":[[-47,-211,-124,-60,216,217,218]],"type":"Polygon","properties":{"STATEFP":"55","COUNTYFP":"083","COUNTYNS":"01581102","GEOIDFQ":"0500000US55083","GEOID":"55083","NAME":"Oconto","NAMELSAD":"Oconto County","STUSPS":"WI","STATE_NAME":"Wisconsin","LSAD":"06","ALAND":2583460781,"AWATER":392042283},"id":"55083"},{"arcs":[[-120,-198,-179,219,220,-175]],"type":"Polygon","properties":{"STATEFP":"55","COUNTYFP":"139","COUNTYNS":"01581129","GEOIDFQ":"0500000US55139","GEOID":"55139","NAME":"Winnebago","NAMELSAD":"Winnebago County","STUSPS":"WI","STATE_NAME":"Wisconsin","LSAD":"06","ALAND":1125861111,"AWATER":372630362},"id":"55139"},{"arcs":[[-145,221,-214,222,-220,-178]],"type":"Polygon","properties":{"STATEFP":"55","COUNTYFP":"047","COUNTYNS":"01581083","GEOIDFQ":"0500000US55047","GEOID":"55047","NAME":"Green Lake","NAMELSAD":"Green Lake County","STUSPS":"WI","STATE_NAME":"Wisconsin","LSAD":"06","ALAND":905306441,"AWATER":79210988},"id":"55047"},{"arcs":[[-84,223,-189,-216,-181,-197]],"type":"Polygon","properties":{"STATEFP":"55","COUNTYFP":"117","COUNTYNS":"01581118","GEOIDFQ":"0500000US55117","GEOID":"55117","NAME":"Sheboygan","NAMELSAD":"Sheboygan County","STUSPS":"WI","STATE_NAME":"Wisconsin","LSAD":"06","ALAND":1324828373,"AWATER":1967670376},"id":"55117"},{"arcs":[[-81,-199,-118,224,-218,225,-205]],"type":"Polygon","properties":{"STATEFP":"55","COUNTYFP":"009","COUNTYNS":"01581064","GEOIDFQ":"0500000US55009","GEOID":"55009","NAME":"Brown","NAMELSAD":"Brown County","STUSPS":"WI","STATE_NAME":"Wisconsin","LSAD":"06","ALAND":1372941329,"AWATER":221800795},"id":"55009"},{"arcs":[[-78,-170,-176,-221,-223,-213]],"type":"Polygon","properties":{"STATEFP":"55","COUNTYFP":"137","COUNTYNS":"01581128","GEOIDFQ":"0500000US55137","GEOID":"55137","NAME":"Waushara","NAMELSAD":"Waushara County","STUSPS":"WI","STATE_NAME":"Wisconsin","LSAD":"06","ALAND":1621749747,"AWATER":29096948},"id":"55137"},{"arcs":[[-20,-184,-142,-126,-210]],"type":"Polygon","properties":{"STATEFP":"55","COUNTYFP":"085","COUNTYNS":"01581103","GEOIDFQ":"0500000US55085","GEOID":"55085","NAME":"Oneida","NAMELSAD":"Oneida County","STUSPS":"WI","STATE_NAME":"Wisconsin","LSAD":"06","ALAND":2885105535,"AWATER":317599630},"id":"55085"},{"arcs":[[-48,-219,-225,-117,-177,-159,-212]],"type":"Polygon","properties":{"STATEFP":"55","COUNTYFP":"115","COUNTYNS":"01581117","GEOIDFQ":"0500000US55115","GEOID":"55115","NAME":"Shawano","NAMELSAD":"Shawano County","STUSPS":"WI","STATE_NAME":"Wisconsin","LSAD":"06","ALAND":2313441782,"AWATER":41883029},"id":"55115"},{"arcs":[[-25,-58,-80,-215,-222,-144,-113]],"type":"Polygon","properties":{"STATEFP":"55","COUNTYFP":"021","COUNTYNS":"01581070","GEOIDFQ":"0500000US55021","GEOID":"55021","NAME":"Columbia","NAMELSAD":"Columbia County","STUSPS":"WI","STATE_NAME":"Wisconsin","LSAD":"06","ALAND":1982894137,"AWATER":78697071},"id":"55021"},{"arcs":[[-164,-202,-191,226]],"type":"Polygon","properties":{"STATEFP":"55","COUNTYFP":"079","COUNTYNS":"01581100","GEOIDFQ":"0500000US55079","GEOID":"55079","NAME":"Milwaukee","NAMELSAD":"Milwaukee County","STUSPS":"WI","STATE_NAME":"Wisconsin","LSAD":"06","ALAND":625371986,"AWATER":2455452227},"id":"55079"}]}}}