{"type":"Topology","arcs":[[[1604,3582],[70,0],[175,0],[222,0]],[[2071,3582],[20,-13],[3,-19],[-3,-28],[19,-17],[-8,-36],[22,-26],[-1,-18],[11,-6],[-10,-25],[13,-1],[22,-15],[16,-1],[9,-51],[8,2],[20,-10],[18,-22],[34,16],[16,-3],[14,-11],[16,-3],[0,-11],[14,-29],[22,7],[17,-27],[17,-6],[12,5],[8,-11],[13,-3],[13,-17],[3,-15]],[[2429,3188],[10,-16],[13,-1],[5,-15],[18,-25],[-1,-33],[39,-18],[26,7],[2,-42],[13,3],[7,-9],[-11,-31],[8,-21],[19,-10],[-2,-141]],[[2575,2836],[-150,2],[-204,-2],[-25,2],[-265,0],[-281,0]],[[1650,2838],[-15,0],[0,315],[-12,0],[0,314],[-19,0],[0,115]],[[314,2004],[0,50],[154,0],[0,77],[189,0],[0,78],[4,0]],[[661,2209],[196,-2],[0,-87],[14,1],[16,7],[9,-7],[-2,-32],[17,-19],[-1,-11],[-12,-29],[10,-14],[4,-18],[-3,-12],[10,-11],[3,-24],[16,-24],[7,-21],[19,-10],[26,-42],[-5,-18],[5,-32],[33,-1],[7,-14],[21,-6],[4,-16],[14,-2],[14,-12],[8,-13],[19,5],[16,-23],[11,-39],[9,-18],[22,-8],[9,-21],[14,-16],[22,-6],[-15,-20],[13,-15],[14,7],[11,-15],[20,-7],[1,-14],[10,-16],[-2,-14],[41,-1],[2,-232],[17,0],[0,-152]],[[1325,1135],[-301,0],[-164,2],[-200,4]],[[660,1141],[-101,0],[0,5],[-144,0],[0,3],[-77,-2],[-1,153],[-31,0],[1,46],[-1,188],[-22,0],[0,62],[24,0],[-1,233],[0,77],[7,0],[0,98]],[[2071,3582],[189,0],[93,1],[235,-1],[28,-3],[132,-1],[207,-1],[203,-1],[157,0]],[[3315,3576],[1,-112],[6,-9],[-1,-135],[3,-15],[1,-113]],[[3325,3192],[-112,-2],[-164,0],[0,-5],[-155,1],[-219,1],[-86,0],[-160,1]],[[1,3283],[-1,300],[6,0],[168,0],[57,-8],[170,1],[26,5],[54,1],[26,-3],[67,0],[51,6],[185,0],[18,-1],[132,0],[195,3],[131,0],[13,-6],[305,1]],[[1650,2838],[0,-79]],[[1650,2759],[-159,0],[0,-79],[-82,-1],[3,-77],[-119,0],[-1,-78],[-26,-1],[-92,0],[-26,-2]],[[1148,2521],[-6,18],[-9,7],[-21,1],[-8,36],[-13,1],[-9,22],[-14,5],[-5,14],[-20,2],[-10,15],[-11,-9],[-18,9],[-7,11],[-17,-6],[-13,-15],[-9,10],[-8,-19],[-19,-5],[-8,-14],[1,-18],[-13,-16],[4,-20],[-43,-12],[-39,-26],[-43,22],[0,18],[20,6],[-2,18],[8,5],[-21,17],[-1,19],[-15,6],[10,13],[-16,6],[-27,-3],[-24,17],[-23,-14],[-5,16],[-11,11],[-10,21],[-13,5]],[[660,2695],[0,111],[-44,0],[-4,22],[5,37],[-10,37],[-6,13],[0,16],[-5,16],[-16,13],[-10,-4],[-13,13],[5,12],[-16,12],[-2,29],[-16,15],[-1,13],[-21,13],[-7,11],[6,17],[-2,17],[6,8],[4,34],[-15,12],[6,11],[-12,10],[-34,0],[-10,13],[0,13],[-193,0],[0,74],[-254,0]],[[661,2209],[0,247],[-1,66],[0,173]],[[1148,2521],[19,-10],[14,-25],[18,-10],[27,-48],[15,-9],[0,-72],[157,0],[0,-13],[79,1],[0,-27],[78,0],[0,-39],[78,1],[0,-27],[79,0],[0,-26],[79,0],[-1,-13],[120,0],[0,10],[370,2],[0,26]],[[2280,2242],[40,0]],[[2320,2242],[0,-26],[11,0],[1,-232],[0,-76],[9,0],[0,-227],[1,-83],[-28,0],[1,-311],[13,0]],[[2328,1287],[0,-154]],[[2328,1133],[-74,0],[-323,1],[-141,1],[-237,-1],[-228,1]],[[4613,3198],[0,-226],[0,-123]],[[4613,2849],[-267,0],[-408,-4]],[[3938,2845],[-3,36],[0,188],[1,90],[-2,13],[0,219],[6,0],[0,191]],[[3940,3582],[25,0],[268,-1],[243,-1],[135,0],[2,-110],[0,-272]],[[2575,2836],[12,0],[1,-236],[0,-77],[9,0],[0,-233],[2,-49]],[[2599,2241],[-79,1],[-200,0]],[[2280,2242],[0,129],[-80,0],[0,78],[-158,0],[0,76],[-144,1],[-16,10],[9,16],[-82,-2],[0,51],[-79,0],[2,79],[-41,0],[-1,79],[-40,0]],[[2599,2241],[0,-7],[275,-1],[117,0],[46,1],[243,1]],[[3280,2235],[3,-19],[0,-309],[-2,0],[2,-230],[0,-82],[-2,-54],[1,-216],[-1,-39]],[[3281,1286],[-110,1],[-252,-3],[-247,3],[-344,0]],[[660,1141],[-1,-236],[5,0],[-1,-383]],[[663,522],[-9,-1],[-184,1],[-160,1],[-304,0]],[[6,523],[-1,179],[0,198],[0,311],[0,148],[2,186],[0,266],[0,265]],[[7,2076],[76,0],[0,-2],[76,0],[0,-70],[155,0]],[[3280,2235],[40,1]],[[3320,2236],[219,1],[157,0],[242,2]],[[3938,2239],[118,1]],[[4056,2240],[2,-117],[0,-212],[-1,-12],[1,-197],[-1,-103],[4,0],[0,-155]],[[4061,1444],[-120,-1],[-139,-2],[1,-156]],[[3803,1285],[-32,0],[-13,-24],[-6,-25],[2,-52],[-13,0],[2,-26],[-94,0],[-30,7],[-24,0],[-9,6],[-1,66],[26,-1],[0,26],[13,0],[0,22],[-258,1],[-83,1]],[[3283,1286],[-2,0]],[[4613,2243],[0,-22],[1,-214],[1,-213],[0,-220],[0,-128]],[[4615,1446],[-133,0],[-123,-2],[-113,-1],[-29,1]],[[4217,1444],[-143,0],[-13,0]],[[4056,2240],[100,2],[328,1],[129,0]],[[3325,3192],[-3,-39],[-2,-193],[0,-121],[4,0],[1,-124],[0,-187],[-5,0],[-1,-176],[1,-116]],[[4217,1444],[1,-210],[0,-225],[1,-277],[0,-143]],[[4219,589],[-125,0],[-179,3],[-108,0]],[[3807,592],[0,76],[4,0],[0,219],[-1,91],[-5,0],[0,243],[-2,64]],[[4615,509],[0,-153],[-1,-211],[0,-139],[-273,0],[-137,0],[-176,-3],[-220,0]],[[3808,3],[-1,42],[-2,256],[1,57],[2,3],[-1,231]],[[4219,589],[0,-79],[124,-1],[272,0]],[[3808,3],[-295,-1],[-222,0],[-85,1],[-86,1]],[[3120,4],[-1,354],[75,-1],[92,1],[-2,121],[-1,254],[0,156],[-1,87],[1,310]],[[663,3],[-125,-2],[-173,-1],[-26,1],[-139,1],[-195,1],[0,227],[1,293]],[[663,522],[0,-102],[0,-210],[0,-207]],[[4613,2814],[0,-258],[0,-313]],[[3938,2239],[-1,4],[0,212],[0,78],[1,312]],[[4613,2849],[0,-35]],[[3315,3576],[64,0],[10,6],[187,0],[170,0],[194,0]],[[3120,4],[-88,3],[-266,0],[-94,1],[-209,-1],[-203,0],[-193,0]],[[2067,7],[1,354],[-9,0],[0,234],[101,-2],[176,0],[0,74],[3,0],[1,311],[-12,0],[0,155]],[[2067,7],[-84,0],[-135,-2],[-165,0],[-253,0],[-109,0],[-132,1],[-165,-2],[-116,-1],[-213,-1],[-32,1]],[[4615,629],[0,-120]],[[4615,1446],[-1,-100],[1,-214],[0,-231],[0,-272]],[[1,3115],[0,168]],[[7,2076],[-1,165],[-1,282],[0,150],[-1,32],[-1,299],[1,107],[-3,4]]],"transform":{"scale":[0.001517284595250704,0.0011182238639531638],"translate":[-111.054556,40.994746]},"objects":{"56":{"type":"GeometryCollection","geometries":[{"arcs":[[0,1,2,3,4]],"type":"Polygon","properties":{"STATEFP":"56","COUNTYFP":"003","COUNTYNS":"01605067","GEOIDFQ":"0500000US56003","GEOID":"56003","NAME":"Big Horn","NAMELSAD":"Big Horn County","STUSPS":"WY","STATE_NAME":"Wyoming","LSAD":"06","ALAND":8124681754,"AWATER":55228617},"id":"56003"},{"arcs":[[5,6,7,8]],"type":"Polygon","properties":{"STATEFP":"56","COUNTYFP":"035","COUNTYNS":"01605082","GEOIDFQ":"0500000US56035","GEOID":"56035","NAME":"Sublette","NAMELSAD":"Sublette County","STUSPS":"WY","STATE_NAME":"Wyoming","LSAD":"06","ALAND":12655929028,"AWATER":127353627},"id":"56035"},{"arcs":[[-2,9,10,11]],"type":"Polygon","properties":{"STATEFP":"56","COUNTYFP":"033","COUNTYNS":"01605081","GEOIDFQ":"0500000US56033","GEOID":"56033","NAME":"Sheridan","NAMELSAD":"Sheridan County","STUSPS":"WY","STATE_NAME":"Wyoming","LSAD":"06","ALAND":6535473446,"AWATER":7987952},"id":"56033"},{"arcs":[[12,-5,13,14,15,16]],"type":"Polygon","properties":{"STATEFP":"56","COUNTYFP":"029","COUNTYNS":"01605079","GEOIDFQ":"0500000US56029","GEOID":"56029","NAME":"Park","NAMELSAD":"Park County","STUSPS":"WY","STATE_NAME":"Wyoming","LSAD":"06","ALAND":17972027719,"AWATER":67638744},"id":"56029"},{"arcs":[[-7,17,-16,18,19,20,21,22]],"type":"Polygon","properties":{"STATEFP":"56","COUNTYFP":"013","COUNTYNS":"01605072","GEOIDFQ":"0500000US56013","GEOID":"56013","NAME":"Fremont","NAMELSAD":"Fremont County","STUSPS":"WY","STATE_NAME":"Wyoming","LSAD":"06","ALAND":23785405223,"AWATER":212752232},"id":"56013"},{"arcs":[[23,24,25,26]],"type":"Polygon","properties":{"STATEFP":"56","COUNTYFP":"011","COUNTYNS":"01605071","GEOIDFQ":"0500000US56011","GEOID":"56011","NAME":"Crook","NAMELSAD":"Crook County","STUSPS":"WY","STATE_NAME":"Wyoming","LSAD":"06","ALAND":7393068925,"AWATER":28186052},"id":"56011"},{"arcs":[[-4,27,28,-20,29,-14]],"type":"Polygon","properties":{"STATEFP":"56","COUNTYFP":"043","COUNTYNS":"01605085","GEOIDFQ":"0500000US56043","GEOID":"56043","NAME":"Washakie","NAMELSAD":"Washakie County","STUSPS":"WY","STATE_NAME":"Wyoming","LSAD":"06","ALAND":5798152465,"AWATER":10415890},"id":"56043"},{"arcs":[[-21,-29,30,31,32]],"type":"Polygon","properties":{"STATEFP":"56","COUNTYFP":"025","COUNTYNS":"01605077","GEOIDFQ":"0500000US56025","GEOID":"56025","NAME":"Natrona","NAMELSAD":"Natrona County","STUSPS":"WY","STATE_NAME":"Wyoming","LSAD":"06","ALAND":13831927724,"AWATER":90969877},"id":"56025"},{"arcs":[[-9,33,34,35,36]],"type":"Polygon","properties":{"STATEFP":"56","COUNTYFP":"023","COUNTYNS":"01605076","GEOIDFQ":"0500000US56023","GEOID":"56023","NAME":"Lincoln","NAMELSAD":"Lincoln County","STUSPS":"WY","STATE_NAME":"Wyoming","LSAD":"06","ALAND":10555073814,"AWATER":49947329},"id":"56023"},{"arcs":[[-15,-30,-19]],"type":"Polygon","properties":{"STATEFP":"56","COUNTYFP":"017","COUNTYNS":"01605074","GEOIDFQ":"0500000US56017","GEOID":"56017","NAME":"Hot Springs","NAMELSAD":"Hot Springs County","STUSPS":"WY","STATE_NAME":"Wyoming","LSAD":"06","ALAND":5191453508,"AWATER":5100560},"id":"56017"},{"arcs":[[-32,37,38,39,40,41,42,43]],"type":"Polygon","properties":{"STATEFP":"56","COUNTYFP":"009","COUNTYNS":"01605070","GEOIDFQ":"0500000US56009","GEOID":"56009","NAME":"Converse","NAMELSAD":"Converse County","STUSPS":"WY","STATE_NAME":"Wyoming","LSAD":"06","ALAND":11020383701,"AWATER":26070602},"id":"56009"},{"arcs":[[44,45,46,-41,47]],"type":"Polygon","properties":{"STATEFP":"56","COUNTYFP":"027","COUNTYNS":"01605078","GEOIDFQ":"0500000US56027","GEOID":"56027","NAME":"Niobrara","NAMELSAD":"Niobrara County","STUSPS":"WY","STATE_NAME":"Wyoming","LSAD":"06","ALAND":6801380681,"AWATER":4969450},"id":"56027"},{"arcs":[[-3,-12,48,-38,-31,-28]],"type":"Polygon","properties":{"STATEFP":"56","COUNTYFP":"019","COUNTYNS":"01609191","GEOIDFQ":"0500000US56019","GEOID":"56019","NAME":"Johnson","NAMELSAD":"Johnson County","STUSPS":"WY","STATE_NAME":"Wyoming","LSAD":"06","ALAND":10759204100,"AWATER":52952166},"id":"56019"},{"arcs":[[-42,-47,49,50,51]],"type":"Polygon","properties":{"STATEFP":"56","COUNTYFP":"031","COUNTYNS":"01605080","GEOIDFQ":"0500000US56031","GEOID":"56031","NAME":"Platte","NAMELSAD":"Platte County","STUSPS":"WY","STATE_NAME":"Wyoming","LSAD":"06","ALAND":5390953603,"AWATER":76102036},"id":"56031"},{"arcs":[[52,53,-51,54]],"type":"Polygon","properties":{"STATEFP":"56","COUNTYFP":"021","COUNTYNS":"01605075","GEOIDFQ":"0500000US56021","GEOID":"56021","NAME":"Laramie","NAMELSAD":"Laramie County","STUSPS":"WY","STATE_NAME":"Wyoming","LSAD":"06","ALAND":6956355027,"AWATER":4348084},"id":"56021"},{"arcs":[[55,56,-43,-52,-54]],"type":"Polygon","properties":{"STATEFP":"56","COUNTYFP":"001","COUNTYNS":"01605066","GEOIDFQ":"0500000US56001","GEOID":"56001","NAME":"Albany","NAMELSAD":"Albany County","STUSPS":"WY","STATE_NAME":"Wyoming","LSAD":"06","ALAND":11070062783,"AWATER":89554047},"id":"56001"},{"arcs":[[57,-35,58]],"type":"Polygon","properties":{"STATEFP":"56","COUNTYFP":"041","COUNTYNS":"01605084","GEOIDFQ":"0500000US56041","GEOID":"56041","NAME":"Uinta","NAMELSAD":"Uinta County","STUSPS":"WY","STATE_NAME":"Wyoming","LSAD":"06","ALAND":5391645106,"AWATER":16612478},"id":"56041"},{"arcs":[[59,-48,-40,60,-25,61]],"type":"Polygon","properties":{"STATEFP":"56","COUNTYFP":"045","COUNTYNS":"01605086","GEOIDFQ":"0500000US56045","GEOID":"56045","NAME":"Weston","NAMELSAD":"Weston County","STUSPS":"WY","STATE_NAME":"Wyoming","LSAD":"06","ALAND":6210804121,"AWATER":5225499},"id":"56045"},{"arcs":[[-11,62,-26,-61,-39,-49]],"type":"Polygon","properties":{"STATEFP":"56","COUNTYFP":"005","COUNTYNS":"01605068","GEOIDFQ":"0500000US56005","GEOID":"56005","NAME":"Campbell","NAMELSAD":"Campbell County","STUSPS":"WY","STATE_NAME":"Wyoming","LSAD":"06","ALAND":12437291865,"AWATER":11010427},"id":"56005"},{"arcs":[[63,64,-22,-33,-44,-57]],"type":"Polygon","properties":{"STATEFP":"56","COUNTYFP":"007","COUNTYNS":"01605069","GEOIDFQ":"0500000US56007","GEOID":"56007","NAME":"Carbon","NAMELSAD":"Carbon County","STUSPS":"WY","STATE_NAME":"Wyoming","LSAD":"06","ALAND":20455066971,"AWATER":171534271},"id":"56007"},{"arcs":[[-8,-23,-65,65,-59,-34]],"type":"Polygon","properties":{"STATEFP":"56","COUNTYFP":"037","COUNTYNS":"01609192","GEOIDFQ":"0500000US56037","GEOID":"56037","NAME":"Sweetwater","NAMELSAD":"Sweetwater County","STUSPS":"WY","STATE_NAME":"Wyoming","LSAD":"06","ALAND":27005754381,"AWATER":166230249},"id":"56037"},{"arcs":[[66,-55,-50,-46,67]],"type":"Polygon","properties":{"STATEFP":"56","COUNTYFP":"015","COUNTYNS":"01605073","GEOIDFQ":"0500000US56015","GEOID":"56015","NAME":"Goshen","NAMELSAD":"Goshen County","STUSPS":"WY","STATE_NAME":"Wyoming","LSAD":"06","ALAND":5764310968,"AWATER":16969719},"id":"56015"},{"arcs":[[68,-17,-18,-6,-37,69]],"type":"Polygon","properties":{"STATEFP":"56","COUNTYFP":"039","COUNTYNS":"01605083","GEOIDFQ":"0500000US56039","GEOID":"56039","NAME":"Teton","NAMELSAD":"Teton County","STUSPS":"WY","STATE_NAME":"Wyoming","LSAD":"06","ALAND":10351781982,"AWATER":570867194},"id":"56039"}]}}}